{"version":0.6,"generator":"Overpass API 0.7.61.5 4133829e","osm3s":{"timestamp_osm_base":"2023-08-13T10:58:14Z","copyright":"The data included in this document is from www.openstreetmap.org. The data is made available under ODbL."},"elements":[{"type":"node","id":251082983,"lat":37.9931743,"lon":23.7301714,"tags":{"int_name":"Victoria","name":"\u0392\u03b9\u03ba\u03c4\u03ce\u03c1\u03b9\u03b1","name:de":"Viktoria","name:el":"\u0392\u03b9\u03ba\u03c4\u03ce\u03c1\u03b9\u03b1","name:en":"Victoria","name:fr":"Victoria","name:ru":"\u0412\u0438\u043a\u0442\u043e\u0440\u0438\u044f","network":"\u039c\u03b5\u03c4\u03c1\u03cc \u0391\u03b8\u03ae\u03bd\u03b1\u03c2","operator":"\u03a3\u03a4\u0391\u03a3\u03a5","public_transport":"station","railway":"station","station":"subway","subway":"yes","wikidata":"Q786830","wikipedia":"el:\u03a3\u03c4\u03b1\u03b8\u03bc\u03cc\u03c2 \u0392\u03b9\u03ba\u03c4\u03c9\u03c1\u03af\u03b1\u03c2 (\u039c\u03b5\u03c4\u03c1\u03cc \u0391\u03b8\u03ae\u03bd\u03b1\u03c2)"}},{"type":"node","id":961484520,"lat":37.9930313,"lon":23.7302168,"tags":{"crossing":"traffic_signals","highway":"crossing"}},{"type":"node","id":961484763,"lat":37.9931259,"lon":23.7297769,"tags":{"natural":"tree"}},{"type":"node","id":961484893,"lat":37.9929938,"lon":23.7302074,"tags":{"highway":"traffic_signals"}},{"type":"node","id":961484959,"lat":37.9931793,"lon":23.7297882,"tags":{"natural":"tree"}},{"type":"node","id":1240862068,"lat":37.9931094,"lon":23.7300346,"tags":{"int_name":"Victoria","name":"\u0392\u03b9\u03ba\u03c4\u03ce\u03c1\u03b9\u03b1","name:de":"Viktoria","name:el":"\u0392\u03b9\u03ba\u03c4\u03ce\u03c1\u03b9\u03b1","name:en":"Victoria","name:fr":"Victoria","name:ru":"\u0412\u0438\u043a\u0442\u043e\u0440\u0438\u044f","railway":"subway_entrance","wheelchair":"yes"}},{"type":"node","id":1240865344,"lat":37.9929456,"lon":23.7301953,"tags":{"amenity":"taxi","name":"Victoria Taxi station"}},{"type":"node","id":1240970386,"lat":37.9930606,"lon":23.7300878,"tags":{"amenity":"recycling","recycling:clothes":"yes","recycling:shoes":"yes","recycling_type":"container"}},{"type":"node","id":1240970389,"lat":37.9931574,"lon":23.7300897,"tags":{"amenity":"recycling","recycling:paper":"yes"}},{"type":"node","id":1609046913,"lat":37.9930814,"lon":23.7304312,"tags":{"name":"Victoria","railway":"subway_entrance","wheelchair":"yes"}},{"type":"node","id":1628331654,"lat":37.9926475,"lon":23.7299886,"tags":{"addr:city":"\u0391\u03b8\u03ae\u03bd\u03b1","addr:country":"GR","addr:housenumber":"87","addr:postcode":"10434","addr:street":"3\u03b7\u03c2 \u03a3\u03b5\u03c0\u03c4\u03b5\u03bc\u03b2\u03c1\u03af\u03bf\u03c5"}},{"type":"node","id":1628331683,"lat":37.9927394,"lon":23.7303449,"tags":{"addr:city":"\u0391\u03b8\u03ae\u03bd\u03b1","addr:country":"GR","addr:housenumber":"92","addr:postcode":"10434","addr:street":"3\u03b7\u03c2 \u03a3\u03b5\u03c0\u03c4\u03b5\u03bc\u03b2\u03c1\u03af\u03bf\u03c5"}},{"type":"node","id":2786688589,"lat":37.9927376,"lon":23.7301431,"tags":{"bus":"yes","highway":"bus_stop","name":"\u03a0\u039b. \u0392\u0399\u039a\u03a4\u03a9\u03a1\u0399\u0391\u03a3","network":"\u039f\u0391\u03a3\u0391","network:el":"\u039f\u0391\u03a3\u0391","network:en":"OASA","network:wikidata":"Q1814382","operator":"\u039f\u0391\u03a3\u0391","passenger_information_display":"no","public_transport":"stop_position","ref":"060427","shelter":"yes"}},{"type":"node","id":2878357283,"lat":37.9931203,"lon":23.7303919,"tags":{"addr:city":"\u0391\u03b8\u03ae\u03bd\u03b1","addr:country":"GR","addr:housenumber":"16","addr:postcode":"10434","addr:street":"\u03a7\u03ad\u03c5\u03b4\u03b5\u03bd","name":"Perfect toys","shop":"toys"}},{"type":"node","id":4378084435,"lat":37.9932315,"lon":23.7301008,"tags":{"addr:city":"\u0391\u03b8\u03ae\u03bd\u03b1","addr:street":"3\u03b7\u03c2 \u03a3\u03b5\u03c0\u03c4\u03b5\u03bc\u03b2\u03c1\u03af\u03bf\u03c5","shop":"kiosk"}},{"type":"node","id":4378084901,"lat":37.9928479,"lon":23.729968,"tags":{"addr:city":"\u0391\u03b8\u03ae\u03bd\u03b1","addr:street":"3\u03b7\u03c2 \u03a3\u03b5\u03c0\u03c4\u03b5\u03bc\u03b2\u03c1\u03af\u03bf\u03c5","name:signed":"no","shop":"kiosk"}},{"type":"node","id":4738002360,"lat":37.9928603,"lon":23.7303196,"tags":{"addr:city":"\u0391\u03b8\u03ae\u03bd\u03b1","addr:housenumber":"94","addr:street":"3\u03b7\u03c2 \u03a3\u03b5\u03c0\u03c4\u03b5\u03bc\u03b2\u03c1\u03af\u03bf\u03c5","amenity":"cafe","brand":"Coffee Island","brand:wikidata":"Q60867333","brand:wikipedia":"en:Coffee Island","cuisine":"coffee_shop","name":"Coffee Island","takeaway":"yes"}},{"type":"node","id":5162658695,"lat":37.9926869,"lon":23.7304688,"tags":{"addr:housenumber":"14","addr:street":"\u0393\u03ba\u03c5\u03b9\u03bb\u03c6\u03cc\u03c1\u03b4\u03bf\u03c5","amenity":"social_facility","fixme":"might be on nearby building. The type of social facility might have to be updated too","name":"Victoria Social Centre","operator":"En Red Sos Refugiados","social_facility":"soup_kitchen","social_facility:for":"refugees"}},{"type":"node","id":5396738077,"lat":37.9926913,"lon":23.7301483,"tags":{"int_name":"Victoria","name":"\u0392\u03b9\u03ba\u03c4\u03ce\u03c1\u03b9\u03b1","name:de":"Viktoria","name:el":"\u0392\u03b9\u03ba\u03c4\u03ce\u03c1\u03b9\u03b1","name:en":"Victoria","name:fr":"Victoria","name:ru":"\u0412\u0438\u043a\u0442\u043e\u0440\u0438\u044f","public_transport":"stop_position","railway":"stop","subway":"yes","wheelchair":"yes"}},{"type":"node","id":5585718886,"lat":37.9925686,"lon":23.7303647,"tags":{"addr:city":"\u0391\u03b8\u03ae\u03bd\u03b1","addr:housenumber":"11","addr:street":"\u0393\u03ba\u03c5\u03b9\u03bb\u03c6\u03cc\u03c1\u03b4\u03bf\u03c5"}},{"type":"node","id":5688986909,"lat":37.9927398,"lon":23.7300061,"tags":{"addr:city":"\u0391\u03b8\u03ae\u03bd\u03b1","name":"\u0391\u03c4\u03c4\u03b9\u03ba\u03ac \u0391\u03c1\u03c4\u03bf\u03c0\u03bf\u03b9\u03b5\u03af\u03b1","shop":"bakery"}},{"type":"node","id":6155383369,"lat":37.9925741,"lon":23.7299848,"tags":{"addr:city":"\u0391\u03b8\u03ae\u03bd\u03b1","addr:housenumber":"85","addr:street":"3\u03b7\u03c2 \u03a3\u03b5\u03c0\u03c4\u03b5\u03bc\u03b2\u03c1\u03af\u03bf\u03c5","amenity":"cafe","name":"Coffee Orange"}},{"type":"node","id":6328534602,"lat":37.9930709,"lon":23.7304834,"tags":{"access":"yes","amenity":"bicycle_parking","bicycle_parking":"stands","capacity":"5","covered":"no","fee":"no"}},{"type":"node","id":6893044742,"lat":37.9929174,"lon":23.7303336,"tags":{"addr:city":"\u0391\u03b8\u03ae\u03bd\u03b1","addr:housenumber":"94","addr:street":"3\u03b7\u03c2 \u03a3\u03b5\u03c0\u03c4\u03b5\u03bc\u03b2\u03c1\u03af\u03bf\u03c5","amenity":"fast_food","drive_through":"no","name":"\u039a\u03bf\u03c5\u03bb\u03bf\u03c5\u03c1\u03ac\u03b4\u03b5\u03c2"}},{"type":"node","id":7140785118,"lat":37.9927537,"lon":23.7298807,"tags":{"addr:city":"\u0391\u03b8\u03ae\u03bd\u03b1","addr:housenumber":"3","addr:street":"\u03a0\u03bb\u03b1\u03c4\u03b5\u03af\u03b1 \u039a\u03c5\u03c1\u03b9\u03b1\u03ba\u03bf\u03cd","amenity":"cafe"}},{"type":"node","id":7501395969,"lat":37.9927623,"lon":23.7298041,"tags":{"addr:city":"\u0391\u03b8\u03ae\u03bd\u03b1","addr:housenumber":"3","addr:street":"\u03a0\u03bb\u03b1\u03c4\u03b5\u03af\u03b1 \u0392\u03b9\u03ba\u03c4\u03c9\u03c1\u03af\u03b1\u03c2","name":"Cut N' Go","shop":"hairdresser"}},{"type":"node","id":7684407286,"lat":37.9929343,"lon":23.7305966,"tags":{"addr:housenumber":"15","addr:street":"\u03a7\u03ad\u03c5\u03b4\u03b5\u03bd","amenity":"fast_food","cuisine":"souvlaki","int_name":"To kalamaki tis kyras Sofias","name":"\u03a4\u03bf \u03ba\u03b1\u03bb\u03b1\u03bc\u03ac\u03ba\u03b9 \u03c4\u03b7\u03c2 \u03ba\u03c5\u03c1\u03ac\u03c2 \u03a3\u03bf\u03c6\u03af\u03b1\u03c2","name:el":"\u03a4\u03bf \u03ba\u03b1\u03bb\u03b1\u03bc\u03ac\u03ba\u03b9 \u03c4\u03b7\u03c2 \u03ba\u03c5\u03c1\u03ac\u03c2 \u03a3\u03bf\u03c6\u03af\u03b1\u03c2","name:en":"Sofia's Kalamaki","note":"\u0394\u03b5\u03bd \u03b5\u03af\u03bc\u03b1\u03b9 \u03c3\u03af\u03b3\u03bf\u03c5\u03c1\u03bf\u03c2 \u03b3\u03b9\u03b1 \u03c4\u03bf \u03b1\u03b3\u03b3\u03bb\u03b9\u03ba\u03cc \u03cc\u03bd\u03bf\u03bc\u03b1 (name:en) \u03b1\u03bb\u03bb\u03ac \u03b4\u03b5\u03bd \u03bc\u03c0\u03bf\u03c1\u03ce \u03bd\u03b1 \u03c3\u03ba\u03b5\u03c6\u03c4\u03ce \u03c4\u03af\u03c0\u03bf\u03c4\u03b1 \u03ba\u03b1\u03bb\u03cd\u03c4\u03b5\u03c1\u03bf. \u0388\u03c7\u03c9 \u03b5\u03c0\u03af\u03c3\u03b7\u03c2 \u03c0\u03c1\u03bf\u03c3\u03b8\u03ad\u03c3\u03b5\u03b9 \u03c4\u03b7 \u03bc\u03b5\u03c4\u03b1\u03b3\u03c1\u03b1\u03c6\u03ae \u03c3\u03b5 \u039b\u03b1\u03c4\u03b9\u03bd\u03b9\u03ba\u03bf\u03cd\u03c2 \u03c7\u03b1\u03c1\u03b1\u03ba\u03c4\u03ae\u03c1\u03b5\u03c2 \u03c3\u03b5 \u03c0\u03b5\u03c1\u03af\u03c0\u03c4\u03c9\u03c3\u03b7 \u03c0\u03bf\u03c5 \u03b5\u03af\u03bd\u03b1\u03b9 \u03b7 \u03c0\u03b9\u03bf \u03c3\u03c9\u03c3\u03c4\u03ae \u03ba\u03af\u03bd\u03b7\u03c3\u03b7."}},{"type":"node","id":8926959311,"lat":37.9927332,"lon":23.7301846,"tags":{"bus":"yes","highway":"bus_stop","name":"\u03a0\u039b. \u0392\u0399\u039a\u03a4\u03a9\u03a1\u0399\u0391\u03a3","public_transport":"platform","ref":"060427","route_ref":"054"}},{"type":"node","id":9919286044,"lat":37.9925865,"lon":23.7302423,"tags":{"shop":"convenience"}},{"type":"node","id":10218243242,"lat":37.992888,"lon":23.7304037,"tags":{"addr:city":"\u0391\u03b8\u03ae\u03bd\u03b1","addr:housenumber":"94","addr:street":"3\u03b7\u03c2 \u03a3\u03b5\u03c0\u03c4\u03b5\u03bc\u03b2\u03c1\u03af\u03bf\u03c5"}},{"type":"node","id":10218254361,"lat":37.9928348,"lon":23.7300571,"tags":{"amenity":"post_box","colour":"yellow","drive_through":"no","operator":"\u0395\u03bb\u03bb\u03b7\u03bd\u03b9\u03ba\u03ac \u03a4\u03b1\u03c7\u03c5\u03b4\u03c1\u03bf\u03bc\u03b5\u03af\u03b1","operator:el":"\u0395\u03bb\u03bb\u03b7\u03bd\u03b9\u03ba\u03ac \u03a4\u03b1\u03c7\u03c5\u03b4\u03c1\u03bf\u03bc\u03b5\u03af\u03b1","operator:en":"Hellenic Post","operator:wikidata":"Q1275135","short_name":"\u0395\u039b\u03a4\u0391"}},{"type":"node","id":10600929441,"lat":37.9926637,"lon":23.7301933,"tags":{"highway":"crossing"}},{"type":"node","id":10827820728,"lat":37.9931954,"lon":23.730416,"tags":{"addr:city":"\u0391\u03b8\u03ae\u03bd\u03b1","addr:housenumber":"96","addr:street":"3\u03b7\u03c2 \u03a3\u03b5\u03c0\u03c4\u03b5\u03bc\u03b2\u03c1\u03af\u03bf\u03c5"}}]}