{"version":0.6,"generator":"Overpass API 0.7.61.5 4133829e","osm3s":{"timestamp_osm_base":"2023-08-16T11:25:12Z","copyright":"The data included in this document is from www.openstreetmap.org. The data is made available under ODbL."},"elements":[{"type":"node","id":960915891,"lat":37.9980165,"lon":23.722769,"tags":{"railway":"buffer_stop"}},{"type":"node","id":1749680551,"lat":37.9977721,"lon":23.7235671,"tags":{"addr:city":"\u0391\u03b8\u03ae\u03bd\u03b1","addr:country":"GR","addr:housenumber":"119","addr:postcode":"10446","addr:street":"\u03a0\u03b9\u03c0\u03af\u03bd\u03bf\u03c5"}},{"type":"node","id":1749680553,"lat":37.997785,"lon":23.7234228,"tags":{"addr:city":"\u0391\u03b8\u03ae\u03bd\u03b1","addr:country":"GR","addr:housenumber":"121","addr:postcode":"10446","addr:street":"\u03a0\u03b9\u03c0\u03af\u03bd\u03bf\u03c5"}},{"type":"node","id":1749680555,"lat":37.9979552,"lon":23.7235841,"tags":{"addr:city":"\u0391\u03b8\u03ae\u03bd\u03b1","addr:country":"GR","addr:housenumber":"124","addr:postcode":"10446","addr:street":"\u03a0\u03b9\u03c0\u03af\u03bd\u03bf\u03c5"}},{"type":"node","id":1749680556,"lat":37.9979694,"lon":23.7234281,"tags":{"addr:city":"\u0391\u03b8\u03ae\u03bd\u03b1","addr:country":"GR","addr:housenumber":"126","addr:postcode":"10446","addr:street":"\u03a0\u03b9\u03c0\u03af\u03bd\u03bf\u03c5"}},{"type":"node","id":1749680569,"lat":37.9980131,"lon":23.723379,"tags":{"addr:city":"\u0391\u03b8\u03ae\u03bd\u03b1","addr:country":"GR","addr:housenumber":"32","addr:postcode":"10446","addr:street":"\u0391\u03b4\u03bc\u03ae\u03c4\u03bf\u03c5"}},{"type":"node","id":5454252234,"lat":37.9977887,"lon":23.7233518,"tags":{"addr:city":"\u0391\u03b8\u03ae\u03bd\u03b1","addr:housenumber":"30","addr:street":"\u0391\u03b4\u03bc\u03ae\u03c4\u03bf\u03c5","amenity":"fuel","brand":"Revoil","brand:wikidata":"Q62530755","name":"REVOIL","operator":"\u0391\u03a6\u039f\u0399 \u0392. & \u039c. \u0393\u039a\u0399\u039a\u0391 \u039f.\u0395."}},{"type":"node","id":7248573203,"lat":37.9978786,"lon":23.7233021,"tags":{"highway":"stop"}}]}