{"version":0.6,"generator":"Overpass API 0.7.61.5 4133829e","osm3s":{"timestamp_osm_base":"2023-08-16T11:30:26Z","copyright":"The data included in this document is from www.openstreetmap.org. The data is made available under ODbL."},"elements":[{"type":"node","id":250922136,"lat":37.9934181,"lon":23.7229411,"tags":{"button_operated":"no","crossing":"traffic_signals","crossing:island":"no","highway":"crossing","traffic_signals:sound":"no","traffic_signals:vibration":"no"}},{"type":"node","id":961068483,"lat":37.9934915,"lon":23.7228488,"tags":{"button_operated":"no","crossing":"traffic_signals","highway":"crossing","traffic_signals:sound":"no","traffic_signals:vibration":"no"}},{"type":"node","id":961068493,"lat":37.9934813,"lon":23.7230398,"tags":{"button_operated":"no","crossing":"traffic_signals","highway":"crossing","traffic_signals:sound":"no","traffic_signals:vibration":"no"}},{"type":"node","id":1659513171,"lat":37.9928937,"lon":23.722969,"tags":{"addr:city":"\u0391\u03b8\u03ae\u03bd\u03b1","addr:country":"GR","addr:housenumber":"79","addr:postcode":"10440","addr:street":"\u039b\u03b9\u03bf\u03c3\u03af\u03c9\u03bd"}},{"type":"node","id":1659513180,"lat":37.9930446,"lon":23.7229318,"tags":{"addr:city":"\u0391\u03b8\u03ae\u03bd\u03b1","addr:country":"GR","addr:housenumber":"81","addr:postcode":"10440","addr:street":"\u039b\u03b9\u03bf\u03c3\u03af\u03c9\u03bd"}},{"type":"node","id":1659513194,"lat":37.9928738,"lon":23.7232214,"tags":{"addr:city":"\u0391\u03b8\u03ae\u03bd\u03b1","addr:country":"GR","addr:housenumber":"82","addr:postcode":"10440","addr:street":"\u039b\u03b9\u03bf\u03c3\u03af\u03c9\u03bd"}},{"type":"node","id":1659513196,"lat":37.9932188,"lon":23.7228826,"tags":{"addr:city":"\u0391\u03b8\u03ae\u03bd\u03b1","addr:country":"GR","addr:housenumber":"83","addr:postcode":"10440","addr:street":"\u039b\u03b9\u03bf\u03c3\u03af\u03c9\u03bd"}},{"type":"node","id":1659513210,"lat":37.9933745,"lon":23.722832,"tags":{"addr:city":"\u0391\u03b8\u03ae\u03bd\u03b1","addr:country":"GR","addr:housenumber":"85","addr:postcode":"10440","addr:street":"\u039b\u03b9\u03bf\u03c3\u03af\u03c9\u03bd"}},{"type":"node","id":1659513234,"lat":37.9933254,"lon":23.7230672,"tags":{"addr:city":"\u0391\u03b8\u03ae\u03bd\u03b1","addr:country":"GR","addr:housenumber":"90","addr:postcode":"10440","addr:street":"\u039b\u03b9\u03bf\u03c3\u03af\u03c9\u03bd"}},{"type":"node","id":2517499192,"lat":37.992889,"lon":23.7234677,"tags":{"addr:city":"\u0391\u03b8\u03ae\u03bd\u03b1","addr:country":"GR","addr:housenumber":"1","addr:postcode":"10440","addr:street":"\u0391\u03c1\u03b9\u03c3\u03c4\u03bf\u03bc\u03ad\u03bd\u03bf\u03c5\u03c2"}},{"type":"node","id":2517499238,"lat":37.9933808,"lon":23.7235045,"tags":{"addr:city":"\u0391\u03b8\u03ae\u03bd\u03b1","addr:country":"GR","addr:housenumber":"13","addr:postcode":"10440","addr:street":"\u0391\u03c1\u03b9\u03c3\u03c4\u03bf\u03bc\u03ad\u03bd\u03bf\u03c5\u03c2"}},{"type":"node","id":5610306561,"lat":37.9933705,"lon":23.7229544,"tags":{"highway":"traffic_signals","traffic_signals":"signal","traffic_signals:direction":"forward"}},{"type":"node","id":5610306562,"lat":37.9934817,"lon":23.7230672,"tags":{"highway":"traffic_signals","traffic_signals":"signal"}},{"type":"node","id":6568793032,"lat":37.993407,"lon":23.722807,"tags":{"addr:city":"\u0391\u03b8\u03ae\u03bd\u03b1","addr:housenumber":"45","addr:street":"\u03a0\u03b1\u03b9\u03c9\u03bd\u03af\u03bf\u03c5"}},{"type":"node","id":6568794209,"lat":37.9933762,"lon":23.7234018,"tags":{"addr:city":"\u0391\u03b8\u03ae\u03bd\u03b1","addr:housenumber":"37","addr:street":"\u03a0\u03b1\u03b9\u03c9\u03bd\u03af\u03bf\u03c5"}},{"type":"node","id":6568794210,"lat":37.9934015,"lon":23.7232194,"tags":{"addr:city":"\u0391\u03b8\u03ae\u03bd\u03b1","addr:housenumber":"43","addr:street":"\u03a0\u03b1\u03b9\u03c9\u03bd\u03af\u03bf\u03c5"}},{"type":"node","id":6568805707,"lat":37.9933518,"lon":23.7233042,"tags":{"addr:city":"\u0391\u03b8\u03ae\u03bd\u03b1","addr:housenumber":"37","addr:street":"\u03a0\u03b1\u03b9\u03c9\u03bd\u03af\u03bf\u03c5","name":"Mobiletrade.gr","phone":"2117155419","shop":"mobile_phone","website":"https:\/\/mobiletrade.gr\/"}},{"type":"node","id":7343063364,"lat":37.9931106,"lon":23.7229304,"tags":{"direction":"forward","highway":"stop"}},{"type":"node","id":10616882412,"lat":37.9933855,"lon":23.7231186,"tags":{"addr:city":"\u0391\u03b8\u03ae\u03bd\u03b1","addr:housenumber":"43","addr:street":"\u03a0\u03b1\u03b9\u03c9\u03bd\u03af\u03bf\u03c5","amenity":"restaurant","cuisine":"greek","name":"\u039d\u03ac\u03be\u03bf\u03c2"}}]}