{"version":0.6,"generator":"Overpass API 0.7.61.5 4133829e","osm3s":{"timestamp_osm_base":"2023-08-16T11:10:44Z","copyright":"The data included in this document is from www.openstreetmap.org. The data is made available under ODbL."},"elements":[{"type":"node","id":961043877,"lat":37.9966362,"lon":23.7324549,"tags":{"crossing":"marked","crossing:markings":"yes","highway":"crossing"}},{"type":"node","id":961043889,"lat":37.9968511,"lon":23.7325076,"tags":{"highway":"traffic_signals"}},{"type":"node","id":961043939,"lat":37.9962367,"lon":23.7324753,"tags":{"highway":"traffic_signals"}},{"type":"node","id":961043952,"lat":37.9962828,"lon":23.7324865,"tags":{"crossing":"marked","crossing:markings":"yes","highway":"crossing"}},{"type":"node","id":961043970,"lat":37.9966185,"lon":23.7325686,"tags":{"crossing":"marked","crossing:markings":"yes","highway":"crossing"}},{"type":"node","id":961044089,"lat":37.9962985,"lon":23.7323724,"tags":{"crossing":"marked","crossing:markings":"yes","highway":"crossing"}},{"type":"node","id":1609046683,"lat":37.9968174,"lon":23.73235,"tags":{"name":"idol","shop":"clothes"}},{"type":"node","id":1749680564,"lat":37.9967954,"lon":23.7328213,"tags":{"addr:city":"\u0391\u03b8\u03ae\u03bd\u03b1","addr:country":"GR","addr:housenumber":"24","addr:postcode":"11257","addr:street":"\u03a0\u03b9\u03c0\u03af\u03bd\u03bf\u03c5","shop":"convenience"}},{"type":"node","id":1749680565,"lat":37.9966246,"lon":23.7329307,"tags":{"addr:city":"\u0391\u03b8\u03ae\u03bd\u03b1","addr:country":"GR","addr:housenumber":"25","addr:postcode":"11257","addr:street":"\u03a0\u03b9\u03c0\u03af\u03bd\u03bf\u03c5"}},{"type":"node","id":1749680566,"lat":37.9968505,"lon":23.732216,"tags":{"addr:city":"\u0391\u03b8\u03ae\u03bd\u03b1","addr:country":"GR","addr:housenumber":"26","addr:postcode":"11251","addr:street":"\u03a0\u03b9\u03c0\u03af\u03bd\u03bf\u03c5"}},{"type":"node","id":4376613248,"lat":37.9968538,"lon":23.7327595,"tags":{"disused:shop":"optician"}},{"type":"node","id":4376627777,"lat":37.9962444,"lon":23.732608,"tags":{"addr:city":"\u0391\u03b8\u03ae\u03bd\u03b1","addr:country":"GR","addr:housenumber":"102-106","addr:postcode":"11257","addr:street":"28\u03b7\u03c2 \u039f\u03ba\u03c4\u03c9\u03b2\u03c1\u03af\u03bf\u03c5","brand":"\u0393\u03b5\u03c1\u03bc\u03b1\u03bd\u03cc\u03c2","brand:wikidata":"Q9267542","name":"\u0393\u03b5\u03c1\u03bc\u03b1\u03bd\u03cc\u03c2","name:el":"\u0393\u03b5\u03c1\u03bc\u03b1\u03bd\u03cc\u03c2","name:en":"Germanos","shop":"mobile_phone"}},{"type":"node","id":4376627845,"lat":37.9966597,"lon":23.7326899,"tags":{"addr:city":"\u0391\u03b8\u03ae\u03bd\u03b1","addr:housenumber":"110","addr:street":"28\u03b7\u03c2 \u039f\u03ba\u03c4\u03c9\u03b2\u03c1\u03af\u03bf\u03c5","name":"Incontri-GEOX","shop":"clothes"}},{"type":"node","id":4940563923,"lat":37.9965794,"lon":23.7322459,"tags":{"name":"Ayan","shop":"convenience"}},{"type":"node","id":5251285470,"lat":37.9968204,"lon":23.7327529,"tags":{"addr:city":"\u0391\u03b8\u03ae\u03bd\u03b1","addr:housenumber":"112","addr:street":"\u03a0\u03b1\u03c4\u03b7\u03c3\u03af\u03c9\u03bd","clothes":"women","name":"Corso Moda","shop":"clothes"}},{"type":"node","id":5595385462,"lat":37.9964138,"lon":23.7322109,"tags":{"clothes":"men","name":"Kasmir","shop":"clothes"}},{"type":"node","id":5608025414,"lat":37.9966811,"lon":23.7322919,"tags":{"addr:city":"\u0391\u03b8\u03ae\u03bd\u03b1","addr:housenumber":"115","addr:street":"28\u03b7\u03c2 \u039f\u03ba\u03c4\u03c9\u03b2\u03c1\u03af\u03bf\u03c5","clothes":"women;men","name":"Luxury","shop":"clothes"}},{"type":"node","id":5664870926,"lat":37.9967146,"lon":23.7326969,"tags":{"highway":"traffic_signals","traffic_signals":"signal"}},{"type":"node","id":5664870927,"lat":37.9965804,"lon":23.7325593,"tags":{"highway":"traffic_signals","traffic_signals":"signal"}},{"type":"node","id":5664870930,"lat":37.9963551,"lon":23.7322437,"tags":{"highway":"traffic_signals","traffic_signals":"signal"}},{"type":"node","id":5664870931,"lat":37.9964121,"lon":23.7324002,"tags":{"highway":"traffic_signals","traffic_signals":"signal"}},{"type":"node","id":6214291620,"lat":37.9967224,"lon":23.7326432,"tags":{"crossing":"traffic_signals","highway":"crossing"}},{"type":"node","id":7045912742,"lat":37.9962465,"lon":23.7321947,"tags":{"clothes":"underwear","name":"kaltsokinisi","shop":"clothes"}},{"type":"node","id":7045915326,"lat":37.9963163,"lon":23.7322134,"tags":{"clothes":"men","name":"Rodolfo Valentino","shop":"clothes"}},{"type":"node","id":7673861582,"lat":37.9966357,"lon":23.7328121,"tags":{"addr:city":"\u0391\u03b8\u03ae\u03bd\u03b1","addr:housenumber":"25","addr:street":"\u03a0\u03b9\u03c0\u03af\u03bd\u03bf\u03c5","amenity":"fast_food","drive_through":"no","name":"King Size"}},{"type":"node","id":8077038551,"lat":37.996565,"lon":23.7326738,"tags":{"addr:city":"\u0391\u03b8\u03ae\u03bd\u03b1","addr:housenumber":"110","addr:street":"28\u03b7\u03c2 \u039f\u03ba\u03c4\u03c9\u03b2\u03c1\u03af\u03bf\u03c5","name":"Smart Telecom","shop":"mobile_phone"}},{"type":"node","id":8719397406,"lat":37.9965006,"lon":23.7322372,"tags":{"clothes":"women;men","name":"Gabriella Outlet","shop":"clothes"}},{"type":"node","id":10178206244,"lat":37.9965258,"lon":23.7326646,"tags":{"name":"Sotiropoulosfs.gr","shop":"locksmith","website":"https:\/\/sotiropoulosfs.gr\/"}},{"type":"node","id":10178215701,"lat":37.9967933,"lon":23.7327469,"tags":{"addr:city":"\u0391\u03b8\u03ae\u03bd\u03b1","addr:housenumber":"112","addr:street":"28\u03b7\u03c2 \u039f\u03ba\u03c4\u03c9\u03b2\u03c1\u03af\u03bf\u03c5","name":"Gold buyers","opening_hours":"Mo-Fr 09:00-17:00","shop":"pawnbroker"}},{"type":"node","id":10178235437,"lat":37.9965457,"lon":23.7326689,"tags":{"name":"Depolo","shop":"clothes"}},{"type":"node","id":10178329360,"lat":37.9963401,"lon":23.7323403,"tags":{"highway":"crossing"}},{"type":"node","id":10178329361,"lat":37.9967516,"lon":23.7324426,"tags":{"highway":"crossing"}},{"type":"node","id":10178329378,"lat":37.9963089,"lon":23.7325421,"tags":{"crossing":"traffic_signals","highway":"crossing"}},{"type":"node","id":10700706902,"lat":37.9966128,"lon":23.7321536,"tags":{"addr:city":"\u0391\u03b8\u03ae\u03bd\u03b1","addr:housenumber":"113","addr:street":"28\u03b7\u03c2 \u039f\u03ba\u03c4\u03c9\u03b2\u03c1\u03af\u03bf\u03c5"}},{"type":"node","id":10822806928,"lat":37.9963859,"lon":23.7326254,"tags":{"addr:city":"\u0391\u03b8\u03ae\u03bd\u03b1","addr:housenumber":"108","addr:street":"28\u03b7\u03c2 \u039f\u03ba\u03c4\u03c9\u03b2\u03c1\u03af\u03bf\u03c5"}},{"type":"node","id":10825888601,"lat":37.9966995,"lon":23.7322095,"tags":{"addr:city":"\u0391\u03b8\u03ae\u03bd\u03b1","addr:housenumber":"115","addr:street":"28\u03b7\u03c2 \u039f\u03ba\u03c4\u03c9\u03b2\u03c1\u03af\u03bf\u03c5"}},{"type":"node","id":11059749598,"lat":37.9963355,"lon":23.7327603,"tags":{"addr:city":"\u0391\u03b8\u03ae\u03bd\u03b1","addr:housenumber":"32","addr:street":"\u03a4\u03c1\u03bf\u03af\u03b1\u03c2"}}]}