{"version":0.6,"generator":"Overpass API 0.7.61.5 4133829e","osm3s":{"timestamp_osm_base":"2023-08-16T11:24:11Z","copyright":"The data included in this document is from www.openstreetmap.org. The data is made available under ODbL."},"elements":[{"type":"node","id":1753890258,"lat":37.993684,"lon":23.7271969,"tags":{"name":"Baysha mobile & photo studio","shop":"convenience"}},{"type":"node","id":1753890259,"lat":37.9937923,"lon":23.7272059,"tags":{"addr:city":"\u0391\u03b8\u03ae\u03bd\u03b1","addr:country":"GR","addr:housenumber":"86","addr:postcode":"10434","addr:street":"\u0391\u03c7\u03b1\u03c1\u03bd\u03ce\u03bd","amenity":"brothel"}},{"type":"node","id":1753890260,"lat":37.9939735,"lon":23.7272449,"tags":{"addr:city":"\u0391\u03b8\u03ae\u03bd\u03b1","addr:country":"GR","addr:housenumber":"88","addr:postcode":"10434","addr:street":"\u0391\u03c7\u03b1\u03c1\u03bd\u03ce\u03bd","shop":"clothes"}},{"type":"node","id":1997456425,"lat":37.9941121,"lon":23.7271279,"tags":{"bus":"yes","public_transport":"stop_position","trolleybus":"yes"}},{"type":"node","id":3148865584,"lat":37.9941013,"lon":23.7271816,"tags":{"bus":"yes","highway":"bus_stop","name":"\u03a7\u0395\u03a5\u0394\u0395\u039d","network":"\u039f\u0391\u03a3\u0391","network:el":"\u039f\u0391\u03a3\u0391","network:en":"OASA","network:wikidata":"Q1814382","operator":"\u039f\u0391\u03a3\u0391","passenger_information_display":"yes","public_transport":"platform","ref":"060894","shelter":"yes","trolleybus":"yes"}},{"type":"node","id":4438066634,"lat":37.9939189,"lon":23.7272799,"tags":{"addr:city":"\u0391\u03b8\u03ae\u03bd\u03b1","addr:housenumber":"24","addr:street":"\u03a6\u03c9\u03ba\u03b1\u03af\u03b1\u03c2"}},{"type":"node","id":4591308341,"lat":37.9936339,"lon":23.7272137,"tags":{"amenity":"restaurant","name":"Kabul"}},{"type":"node","id":4641665380,"lat":37.9941793,"lon":23.7272692,"tags":{"shop":"convenience"}},{"type":"node","id":4744424022,"lat":37.9937366,"lon":23.7272058,"tags":{"name":"Adel","shop":"convenience"}},{"type":"node","id":5198980487,"lat":37.9936254,"lon":23.7275679,"tags":{"addr:city":"\u0391\u03b8\u03ae\u03bd\u03b1","addr:housenumber":"34","addr:street":"\u03a7\u03ad\u03c5\u03b4\u03b5\u03bd","amenity":"cafe","name":"Delice"}},{"type":"node","id":5589268658,"lat":37.9935809,"lon":23.7270816,"tags":{"highway":"traffic_signals","traffic_signals":"signal","traffic_signals:direction":"backward"}},{"type":"node","id":5589268660,"lat":37.9935259,"lon":23.7271734,"tags":{"highway":"traffic_signals","traffic_signals":"signal"}},{"type":"node","id":6002397492,"lat":37.9936306,"lon":23.7274671,"tags":{"addr:city":"\u0391\u03b8\u03ae\u03bd\u03b1","addr:housenumber":"38","addr:street":"\u03a7\u03ad\u03c5\u03b4\u03b5\u03bd","fee":"no","name":"Louvre","tourism":"gallery"}},{"type":"node","id":9881587762,"lat":37.9935328,"lon":23.7270179,"tags":{"highway":"crossing"}},{"type":"node","id":10156797737,"lat":37.9938291,"lon":23.7272608,"tags":{"addr:housenumber":"27","amenity":"brothel"}},{"type":"node","id":10600929425,"lat":37.9938585,"lon":23.7270438,"tags":{"highway":"crossing"}},{"type":"node","id":10600929442,"lat":37.993861,"lon":23.7271496,"tags":{"highway":"crossing"}}]}