{"version":0.6,"generator":"Overpass API 0.7.61.5 4133829e","osm3s":{"timestamp_osm_base":"2023-08-16T11:06:35Z","copyright":"The data included in this document is from www.openstreetmap.org. The data is made available under ODbL."},"elements":[{"type":"node","id":1649205740,"lat":37.9999715,"lon":23.7272593,"tags":{"addr:city":"\u0391\u03b8\u03ae\u03bd\u03b1","addr:country":"GR","addr:housenumber":"1","addr:postcode":"10446","addr:street":"\u03a3\u03c9\u03b6\u03bf\u03c0\u03cc\u03bb\u03b5\u03c9\u03c2"}},{"type":"node","id":1649205754,"lat":38.0000483,"lon":23.7277764,"tags":{"addr:city":"\u0391\u03b8\u03ae\u03bd\u03b1","addr:country":"GR","addr:housenumber":"104","addr:postcode":"11251","addr:street":"\u039a\u03b5\u03c6\u03b1\u03bb\u03bb\u03b7\u03bd\u03af\u03b1\u03c2"}},{"type":"node","id":1649205758,"lat":37.9998728,"lon":23.7277795,"tags":{"addr:city":"\u0391\u03b8\u03ae\u03bd\u03b1","addr:country":"GR","addr:housenumber":"107","addr:postcode":"11251","addr:street":"\u039a\u03b5\u03c6\u03b1\u03bb\u03bb\u03b7\u03bd\u03af\u03b1\u03c2"}},{"type":"node","id":1649205878,"lat":38.0001197,"lon":23.7273296,"tags":{"addr:city":"\u0391\u03b8\u03ae\u03bd\u03b1","addr:country":"GR","addr:housenumber":"2","addr:postcode":"10446","addr:street":"\u03a3\u03c9\u03b6\u03bf\u03c0\u03cc\u03bb\u03b5\u03c9\u03c2"}},{"type":"node","id":1766175747,"lat":37.9996933,"lon":23.7273223,"tags":{"addr:city":"\u0391\u03b8\u03ae\u03bd\u03b1","addr:country":"GR","addr:housenumber":"147","addr:postcode":"10446","addr:street":"\u0391\u03c7\u03b1\u03c1\u03bd\u03ce\u03bd"}},{"type":"node","id":1766175762,"lat":37.9998613,"lon":23.727365,"tags":{"addr:city":"\u0391\u03b8\u03ae\u03bd\u03b1","addr:country":"GR","addr:housenumber":"151","addr:postcode":"10446","addr:street":"\u0391\u03c7\u03b1\u03c1\u03bd\u03ce\u03bd"}},{"type":"node","id":1766175766,"lat":38.0001622,"lon":23.7273902,"tags":{"addr:city":"\u0391\u03b8\u03ae\u03bd\u03b1","addr:country":"GR","addr:housenumber":"153","addr:postcode":"10446","addr:street":"\u0391\u03c7\u03b1\u03c1\u03bd\u03ce\u03bd"}},{"type":"node","id":1766175770,"lat":38.0002706,"lon":23.7273843,"tags":{"addr:city":"\u0391\u03b8\u03ae\u03bd\u03b1","addr:country":"GR","addr:housenumber":"155","addr:postcode":"10446","addr:street":"\u0391\u03c7\u03b1\u03c1\u03bd\u03ce\u03bd"}},{"type":"node","id":1766175784,"lat":37.9997514,"lon":23.7276515,"tags":{"addr:city":"\u0391\u03b8\u03ae\u03bd\u03b1","addr:country":"GR","addr:housenumber":"168","addr:postcode":"11251","addr:street":"\u0391\u03c7\u03b1\u03c1\u03bd\u03ce\u03bd"}},{"type":"node","id":1766175785,"lat":37.9998076,"lon":23.7277001,"tags":{"addr:city":"\u0391\u03b8\u03ae\u03bd\u03b1","addr:country":"GR","addr:housenumber":"170","addr:postcode":"11251","addr:street":"\u0391\u03c7\u03b1\u03c1\u03bd\u03ce\u03bd"}},{"type":"node","id":1766175786,"lat":38.0001349,"lon":23.7277062,"tags":{"addr:city":"\u0391\u03b8\u03ae\u03bd\u03b1","addr:country":"GR","addr:housenumber":"172","addr:postcode":"11251","addr:street":"\u0391\u03c7\u03b1\u03c1\u03bd\u03ce\u03bd"}},{"type":"node","id":2560172133,"lat":37.999724,"lon":23.727526,"tags":{"bus":"yes","public_transport":"stop_position","trolleybus":"yes"}},{"type":"node","id":2786684646,"lat":37.9997236,"lon":23.7274468,"tags":{"bus":"yes","highway":"bus_stop","name":"\u0399\u0398\u0391\u039a\u0397\u03a3","network":"\u039f\u0391\u03a3\u0391","network:el":"\u039f\u0391\u03a3\u0391","network:en":"OASA","network:wikidata":"Q1814382","operator":"\u039f\u0391\u03a3\u0391","passenger_information_display":"yes","public_transport":"platform","ref":"060918","shelter":"yes","trolleybus":"yes"}},{"type":"node","id":5213958363,"lat":37.9999513,"lon":23.7273472,"tags":{"addr:city":"\u0391\u03b8\u03ae\u03bd\u03b1","addr:street":"\u0391\u03c7\u03b1\u03c1\u03bd\u03ce\u03bd","name":"SportMania","shop":"sports"}},{"type":"node","id":6217573054,"lat":37.999978,"lon":23.7276102,"tags":{"button_operated":"no","crossing":"traffic_signals","highway":"crossing","traffic_signals:sound":"no","traffic_signals:vibration":"no"}},{"type":"node","id":6217573055,"lat":37.9999203,"lon":23.7275212,"tags":{"button_operated":"no","crossing":"traffic_signals","crossing:island":"no","highway":"crossing","traffic_signals:sound":"no","traffic_signals:vibration":"no"}},{"type":"node","id":6217573056,"lat":37.9999997,"lon":23.7274395,"tags":{"button_operated":"no","crossing":"traffic_signals","highway":"crossing","traffic_signals:sound":"no","traffic_signals:vibration":"no"}},{"type":"node","id":6279842612,"lat":37.99991,"lon":23.7275215,"tags":{"highway":"traffic_signals","traffic_signals":"signal","traffic_signals:direction":"forward"}},{"type":"node","id":6279842613,"lat":37.9999707,"lon":23.727659,"tags":{"highway":"traffic_signals","traffic_signals":"signal"}},{"type":"node","id":6279842614,"lat":38.0000431,"lon":23.7275193,"tags":{"highway":"traffic_signals","traffic_signals":"signal","traffic_signals:direction":"backward"}},{"type":"node","id":6450818176,"lat":37.9999472,"lon":23.7271971,"tags":{"addr:city":"\u0391\u03b8\u03ae\u03bd\u03b1","addr:housenumber":"1","addr:street":"\u03a3\u03c9\u03b6\u03bf\u03c0\u03cc\u03bb\u03b5\u03c9\u03c2","shop":"convenience"}},{"type":"node","id":6466864247,"lat":37.9999049,"lon":23.7276404,"tags":{"amenity":"pharmacy","healthcare":"pharmacy"}},{"type":"node","id":6604891517,"lat":38.0000134,"lon":23.7276949,"tags":{"name":"\u039d\u03c4\u03bf\u03c5\u03c1\u03bf\u03cd\u03c0\u03b7\u03c2","shop":"bakery"}},{"type":"node","id":7254770718,"lat":37.9998543,"lon":23.7276473,"tags":{"addr:city":"\u0391\u03b8\u03ae\u03bd\u03b1","addr:housenumber":"170","addr:street":"\u0391\u03c7\u03b1\u03c1\u03bd\u03ce\u03bd","shop":"hairdresser"}},{"type":"node","id":9872038497,"lat":37.9997107,"lon":23.7276701,"tags":{"addr:city":"\u0391\u03b8\u03ae\u03bd\u03b1","addr:housenumber":"168","addr:street":"\u0391\u03c7\u03b1\u03c1\u03bd\u03ce\u03bd","shop":"convenience"}}]}