{"version":0.6,"generator":"Overpass API 0.7.61.5 4133829e","osm3s":{"timestamp_osm_base":"2023-08-16T11:34:36Z","copyright":"The data included in this document is from www.openstreetmap.org. The data is made available under ODbL."},"elements":[{"type":"node","id":2669981899,"lat":37.9973561,"lon":23.7365944,"tags":{"amenity":"pharmacy","healthcare":"pharmacy"}},{"type":"node","id":2870893272,"lat":37.9970691,"lon":23.7365277,"tags":{"addr:city":"\u0391\u03b8\u03ae\u03bd\u03b1","addr:country":"GR","addr:housenumber":"24","addr:postcode":"11362","addr:street":"\u039a\u03c5\u03c8\u03ad\u03bb\u03b7\u03c2"}},{"type":"node","id":2870893276,"lat":37.9971465,"lon":23.7366359,"tags":{"addr:city":"\u0391\u03b8\u03ae\u03bd\u03b1","addr:country":"GR","addr:housenumber":"26","addr:postcode":"11362","addr:street":"\u039a\u03c5\u03c8\u03ad\u03bb\u03b7\u03c2"}},{"type":"node","id":2870893280,"lat":37.9971907,"lon":23.736699,"tags":{"addr:city":"\u0391\u03b8\u03ae\u03bd\u03b1","addr:country":"GR","addr:housenumber":"28","addr:postcode":"11362","addr:street":"\u039a\u03c5\u03c8\u03ad\u03bb\u03b7\u03c2"}},{"type":"node","id":2870893286,"lat":37.9972042,"lon":23.736803,"tags":{"addr:city":"\u0391\u03b8\u03ae\u03bd\u03b1","addr:country":"GR","addr:housenumber":"30","addr:postcode":"11362","addr:street":"\u039a\u03c5\u03c8\u03ad\u03bb\u03b7\u03c2"}},{"type":"node","id":2870893290,"lat":37.9974689,"lon":23.7370831,"tags":{"leisure":"fitness_centre","name":"Golden gym","sport":"gymnastics"}},{"type":"node","id":6208518518,"lat":37.9973299,"lon":23.736868,"tags":{"crossing":"traffic_signals","highway":"crossing"}},{"type":"node","id":6208940426,"lat":37.9973739,"lon":23.7367942,"tags":{"crossing":"traffic_signals","highway":"crossing"}},{"type":"node","id":9457096376,"lat":37.9975469,"lon":23.7367932,"tags":{"addr:city":"\u0391\u03b8\u03ae\u03bd\u03b1","addr:housenumber":"1","addr:postcode":"11257","addr:street":"\u03a3\u03c0\u03bf\u03c1\u03ac\u03b4\u03c9\u03bd","amenity":"cafe","name":"\u039a\u03c5\u03c8\u03b5\u03bb\u03ac\u03ba\u03b9"}},{"type":"node","id":9457096432,"lat":37.9975271,"lon":23.73667,"tags":{"addr:city":"\u0391\u03b8\u03ae\u03bd\u03b1","addr:housenumber":"2","addr:postcode":"11257","addr:street":"\u0399\u03b8\u03ac\u03ba\u03b7\u03c2","shop":"convenience"}},{"type":"node","id":9506329727,"lat":37.9974968,"lon":23.7369693,"tags":{"highway":"crossing"}},{"type":"node","id":9520056748,"lat":37.9973767,"lon":23.7367889,"tags":{"highway":"traffic_signals","traffic_signals":"signal"}},{"type":"node","id":9520056749,"lat":37.9973806,"lon":23.7368489,"tags":{"highway":"traffic_signals","traffic_signals":"signal"}},{"type":"node","id":10118331160,"lat":37.997574,"lon":23.7372356,"tags":{"shop":"antiques"}},{"type":"node","id":10118341874,"lat":37.9975469,"lon":23.7365513,"tags":{"name":"Pet land","shop":"pet"}},{"type":"node","id":10118350886,"lat":37.9973725,"lon":23.736943,"tags":{"name":"Sport Hero","shop":"clothes"}},{"type":"node","id":10118464064,"lat":37.9973473,"lon":23.7368404,"tags":{"highway":"crossing"}},{"type":"node","id":10118464067,"lat":37.9973852,"lon":23.7368556,"tags":{"highway":"crossing"}}]}