{"version":0.6,"generator":"Overpass API 0.7.61.5 4133829e","osm3s":{"timestamp_osm_base":"2023-08-16T10:56:13Z","copyright":"The data included in this document is from www.openstreetmap.org. The data is made available under ODbL."},"elements":[{"type":"node","id":2139004958,"lat":37.9441231,"lon":23.6664848,"tags":{"highway":"motorway_junction"}},{"type":"node","id":2250935393,"lat":37.9447054,"lon":23.6665314,"tags":{"bus":"yes","name":"\u0397\u03a3\u0391\u03a0 \u039d. \u03a6\u0391\u039b\u0397\u03a1\u039f\u03a5","network":"\u039f\u0391\u03a3\u0391","operator":"\u039f\u03a3\u03a5","public_transport":"stop_position","ref":"400087"}},{"type":"node","id":2586448704,"lat":37.9440156,"lon":23.6669994,"tags":{"highway":"street_lamp"}},{"type":"node","id":2586448706,"lat":37.9444229,"lon":23.6674246,"tags":{"highway":"street_lamp"}},{"type":"node","id":2644210520,"lat":37.9446459,"lon":23.6669539,"tags":{"bus":"yes","name":"\u0397\u03a3\u0391\u03a0 \u039d. \u03a6\u0391\u039b\u0397\u03a1\u039f\u03a5","network":"\u039f\u0391\u03a3\u0391","operator":"\u039f\u03a3\u03a5","public_transport":"stop_position","ref":"400075"}},{"type":"node","id":3118458307,"lat":37.9446023,"lon":23.6669592,"tags":{"bench":"yes","bin":"yes","bus":"yes","highway":"bus_stop","name":"\u0397\u03a3\u0391\u03a0 \u039d. \u03a6\u0391\u039b\u0397\u03a1\u039f\u03a5","network":"\u039f\u0391\u03a3\u0391","network:el":"\u039f\u0391\u03a3\u0391","network:en":"OASA","network:wikidata":"Q1814382","note":"New Public Transport Relation Scheme https:\/\/wiki.openstreetmap.org\/wiki\/Key:public_transport","operator":"\u039f\u03a3\u03a5","passenger_information_display":"yes","public_transport":"platform","ref":"400075","route_ref":"130;\u03921;500;\u03a796;040;\u03911;217;218;\u039590","shelter":"yes"}},{"type":"node","id":3118458308,"lat":37.9447652,"lon":23.6665249,"tags":{"bench":"yes","bus":"yes","highway":"bus_stop","name":"\u0397\u03a3\u0391\u03a0 \u039d. \u03a6\u0391\u039b\u0397\u03a1\u039f\u03a5","network":"\u039f\u0391\u03a3\u0391","network:el":"\u039f\u0391\u03a3\u0391","network:en":"OASA","network:wikidata":"Q1814382","note":"New Public Transport Relation Scheme https:\/\/wiki.openstreetmap.org\/wiki\/Key:public_transport","operator":"\u039f\u03a3\u03a5","public_transport":"platform","ref":"400087","route_ref":"040;130;217;218;229;500;\u03911;\u03921;\u039590;\u03a796","shelter":"yes"}},{"type":"node","id":3784600882,"lat":37.9447531,"lon":23.666407,"tags":{"shop":"kiosk"}},{"type":"node","id":3994635075,"lat":37.9448,"lon":23.6669909,"tags":{"crossing":"traffic_signals","highway":"crossing","note":"this is the only actual crossing in the whole area. all the other crossings are indeed underground."}},{"type":"node","id":3994635077,"lat":37.9448118,"lon":23.667005,"tags":{"highway":"traffic_signals"}},{"type":"node","id":3999675725,"lat":37.9436974,"lon":23.6672958,"tags":{"maxspeed":"30","traffic_sign":"maxspeed"}},{"type":"node","id":3999676068,"lat":37.9445321,"lon":23.6671076,"tags":{"bicycle":"yes","crossing":"uncontrolled","railway":"crossing","source":"survey"}},{"type":"node","id":3999676105,"lat":37.9445609,"lon":23.6671039,"tags":{"bicycle":"yes","crossing":"uncontrolled","railway":"crossing","source":"survey"}},{"type":"node","id":3999676132,"lat":37.9445868,"lon":23.6666926,"tags":{"noexit":"yes","note":"you can indeed follow this sidewalk for a few meters, but it really goes nowhere.","source":"survey"}},{"type":"node","id":4176728170,"lat":37.9444297,"lon":23.6664833,"tags":{"highway":"street_lamp"}},{"type":"node","id":4337351081,"lat":37.9449892,"lon":23.6668462,"tags":{"amenity":"bench"}},{"type":"node","id":4922733695,"lat":37.9448055,"lon":23.6662462,"tags":{"amenity":"bench"}},{"type":"node","id":4922733840,"lat":37.9448064,"lon":23.6662884,"tags":{"amenity":"bench"}},{"type":"node","id":6122079748,"lat":37.9440167,"lon":23.6676055,"tags":{"maxspeed":"50","traffic_sign":"maxspeed"}},{"type":"node","id":6948982122,"lat":37.9444879,"lon":23.6670954,"tags":{"camera:mount":"pole","man_made":"surveillance","surveillance":"public","surveillance:type":"camera"}},{"type":"node","id":8065139240,"lat":37.9441244,"lon":23.6666914,"tags":{"highway":"motorway_junction"}},{"type":"node","id":8582839494,"lat":37.9447269,"lon":23.6674003,"tags":{"railway":"tram_level_crossing"}},{"type":"node","id":8582839495,"lat":37.9446677,"lon":23.667507,"tags":{"railway":"tram_level_crossing"}}]}