{"version":0.6,"generator":"Overpass API 0.7.61.5 4133829e","osm3s":{"timestamp_osm_base":"2023-08-16T11:10:44Z","copyright":"The data included in this document is from www.openstreetmap.org. The data is made available under ODbL."},"elements":[{"type":"node","id":1758398469,"lat":37.9955663,"lon":23.7319357,"tags":{"addr:city":"\u0391\u03b8\u03ae\u03bd\u03b1","addr:country":"GR","addr:housenumber":"15","addr:postcode":"10434","addr:street":"\u039a\u03bf\u03b4\u03c1\u03b9\u03b3\u03ba\u03c4\u03ce\u03bd\u03bf\u03c2"}},{"type":"node","id":1758398481,"lat":37.9958062,"lon":23.7319164,"tags":{"addr:city":"\u0391\u03b8\u03ae\u03bd\u03b1","addr:country":"GR","addr:housenumber":"20","addr:postcode":"11251","addr:street":"\u039a\u03bf\u03b4\u03c1\u03b9\u03b3\u03ba\u03c4\u03ce\u03bd\u03bf\u03c2"}},{"type":"node","id":3946459812,"lat":37.9956369,"lon":23.7312989,"tags":{"addr:city":"\u0391\u03b8\u03ae\u03bd\u03b1","addr:country":"GR","addr:housenumber":"21","addr:postcode":"10434","addr:street":"\u039a\u03bf\u03b4\u03c1\u03b9\u03b3\u03ba\u03c4\u03ce\u03bd\u03bf\u03c2","amenity":"cinema","comment":"\u039b\u03b5\u03b9\u03c4\u03bf\u03c5\u03c1\u03b3\u03b5\u03af \u03ba\u03b1\u03b9 \u03c9\u03c2 \u03bc\u03bf\u03c5\u03c3\u03b9\u03ba\u03ae \u03c3\u03ba\u03b7\u03bd\u03ae \u03ba\u03b1\u03b9 \u03b8\u03ad\u03b1\u03c4\u03c1\u03bf. \u0397 \u03bf\u03c1\u03bf\u03c6\u03ae \u03b1\u03bd\u03bf\u03af\u03b3\u03b5\u03b9 \u03ba\u03b1\u03b9 \u03bc\u03c0\u03bf\u03c1\u03b5\u03af \u03bd\u03b1 \u03bb\u03b5\u03b9\u03c4\u03bf\u03c5\u03c1\u03b3\u03ae\u03c3\u03b5\u03b9 \u03ba\u03b1\u03b9 \u03c9\u03c2 \u03b8\u03b5\u03c1\u03b9\u03bd\u03cc\u03c2.","name":"\u039a\u03b9\u03bd\u03b7\u03bc\u03b1\u03c4\u03bf\u03b3\u03c1\u03ac\u03c6\u03bf\u03c2 \u03a4\u03a1\u0399\u0391\u039d\u039f\u039d","phone":"2108215469","website":"trianon.gr"}},{"type":"node","id":5694341576,"lat":37.9960845,"lon":23.7321399,"tags":{"clothes":"women","facebook":"https:\/\/el-gr.facebook.com\/new.colors.group\/?ref=page_internal","name":"new Colors","shop":"clothes"}},{"type":"node","id":5829462884,"lat":37.995708,"lon":23.7320551,"tags":{"clothes":"women","name":"La Stef","shop":"clothes"}},{"type":"node","id":5952169647,"lat":37.9957175,"lon":23.7319567,"tags":{"name":"\u039f\u03c1\u03b1\u03c4\u03bf\u03bd","shop":"optician"}},{"type":"node","id":6190137801,"lat":37.9957315,"lon":23.7318998,"tags":{"amenity":"pharmacy","healthcare":"pharmacy"}},{"type":"node","id":6260804575,"lat":37.9958557,"lon":23.73209,"tags":{"amenity":"cafe","name":"Family"}},{"type":"node","id":6574806692,"lat":37.9960721,"lon":23.7319982,"tags":{"addr:city":"\u0391\u03b8\u03ae\u03bd\u03b1","addr:housenumber":"2","addr:street":"\u03a0\u03b5\u03bb\u03bb\u03ae\u03bd\u03b7\u03c2"}},{"type":"node","id":9504731193,"lat":37.995768,"lon":23.7320727,"tags":{"amenity":"post_office","brand":"DHL","brand:wikidata":"Q489815","brand:wikipedia":"en:DHL","name":"DHL"}},{"type":"node","id":10171593251,"lat":37.9960111,"lon":23.7321376,"tags":{"amenity":"cafe","cuisine":"coffee_shop","name":"Yes"}},{"type":"node","id":10178222902,"lat":37.9959234,"lon":23.7321063,"tags":{"name":"Sash","shop":"clothes"}},{"type":"node","id":10262605740,"lat":37.9958187,"lon":23.7320835,"tags":{"addr:city":"\u0391\u03b8\u03ae\u03bd\u03b1","addr:housenumber":"103","addr:street":"28\u03b7\u03c2 \u039f\u03ba\u03c4\u03c9\u03b2\u03c1\u03af\u03bf\u03c5","name":"France Outlet","shop":"clothes"}},{"type":"node","id":10768341240,"lat":37.9957441,"lon":23.7317004,"tags":{"addr:city":"\u0391\u03b8\u03ae\u03bd\u03b1","addr:housenumber":"22","addr:street":"\u039a\u03bf\u03b4\u03c1\u03b9\u03b3\u03ba\u03c4\u03ce\u03bd\u03bf\u03c2","name":"\u0386\u03bb\u03ba\u03b7\u03c3\u03c4\u03b7","shop":"hairdresser"}},{"type":"node","id":10827212235,"lat":37.9957989,"lon":23.7319897,"tags":{"addr:city":"\u0391\u03b8\u03ae\u03bd\u03b1","addr:housenumber":"103","addr:street":"28\u03b7\u03c2 \u039f\u03ba\u03c4\u03c9\u03b2\u03c1\u03af\u03bf\u03c5"}}]}