{"version":0.6,"generator":"Overpass API 0.7.61.5 4133829e","osm3s":{"timestamp_osm_base":"2023-08-16T10:59:13Z","timestamp_areas_base":"2023-08-16T08:25:45Z","copyright":"The data included in this document is from www.openstreetmap.org. The data is made available under ODbL."},"elements":[{"type":"way","id":66601824,"nodes":[3997550022,3997550024,3997552863,3997552903,3997552917,805848603,3997553190,2320944050,3997553251,2320944102,805848282,3879245727,3879245729,2320944112,2255409180,3879245728,2255409176,805848530,805848245,2320944108,2320944107,3879245714,3879245712,805848431,2253053452,3879245687,2253053399,805848141,3879245666,3879245659,2253053316,3879245553,1689193916,2253053265,2253053245,1689193958,3997553229,3997553222,1689193944,3997553210,3997553205,1689193915,3879245497,805848357,3997553185,3997552913,1689193960,1689193956,2253053075,3997552905,1711091101,3997552901,3997552898,3997552896,3997552886,3997552884,3997552880,3997552872,3997552870,805848664,3997552867,9706137987,2253052912,3997550055,3997550050,1689193903,3997550040,3997550022],"tags":{"landuse":"industrial"}},{"type":"way","id":396913390,"nodes":[3997552889,3997552900,3997552915,3997552919,3997552939,3997553170,3997553178,3997553176,3997553161,3997553165,3997552949,3997552944,3997552943,3997552940,3997552933,3997552912,3997552899,3997552892,3997552888,3997552885,3997552882,3997552872,3997552870,805848664,3997552867,3997552889],"tags":{"landuse":"brownfield"}},{"type":"area","id":3600192307,"tags":{"ISO3166-1":"GR","ISO3166-1:alpha2":"GR","ISO3166-1:alpha3":"GRC","ISO3166-1:numeric":"300","TMC:cid_58:tabcd_1:Class":"Area","TMC:cid_58:tabcd_1:LCLversion":"8.00","TMC:cid_58:tabcd_1:LocationCode":"12","admin_level":"2","alt_name":"\u0395\u03bb\u03bb\u03ac\u03b4\u03b1","alt_name:eo":"Grekujo;Helenio;Helenujo","boundary":"administrative","default_language":"el","flag":"http:\/\/upload.wikimedia.org\/wikipedia\/commons\/5\/5c\/Flag_of_Greece.svg","int_name":"Greece","name":"\u0395\u03bb\u03bb\u03ac\u03c2","name:ab":"\u0411\u0430\u0440\u0437\u0435\u043d\u0442\u04d9\u044b\u043b\u0430","name:ace":"Yunani","name:af":"Griekeland","name:als":"Griechenland","name:am":"\u130d\u122a\u12ad","name:an":"Grecia","name:ang":"Cr\u0113cland","name:ar":"\u0627\u0644\u064a\u0648\u0646\u0627\u0646","name:arc":"\u071d\u0718\u0722","name:arz":"\u0627\u0644\u064a\u0648\u0646\u0627\u0646","name:ast":"Grecia","name:ay":"Grisya","name:az":"Yunan\u0131stan","name:ba":"\u0413\u0440\u0435\u0446\u0438\u044f","name:bar":"Griachaland","name:bat-smg":"Graik\u0117j\u0117","name:bcl":"Gresya","name:be":"\u0413\u0440\u044d\u0446\u044b\u044f","name:be-tarask":"\u0413\u0440\u044d\u0446\u044b\u044f","name:bg":"\u0413\u044a\u0440\u0446\u0438\u044f","name:bi":"Greece","name:bn":"\u0997\u09cd\u09b0\u09bf\u09b8","name:bo":"\u0f40\u0f7a\u0f0b\u0f62\u0f72\u0f0b\u0f66\u0f72\u0f0d","name:bpy":"\u0997\u09cd\u09b0\u09c0\u09b8","name:br":"Gres","name:bs":"Gr\u010dka","name:bxr":"\u0413\u0440\u0435\u043a \u0443\u043b\u0430\u0441","name:ca":"Gr\u00e8cia","name:cdo":"H\u012d-l\u00e9-n\u00e0\u0324","name:ce":"\u0413\u0440\u0435\u0446\u0438","name:ceb":"Gresya","name:chr":"\u13aa\u13a2","name:ckb":"\u06cc\u06c6\u0646\u0627\u0646","name:co":"Grecia","name:crh":"Yunanistan","name:cs":"\u0158ecko","name:csb":"Greck\u00f4","name:cu":"\u0413\u0440\u044c\u0446\u0438","name:cv":"\u0413\u0440\u0435\u0446\u0438","name:cy":"Gwlad Groeg","name:da":"Gr\u00e6kenland","name:de":"Griechenland","name:diq":"Yunan\u0131stan","name:dsb":"Grichiska","name:dv":"\u0794\u07ab\u0782\u07a7\u0782\u07b0","name:dz":"\u0f42\u0fb2\u0f80\u0f66","name:ee":"Greece","name:el":"\u0395\u03bb\u03bb\u03ac\u03b4\u03b1","name:en":"Greece","name:eo":"Grekio","name:es":"Grecia","name:et":"Kreeka","name:eu":"Grezia","name:ext":"Gr\u00e9cia","name:fa":"\u06cc\u0648\u0646\u0627\u0646","name:fi":"Kreikka","name:fo":"Grikkaland","name:fr":"Gr\u00e8ce","name:frp":"Gr\u00e8ce","name:frr":"Griichenl\u00f6nj","name:fur":"Grecie","name:fy":"Grikel\u00e2n","name:ga":"An Ghr\u00e9ig","name:gag":"Gre\u021biya","name:gan":"\u5e0c\u81d8","name:gd":"A' Ghr\u00e8ig","name:gl":"Grecia","name:gn":"Gyresia","name:gu":"\u0a97\u0acd\u0ab0\u0ac0\u0ab8","name:gv":"Yn Ghreag","name:hak":"H\u00ee-lia\u030dp","name:haw":"Helene","name:he":"\u05d9\u05d5\u05d5\u05df","name:hi":"\u092f\u0942\u0928\u093e\u0928","name:hif":"Greece","name:hr":"Gr\u010dka","name:hsb":"Grjekska","name:ht":"Gr\u00e8s","name:hu":"G\u00f6r\u00f6gorsz\u00e1g","name:hy":"\u0540\u0578\u0582\u0576\u0561\u057d\u057f\u0561\u0576","name:ia":"Grecia","name:id":"Yunani","name:ie":"Grecia","name:ilo":"Gresia","name:io":"Grekia","name:is":"Grikkland","name:it":"Grecia","name:ja":"\u30ae\u30ea\u30b7\u30e3","name:jbo":"xesygu'e","name:jv":"Yunani","name:ka":"\u10e1\u10d0\u10d1\u10d4\u10e0\u10eb\u10dc\u10d4\u10d7\u10d8","name:kaa":"Gretsiya","name:kbd":"\u0410\u043b\u044b\u0434\u0436\u0435\u0439","name:kg":"Gelesi","name:ki":"Ngiriki","name:kk":"\u0413\u0440\u0435\u043a\u0438\u044f","name:kl":"Gr\u00e6kerit Nunaat","name:kn":"\u0c97\u0ccd\u0cb0\u0cc0\u0cb8\u0ccd","name:ko":"\uadf8\ub9ac\uc2a4","name:koi":"\u042d\u043b\u043b\u0430\u0434\u0430","name:krc":"\u0413\u0440\u0435\u0446\u0438\u044f","name:ku":"Yewnanistan","name:kv":"\u042d\u043b\u043b\u0430\u0434\u0430","name:kw":"Pow Grek","name:ky":"\u0413\u0440\u0435\u0446\u0438\u044f","name:la":"Graecia","name:lad":"Gresia","name:lb":"Griicheland","name:lez":"\u0413\u0440\u0435\u0446\u0438\u044f","name:lg":"Buyonaani","name:li":"Griekeland","name:lij":"Gre\u00e7ia","name:lmo":"Grecia","name:ln":"Gresi","name:lt":"Graikija","name:ltg":"Grekeja","name:lv":"Grie\u0137ija","name:lzh":"\u5e0c\u81d8\u5171\u548c\u570b","name:mdf":"\u0413\u0440\u0435\u043a\u043c\u0430\u0441\u0442\u043e\u0440","name:mg":"Grisy","name:mhr":"\u0413\u0440\u0435\u0446\u0438\u0439","name:mi":"Kirihi","name:mk":"\u0413\u0440\u0446\u0438\u0458\u0430","name:ml":"\u0d17\u0d4d\u0d30\u0d40\u0d38\u0d4d","name:mn":"\u0413\u0440\u0435\u043a","name:mr":"\u0917\u094d\u0930\u0940\u0938","name:ms":"Greece","name:mt":"Gre\u010bja","name:mwl":"Gr\u00e9cia","name:my":"\u1002\u101b\u102d\u1014\u102d\u102f\u1004\u103a\u1004\u1036","name:mzn":"\u06cc\u0648\u0646\u0627\u0646","name:na":"Grit","name:nah":"Grecia","name:nan":"Hi-lia\u030dp","name:nap":"Grecia","name:nds":"Grekenland","name:nds-nl":"Griekenlaand","name:ne":"\u0917\u094d\u0930\u0940\u0938","name:nl":"Griekenland","name:nn":"Hellas","name:no":"Hellas","name:nov":"Grekia","name:nrm":"Gr\u00eace","name:nv":"Gw\u00ed\u00edk Dine\u02bc\u00e9 Bik\u00e9yah","name:oc":"Gr\u00e8cia","name:or":"\u0b17\u0b4d\u0b30\u0b40\u0b38","name:os":"\u0413\u0440\u0435\u043a\u044a","name:pa":"\u0a2f\u0a42\u0a28\u0a3e\u0a28","name:pag":"Gresia","name:pam":"Grekya","name:pcd":"Gr\u00e8che","name:pih":"Griese","name:pl":"Grecja","name:pms":"Grecia","name:pnb":"\u06cc\u0648\u0646\u0627\u0646","name:pnt":"\u0395\u03bb\u03bb\u03ac\u03b4\u03b1","name:ps":"\u064a\u0648\u0646\u0627\u0646","name:pt":"Gr\u00e9cia","name:qu":"Grisya","name:rm":"Grezia","name:rn":"Grecia","name:ro":"Grecia","name:roa-rup":"G\u00e2r\u021bia","name:roa-tara":"Grecie","name:ru":"\u0413\u0440\u0435\u0446\u0438\u044f","name:rue":"\u0490\u0440\u0435\u0446\u0456\u044f","name:rw":"Ubugereki","name:sa":"\u092f\u0935\u0928\u0926\u0947\u0936\u0903","name:sah":"\u0413\u0440\u0435\u0446\u0438\u044f","name:sc":"Gr\u00e8ghia","name:scn":"Grecia","name:sco":"Greece","name:se":"Greika","name:sh":"Gr\u010dka","name:si":"\u0d9c\u0dca\u200d\u0dbb\u0dd3\u0dc3\u0dd2\u0dba","name:sk":"Gr\u00e9cko","name:sl":"Gr\u010dija","name:sm":"Kuliti","name:smn":"Kreikka","name:sms":"Kreikka","name:so":"Giriig","name:sq":"Greqia","name:sr":"\u0413\u0440\u0447\u043a\u0430","name:srn":"Grikikondre","name:ss":"IGrikhi","name:stq":"Griechenlound","name:su":"Yunani","name:sv":"Grekland","name:sw":"Ugiriki","name:szl":"Grecyj\u014f","name:ta":"\u0b95\u0bbf\u0bb0\u0bc7\u0b95\u0bcd\u0b95 \u0ba8\u0bbe\u0b9f\u0bc1","name:te":"\u0c17\u0c4d\u0c30\u0c40\u0c38\u0c4d","name:tet":"Gr\u00e9sia","name:tg":"\u042e\u043d\u043e\u043d","name:th":"\u0e1b\u0e23\u0e30\u0e40\u0e17\u0e28\u0e01\u0e23\u0e35\u0e0b","name:tk":"Gresi\u00fda","name:tl":"Gresya","name:tok":"ma Elena","name:tpi":"Gris","name:tr":"Yunanistan","name:tt":"\u0413\u0440\u0435\u0446\u0438\u044f","name:tzl":"Graicea","name:udm":"\u0413\u0440\u0435\u0446\u0438\u044f","name:ug":"Gr\u00e9tsiye","name:uk":"\u0413\u0440\u0435\u0446\u0456\u044f","name:ur":"\u06cc\u0648\u0646\u0627\u0646","name:uz":"Yunoniston","name:vec":"Gresia","name:vep":"Grekanma","name:vi":"Hy L\u1ea1p","name:vls":"Grieknland","name:vo":"Grik\u00e4n","name:vro":"Kreeka","name:war":"Gresya","name:wo":"Girees","name:wuu":"\u5e0c\u814a","name:xal":"\u0413\u0440\u0438\u0441\u0438\u043d \u041e\u0440\u043d","name:xmf":"\u10e1\u10d0\u10d1\u10d4\u10e0\u10eb\u10dc\u10d4\u10d7\u10d8","name:yi":"\u05d2\u05e8\u05d9\u05db\u05e0\u05dc\u05d0\u05e0\u05d3","name:yo":"Gr\u00ed\u00ecs\u00ec","name:yue":"\u5e0c\u81d8","name:zea":"Griek'nland","name:zh":"\u5e0c\u814a","name:zh-Hans":"\u5e0c\u814a","name:zh-Hant":"\u5e0c\u81d8","name:zu":"IGreki","official_name":"\u0395\u03bb\u03bb\u03b7\u03bd\u03b9\u03ba\u03ae \u0394\u03b7\u03bc\u03bf\u03ba\u03c1\u03b1\u03c4\u03af\u03b1","official_name:cs":"\u0158eck\u00e1 republika","official_name:eo":"Helena Respubliko","official_name:fi":"Helleenien tasavalta","official_name:pl":"Republika Grecka","ref:nuts":"EL","timezone":"Europe\/Athens","type":"boundary","wikidata":"Q41","wikipedia":"el:\u0395\u03bb\u03bb\u03ac\u03b4\u03b1"}},{"type":"area","id":3600957716,"tags":{"ISO3166-2":"GR-I","admin_level":"5","boundary":"administrative","name":"\u03a0\u03b5\u03c1\u03b9\u03c6\u03ad\u03c1\u03b5\u03b9\u03b1 \u0391\u03c4\u03c4\u03b9\u03ba\u03ae\u03c2","name:ca":"Perif\u00e8ria d'\u00c0tica","name:de":"Region Attika","name:el":"\u03a0\u03b5\u03c1\u03b9\u03c6\u03ad\u03c1\u03b5\u03b9\u03b1 \u0391\u03c4\u03c4\u03b9\u03ba\u03ae\u03c2","name:en":"Attica","name:fr":"Attique","name:hu":"Attika","name:mk":"\u0410\u0442\u0438\u043a\u0430","name:nl":"Attica","name:pl":"Region Attyka","name:ru":"\u043f\u0435\u0440\u0438\u0444\u0435\u0440\u0438\u044f \u0410\u0442\u0442\u0438\u043a\u0430","official_name:en":"Region of Attica","official_name:fr":"P\u00e9riph\u00e9rie de l\u2019Attique","official_name:mk":"\u0410\u0442\u0438\u043a\u0430 \u041e\u0431\u043b\u0430\u0441\u0442","population":"3828434","ref:nuts":"EL30","ref:nuts:2":"EL30","source:population":"\u0395\u039b\u03a3\u03a4\u0391\u03a4 2011","type":"boundary","wikidata":"Q758056"}},{"type":"area","id":3601398530,"tags":{"admin_level":"7","alt_name":"\u03a0\u03b5\u03b9\u03c1\u03b1\u03b9\u03ac\u03c2","alt_name:ca":"el Pireu","boundary":"administrative","contact:website":"http:\/\/www.pireasnet.gr\/","int_name":"Dimos Peiraios","name":"\u0394\u03ae\u03bc\u03bf\u03c2 \u03a0\u03b5\u03b9\u03c1\u03b1\u03b9\u03ce\u03c2","name:ca":"Municipi del Pireu","name:cs":"Pireus","name:el":"\u0394\u03ae\u03bc\u03bf\u03c2 \u03a0\u03b5\u03b9\u03c1\u03b1\u03b9\u03ce\u03c2","name:en":"Municipality of Piraeus","name:pl":"Pireus","name:sk":"Pireus","population":"163688","ref":"5101","source:population":"\u0395\u039b\u03a3\u03a4\u0391\u03a4 2011","type":"boundary","wikidata":"Q12875755","wikipedia":"el:\u0394\u03ae\u03bc\u03bf\u03c2 \u03a0\u03b5\u03b9\u03c1\u03b1\u03b9\u03ce\u03c2"}},{"type":"area","id":3602616826,"tags":{"admin_level":"6","boundary":"administrative","name":"\u03a0\u03b5\u03c1\u03b9\u03c6\u03b5\u03c1\u03b5\u03b9\u03b1\u03ba\u03ae \u0395\u03bd\u03cc\u03c4\u03b7\u03c4\u03b1 \u03a0\u03b5\u03b9\u03c1\u03b1\u03b9\u03ce\u03c2","name:ca":"Unitat perif\u00e8rica del Pireu","name:de":"Regionalbezirk Pir\u00e4us","name:el":"\u03a0\u03b5\u03c1\u03b9\u03c6\u03b5\u03c1\u03b5\u03b9\u03b1\u03ba\u03ae \u0395\u03bd\u03cc\u03c4\u03b7\u03c4\u03b1 \u03a0\u03b5\u03b9\u03c1\u03b1\u03b9\u03ce\u03c2","name:en":"Regional Unit of Piraeus","name:ru":"\u043f\u0435\u0440\u0438\u0444\u0435\u0440\u0438\u0439\u043d\u0430\u044f \u0435\u0434\u0438\u043d\u0438\u0446\u0430 \u041f\u0438\u0440\u0435\u0439","population":"448997","ref":"51","source:population":"\u0395\u039b\u03a3\u03a4\u0391\u03a4 2011","type":"boundary","wikidata":"Q1784863","wikipedia":"el:\u03a0\u03b5\u03c1\u03b9\u03c6\u03b5\u03c1\u03b5\u03b9\u03b1\u03ba\u03ae \u0395\u03bd\u03cc\u03c4\u03b7\u03c4\u03b1 \u03a0\u03b5\u03b9\u03c1\u03b1\u03b9\u03ce\u03c2"}},{"type":"area","id":3604016746,"tags":{"alt_name":"Balkan Peninsula","alt_name:af":"Balkanskiereiland","alt_name:an":"Peninsula Balcanica","alt_name:ast":"Pen\u00ednsula Balc\u00e1nica","alt_name:az":"Balkan yar\u0131madas\u0131","alt_name:be":"\u0411\u0430\u043b\u043a\u0430\u043d\u0441\u043a\u0456 \u043f\u0430\u045e\u0432\u043e\u0441\u0442\u0440\u0430\u045e","alt_name:bn":"\u09ac\u09b2\u0995\u09be\u09a8 \u0985\u099e\u09cd\u099a\u09b2","alt_name:ce":"\u0411\u0430\u043b\u043a\u0430\u043d\u0438\u0439\u043d \u0430\u0445\u0433\u04c0\u0430\u0439\u0440\u0435","alt_name:crh":"Balqan yar\u0131madas\u0131","alt_name:cs":"Balk\u00e1nsk\u00fd poloostrov","alt_name:cv":"\u0411\u0430\u043b\u043a\u0430\u043d \u00e7\u0443\u0440\u0443\u0442\u0440\u0430\u0432\u0115","alt_name:da":"Balkanhalv\u00f8en","alt_name:de":"Balkanhalbinsel","alt_name:dsb":"Balka\u0144ska po\u0142kupa","alt_name:el":"\u0392\u03b1\u03bb\u03ba\u03b1\u03bd\u03b9\u03ba\u03ae \u03c7\u03b5\u03c1\u03c3\u03cc\u03bd\u03b7\u03c3\u03bf\u03c2","alt_name:en":"Balkan Peninsula","alt_name:eo":"Balkana duoninsulo","alt_name:es":"Pen\u00ednsula balc\u00e1nica","alt_name:et":"Balkani poolsaar","alt_name:eu":"Balkanetako penintsula","alt_name:fo":"Balkanh\u00e1lvoyggin","alt_name:fur":"Peninsule balcaniche","alt_name:fy":"Balkanskiereil\u00e2n","alt_name:ga":"na St\u00e1it Bhalc\u00e1nacha","alt_name:gag":"Balkan yar\u0131madas\u0131","alt_name:gsw":"Balkanhalbinsle","alt_name:gv":"ny \u00c7heeraghyn Balkanagh","alt_name:he":"\u05d7\u05b6\u05d1\u05b6\u05dc \u05d4\u05b7\u05d1\u05b7\u05bc\u05dc\u05b0\u05e7\u05b8\u05df","alt_name:hi":"\u092c\u093e\u0932\u094d\u0915\u0928 \u092a\u094d\u0930\u093e\u092f\u0926\u094d\u0935\u0940\u092a","alt_name:hr":"Balkanski poluotok","alt_name:hsb":"Balkanska po\u0142kupa","alt_name:hu":"Balk\u00e1n-f\u00e9lsziget","alt_name:hy":"\u0532\u0561\u056c\u056f\u0561\u0576\u0575\u0561\u0576 \u0569\u0565\u0580\u0561\u056f\u0572\u0566\u056b","alt_name:it":"Penisola balcanica","alt_name:kk":"\u0411\u0430\u043b\u049b\u0430\u043d \u0442\u04af\u0431\u0435\u0433\u0456","alt_name:ku":"N\u00eevgirava Balkan\u00ea","alt_name:lad":"Peninsola Balkanika","alt_name:lb":"Balkanhallefinsel","alt_name:li":"Balkansjiereiland","alt_name:lt":"Balkan\u0173 pusiasalis","alt_name:lv":"Balk\u0101nu pussala","alt_name:mk":"\u0411\u0430\u043b\u043a\u0430\u043d\u0441\u043a\u0438\u043e\u0442 \u041f\u043e\u043b\u0443\u043e\u0441\u0442\u0440\u043e\u0432","alt_name:mn":"\u0411\u0430\u043b\u043a\u0430\u043d\u044b \u0445\u043e\u0439\u0433","alt_name:nap":"Penisula balcaneca","alt_name:nl":"Balkanschiereiland","alt_name:os":"\u0411\u0430\u043b\u043a\u0430\u043d\u044b \u00e6\u0440\u0434\u00e6\u0433\u0441\u0430\u043a\u044a\u0430\u0434\u0430\u0445","alt_name:pl":"P\u00f3\u0142wysep Ba\u0142ka\u0144ski","alt_name:pnt":"\u0392\u03b1\u03bb\u03ba\u03b1\u03bd\u03b9\u03ba\u03cc\u03bd \u03b7 \u03c7\u03b5\u03c1\u03c3\u03cc\u03bd\u03b7\u03c3\u03bf\u03c2","alt_name:pt":"Pen\u00ednsula Balc\u00e2nica","alt_name:ro":"Peninsula Balcanic\u0103","alt_name:ru":"\u0411\u0430\u043b\u043a\u0430\u043d\u0441\u043a\u0438\u0439 \u043f\u043e\u043b\u0443\u043e\u0441\u0442\u0440\u043e\u0432","alt_name:scn":"Pin\u00ecsula balc\u00e0nica","alt_name:sco":"Balkan Peninsulae","alt_name:sk":"Balk\u00e1nsky polostrov","alt_name:sl":"Balkanski polotok","alt_name:sq":"Gadishulli Ballkanik","alt_name:sr":"\u0411\u0430\u043b\u043a\u0430\u043d\u0441\u043a\u043e \u043f\u043e\u043b\u0443\u043e\u0441\u0442\u0440\u0432\u043e","alt_name:sr-Latn":"Balkansko poluostrvo","alt_name:sw":"Rasi ya Balkani","alt_name:szl":"Boukany","alt_name:ta":"\u0baa\u0bbe\u0bb2\u0bcd\u0b95\u0ba9\u0bcd \u0ba4\u0bc0\u0baa\u0b95\u0bb1\u0bcd\u0baa\u0bae\u0bcd","alt_name:th":"\u0e04\u0e32\u0e1a\u0e2a\u0e21\u0e38\u0e17\u0e23\u0e1a\u0e2d\u0e25\u0e02\u0e48\u0e32\u0e19","alt_name:tk":"Balkan \u00fdarymadasy","alt_name:tr":"Balkan Yar\u0131madas\u0131","alt_name:tt":"\u0411\u0430\u043b\u043a\u0430\u043d \u044f\u0440\u044b\u043c\u0443\u0442\u0440\u0430\u0432\u044b","alt_name:uk":"\u0411\u0430\u043b\u043a\u0430\u0301\u043d\u0441\u044c\u043a\u0438\u0439 \u043f\u0456\u0432\u043e\u0441\u0442\u0440\u0456\u0432","alt_name:vec":"Pen\u00ecxo\u0142a balc\u00e0nega","alt_name:yi":"\u05d1\u05d0\u05dc\u05e7\u05d0\u05df \u05dc\u05e2\u05e0\u05d3\u05e2\u05e8","alt_name:za":"Bahwjgan buendauj","boundary":"land_area","name":"Balkans","name:af":"Balkan","name:an":"Balcans","name:ar":"\u0627\u0644\u0628\u0644\u0642\u0627\u0646","name:arz":"\u0627\u0644\u0628\u0644\u0642\u0627\u0646","name:ast":"Balcanes","name:az":"Balkanlar","name:be":"\u0411\u0430\u043b\u043a\u0430\u043d","name:br":"Balkanio\u00f9","name:bs":"Balkan","name:ca":"Balcans","name:ckb":"\u0628\u0627\u0644\u06a9\u0627\u0646","name:crh":"Balqanlar","name:cs":"Balk\u00e1n","name:cy":"Balcanau","name:da":"Balkan","name:de":"Balkan","name:dsb":"Balkan","name:el":"\u0392\u03b1\u03bb\u03ba\u03ac\u03bd\u03b9\u03b1","name:en":"Balkans","name:es":"Balcanes","name:et":"Balkan","name:eu":"Balkanak","name:fa":"\u0628\u0627\u0644\u06a9\u0627\u0646","name:fi":"Balkan","name:fo":"Balkan","name:fr":"Balkans","name:frp":"Balcans","name:fur":"Balcans","name:fy":"Balkan","name:ga":"na Balc\u00e1in","name:gag":"Balkannar","name:gd":"na Balcain","name:gl":"Balc\u00e1ns","name:gsw":"Balkan","name:gv":"Balkanagh","name:he":"\u05d4\u05b7\u05d1\u05b7\u05bc\u05dc\u05b0\u05e7\u05b8\u05df","name:hi":"\u092c\u093e\u0932\u094d\u0915\u0928","name:hr":"Balkan","name:hsb":"Balkan","name:hu":"Balk\u00e1n","name:hy":"\u0532\u0561\u056c\u056f\u0561\u0576\u0575\u0561\u0576","name:id":"Balkan","name:is":"Balkanskagi","name:it":"Balcani","name:ja":"\u30d0\u30eb\u30ab\u30f3\u534a\u5cf6","name:jv":"Balkan","name:ka":"\u10d1\u10d0\u10da\u10d9\u10d0\u10dc\u10d4\u10d7\u10d8\u10e1 \u10dc\u10d0\u10ee\u10d4\u10d5\u10d0\u10e0\u10d9\u10e3\u10dc\u10eb\u10e3\u10da\u10d8","name:kk":"\u0411\u0430\u043b\u049b\u0430\u043d","name:ko":"\ubc1c\uce78 \ubc18\ub3c4","name:ku":"Balkan","name:la":"Balcania","name:lad":"Balkanos","name:lb":"Balkan","name:li":"Balkan","name:lmo":"Balcan","name:lt":"Balkanai","name:lv":"Balk\u0101ni","name:mg":"Balkana","name:mk":"\u0411\u0430\u043b\u043a\u0430\u043d","name:ml":"\u0d2c\u0d3e\u0d7e\u0d15\u0d4d\u0d15\u0d7b","name:mn":"\u0411\u0430\u043b\u043a\u0430\u043d","name:mr":"\u092c\u093e\u0932\u094d\u0915\u0928","name:ms":"Balkan","name:nap":"Balcane","name:new":"\u092c\u093e\u0932\u094d\u0915\u0928","name:nl":"Balkan","name:nn":"Balkan","name:no":"Balkan","name:nrm":"Balkans","name:oc":"Balcans","name:os":"\u0411\u0430\u043b\u043a\u0430\u043d\u044b","name:pa":"\u0a2c\u0a3e\u0a32\u0a15\u0a28","name:pl":"Ba\u0142kany","name:pnb":"\u0628\u0644\u0642\u0627\u0646","name:pnt":"\u0392\u03b1\u03bb\u03ba\u03ac\u03bd\u03b9\u03b1","name:ps":"\u0628\u0627\u0644\u06a9\u0627\u0646","name:pt":"B\u00e1lc\u00e3s","name:ro":"Balcani","name:ru":"\u0411\u0430\u043b\u043a\u0430\u043d\u0441\u043a\u0438\u0439 \u043f\u043e\u043b\u0443\u043e\u0441\u0442\u0440\u043e\u0432","name:sah":"\u0411\u0430\u043b\u043a\u0430\u043d\u043d\u0430\u0440","name:sc":"Balc\u00e0nus","name:scn":"Balcani","name:sco":"Balkans","name:se":"Balkannj\u00e1rgga","name:sh":"Balkan","name:sk":"Balk\u00e1n","name:sl":"Balkan","name:sq":"Ballkani","name:sr":"\u0411\u0430\u043b\u043a\u0430\u043d","name:sr-Latn":"Balkan","name:sv":"Balkanhalv\u00f6n","name:sw":"Balkani","name:szl":"Ba\u0142kany","name:ta":"\u0baa\u0bbe\u0bb2\u0bcd\u0b95\u0ba9\u0bcd \u0b95\u0bc1\u0b9f\u0bbe","name:th":"\u0e1a\u0e2d\u0e25\u0e02\u0e48\u0e32\u0e19","name:tk":"Balkan","name:tl":"Balkan","name:tr":"Balkanlar","name:tt":"\u0411\u0430\u043b\u043a\u0430\u043d","name:ug":"\u0628\u0627\u0644\u0642\u0627\u0646\u0644\u0627\u0631","name:uk":"\u0411\u0430\u043b\u043a\u0430\u043d\u0438","name:ur":"\u0628\u0644\u0642\u0627\u0646","name:vec":"Balcani","name:vi":"Balkan","name:war":"Balkan","name:zh":"\u5df4\u5c14\u5e72\u534a\u5c9b \/ \u5df4\u723e\u5e79\u534a\u5cf6","name:zh-Hans":"\u5df4\u5c14\u5e72\u534a\u5c9b","name:zh-Hant":"\u5df4\u723e\u5e79\u534a\u5cf6","name_with_accent:ru":"\u0411\u0430\u043b\u043a\u0430\u0301\u043d\u0441\u043a\u0438\u0439 \u043f\u043e\u043b\u0443\u043e\u0301\u0441\u0442\u0440\u043e\u0432","natural":"peninsula","type":"boundary","wikidata":"Q23522","wikipedia":"en:Balkans"}},{"type":"area","id":3604477553,"tags":{"admin_level":"4","alt_name:ca":"Administraci\u00f3 descentralitzada d\u2019\u00c0tica","boundary":"administrative","contact:website":"http:\/\/www.apdattikis.gov.gr\/","name":"\u0391\u03c0\u03bf\u03ba\u03b5\u03bd\u03c4\u03c1\u03c9\u03bc\u03ad\u03bd\u03b7 \u0394\u03b9\u03bf\u03af\u03ba\u03b7\u03c3\u03b7 \u0391\u03c4\u03c4\u03b9\u03ba\u03ae\u03c2","name:bg":"\u0410\u0442\u0438\u043a\u0430","name:ca":"\u00c0tica","name:de":"Attika","name:el":"\u0391\u03c0\u03bf\u03ba\u03b5\u03bd\u03c4\u03c1\u03c9\u03bc\u03ad\u03bd\u03b7 \u0394\u03b9\u03bf\u03af\u03ba\u03b7\u03c3\u03b7 \u0391\u03c4\u03c4\u03b9\u03ba\u03ae\u03c2","name:en":"Attica","name:fr":"Attique","name:mk":"\u0410\u0442\u0438\u043a\u0430","name:nl":"Attica","name:pl":"Attyka","name:ru":"\u0410\u0442\u0442\u0438\u043a\u0430","name:tr":"Attika","official_name":"\u0391\u03c0\u03bf\u03ba\u03b5\u03bd\u03c4\u03c1\u03c9\u03bc\u03ad\u03bd\u03b7 \u0394\u03b9\u03bf\u03af\u03ba\u03b7\u03c3\u03b7 \u0391\u03c4\u03c4\u03b9\u03ba\u03ae\u03c2","official_name:bg":"\u0414\u0435\u0446\u0435\u043d\u0442\u0440\u0430\u043b\u0438\u0437\u0438\u0440\u0430\u043d\u043e \u0430\u0434\u043c\u0438\u043d\u0438\u0441\u0442\u0440\u0438\u0440\u0430\u043d\u0435 \u0410\u0442\u0438\u043a\u0430","official_name:ca":"Administraci\u00f3 descentralitzada de \u00c0tica","official_name:de":"Dezentralisierte Verwaltung Attika","official_name:el":"\u0391\u03c0\u03bf\u03ba\u03b5\u03bd\u03c4\u03c1\u03c9\u03bc\u03ad\u03bd\u03b7 \u0394\u03b9\u03bf\u03af\u03ba\u03b7\u03c3\u03b7 \u0391\u03c4\u03c4\u03b9\u03ba\u03ae\u03c2","official_name:en":"Decentralized Administration of Attica","official_name:fr":"Dioc\u00e8se d\u00e9centralis\u00e9 de l'Attique","official_name:mk":"\u0414\u0435\u0446\u0435\u043d\u0442\u0440\u0430\u043b\u0438\u0437\u0438\u0440\u0430\u043d\u0430 \u0430\u0434\u043c\u0438\u043d\u0438\u0441\u0442\u0440\u0430\u0446\u0438\u0458\u0430 \u0410\u0442\u0438\u043a\u0430","official_name:pl":"Administracja Attyka","official_name:ru":"\u0414\u0435\u0446\u0435\u043d\u0442\u0440\u0430\u043b\u0438\u0437\u043e\u0432\u0430\u043d\u043d\u0430\u044f \u0430\u0434\u043c\u0438\u043d\u0438\u0441\u0442\u0440\u0430\u0446\u0438\u044f \u0410\u0442\u0442\u0438\u043a\u0438","official_name:tr":"Attika Merkezi Olmayan Idaresi","population":"3828434","source:population":"\u0395\u039b\u03a3\u03a4\u0391\u03a4 2011","type":"boundary","wikidata":"Q9161823","wikipedia":"el:\u0391\u03c0\u03bf\u03ba\u03b5\u03bd\u03c4\u03c1\u03c9\u03bc\u03ad\u03bd\u03b7 \u0394\u03b9\u03bf\u03af\u03ba\u03b7\u03c3\u03b7 \u0391\u03c4\u03c4\u03b9\u03ba\u03ae\u03c2"}},{"type":"area","id":3605685658,"tags":{"alt_name:cs":"Attika","alt_name:nl":"Attika","alt_name:nn":"Attika","alt_name:sk":"Attiki","name":"\u0391\u03c4\u03c4\u03b9\u03ba\u03ae","name:als":"Attika","name:am":"\u12a0\u1272\u12ab","name:ar":"\u0623\u062a\u064a\u0643\u0627","name:az":"Attika","name:be":"\u0410\u0442\u044b\u043a\u0430","name:bg":"\u0410\u0442\u0438\u043a\u0430","name:br":"Attika","name:ca":"\u00c0tica","name:cs":"Atika","name:cy":"Attica","name:da":"Attika","name:de":"Attika","name:el":"\u0391\u03c4\u03c4\u03b9\u03ba\u03ae","name:en":"Attica","name:eo":"Atiko","name:es":"\u00c1tica","name:eu":"Atika","name:fa":"\u0622\u062a\u06cc\u06a9","name:fi":"Attika","name:fr":"Attique","name:ga":"an Ataic","name:gl":"\u00c1tica","name:he":"\u05d0\u05b7\u05d8\u05b4\u05d9\u05e7\u05b8\u05d4","name:hu":"Attika","name:hy":"\u0531\u057f\u057f\u056b\u056f\u0565","name:id":"Attika","name:it":"Attica","name:ja":"\u30a2\u30c3\u30c6\u30a3\u30ab","name:jv":"Attika","name:kk":"\u0410\u0301\u0442\u0442\u0438\u043a\u0430","name:ko":"\uc544\ud2f0\ud0a4","name:la":"Attica","name:li":"Attika","name:lt":"Atika","name:lv":"Atika","name:mk":"\u0410\u0442\u0438\u043a\u0430","name:ms":"Attika","name:nl":"Attica","name:nn":"Attik\u00ed","name:no":"Attika","name:os":"\u0410\u0442\u0442\u0438\u043a\u00e6","name:pl":"Attyka","name:pt":"\u00c1tica","name:ro":"Attica","name:ru":"\u0410\u0301\u0442\u0442\u0438\u043a\u0430","name:scn":"\u00c0ttica","name:sco":"Attica","name:sh":"Atika","name:sk":"Atika","name:sl":"Atika","name:sr":"\u0410\u0442\u0438\u043a\u0430","name:sv":"Attika","name:tg":"\u0410\u0442\u0442\u0438\u043a\u0430","name:uk":"\u0410\u0301\u0442\u0442\u0438\u043a\u0430","name:uz":"Attika","name:vec":"Atica","name:vi":"Attica","name:war":"Attika","name:yi":"\u05d0\u05d8\u05d9\u05e7\u05e2","name:zh":"\u963f\u63d0\u5361","natural":"peninsula","type":"multipolygon","wikidata":"Q122443","wikipedia":"el:\u0391\u03c4\u03c4\u03b9\u03ba\u03ae"}},{"type":"area","id":3606903343,"tags":{"alt_name":"\u039c\u03b5\u03b3\u03ac\u03bb\u03bf\u03c2 \u0394\u03b1\u03ba\u03c4\u03cd\u03bb\u03b9\u03bf\u03c2","alt_name:en":"Big Ring","boundary":"low_emission_zone","description":"Restricted area for motor vehicles during times of very high pollution.","name":"\u039c\u03b5\u03b3\u03ac\u03bb\u03bf\u03c2 \u0394\u03b1\u03ba\u03c4\u03cd\u03bb\u03b9\u03bf\u03c2 \u0391\u03b8\u03b7\u03bd\u03ce\u03bd","name:en":"Big Athens Ring","type":"boundary","website":"http:\/\/www.odigostoupoliti.eu\/daktilios\/","wikidata":"Q24915178","wikipedia":"en:Daktylios","wikipedia:el":"\u0394\u03b1\u03ba\u03c4\u03cd\u03bb\u03b9\u03bf\u03c2 \u0391\u03b8\u03b7\u03bd\u03ce\u03bd"}},{"type":"area","id":3612122224,"tags":{"admin_level":"9","boundary":"administrative","name":"4\u03b7 \u039a\u03bf\u03b9\u03bd\u03cc\u03c4\u03b7\u03c4\u03b1 \u03a0\u03b5\u03b9\u03c1\u03b1\u03b9\u03ac","name:el":"4\u03b7 \u039a\u03bf\u03b9\u03bd\u03cc\u03c4\u03b7\u03c4\u03b1 \u03a0\u03b5\u03b9\u03c1\u03b1\u03b9\u03ac","name:en":"4th District of Piraeus","source":"\u0394\u03b9\u03b1\u03c3\u03c4\u03b1\u03cd\u03c1\u03c9\u03c3\u03b7 \u03b4\u03b9\u03b1\u03c6\u03cc\u03c1\u03c9\u03bd \u03c7\u03b1\u03c1\u03c4\u03ce\u03bd","type":"boundary"}},{"type":"node","id":805848141,"lat":37.9482122,"lon":23.6565213},{"type":"node","id":805848357,"lat":37.9474618,"lon":23.6578162},{"type":"node","id":1689193915,"lat":37.9475523,"lon":23.6576633},{"type":"node","id":1689193916,"lat":37.948047,"lon":23.6565753},{"type":"node","id":1689193944,"lat":37.9478251,"lon":23.6571157},{"type":"node","id":1689193958,"lat":37.9479498,"lon":23.6567685},{"type":"node","id":2253053245,"lat":37.947985,"lon":23.6566858},{"type":"node","id":2253053265,"lat":37.9480214,"lon":23.6566133},{"type":"node","id":2253053316,"lat":37.9480846,"lon":23.6565392},{"type":"node","id":2253053399,"lat":37.9482406,"lon":23.6565289},{"type":"node","id":2253053452,"lat":37.9483695,"lon":23.6566309},{"type":"node","id":2320944102,"lat":37.9486078,"lon":23.6581751},{"type":"node","id":3879245497,"lat":37.9474933,"lon":23.6577628},{"type":"node","id":3879245553,"lat":37.9480662,"lon":23.6565542},{"type":"node","id":3879245659,"lat":37.9481112,"lon":23.6565289},{"type":"node","id":3879245666,"lat":37.9481628,"lon":23.6565172},{"type":"node","id":3879245687,"lat":37.9482676,"lon":23.656548},{"type":"node","id":3997553185,"lat":37.9474163,"lon":23.6578868},{"type":"node","id":3997553205,"lat":37.9476019,"lon":23.6575704},{"type":"node","id":3997553210,"lat":37.9476645,"lon":23.65745},{"type":"node","id":3997553222,"lat":37.9478708,"lon":23.6570133},{"type":"node","id":3997553229,"lat":37.9479146,"lon":23.6568546},{"type":"node","id":805848603,"lat":37.9468589,"lon":23.6607548},{"type":"node","id":805848664,"lat":37.9460513,"lon":23.6599488},{"type":"node","id":1689193903,"lat":37.9450838,"lon":23.6614201},{"type":"node","id":1689193956,"lat":37.9467416,"lon":23.658904},{"type":"node","id":1689193960,"lat":37.9467935,"lon":23.6588121},{"type":"node","id":1711091101,"lat":37.946716,"lon":23.6590049},{"type":"node","id":2253052912,"lat":37.9455798,"lon":23.6606602},{"type":"node","id":2253053075,"lat":37.9467318,"lon":23.6589291},{"type":"node","id":2320944050,"lat":37.9480187,"lon":23.6590371},{"type":"node","id":3997550022,"lat":37.9446714,"lon":23.6620382},{"type":"node","id":3997550024,"lat":37.9447049,"lon":23.6621259},{"type":"node","id":3997550040,"lat":37.9450644,"lon":23.6614328},{"type":"node","id":3997550050,"lat":37.9451903,"lon":23.6612549},{"type":"node","id":3997550055,"lat":37.9454504,"lon":23.6608404},{"type":"node","id":3997552863,"lat":37.9458272,"lon":23.66141},{"type":"node","id":3997552867,"lat":37.9459946,"lon":23.6600325},{"type":"node","id":3997552870,"lat":37.9460814,"lon":23.6599028},{"type":"node","id":3997552872,"lat":37.9461274,"lon":23.6598511},{"type":"node","id":3997552880,"lat":37.9462931,"lon":23.6596944},{"type":"node","id":3997552882,"lat":37.946277,"lon":23.6597078},{"type":"node","id":3997552884,"lat":37.9463252,"lon":23.6596588},{"type":"node","id":3997552885,"lat":37.9463104,"lon":23.6596708},{"type":"node","id":3997552886,"lat":37.9463476,"lon":23.6596283},{"type":"node","id":3997552888,"lat":37.9463339,"lon":23.6596389},{"type":"node","id":3997552889,"lat":37.9463933,"lon":23.6610336},{"type":"node","id":3997552892,"lat":37.9466238,"lon":23.6591981},{"type":"node","id":3997552896,"lat":37.9466908,"lon":23.6591066},{"type":"node","id":3997552898,"lat":37.9467021,"lon":23.6590741},{"type":"node","id":3997552899,"lat":37.9466792,"lon":23.659114},{"type":"node","id":3997552900,"lat":37.9466804,"lon":23.6608568},{"type":"node","id":3997552901,"lat":37.9467093,"lon":23.6590426},{"type":"node","id":3997552903,"lat":37.946689,"lon":23.6608794},{"type":"node","id":3997552905,"lat":37.9467229,"lon":23.6589602},{"type":"node","id":3997552912,"lat":37.9467959,"lon":23.6589366},{"type":"node","id":3997552913,"lat":37.9468287,"lon":23.6587516},{"type":"node","id":3997552915,"lat":37.9468073,"lon":23.6607787},{"type":"node","id":3997552917,"lat":37.9468183,"lon":23.6607997},{"type":"node","id":3997552919,"lat":37.9468448,"lon":23.6607372},{"type":"node","id":3997552933,"lat":37.946945,"lon":23.6592226},{"type":"node","id":3997552939,"lat":37.9470113,"lon":23.6604853},{"type":"node","id":3997552940,"lat":37.9470152,"lon":23.6593572},{"type":"node","id":3997552943,"lat":37.9470674,"lon":23.6594574},{"type":"node","id":3997552944,"lat":37.9470832,"lon":23.6594877},{"type":"node","id":3997552949,"lat":37.9471592,"lon":23.6596335},{"type":"node","id":3997553161,"lat":37.9472182,"lon":23.6598077},{"type":"node","id":3997553165,"lat":37.9472407,"lon":23.6597898},{"type":"node","id":3997553170,"lat":37.9472974,"lon":23.6600526},{"type":"node","id":3997553176,"lat":37.947316,"lon":23.6600055},{"type":"node","id":3997553178,"lat":37.9473213,"lon":23.6600163},{"type":"node","id":3997553190,"lat":37.9474333,"lon":23.659886},{"type":"node","id":3997553251,"lat":37.9481188,"lon":23.6588997},{"type":"node","id":9706137987,"lat":37.9459531,"lon":23.6600817},{"type":"node","id":805848245,"lat":37.9489387,"lon":23.6570117},{"type":"node","id":805848282,"lat":37.9491656,"lon":23.6573416},{"type":"node","id":805848431,"lat":37.948714,"lon":23.6569379},{"type":"node","id":805848530,"lat":37.9491407,"lon":23.6572022},{"type":"node","id":2255409176,"lat":37.9491709,"lon":23.6572323},{"type":"node","id":2255409180,"lat":37.9491839,"lon":23.6572661},{"type":"node","id":2320944107,"lat":37.9488918,"lon":23.6569871},{"type":"node","id":2320944108,"lat":37.9489163,"lon":23.6569987},{"type":"node","id":2320944112,"lat":37.9491843,"lon":23.6572861},{"type":"node","id":3879245712,"lat":37.9487412,"lon":23.6569489},{"type":"node","id":3879245714,"lat":37.9487638,"lon":23.6569549},{"type":"node","id":3879245727,"lat":37.9491747,"lon":23.6573211},{"type":"node","id":3879245728,"lat":37.9491787,"lon":23.6572455},{"type":"node","id":3879245729,"lat":37.94918,"lon":23.6573075}]}