{"version":0.6,"generator":"Overpass API 0.7.61.5 4133829e","osm3s":{"timestamp_osm_base":"2023-08-16T11:07:35Z","copyright":"The data included in this document is from www.openstreetmap.org. The data is made available under ODbL."},"elements":[{"type":"node","id":961044083,"lat":37.9992878,"lon":23.7317856,"tags":{"highway":"crossing"}},{"type":"node","id":1628331411,"lat":37.9992739,"lon":23.7316308,"tags":{"addr:city":"\u0391\u03b8\u03ae\u03bd\u03b1","addr:country":"GR","addr:housenumber":"161","addr:postcode":"11251","addr:street":"3\u03b7\u03c2 \u03a3\u03b5\u03c0\u03c4\u03b5\u03bc\u03b2\u03c1\u03af\u03bf\u03c5"}},{"type":"node","id":1628331418,"lat":37.9995125,"lon":23.7316889,"tags":{"addr:city":"\u0391\u03b8\u03ae\u03bd\u03b1","addr:country":"GR","addr:housenumber":"163","addr:postcode":"11251","addr:street":"3\u03b7\u03c2 \u03a3\u03b5\u03c0\u03c4\u03b5\u03bc\u03b2\u03c1\u03af\u03bf\u03c5"}},{"type":"node","id":1628331432,"lat":37.9991825,"lon":23.7318831,"tags":{"addr:city":"\u0391\u03b8\u03ae\u03bd\u03b1","addr:country":"GR","addr:housenumber":"168","addr:postcode":"11251","addr:street":"3\u03b7\u03c2 \u03a3\u03b5\u03c0\u03c4\u03b5\u03bc\u03b2\u03c1\u03af\u03bf\u03c5"}},{"type":"node","id":1628331441,"lat":37.9994359,"lon":23.7319635,"tags":{"addr:city":"\u0391\u03b8\u03ae\u03bd\u03b1","addr:country":"GR","addr:housenumber":"170","addr:postcode":"11251","addr:street":"3\u03b7\u03c2 \u03a3\u03b5\u03c0\u03c4\u03b5\u03bc\u03b2\u03c1\u03af\u03bf\u03c5"}},{"type":"node","id":2786685340,"lat":37.9995508,"lon":23.7318515,"tags":{"bus":"yes","name":"\u039a\u0395\u03a6\u0391\u039b\u039b\u0397\u039d\u0399\u0391\u03a3","operator":"\u039f\u0391\u03a3\u0391","passenger_information_display":"no","public_transport":"stop_position","ref":"060429","shelter":"no"}},{"type":"node","id":4396695145,"lat":37.9992254,"lon":23.7319598,"tags":{"addr:city":"\u0391\u03b8\u03ae\u03bd\u03b1","addr:housenumber":"63","addr:street":"\u039a\u03b5\u03c6\u03b1\u03bb\u03bb\u03b7\u03bd\u03af\u03b1\u03c2"}},{"type":"node","id":5872459673,"lat":37.9995262,"lon":23.7313222,"tags":{"addr:city":"\u0391\u03b8\u03ae\u03bd\u03b1","addr:housenumber":"62","addr:street":"\u039a\u03b5\u03c6\u03b1\u03bb\u03bb\u03b7\u03bd\u03af\u03b1\u03c2"}},{"type":"node","id":5872459674,"lat":37.9994522,"lon":23.7316601,"tags":{"addr:city":"\u0391\u03b8\u03ae\u03bd\u03b1","addr:housenumber":"58","addr:street":"\u039a\u03b5\u03c6\u03b1\u03bb\u03bb\u03b7\u03bd\u03af\u03b1\u03c2"}},{"type":"node","id":6279912232,"lat":37.9992714,"lon":23.7317815,"tags":{"highway":"traffic_signals","traffic_signals":"signal"}},{"type":"node","id":6279912233,"lat":37.9993173,"lon":23.731897,"tags":{"highway":"traffic_signals","traffic_signals":"signal"}},{"type":"node","id":9365702350,"lat":37.9995366,"lon":23.7318974,"tags":{"bus":"yes","highway":"bus_stop","name":"\u039a\u0395\u03a6\u0391\u039b\u039b\u0397\u039d\u0399\u0391\u03a3","network":"\u039f\u0391\u03a3\u0391","network:el":"\u039f\u0391\u03a3\u0391","network:en":"OASA","network:wikidata":"Q1814382","operator":"\u039f\u0391\u03a3\u0391","public_transport":"platform","ref":"060429","route_ref":"054"}},{"type":"node","id":9775489203,"lat":37.9990853,"lon":23.7319038,"tags":{"addr:city":"\u0391\u03b8\u03ae\u03bd\u03b1","addr:housenumber":"166","addr:street":"3\u03b7\u03c2 \u03a3\u03b5\u03c0\u03c4\u03b5\u03bc\u03b2\u03c1\u03af\u03bf\u03c5","name":"Monte Carlo 1","shop":"video"}},{"type":"node","id":10260389965,"lat":37.9991833,"lon":23.7315769,"tags":{"addr:city":"\u0391\u03b8\u03ae\u03bd\u03b1","addr:housenumber":"159","addr:street":"3\u03b7\u03c2 \u03a3\u03b5\u03c0\u03c4\u03b5\u03bc\u03b2\u03c1\u03af\u03bf\u03c5","clothes":"women","name":"Maria Psarianou","shop":"clothes"}}]}