{"version":0.6,"generator":"Overpass API 0.7.61.5 4133829e","osm3s":{"timestamp_osm_base":"2023-08-16T11:24:11Z","copyright":"The data included in this document is from www.openstreetmap.org. The data is made available under ODbL."},"elements":[{"type":"node","id":1659513216,"lat":37.9936565,"lon":23.7227533,"tags":{"addr:city":"\u0391\u03b8\u03ae\u03bd\u03b1","addr:country":"GR","addr:housenumber":"87","addr:postcode":"10440","addr:street":"\u039b\u03b9\u03bf\u03c3\u03af\u03c9\u03bd"}},{"type":"node","id":1659513238,"lat":37.9936118,"lon":23.7230184,"tags":{"addr:city":"\u0391\u03b8\u03ae\u03bd\u03b1","addr:country":"GR","addr:housenumber":"92","addr:postcode":"10440","addr:street":"\u039b\u03b9\u03bf\u03c3\u03af\u03c9\u03bd","brand":"\u039f\u03a0\u0391\u03a0","brand:wikidata":"Q2007823","name":"\u039f\u03a0\u0391\u03a0","shop":"bookmaker"}},{"type":"node","id":1659513249,"lat":37.9936738,"lon":23.7230123,"tags":{"addr:city":"\u0391\u03b8\u03ae\u03bd\u03b1","addr:country":"GR","addr:housenumber":"94","addr:postcode":"10440","addr:street":"\u039b\u03b9\u03bf\u03c3\u03af\u03c9\u03bd"}},{"type":"node","id":1659513253,"lat":37.9939364,"lon":23.7229931,"tags":{"addr:city":"\u0391\u03b8\u03ae\u03bd\u03b1","addr:country":"GR","addr:housenumber":"96","addr:postcode":"10440","addr:street":"\u039b\u03b9\u03bf\u03c3\u03af\u03c9\u03bd"}},{"type":"node","id":2517499191,"lat":37.9937356,"lon":23.7234732,"tags":{"addr:city":"\u0391\u03b8\u03ae\u03bd\u03b1","addr:country":"GR","addr:housenumber":"1","addr:postcode":"10440","addr:street":"\u0391\u03b4\u03ac\u03bd\u03c9\u03bd"}},{"type":"node","id":2517499247,"lat":37.9936113,"lon":23.7235331,"tags":{"addr:city":"\u0391\u03b8\u03ae\u03bd\u03b1","addr:country":"GR","addr:housenumber":"15","addr:postcode":"10440","addr:street":"\u0391\u03c1\u03b9\u03c3\u03c4\u03bf\u03bc\u03ad\u03bd\u03bf\u03c5\u03c2"}},{"type":"node","id":2517499256,"lat":37.9937122,"lon":23.7235118,"tags":{"addr:city":"\u0391\u03b8\u03ae\u03bd\u03b1","addr:country":"GR","addr:housenumber":"17","addr:postcode":"10440","addr:street":"\u0391\u03c1\u03b9\u03c3\u03c4\u03bf\u03bc\u03ad\u03bd\u03bf\u03c5\u03c2"}},{"type":"node","id":2517499264,"lat":37.9938627,"lon":23.723525,"tags":{"addr:city":"\u0391\u03b8\u03ae\u03bd\u03b1","addr:country":"GR","addr:housenumber":"19","addr:postcode":"10440","addr:street":"\u0391\u03c1\u03b9\u03c3\u03c4\u03bf\u03bc\u03ad\u03bd\u03bf\u03c5\u03c2"}},{"type":"node","id":2517499268,"lat":37.9938348,"lon":23.7234812,"tags":{"addr:city":"\u0391\u03b8\u03ae\u03bd\u03b1","addr:country":"GR","addr:housenumber":"2","addr:postcode":"10440","addr:street":"\u0391\u03b4\u03ac\u03bd\u03c9\u03bd"}},{"type":"node","id":2517499278,"lat":37.9939366,"lon":23.7235251,"tags":{"addr:city":"\u0391\u03b8\u03ae\u03bd\u03b1","addr:country":"GR","addr:housenumber":"21","addr:postcode":"10440","addr:street":"\u0391\u03c1\u03b9\u03c3\u03c4\u03bf\u03bc\u03ad\u03bd\u03bf\u03c5\u03c2"}},{"type":"node","id":2517499286,"lat":37.9941957,"lon":23.7235565,"tags":{"addr:city":"\u0391\u03b8\u03ae\u03bd\u03b1","addr:country":"GR","addr:housenumber":"23","addr:postcode":"10440","addr:street":"\u0391\u03c1\u03b9\u03c3\u03c4\u03bf\u03bc\u03ad\u03bd\u03bf\u03c5\u03c2"}},{"type":"node","id":2517499307,"lat":37.993744,"lon":23.7233062,"tags":{"addr:city":"\u0391\u03b8\u03ae\u03bd\u03b1","addr:country":"GR","addr:housenumber":"3","addr:postcode":"10440","addr:street":"\u0391\u03b4\u03ac\u03bd\u03c9\u03bd"}},{"type":"node","id":2517499360,"lat":37.9938408,"lon":23.7233505,"tags":{"addr:city":"\u0391\u03b8\u03ae\u03bd\u03b1","addr:country":"GR","addr:housenumber":"4","addr:postcode":"10440","addr:street":"\u0391\u03b4\u03ac\u03bd\u03c9\u03bd"}},{"type":"node","id":2517499393,"lat":37.9937641,"lon":23.7230587,"tags":{"addr:city":"\u0391\u03b8\u03ae\u03bd\u03b1","addr:country":"GR","addr:housenumber":"5","addr:postcode":"10440","addr:street":"\u0391\u03b4\u03ac\u03bd\u03c9\u03bd"}},{"type":"node","id":2517499416,"lat":37.993842,"lon":23.7230907,"tags":{"addr:city":"\u0391\u03b8\u03ae\u03bd\u03b1","addr:country":"GR","addr:housenumber":"6","addr:postcode":"10440","addr:street":"\u0391\u03b4\u03ac\u03bd\u03c9\u03bd"}},{"type":"node","id":2666004411,"lat":37.9939554,"lon":23.7228615,"tags":{"bench":"yes","bin":"no","bus":"yes","highway":"bus_stop","lit":"no","name":"\u03a0\u0391\u0399\u03a9\u039d\u0399\u039f\u03a5","network":"\u039f\u0391\u03a3\u0391","network:el":"\u039f\u0391\u03a3\u0391","network:en":"OASA","network:wikidata":"Q1814382","operator":"\u039f\u0391\u03a3\u0391","passenger_information_display":"yes","public_transport":"platform","ref":"060125","shelter":"yes"}},{"type":"node","id":2667750602,"lat":37.9938428,"lon":23.7227516,"tags":{"bench":"yes","bin":"yes","bus":"yes","highway":"bus_stop","lit":"no","name":"\u03a0\u0391\u0399\u03a9\u039d\u0399\u039f\u03a5","network":"\u039f\u0391\u03a3\u0391","network:el":"\u039f\u0391\u03a3\u0391","network:en":"OASA","network:wikidata":"Q1814382","operator":"\u039f\u0391\u03a3\u0391","passenger_information_display":"yes","public_transport":"platform","ref":"061364","shelter":"no"}},{"type":"node","id":4642712935,"lat":37.9941349,"lon":23.7228849,"tags":{"addr:city":"\u0391\u03b8\u03ae\u03bd\u03b1","addr:country":"GR","addr:housenumber":"98","addr:postcode":"10440","addr:street":"\u039b\u03b9\u03bf\u03c3\u03af\u03c9\u03bd","amenity":"pharmacy","healthcare":"pharmacy","name":"\u03a6\u03b1\u03c1\u03bc\u03b1\u03ba\u03b5\u03b9\u03bf\u03bd"}},{"type":"node","id":5610306560,"lat":37.9935496,"lon":23.7229045,"tags":{"highway":"traffic_signals","traffic_signals":"signal","traffic_signals:direction":"backward"}},{"type":"node","id":5679705546,"lat":37.9938673,"lon":23.722816,"tags":{"bus":"yes","name":"\u03a0\u0391\u0399\u03a9\u039d\u0399\u039f\u03a5","operator":"\u039f\u0391\u03a3\u0391","public_transport":"stop_position","ref":"061364","shelter":"no"}},{"type":"node","id":6568792715,"lat":37.9935662,"lon":23.7227671,"tags":{"addr:city":"\u0391\u03b8\u03ae\u03bd\u03b1","addr:housenumber":"48","addr:street":"\u03a0\u03b1\u03b9\u03c9\u03bd\u03af\u03bf\u03c5"}},{"type":"node","id":7342980480,"lat":37.9937859,"lon":23.7229073,"tags":{"direction":"backward","highway":"stop"}},{"type":"node","id":7343007602,"lat":37.9941045,"lon":23.722836,"tags":{"highway":"stop"}},{"type":"node","id":10284328441,"lat":37.993546,"lon":23.723507,"tags":{"addr:city":"\u0391\u03b8\u03ae\u03bd\u03b1","addr:housenumber":"42","addr:street":"\u03a0\u03b1\u03b9\u03c9\u03bd\u03af\u03bf\u03c5","shop":"greengrocer"}},{"type":"node","id":10284349483,"lat":37.9938349,"lon":23.722943,"tags":{"addr:city":"\u0391\u03b8\u03ae\u03bd\u03b1","addr:housenumber":"96","addr:street":"\u039b\u03b9\u03bf\u03c3\u03af\u03c9\u03bd","name":"Sarita","shop":"supermarket"}},{"type":"node","id":10616876977,"lat":37.9939603,"lon":23.7234325,"tags":{"addr:city":"\u0391\u03b8\u03ae\u03bd\u03b1","addr:housenumber":"21","addr:street":"\u03a0\u03c1\u03bf\u03c5\u03c3\u03c3\u03b7\u03c2"}},{"type":"node","id":10616876978,"lat":37.9940385,"lon":23.7229363,"tags":{"addr:city":"\u0391\u03b8\u03ae\u03bd\u03b1","addr:housenumber":"27","addr:street":"\u03a0\u03c1\u03bf\u03c5\u03c3\u03c3\u03b7\u03c2"}},{"type":"node","id":10616881109,"lat":37.9937511,"lon":23.7229819,"tags":{"addr:city":"\u0391\u03b8\u03ae\u03bd\u03b1","addr:housenumber":"92-94","addr:street":"\u039b\u03b9\u03bf\u03c3\u03af\u03c9\u03bd","name":"Sarita","shop":"clothes"}},{"type":"node","id":10616883739,"lat":37.9935502,"lon":23.7230784,"tags":{"addr:city":"\u0391\u03b8\u03ae\u03bd\u03b1","addr:housenumber":"46","addr:street":"\u03a0\u03b1\u03b9\u03c9\u03bd\u03af\u03bf\u03c5"}},{"type":"node","id":10616883740,"lat":37.9935502,"lon":23.7234083,"tags":{"addr:city":"\u0391\u03b8\u03ae\u03bd\u03b1","addr:housenumber":"42","addr:street":"\u03a0\u03b1\u03b9\u03c9\u03bd\u03af\u03bf\u03c5"}},{"type":"node","id":10700714397,"lat":37.9941348,"lon":23.7230913,"tags":{"addr:city":"\u0391\u03b8\u03ae\u03bd\u03b1","addr:housenumber":"1","addr:street":"\u039c\u03b5\u03c1\u03c3\u03af\u03bd\u03b7\u03c2"}},{"type":"node","id":10700716988,"lat":37.9935715,"lon":23.7233216,"tags":{"addr:city":"\u0391\u03b8\u03ae\u03bd\u03b1","addr:housenumber":"42","addr:street":"\u03a0\u03b1\u03b9\u03c9\u03bd\u03af\u03bf\u03c5","name":"\u0396\u03c9\u03ae","shop":"hairdresser"}},{"type":"node","id":10700725917,"lat":37.9941475,"lon":23.7232495,"tags":{"addr:city":"\u0391\u03b8\u03ae\u03bd\u03b1","addr:housenumber":"24","addr:street":"\u03a0\u03c1\u03bf\u03c5\u03c3\u03c3\u03b7\u03c2"}},{"type":"node","id":10700725918,"lat":37.9941327,"lon":23.723507,"tags":{"addr:city":"\u0391\u03b8\u03ae\u03bd\u03b1","addr:housenumber":"22","addr:street":"\u03a0\u03c1\u03bf\u03c5\u03c3\u03c3\u03b7\u03c2"}},{"type":"node","id":10700729565,"lat":37.9941602,"lon":23.7232039,"tags":{"addr:city":"\u0391\u03b8\u03ae\u03bd\u03b1","addr:housenumber":"2","addr:street":"\u039c\u03b5\u03c1\u03c3\u03af\u03bd\u03b7\u03c2"}}]}