{"version":0.6,"generator":"Overpass API 0.7.61.5 4133829e","osm3s":{"timestamp_osm_base":"2023-08-16T11:29:21Z","copyright":"The data included in this document is from www.openstreetmap.org. The data is made available under ODbL."},"elements":[{"type":"node","id":1758398550,"lat":37.993284,"lon":23.7281959,"tags":{"addr:city":"\u0391\u03b8\u03ae\u03bd\u03b1","addr:country":"GR","addr:housenumber":"51","addr:postcode":"10434","addr:street":"\u03a6\u03c5\u03bb\u03ae\u03c2"}},{"type":"node","id":1758398566,"lat":37.9932511,"lon":23.7283312,"tags":{"addr:city":"\u0391\u03b8\u03ae\u03bd\u03b1","addr:country":"GR","addr:housenumber":"64","addr:postcode":"10434","addr:street":"\u03a6\u03c5\u03bb\u03ae\u03c2"}},{"type":"node","id":4438064228,"lat":37.9934365,"lon":23.7286181,"tags":{"addr:city":"\u0391\u03b8\u03ae\u03bd\u03b1","addr:housenumber":"22","addr:street":"\u03a7\u03ad\u03c5\u03b4\u03b5\u03bd","brand":"\u039f\u03a0\u0391\u03a0","brand:wikidata":"Q2007823","brand:wikipedia":"el:\u039f\u03a0\u0391\u03a0","name":"\u039f\u03a0\u0391\u03a0","shop":"bookmaker"}},{"type":"node","id":4591305858,"lat":37.9933154,"lon":23.7282015,"tags":{"addr:city":"\u0391\u03b8\u03ae\u03bd\u03b1","addr:housenumber":"25","addr:street":"\u03a7\u03ad\u03c5\u03b4\u03b5\u03bd","amenity":"restaurant","cuisine":"indian","name":"Herat Restaurant (Afghan)"}},{"type":"node","id":4744419610,"lat":37.9932281,"lon":23.7286901,"tags":{"name":"\u0394\u03ae\u03bc\u03b7\u03c4\u03c1\u03b1","shop":"convenience"}},{"type":"node","id":4847108932,"lat":37.9934397,"lon":23.7284411,"tags":{"addr:city":"\u0391\u03b8\u03ae\u03bd\u03b1","addr:housenumber":"24","addr:street":"\u03a7\u03ad\u03c5\u03b4\u03b5\u03bd","name":"\u0395\u03c0\u03b9\u03b4\u03b9\u03bf\u03c1\u03b8\u03ce\u03c3\u03b5\u03b9\u03c2 \u03c1\u03bf\u03cd\u03c7\u03c9\u03bd","shop":"tailor"}},{"type":"node","id":6273438494,"lat":37.9934245,"lon":23.7283003,"tags":{"highway":"stop"}},{"type":"node","id":7687910688,"lat":37.9935096,"lon":23.7281369,"tags":{"addr:city":"\u0391\u03b8\u03ae\u03bd\u03b1","addr:housenumber":"28","addr:street":"\u03a7\u03ad\u03c5\u03b4\u03b5\u03bd"}},{"type":"node","id":9675764454,"lat":37.9931333,"lon":23.7281339,"tags":{"addr:city":"\u0391\u03b8\u03ae\u03bd\u03b1","addr:housenumber":"47-49","addr:street":"\u03a6\u03c5\u03bb\u03ae\u03c2","shop":"convenience"}},{"type":"node","id":10284222259,"lat":37.9932419,"lon":23.7286055,"tags":{"addr:city":"\u0391\u03b8\u03ae\u03bd\u03b1","addr:housenumber":"19","addr:street":"\u03a7\u03ad\u03c5\u03b4\u03b5\u03bd","name":"Kayak","shop":"clothes"}}]}