{"version":0.6,"generator":"Overpass API 0.7.61.5 4133829e","osm3s":{"timestamp_osm_base":"2023-08-16T11:29:21Z","copyright":"The data included in this document is from www.openstreetmap.org. The data is made available under ODbL."},"elements":[{"type":"node","id":961484626,"lat":37.9929812,"lon":23.7315602,"tags":{"highway":"traffic_signals"}},{"type":"node","id":961484673,"lat":37.9929443,"lon":23.7315511,"tags":{"crossing":"traffic_signals","highway":"crossing"}},{"type":"node","id":961484773,"lat":37.9929271,"lon":23.7316665,"tags":{"button_operated":"no","crossing":"traffic_signals","highway":"crossing","tactile_paving":"yes","traffic_signals:sound":"no","traffic_signals:vibration":"no"}},{"type":"node","id":1617938661,"lat":37.9930912,"lon":23.7318304,"tags":{"addr:city":"\u0391\u03b8\u03ae\u03bd\u03b1","addr:country":"GR","addr:housenumber":"68","addr:postcode":"10434","addr:street":"28\u03b7\u03c2 \u039f\u03ba\u03c4\u03c9\u03b2\u03c1\u03af\u03bf\u03c5","name":"Brand Locker","shop":"clothes"}},{"type":"node","id":1617938673,"lat":37.9934897,"lon":23.7319372,"tags":{"addr:city":"\u0391\u03b8\u03ae\u03bd\u03b1","addr:country":"GR","addr:housenumber":"72","addr:postcode":"10434","addr:street":"28\u03b7\u03c2 \u039f\u03ba\u03c4\u03c9\u03b2\u03c1\u03af\u03bf\u03c5"}},{"type":"node","id":1799459847,"lat":37.993332,"lon":23.731765,"tags":{"bus":"yes","name":"\u039f\u03a4\u0395 \u03a0\u0395\u0394\u0399\u039f\u03a5 \u0391\u03a1\u0395\u03a9\u03a3","network":"\u039f\u03a3\u03a5","operator":"\u039f\u0391\u03a3\u0391","public_transport":"stop_position","ref":"060475","trolleybus":"yes"}},{"type":"node","id":2182353030,"lat":37.9930118,"lon":23.7315677,"tags":{"name":"\u039f\u03a4\u0395","network":"\u039f\u03a3\u03a5","public_transport":"stop_position","ref":"061064","route_ref":"2;3;4;5;11","trolleybus":"yes"}},{"type":"node","id":2878357853,"lat":37.99287,"lon":23.7321301,"tags":{"addr:city":"\u0391\u03b8\u03ae\u03bd\u03b1","addr:country":"GR","addr:housenumber":"4","addr:postcode":"10434","addr:street":"\u03a7\u03ad\u03c5\u03b4\u03b5\u03bd"}},{"type":"node","id":3177113217,"lat":37.9933266,"lon":23.731819,"tags":{"bench":"yes","bin":"yes","bus":"yes","highway":"bus_stop","lit":"no","name":"\u039f\u03a4\u0395 \u03a0\u0395\u0394\u0399\u039f\u03a5 \u0391\u03a1\u0395\u03a9\u03a3","network":"\u039f\u0391\u03a3\u0391","network:el":"\u039f\u0391\u03a3\u0391","network:en":"OASA","network:wikidata":"Q1814382","operator":"\u039f\u0391\u03a3\u0391","passenger_information_display":"yes","public_transport":"platform","ref":"060475","shelter":"yes","trolleybus":"yes"}},{"type":"node","id":3177157465,"lat":37.9930231,"lon":23.7314811,"tags":{"bench":"no","bin":"yes","highway":"bus_stop","lit":"no","name":"\u039f\u03a4\u0395","network":"\u039f\u0391\u03a3\u0391","network:el":"\u039f\u0391\u03a3\u0391","network:en":"OASA","network:wikidata":"Q1814382","operator":"\u039f\u0391\u03a3\u0391","public_transport":"platform","ref":"061064","route_ref":"2;3;4;5;11","shelter":"no","trolleybus":"yes"}},{"type":"node","id":4379155701,"lat":37.9929972,"lon":23.7313906,"tags":{"addr:city":"\u0391\u03b8\u03ae\u03bd\u03b1","addr:country":"GR","addr:housenumber":"8","addr:postcode":"10434","addr:street":"\u03a7\u03ad\u03c5\u03b4\u03b5\u03bd","amenity":"fast_food","brand":"\u0393\u03c1\u03b7\u03b3\u03cc\u03c1\u03b7\u03c2","brand:el":"\u0393\u03c1\u03b7\u03b3\u03cc\u03c1\u03b7\u03c2","brand:en":"Gregory's","brand:wikidata":"Q62273834","cuisine":"sandwich","drive_through":"no","name":"\u0393\u03c1\u03b7\u03b3\u03cc\u03c1\u03b7\u03c2","name:el":"\u0393\u03c1\u03b7\u03b3\u03cc\u03c1\u03b7\u03c2","name:en":"Gregory's","takeaway":"yes"}},{"type":"node","id":4995260458,"lat":37.9930362,"lon":23.7314218,"tags":{"addr:city":"\u0391\u03b8\u03ae\u03bd\u03b1","addr:housenumber":"81","addr:street":"\u03a0\u03b1\u03c4\u03b7\u03c3\u03af\u03c9\u03bd","amenity":"cafe","brand":"Coffee Lab","brand:wikidata":"Q109568497","cuisine":"coffee_shop","name":"Coffee Lab","takeaway":"yes"}},{"type":"node","id":5382466507,"lat":37.9932994,"lon":23.7319047,"tags":{"addr:city":"\u0391\u03b8\u03ae\u03bd\u03b1","addr:housenumber":"70","addr:street":"\u03a0\u03b1\u03c4\u03b7\u03c3\u03af\u03c9\u03bd"}},{"type":"node","id":5476795334,"lat":37.9932589,"lon":23.7319824,"tags":{"addr:city":"\u0391\u03b8\u03ae\u03bd\u03b1","addr:housenumber":"1\u0391","addr:street":"\u039a\u03cc\u03c4\u03c3\u03b9\u03ba\u03b1"}},{"type":"node","id":5476808483,"lat":37.9931122,"lon":23.7319529,"tags":{"addr:city":"\u0391\u03b8\u03ae\u03bd\u03b1","addr:housenumber":"2","addr:street":"\u039a\u03cc\u03c4\u03c3\u03b9\u03ba\u03b1"}},{"type":"node","id":5551937858,"lat":37.9929208,"lon":23.7317641,"tags":{"addr:city":"\u0391\u03b8\u03ae\u03bd\u03b1","addr:housenumber":"66","addr:street":"28\u03b7\u03c2 \u039f\u03ba\u03c4\u03c9\u03b2\u03c1\u03af\u03bf\u03c5","brand":"BSB Fashion","brand:wikidata":"Q12721399","clothes":"women","email":"patision@bsbfashion.com","name":"BSB Fashion","phone":"+302108841541","shop":"clothes"}},{"type":"node","id":6438325425,"lat":37.9933287,"lon":23.731497,"tags":{"communication:mobile_phone":"yes","man_made":"mast","tower:type":"communication"}},{"type":"node","id":7262946113,"lat":37.9930267,"lon":23.7317927,"tags":{"addr:city":"\u0391\u03b8\u03ae\u03bd\u03b1","addr:housenumber":"68","addr:street":"28\u03b7\u03c2 \u039f\u03ba\u03c4\u03c9\u03b2\u03c1\u03af\u03bf\u03c5","name":"\u03a4\u03bf \u03a7\u03c9\u03c1\u03b9\u03ac\u03c4\u03b9\u03ba\u03bf","shop":"bakery"}},{"type":"node","id":8494046667,"lat":37.9932547,"lon":23.7318421,"tags":{"amenity":"bank","name":"Pireaus"}},{"type":"node","id":8494051092,"lat":37.9928918,"lon":23.7319222,"tags":{"amenity":"clinic","healthcare":"clinic","name":"Medila Laser clinic"}},{"type":"node","id":8570194504,"lat":37.9932121,"lon":23.7318042,"tags":{"crossing":"unmarked","crossing:markings":"no","highway":"crossing"}},{"type":"node","id":9722864808,"lat":37.9928626,"lon":23.7317215,"tags":{"barrier":"kerb","kerb":"lowered"}},{"type":"node","id":9933064478,"lat":37.9933102,"lon":23.731526,"tags":{"bench":"yes","bin":"yes","bus":"yes","highway":"bus_stop","lit":"no","name":"\u039f\u03a4\u0395 \u03a0\u0395\u0394\u0399\u039f\u03a5 \u0391\u03a1\u0395\u03a9\u03a3","network":"\u039f\u0391\u03a3\u0391","network:el":"\u039f\u0391\u03a3\u0391","network:en":"OASA","network:wikidata":"Q1814382","operator":"\u039f\u0391\u03a3\u0391","passenger_information_display":"yes","public_transport":"platform","ref":"060565","shelter":"yes"}},{"type":"node","id":10199194342,"lat":37.9929415,"lon":23.7319616,"tags":{"addr:city":"\u0391\u03b8\u03ae\u03bd\u03b1","addr:housenumber":"6","addr:street":"\u03a7\u03ad\u03c5\u03b4\u03b5\u03bd"}},{"type":"node","id":10265078801,"lat":37.9931298,"lon":23.7314253,"tags":{"addr:city":"\u0391\u03b8\u03ae\u03bd\u03b1","addr:housenumber":"81","addr:street":"28\u03b7\u03c2 \u039f\u03ba\u03c4\u03c9\u03b2\u03c1\u03af\u03bf\u03c5"}},{"type":"node","id":10284230318,"lat":37.9930574,"lon":23.7318814,"tags":{"addr:city":"\u0391\u03b8\u03ae\u03bd\u03b1","addr:housenumber":"68","addr:street":"28\u03b7\u03c2 \u039f\u03ba\u03c4\u03c9\u03b2\u03c1\u03af\u03bf\u03c5"}},{"type":"node","id":10284230319,"lat":37.9929538,"lon":23.7318412,"tags":{"addr:city":"\u0391\u03b8\u03ae\u03bd\u03b1","addr:housenumber":"66","addr:street":"28\u03b7\u03c2 \u039f\u03ba\u03c4\u03c9\u03b2\u03c1\u03af\u03bf\u03c5"}},{"type":"node","id":10572455784,"lat":37.9933032,"lon":23.731639,"tags":{"bus":"yes","name":"\u039f\u03a4\u0395 \u03a0\u0395\u0394\u0399\u039f\u03a5 \u0391\u03a1\u0395\u03a9\u03a3","public_transport":"stop_position","ref":"060565","route_ref":"224;\u03918;500;622;608;054;022"}},{"type":"node","id":10912959505,"lat":37.9931408,"lon":23.731333,"tags":{"addr:city":"\u0391\u03b8\u03ae\u03bd\u03b1","name":"Mobile Service","shop":"mobile_phone"}}]}