{"version":0.6,"generator":"Overpass API 0.7.61.5 4133829e","osm3s":{"timestamp_osm_base":"2023-08-16T11:09:40Z","copyright":"The data included in this document is from www.openstreetmap.org. The data is made available under ODbL."},"elements":[{"type":"node","id":1609046696,"lat":37.9984468,"lon":23.7327406,"tags":{"addr:city":"\u0391\u03b8\u03ae\u03bd\u03b1","addr:housenumber":"137","addr:street":"28\u03b7\u03c2 \u039f\u03ba\u03c4\u03c9\u03b2\u03c1\u03af\u03bf\u03c5","clothes":"women","name":"SheX","shop":"clothes"}},{"type":"node","id":2608889277,"lat":37.9985314,"lon":23.732762,"tags":{"brand":"Mayoral","brand:wikidata":"Q6007712","clothes":"children","name":"Mayoral","shop":"clothes","source":"survey"}},{"type":"node","id":4465551907,"lat":37.9986868,"lon":23.7327152,"tags":{"addr:city":"\u0391\u03b8\u03ae\u03bd\u03b1","addr:housenumber":"7","addr:street":"\u03a4\u03ae\u03bd\u03bf\u03c5"}},{"type":"node","id":5348089842,"lat":37.9982986,"lon":23.7327038,"tags":{"addr:city":"\u0391\u03b8\u03ae\u03bd\u03b1","addr:housenumber":"135","addr:street":"\u03a0\u03b1\u03c4\u03b7\u03c3\u03af\u03c9\u03bd","name":"Brand Name","shop":"clothes"}},{"type":"node","id":5355673068,"lat":37.9988211,"lon":23.7328073,"tags":{"addr:city":"\u0391\u03b8\u03ae\u03bd\u03b1","addr:housenumber":"141","addr:street":"\u03a0\u03b1\u03c4\u03b7\u03c3\u03af\u03c9\u03bd","clothes":"women","name":"Helmi","shop":"clothes"}},{"type":"node","id":5359958284,"lat":37.9988718,"lon":23.7328205,"tags":{"addr:city":"\u0391\u03b8\u03ae\u03bd\u03b1","addr:housenumber":"141","addr:street":"28\u03b7\u03c2 \u039f\u03ba\u03c4\u03c9\u03b2\u03c1\u03af\u03bf\u03c5","brand":"Calzedonia","brand:wikidata":"Q1027874","brand:wikipedia":"en:Calzedonia","clothes":"women","name":"Calzedonia","shop":"clothes"}},{"type":"node","id":5556107623,"lat":37.9983526,"lon":23.732714,"tags":{"addr:city":"\u0391\u03b8\u03ae\u03bd\u03b1","addr:housenumber":"135","addr:street":"\u03a0\u03b1\u03c4\u03b7\u03c3\u03af\u03c9\u03bd","name":"M bazaar","shop":"clothes"}},{"type":"node","id":5658750599,"lat":37.9989127,"lon":23.7328324,"tags":{"addr:city":"\u0391\u03b8\u03ae\u03bd\u03b1","addr:housenumber":"141","addr:street":"\u03a0\u03b1\u03c4\u03b7\u03c3\u03af\u03c9\u03bd","name":"Centopiedi","shop":"shoes"}},{"type":"node","id":6447459151,"lat":37.9985327,"lon":23.7326811,"tags":{"addr:city":"\u0391\u03b8\u03ae\u03bd\u03b1","addr:housenumber":"8","addr:street":"\u03a4\u03ae\u03bd\u03bf\u03c5"}},{"type":"node","id":8623177691,"lat":37.9986416,"lon":23.73279,"tags":{"clothes":"women;men;children","name":"Outlet fashion Italy","shop":"clothes"}},{"type":"node","id":8623188628,"lat":37.9986923,"lon":23.7327927,"tags":{"name":"filandy","shop":"jewelry"}},{"type":"node","id":9918058819,"lat":37.9984951,"lon":23.7327493,"tags":{"addr:city":"\u0391\u03b8\u03ae\u03bd\u03b1","addr:housenumber":"137","addr:street":"28\u03b7\u03c2 \u039f\u03ba\u03c4\u03c9\u03b2\u03c1\u03af\u03bf\u03c5","amenity":"cafe","name":"Star.ge","outdoor_seating":"no"}},{"type":"node","id":10178329356,"lat":37.9985835,"lon":23.7328982,"tags":{"highway":"crossing"}},{"type":"node","id":10820324365,"lat":37.9989032,"lon":23.7327053,"tags":{"addr:city":"\u0391\u03b8\u03ae\u03bd\u03b1","addr:housenumber":"141","addr:street":"28\u03b7\u03c2 \u039f\u03ba\u03c4\u03c9\u03b2\u03c1\u03af\u03bf\u03c5"}},{"type":"node","id":10822741689,"lat":37.9987559,"lon":23.7327258,"tags":{"addr:city":"\u0391\u03b8\u03ae\u03bd\u03b1","addr:housenumber":"139","addr:street":"28\u03b7\u03c2 \u039f\u03ba\u03c4\u03c9\u03b2\u03c1\u03af\u03bf\u03c5"}},{"type":"node","id":10825912393,"lat":37.9982748,"lon":23.7325993,"tags":{"addr:city":"\u0391\u03b8\u03ae\u03bd\u03b1","addr:housenumber":"133","addr:street":"28\u03b7\u03c2 \u039f\u03ba\u03c4\u03c9\u03b2\u03c1\u03af\u03bf\u03c5"}},{"type":"node","id":10979719417,"lat":37.9983968,"lon":23.7327306,"tags":{"addr:city":"\u0391\u03b8\u03ae\u03bd\u03b1","addr:housenumber":"137","addr:street":"28\u03b7\u03c2 \u039f\u03ba\u03c4\u03c9\u03b2\u03c1\u03af\u03bf\u03c5","name":"FMS Brands","shop":"clothes"}}]}