{"version":0.6,"generator":"Overpass API 0.7.61.5 4133829e","osm3s":{"timestamp_osm_base":"2023-08-16T11:12:44Z","copyright":"The data included in this document is from www.openstreetmap.org. The data is made available under ODbL."},"elements":[{"type":"node","id":961043954,"lat":37.9989958,"lon":23.7331499,"tags":{"crossing":"marked","crossing:markings":"yes","highway":"crossing"}},{"type":"node","id":961044064,"lat":37.9990134,"lon":23.7330382,"tags":{"crossing":"marked","crossing:markings":"yes","highway":"crossing"}},{"type":"node","id":1617938422,"lat":37.9996134,"lon":23.7334297,"tags":{"amenity":"fast_food","name":"tasis"}},{"type":"node","id":2514283306,"lat":37.9995448,"lon":23.7331703,"tags":{"bus":"yes","name":"\u039a\u0395\u03a6\u0391\u039b\u039b\u0397\u039d\u0399\u0391\u03a3","public_transport":"stop_position","ref":"060525","trolleybus":"yes"}},{"type":"node","id":3176331213,"lat":37.999558,"lon":23.7330725,"tags":{"bench":"yes","bin":"yes","bus":"yes","highway":"bus_stop","name":"\u039a\u0395\u03a6\u0391\u039b\u039b\u0397\u039d\u0399\u0391\u03a3","network":"\u039f\u0391\u03a3\u0391","network:el":"\u039f\u0391\u03a3\u0391","network:en":"OASA","network:wikidata":"Q1814382","operator":"\u039f\u0391\u03a3\u0391","passenger_information_display":"yes","public_transport":"platform","ref":"060525","shelter":"yes","trolleybus":"yes"}},{"type":"node","id":3750095369,"lat":37.9992534,"lon":23.7330976,"tags":{"highway":"traffic_signals"}},{"type":"node","id":4374899383,"lat":37.9992236,"lon":23.7333563,"tags":{"addr:city":"\u0391\u03b8\u03ae\u03bd\u03b1","addr:housenumber":"138","addr:street":"28\u03b7\u03c2 \u039f\u03ba\u03c4\u03c9\u03b2\u03c1\u03af\u03bf\u03c5","brand":"Zara","brand:wikidata":"Q147662","brand:wikipedia":"en:Zara (retailer)","name":"Zara","shop":"clothes"}},{"type":"node","id":4396338832,"lat":37.9995209,"lon":23.7330261,"tags":{"name":"RAN-MARIE","shop":"clothes"}},{"type":"node","id":4711244244,"lat":37.9995577,"lon":23.7330307,"tags":{"clothes":"children","name":"Paradis","shop":"clothes"}},{"type":"node","id":4711244691,"lat":37.9994446,"lon":23.7330079,"tags":{"name":"Lovie","shop":"cosmetics"}},{"type":"node","id":5159786700,"lat":37.9989945,"lon":23.7332844,"tags":{"addr:city":"\u0391\u03b8\u03ae\u03bd\u03b1","addr:housenumber":"136","addr:street":"\u03a0\u03b1\u03c4\u03b7\u03c3\u03af\u03c9\u03bd","amenity":"bar","name":"Au revoir"}},{"type":"node","id":5251260204,"lat":37.9995139,"lon":23.7334338,"tags":{"shop":"jewelry"}},{"type":"node","id":6211881790,"lat":37.9991476,"lon":23.7330385,"tags":{"crossing":"traffic_signals","highway":"crossing"}},{"type":"node","id":6262365580,"lat":37.9991208,"lon":23.7333072,"tags":{"highway":"traffic_signals","traffic_signals":"signal"}},{"type":"node","id":6262365581,"lat":37.9989621,"lon":23.7331416,"tags":{"highway":"traffic_signals","traffic_signals":"signal"}},{"type":"node","id":7211255197,"lat":37.9990586,"lon":23.7334162,"tags":{"addr:city":"\u0391\u03b8\u03ae\u03bd\u03b1","addr:housenumber":"136","addr:street":"\u039a\u03b5\u03c6\u03b1\u03bb\u03bb\u03b7\u03bd\u03af\u03b1\u03c2","clothes":"women","email":"sissyroom@hotmail.com","name":"S room","phone":"2108828072","shop":"clothes"}},{"type":"node","id":9912640738,"lat":37.9992676,"lon":23.7336536,"tags":{"natural":"tree"}},{"type":"node","id":10178218450,"lat":37.9996258,"lon":23.7338042,"tags":{"office":"accountant"}},{"type":"node","id":10178218615,"lat":37.9990808,"lon":23.7332932,"tags":{"addr:city":"\u0391\u03b8\u03ae\u03bd\u03b1","addr:housenumber":"136","addr:street":"28\u03b7\u03c2 \u039f\u03ba\u03c4\u03c9\u03b2\u03c1\u03af\u03bf\u03c5","name":"Elpedison","office":"energy_supplier","operator":"Elpedison","operator:wikidata":"Q28026003"}},{"type":"node","id":10178329379,"lat":37.999132,"lon":23.7332323,"tags":{"button_operated":"no","crossing":"traffic_signals","highway":"crossing","traffic_signals:sound":"no","traffic_signals:vibration":"no"}},{"type":"node","id":10700716790,"lat":37.9994889,"lon":23.7330164,"tags":{"addr:city":"\u0391\u03b8\u03ae\u03bd\u03b1","addr:housenumber":"145","addr:street":"28\u03b7\u03c2 \u039f\u03ba\u03c4\u03c9\u03b2\u03c1\u03af\u03bf\u03c5","name":"See You","shop":"optician"}},{"type":"node","id":10704281068,"lat":37.9995606,"lon":23.7336884,"tags":{"addr:city":"\u0391\u03b8\u03ae\u03bd\u03b1","addr:street":"\u03a7\u03b1\u03bd\u03af\u03c9\u03bd","amenity":"pharmacy","drive_through":"no","healthcare":"pharmacy"}},{"type":"node","id":10820344827,"lat":37.9993701,"lon":23.7333774,"tags":{"addr:city":"\u0391\u03b8\u03ae\u03bd\u03b1","addr:housenumber":"140","addr:street":"28\u03b7\u03c2 \u039f\u03ba\u03c4\u03c9\u03b2\u03c1\u03af\u03bf\u03c5"}},{"type":"node","id":11053906420,"lat":37.9991704,"lon":23.7336628,"tags":{"addr:city":"\u0391\u03b8\u03ae\u03bd\u03b1","addr:housenumber":"42","addr:street":"\u039a\u03b5\u03c6\u03b1\u03bb\u03bb\u03b7\u03bd\u03af\u03b1\u03c2"}},{"type":"node","id":11059841201,"lat":37.9989689,"lon":23.7336829,"tags":{"addr:city":"\u0391\u03b8\u03ae\u03bd\u03b1","addr:housenumber":"45","addr:street":"\u039a\u03b5\u03c6\u03b1\u03bb\u03bb\u03b7\u03bd\u03af\u03b1\u03c2"}}]}