{"version":0.6,"generator":"Overpass API 0.7.61.5 4133829e","osm3s":{"timestamp_osm_base":"2023-08-16T11:22:04Z","copyright":"The data included in this document is from www.openstreetmap.org. The data is made available under ODbL."},"elements":[{"type":"node","id":2800846102,"lat":38.0001068,"lon":23.734742,"tags":{"addr:city":"\u0391\u03b8\u03ae\u03bd\u03b1","addr:country":"GR","addr:housenumber":"60","addr:postcode":"11257","addr:street":"\u0399\u03c9\u03ac\u03bd\u03bd\u03bf\u03c5 \u0394\u03c1\u03bf\u03c3\u03bf\u03c0\u03bf\u03cd\u03bb\u03bf\u03c5","amenity":"driving_school"}},{"type":"node","id":2800846106,"lat":38.0003,"lon":23.734781,"tags":{"addr:city":"\u0391\u03b8\u03ae\u03bd\u03b1","addr:country":"GR","addr:housenumber":"62","addr:postcode":"11257","addr:street":"\u0399\u03c9\u03ac\u03bd\u03bd\u03bf\u03c5 \u0394\u03c1\u03bf\u03c3\u03bf\u03c0\u03bf\u03cd\u03bb\u03bf\u03c5"}},{"type":"node","id":2870893299,"lat":37.9998366,"lon":23.735521,"tags":{"addr:city":"\u0391\u03b8\u03ae\u03bd\u03b1","addr:country":"GR","addr:housenumber":"37","addr:postcode":"11257","addr:street":"\u0391\u03b3\u03af\u03bf\u03c5 \u039c\u03b5\u03bb\u03b5\u03c4\u03af\u03bf\u03c5"}},{"type":"node","id":2870894201,"lat":37.999953,"lon":23.7353904,"tags":{"addr:city":"\u0391\u03b8\u03ae\u03bd\u03b1","addr:country":"GR","addr:housenumber":"38","addr:postcode":"11257","addr:street":"\u0391\u03b3\u03af\u03bf\u03c5 \u039c\u03b5\u03bb\u03b5\u03c4\u03af\u03bf\u03c5"}},{"type":"node","id":2870894203,"lat":37.9998559,"lon":23.7353468,"tags":{"addr:city":"\u0391\u03b8\u03ae\u03bd\u03b1","addr:country":"GR","addr:housenumber":"39","addr:postcode":"11257","addr:street":"\u0391\u03b3\u03af\u03bf\u03c5 \u039c\u03b5\u03bb\u03b5\u03c4\u03af\u03bf\u03c5"}},{"type":"node","id":2870894206,"lat":37.9999755,"lon":23.7351835,"tags":{"addr:city":"\u0391\u03b8\u03ae\u03bd\u03b1","addr:country":"GR","addr:housenumber":"40","addr:postcode":"11257","addr:street":"\u0391\u03b3\u03af\u03bf\u03c5 \u039c\u03b5\u03bb\u03b5\u03c4\u03af\u03bf\u03c5"}},{"type":"node","id":2870894208,"lat":37.9998755,"lon":23.7351688,"tags":{"addr:city":"\u0391\u03b8\u03ae\u03bd\u03b1","addr:country":"GR","addr:housenumber":"41","addr:postcode":"11257","addr:street":"\u0391\u03b3\u03af\u03bf\u03c5 \u039c\u03b5\u03bb\u03b5\u03c4\u03af\u03bf\u03c5"}},{"type":"node","id":2870894210,"lat":37.999998,"lon":23.7349765,"tags":{"addr:city":"\u0391\u03b8\u03ae\u03bd\u03b1","addr:country":"GR","addr:housenumber":"42","addr:postcode":"11257","addr:street":"\u0391\u03b3\u03af\u03bf\u03c5 \u039c\u03b5\u03bb\u03b5\u03c4\u03af\u03bf\u03c5","healthcare":"alternative","name":"\u039d\u03b1\u03b9 \u0395\u03af\u03bc\u03b1\u03c3\u03c4\u03b5 \u0391\u03c3\u03c4\u03ad\u03c1\u03b9\u03b1","phone":"+302108223063","website":"https:\/\/yeswearestars.gr\/"}},{"type":"node","id":2870894212,"lat":37.9998924,"lon":23.7350158,"tags":{"addr:city":"\u0391\u03b8\u03ae\u03bd\u03b1","addr:country":"GR","addr:housenumber":"43","addr:postcode":"11257","addr:street":"\u0391\u03b3\u03af\u03bf\u03c5 \u039c\u03b5\u03bb\u03b5\u03c4\u03af\u03bf\u03c5"}},{"type":"node","id":2870894214,"lat":38.0000174,"lon":23.7347987,"tags":{"addr:city":"\u0391\u03b8\u03ae\u03bd\u03b1","addr:country":"GR","addr:housenumber":"44","addr:postcode":"11257","addr:street":"\u0391\u03b3\u03af\u03bf\u03c5 \u039c\u03b5\u03bb\u03b5\u03c4\u03af\u03bf\u03c5"}},{"type":"node","id":7200103151,"lat":37.9998084,"lon":23.7351636,"tags":{"amenity":"parking","layer":"-1","parking":"underground"}},{"type":"node","id":9951082009,"lat":37.9996792,"lon":23.735558,"tags":{"natural":"tree"}},{"type":"node","id":9951082010,"lat":37.9997116,"lon":23.7354347,"tags":{"natural":"tree"}},{"type":"node","id":9951082011,"lat":37.9996887,"lon":23.7349229,"tags":{"natural":"tree"}},{"type":"node","id":9951082012,"lat":37.9996959,"lon":23.7353103,"tags":{"natural":"tree"}},{"type":"node","id":10178222900,"lat":38.0000337,"lon":23.7347275,"tags":{"beauty":"nails","name":"Nail gallery","shop":"beauty"}}]}