{"version":0.6,"generator":"Overpass API 0.7.61.5 4133829e","osm3s":{"timestamp_osm_base":"2023-08-16T11:09:40Z","copyright":"The data included in this document is from www.openstreetmap.org. The data is made available under ODbL."},"elements":[{"type":"node","id":961043906,"lat":37.9982032,"lon":23.7328388,"tags":{"crossing":"traffic_signals","highway":"traffic_signals"}},{"type":"node","id":961043979,"lat":37.9979211,"lon":23.7328871,"tags":{"highway":"traffic_signals"}},{"type":"node","id":961044005,"lat":37.9981583,"lon":23.7329451,"tags":{"crossing":"marked","crossing:markings":"yes","highway":"crossing"}},{"type":"node","id":1609046693,"lat":37.9979118,"lon":23.7326045,"tags":{"addr:city":"\u0391\u03b8\u03ae\u03bd\u03b1","addr:country":"GR","addr:housenumber":"131","addr:postcode":"11251","addr:street":"\u03a0\u03b1\u03c4\u03b7\u03c3\u03af\u03c9\u03bd","brand":"The Body Shop","brand:wikidata":"Q837851","brand:wikipedia":"en:The Body Shop","name":"The Body Shop","shop":"cosmetics"}},{"type":"node","id":1609046694,"lat":37.9981232,"lon":23.7326557,"tags":{"addr:city":"\u0391\u03b8\u03ae\u03bd\u03b1","addr:country":"GR","addr:housenumber":"133","addr:postcode":"11251","addr:street":"28\u03b7\u03c2 \u039f\u03ba\u03c4\u03c9\u03b2\u03c1\u03af\u03bf\u03c5","name":"\u0395\u03c5\u03ae\u03ba\u03bf\u03bf\u03bd","shop":"hearing_aids"}},{"type":"node","id":4396340718,"lat":37.9982383,"lon":23.7326832,"tags":{"addr:city":"\u0391\u03b8\u03ae\u03bd\u03b1","addr:housenumber":"133","addr:street":"28\u03b7\u03c2 \u039f\u03ba\u03c4\u03c9\u03b2\u03c1\u03af\u03bf\u03c5","name":"BADILA","shop":"clothes"}},{"type":"node","id":4701113436,"lat":37.997688,"lon":23.7329798,"tags":{"leisure":"bowling_alley","name":"Metropolitan Bowling Center"}},{"type":"node","id":5231497013,"lat":37.9978485,"lon":23.7325754,"tags":{"clothes":"women;men","name":"Millano","shop":"clothes"}},{"type":"node","id":5245618820,"lat":37.9976054,"lon":23.7329539,"tags":{"name":"Marmaras","shop":"shoes"}},{"type":"node","id":5664870929,"lat":37.9980365,"lon":23.7326641,"tags":{"highway":"traffic_signals","traffic_signals":"signal"}},{"type":"node","id":5717567324,"lat":37.998117,"lon":23.7325733,"tags":{"addr:city":"\u0391\u03b8\u03ae\u03bd\u03b1","addr:housenumber":"36","addr:street":"\u0399\u03b8\u03ac\u03ba\u03b7\u03c2","shop":"convenience"}},{"type":"node","id":6057237294,"lat":37.997961,"lon":23.7326203,"tags":{"addr:city":"\u0391\u03b8\u03ae\u03bd\u03b1","addr:housenumber":"131","addr:street":"28\u03b7\u03c2 \u039f\u03ba\u03c4\u03c9\u03b2\u03c1\u03af\u03bf\u03c5","amenity":"cafe","name":"Kiosky's"}},{"type":"node","id":6077813983,"lat":37.997968,"lon":23.7324801,"tags":{"addr:city":"\u0391\u03b8\u03ae\u03bd\u03b1","addr:housenumber":"37","addr:street":"\u0399\u03b8\u03ac\u03ba\u03b7\u03c2","shop":"convenience"}},{"type":"node","id":6211881791,"lat":37.9980229,"lon":23.7327588,"tags":{"button_operated":"no","crossing":"traffic_signals","highway":"crossing","traffic_signals:sound":"no"}},{"type":"node","id":6214291619,"lat":37.9979949,"lon":23.7329543,"tags":{"button_operated":"no","crossing":"traffic_signals","highway":"crossing","traffic_signals:sound":"no","traffic_signals:vibration":"no"}},{"type":"node","id":6261507321,"lat":37.9976131,"lon":23.7325407,"tags":{"disused:shop":"clothes","name":"A fil"}},{"type":"node","id":6269371631,"lat":37.997671,"lon":23.73256,"tags":{"clothes":"women","name":"Morena Spain","shop":"clothes"}},{"type":"node","id":7194454860,"lat":37.9981735,"lon":23.7326653,"tags":{"addr:city":"\u0391\u03b8\u03ae\u03bd\u03b1","addr:housenumber":"133","addr:street":"28\u03b7\u03c2 \u039f\u03ba\u03c4\u03c9\u03b2\u03c1\u03af\u03bf\u03c5","email":"katiomorfoxeir@gmail.com","facebook":"https:\/\/el-gr.facebook.com\/katiomorpho\/","name":"\u039a\u03ac\u03c4\u03b9 \u03cc\u03bc\u03bf\u03c1\u03c6\u03bf","phone":"2108612598","shop":"fashion_accessories","website":"https:\/\/www.katiomorfo.com\/"}},{"type":"node","id":8207385991,"lat":37.9981772,"lon":23.7328325,"tags":{"crossing":"marked","crossing:markings":"yes","highway":"crossing"}},{"type":"node","id":8644957668,"lat":37.9977915,"lon":23.7325715,"tags":{"clothes":"women;men","name":"semiology","shop":"clothes"}},{"type":"node","id":8645028290,"lat":37.9977424,"lon":23.7329906,"tags":{"clothes":"women","name":"Sissirossi","shop":"clothes"}},{"type":"node","id":10178213593,"lat":37.9977101,"lon":23.7325602,"tags":{"name":"Semiology","shop":"clothes"}},{"type":"node","id":10178218452,"lat":37.9977574,"lon":23.7325681,"tags":{"name":"Prinou","shop":"beauty"}},{"type":"node","id":10825915137,"lat":37.9979259,"lon":23.7325095,"tags":{"addr:city":"\u0391\u03b8\u03ae\u03bd\u03b1","addr:housenumber":"131","addr:street":"28\u03b7\u03c2 \u039f\u03ba\u03c4\u03c9\u03b2\u03c1\u03af\u03bf\u03c5"}}]}