{"version":0.6,"generator":"Overpass API 0.7.61.5 4133829e","osm3s":{"timestamp_osm_base":"2023-08-13T10:57:12Z","copyright":"The data included in this document is from www.openstreetmap.org. The data is made available under ODbL."},"elements":[{"type":"node","id":4438066634,"lat":37.9939189,"lon":23.7272799,"tags":{"addr:city":"\u0391\u03b8\u03ae\u03bd\u03b1","addr:housenumber":"24","addr:street":"\u03a6\u03c9\u03ba\u03b1\u03af\u03b1\u03c2"}},{"type":"node","id":4591308341,"lat":37.9936339,"lon":23.7272137,"tags":{"amenity":"restaurant","name":"Kabul"}},{"type":"node","id":4782413644,"lat":37.9933829,"lon":23.7276885,"tags":{"addr:city":"\u0391\u03b8\u03ae\u03bd\u03b1","addr:housenumber":"31","addr:street":"\u03a7\u03ad\u03c5\u03b4\u03b5\u03bd","name":"Addis Market","shop":"convenience"}},{"type":"node","id":5181320237,"lat":37.9933798,"lon":23.7277471,"tags":{"addr:city":"\u0391\u03b8\u03ae\u03bd\u03b1","addr:housenumber":"31","addr:street":"\u03a7\u03ad\u03c5\u03b4\u03b5\u03bd","name":"Anahita","shop":"hairdresser"}},{"type":"node","id":5198980487,"lat":37.9936254,"lon":23.7275679,"tags":{"addr:city":"\u0391\u03b8\u03ae\u03bd\u03b1","addr:housenumber":"34","addr:street":"\u03a7\u03ad\u03c5\u03b4\u03b5\u03bd","amenity":"cafe","name":"Delice"}},{"type":"node","id":6002397492,"lat":37.9936306,"lon":23.7274671,"tags":{"addr:city":"\u0391\u03b8\u03ae\u03bd\u03b1","addr:housenumber":"38","addr:street":"\u03a7\u03ad\u03c5\u03b4\u03b5\u03bd","fee":"no","name":"Louvre","tourism":"gallery"}},{"type":"node","id":7687903903,"lat":37.9935265,"lon":23.7280619,"tags":{"addr:city":"\u0391\u03b8\u03ae\u03bd\u03b1","addr:housenumber":"28","addr:street":"\u03a7\u03ad\u03c5\u03b4\u03b5\u03bd","shop":"bag"}},{"type":"node","id":10156797737,"lat":37.9938291,"lon":23.7272608,"tags":{"addr:housenumber":"27","amenity":"brothel"}}]}