{"version":0.6,"generator":"Overpass API 0.7.61.5 4133829e","osm3s":{"timestamp_osm_base":"2023-08-16T11:28:16Z","copyright":"The data included in this document is from www.openstreetmap.org. The data is made available under ODbL."},"elements":[{"type":"node","id":3946425157,"lat":37.9985919,"lon":23.7363307,"tags":{"addr:city":"\u0391\u03b8\u03ae\u03bd\u03b1","addr:street":"\u039a\u03b5\u03c6\u03b1\u03bb\u03bb\u03b7\u03bd\u03af\u03b1\u03c2 17","amenity":"theatre","name":"\u0398\u03ad\u03b1\u03c4\u03c1\u03bf \u03a4\u03cc\u03c0\u03bf\u03c2 \u0391\u03bb\u03bb\u03bf\u03cd","wikidata":"Q90009475"}},{"type":"node","id":3946428456,"lat":37.9987018,"lon":23.7362234,"tags":{"addr:city":"\u0391\u03b8\u03ae\u03bd\u03b1","addr:street":"\u039a\u03b5\u03c6\u03b1\u03bb\u03bb\u03b7\u03bd\u03af\u03b1\u03c2 16","amenity":"theatre","name":"\u0398\u03ad\u03b1\u03c4\u03c1\u03bf \u039f\u03b4\u03bf\u03cd \u039a\u03b5\u03c6\u03b1\u03bb\u03bb\u03b7\u03bd\u03af\u03b1\u03c2","wikidata":"Q60704969"}},{"type":"node","id":3946437020,"lat":37.9988117,"lon":23.7364112,"tags":{"addr:city":"\u0391\u03b8\u03ae\u03bd\u03b1","addr:street":"\u039a\u03c5\u03ba\u03bb\u03ac\u03b4\u03c9\u03bd 11","amenity":"theatre","name":"\u0398\u03ad\u03b1\u03c4\u03c1\u03bf \u039f\u03b4\u03bf\u03cd \u039a\u03c5\u03ba\u03bb\u03ac\u03b4\u03c9\u03bd \u00ab\u039b\u03b5\u03c5\u03c4\u03ad\u03c1\u03b7\u03c2 \u0392\u03bf\u03b3\u03b9\u03b1\u03c4\u03b6\u03ae\u03c2\u00bb","wikidata":"Q62594563"}},{"type":"node","id":6219676689,"lat":37.9986493,"lon":23.7359364,"tags":{"addr:housenumber":"21","addr:street":"\u039a\u03b5\u03c6\u03b1\u03bb\u03bb\u03b7\u03bd\u03af\u03b1\u03c2"}},{"type":"node","id":6219676690,"lat":37.9986008,"lon":23.7362918,"tags":{"addr:housenumber":"17","addr:street":"\u039a\u03b5\u03c6\u03b1\u03bb\u03bb\u03b7\u03bd\u03af\u03b1\u03c2"}},{"type":"node","id":6868065442,"lat":37.9987635,"lon":23.7356928,"tags":{"highway":"stop"}},{"type":"node","id":7197203498,"lat":37.9986219,"lon":23.7361426,"tags":{"addr:city":"\u0391\u03b8\u03ae\u03bd\u03b1","addr:housenumber":"19","addr:street":"\u039a\u03b5\u03c6\u03b1\u03bb\u03bb\u03b7\u03bd\u03af\u03b1\u03c2"}},{"type":"node","id":9457086462,"lat":37.9987025,"lon":23.7357494,"tags":{"addr:city":"\u0391\u03b8\u03ae\u03bd\u03b1","addr:housenumber":"23","addr:postcode":"11361","addr:street":"\u039a\u03b5\u03c6\u03b1\u03bb\u03bb\u03b7\u03bd\u03af\u03b1\u03c2","name":"Jonotar","shop":"hairdresser"}},{"type":"node","id":9457103588,"lat":37.9986579,"lon":23.7356615,"tags":{"addr:city":"\u0391\u03b8\u03ae\u03bd\u03b1","addr:housenumber":"28","addr:postcode":"11361","addr:street":"\u0395\u03c0\u03c4\u03b1\u03bd\u03ae\u03c3\u03bf\u03c5"}},{"type":"node","id":9457118448,"lat":37.9989141,"lon":23.7355764,"tags":{"amenity":"doctors","healthcare":"doctor"}},{"type":"node","id":9457123200,"lat":37.9987132,"lon":23.7356747,"tags":{"amenity":"cafe","name":"\u0395\u03bd'\u03b1\u03bb\u03bb\u03b1\u03be"}},{"type":"node","id":9457137670,"lat":37.9987796,"lon":23.7355848,"tags":{"highway":"crossing"}},{"type":"node","id":9457137680,"lat":37.9987733,"lon":23.7356269,"tags":{"highway":"crossing"}}]}