{"version":0.6,"generator":"Overpass API 0.7.61.5 4133829e","osm3s":{"timestamp_osm_base":"2023-08-16T11:13:45Z","copyright":"The data included in this document is from www.openstreetmap.org. The data is made available under ODbL."},"elements":[{"type":"node","id":1617938344,"lat":37.9978714,"lon":23.7330219,"tags":{"addr:city":"\u0391\u03b8\u03ae\u03bd\u03b1","addr:country":"GR","addr:housenumber":"122","addr:postcode":"11257","addr:street":"28\u03b7\u03c2 \u039f\u03ba\u03c4\u03c9\u03b2\u03c1\u03af\u03bf\u03c5","brand":"\u039f\u03a0\u0391\u03a0","brand:wikidata":"Q2007823","brand:wikipedia":"el:\u039f\u03a0\u0391\u03a0","name":"\u039f\u03a0\u0391\u03a0","shop":"bookmaker"}},{"type":"node","id":1617938355,"lat":37.9978429,"lon":23.7330154,"tags":{"addr:city":"\u0391\u03b8\u03ae\u03bd\u03b1","addr:country":"GR","addr:housenumber":"124","addr:postcode":"11257","addr:street":"\u03a0\u03b1\u03c4\u03b7\u03c3\u03af\u03c9\u03bd","branch":"Woman","brand":"Pink","brand:wikidata":"Q20716793","clothes":"underwear;women","name":"Pink","shop":"clothes"}},{"type":"node","id":1758398517,"lat":37.9980648,"lon":23.7331511,"tags":{"addr:city":"\u0391\u03b8\u03ae\u03bd\u03b1","addr:country":"GR","addr:housenumber":"34","addr:postcode":"11257","addr:street":"\u0399\u03b8\u03ac\u03ba\u03b7\u03c2"}},{"type":"node","id":4706273303,"lat":37.9982026,"lon":23.7330952,"tags":{"clothes":"children","name":"fancy junior","shop":"clothes"}},{"type":"node","id":4706273808,"lat":37.998155,"lon":23.7330871,"tags":{"name":"mati mati","shop":"optician"}},{"type":"node","id":4706277439,"lat":37.9979139,"lon":23.7330268,"tags":{"addr:city":"\u0391\u03b8\u03ae\u03bd\u03b1","addr:housenumber":"124","addr:street":"\u03a0\u03b1\u03c4\u03b7\u03c3\u03af\u03c9\u03bd","clothes":"women","name":"D-SHOP","shop":"clothes"}},{"type":"node","id":6945033512,"lat":37.9979831,"lon":23.7334108,"tags":{"amenity":"pharmacy","healthcare":"pharmacy"}},{"type":"node","id":7611435907,"lat":37.9980545,"lon":23.7330667,"tags":{"clothes":"women","name":"anel","shop":"clothes"}},{"type":"node","id":9817835691,"lat":37.9981068,"lon":23.7330714,"tags":{"amenity":"cafe","cuisine":"coffee_shop","name":"IL nostro cafe"}},{"type":"node","id":9912579821,"lat":37.997613,"lon":23.7336553,"tags":{"natural":"tree"}},{"type":"node","id":9912579823,"lat":37.9977195,"lon":23.7333785,"tags":{"natural":"tree"}},{"type":"node","id":9912580558,"lat":37.9981609,"lon":23.733694,"tags":{"natural":"tree"}},{"type":"node","id":9951054674,"lat":37.9981732,"lon":23.7333843,"tags":{"natural":"tree"}},{"type":"node","id":9951054675,"lat":37.9982366,"lon":23.7335586,"tags":{"natural":"tree"}},{"type":"node","id":9961336174,"lat":37.9978216,"lon":23.7336469,"tags":{"addr:city":"\u0391\u03b8\u03ae\u03bd\u03b1","amenity":"social_centre","name":"ANKAA Project"}},{"type":"node","id":10118290876,"lat":37.997877,"lon":23.7334417,"tags":{"addr:housenumber":"31","addr:street":"\u0399\u03b8\u03ac\u03ba\u03b7\u03c2"}},{"type":"node","id":10118292696,"lat":37.9979021,"lon":23.7333171,"tags":{"addr:housenumber":"33","addr:street":"\u0399\u03b8\u03ac\u03ba\u03b7\u03c2"}},{"type":"node","id":10118322899,"lat":37.9978653,"lon":23.7335399,"tags":{"addr:housenumber":"29","addr:street":"\u0399\u03b8\u03ac\u03ba\u03b7\u03c2"}},{"type":"node","id":10118329378,"lat":37.9979226,"lon":23.7331853,"tags":{"addr:housenumber":"35","addr:street":"\u0399\u03b8\u03ac\u03ba\u03b7\u03c2","shop":"sewing"}},{"type":"node","id":10118341872,"lat":37.9978243,"lon":23.7337695,"tags":{"addr:housenumber":"21","addr:street":"\u0399\u03b8\u03ac\u03ba\u03b7\u03c2"}},{"type":"node","id":10118351943,"lat":37.9979158,"lon":23.7332787,"tags":{"name":"Kids memories","shop":"baby_goods"}},{"type":"node","id":10178217911,"lat":37.9977963,"lon":23.7329961,"tags":{"name":"\u039a\u03b7\u03c1\u03ae\u03b8\u03c1\u03b1","shop":"clothes"}},{"type":"node","id":10555547715,"lat":37.9982529,"lon":23.7331059,"tags":{"name":"Verona","shop":"shoes"}},{"type":"node","id":11044346261,"lat":37.9978953,"lon":23.7331015,"tags":{"addr:city":"\u0391\u03b8\u03ae\u03bd\u03b1","addr:housenumber":"124","addr:street":"28\u03b7\u03c2 \u039f\u03ba\u03c4\u03c9\u03b2\u03c1\u03af\u03bf\u03c5"}}]}