{"version":0.6,"generator":"Overpass API 0.7.61.5 4133829e","osm3s":{"timestamp_osm_base":"2023-08-16T11:09:40Z","copyright":"The data included in this document is from www.openstreetmap.org. The data is made available under ODbL."},"elements":[{"type":"node","id":1799459831,"lat":37.9970926,"lon":23.7326845,"tags":{"bus":"yes","name":"\u0391\u0393\u0393\u0395\u039b\u039f\u03a0\u039f\u03a5\u039b\u039f\u03a5","public_transport":"stop_position","trolleybus":"yes"}},{"type":"node","id":2514283307,"lat":37.9971226,"lon":23.732574,"tags":{"bus":"yes","name":"\u0391\u0393\u0393\u0395\u039b\u039f\u03a0\u039f\u03a5\u039b\u039f\u03a5","public_transport":"stop_position","ref":"060526","trolleybus":"yes"}},{"type":"node","id":2608889276,"lat":37.997397,"lon":23.732471,"tags":{"name":"Joy Tours","shop":"travel_agency"}},{"type":"node","id":3176407946,"lat":37.9971325,"lon":23.7324827,"tags":{"bench":"yes","bin":"no","bus":"yes","highway":"bus_stop","lit":"no","name":"\u0391\u0393\u0393\u0395\u039b\u039f\u03a0\u039f\u03a5\u039b\u039f\u03a5","network":"\u039f\u0391\u03a3\u0391","network:el":"\u039f\u0391\u03a3\u0391","network:en":"OASA","network:wikidata":"Q1814382","operator":"\u039f\u0391\u03a3\u0391","passenger_information_display":"yes","public_transport":"platform","ref":"060526","route_ref":"054","shelter":"yes","trolleybus":"yes"}},{"type":"node","id":3177076561,"lat":37.9970855,"lon":23.7327332,"tags":{"bench":"yes","bin":"yes","bus":"yes","highway":"bus_stop","name":"\u0391\u0393\u0393\u0395\u039b\u039f\u03a0\u039f\u03a5\u039b\u039f\u03a5","network":"\u039f\u0391\u03a3\u0391","network:el":"\u039f\u0391\u03a3\u0391","network:en":"OASA","network:wikidata":"Q1814382","operator":"\u039f\u0391\u03a3\u0391","passenger_information_display":"yes","public_transport":"platform","ref":"060476","shelter":"yes","trolleybus":"yes"}},{"type":"node","id":4374929941,"lat":37.9974383,"lon":23.7329506,"tags":{"name":"Market In","opening_hours":"Mo-Fr 08:00-21:00; Sa 08:00-20:00; Su closed","opening_hours:covid19":"Mo-Fr 08:00-20:30; Sa 08:00-20:00; Su closed","shop":"supermarket"}},{"type":"node","id":4376632824,"lat":37.9972081,"lon":23.7328301,"tags":{"addr:city":"\u0391\u03b8\u03ae\u03bd\u03b1","addr:housenumber":"118","addr:street":"28\u03b7\u03c2 \u039f\u03ba\u03c4\u03c9\u03b2\u03c1\u03af\u03bf\u03c5","name":"Nick","shop":"clothes"}},{"type":"node","id":4376632935,"lat":37.9972631,"lon":23.7328462,"tags":{"addr:city":"\u0391\u03b8\u03ae\u03bd\u03b1","addr:housenumber":"118","addr:street":"28\u03b7\u03c2 \u039f\u03ba\u03c4\u03c9\u03b2\u03c1\u03af\u03bf\u03c5","name":"BS","shop":"clothes"}},{"type":"node","id":5251281347,"lat":37.9970754,"lon":23.7328014,"tags":{"amenity":"fast_food","drive_through":"no","name":"Ismini"}},{"type":"node","id":5251285821,"lat":37.9972846,"lon":23.7329612,"tags":{"addr:city":"\u0391\u03b8\u03ae\u03bd\u03b1","addr:housenumber":"2","addr:street":"\u0386\u03bd\u03b4\u03c1\u03bf\u03c5","amenity":"fast_food"}},{"type":"node","id":5255236308,"lat":37.9969936,"lon":23.7327867,"tags":{"addr:city":"\u0391\u03b8\u03ae\u03bd\u03b1","addr:housenumber":"112","addr:street":"28\u03b7\u03c2 \u039f\u03ba\u03c4\u03c9\u03b2\u03c1\u03af\u03bf\u03c5","brand":"Tezenis","brand:wikidata":"Q28056374","brand:wikipedia":"ru:Tezenis","clothes":"underwear","name":"Tezenis","shop":"clothes"}},{"type":"node","id":5952184788,"lat":37.9974719,"lon":23.7324988,"tags":{"amenity":"college","name":"\u0391\u03ba\u03bc\u03ae \u039c\u03b7\u03c4\u03c1\u03bf\u03c0\u03bf\u03bb\u03b9\u03c4\u03b9\u03ba\u03cc \u039a\u03bf\u03bb\u03bb\u03ad\u03b3\u03b9\u03bf - Campus \u0391\u03b8\u03ae\u03bd\u03b1\u03c2","name:en":"Akmi Metropolitan College - Athens Campus","phone":"+302106199891","website":"https:\/\/mitropolitiko.edu.gr"}},{"type":"node","id":5952184790,"lat":37.9974341,"lon":23.7324788,"tags":{"disused":"laboratory","name":"\u0392\u03b9\u03bf\u03ca\u03b1\u03c4\u03c1\u03b9\u03ba\u03ae"}},{"type":"node","id":6228108941,"lat":37.9971371,"lon":23.7324169,"tags":{"name":"mati mati","shop":"optician"}},{"type":"node","id":6237641332,"lat":37.9972103,"lon":23.7324401,"tags":{"clothes":"men","name":"Something Different","shop":"clothes"}},{"type":"node","id":6260784806,"lat":37.9971623,"lon":23.7324251,"tags":{"name":"Joy optical","shop":"optician"}},{"type":"node","id":6328478152,"lat":37.9975027,"lon":23.7329198,"tags":{"amenity":"recycling","recycling:clothes":"yes","recycling:shoes":"yes","recycling_type":"container"}},{"type":"node","id":6810792336,"lat":37.9970186,"lon":23.7323787,"tags":{"clothes":"women;men","name":"Outlet Lamorrel","shop":"clothes"}},{"type":"node","id":7252607929,"lat":37.9970377,"lon":23.7327957,"tags":{"shop":"mobile_phone"}},{"type":"node","id":7262971635,"lat":37.9969546,"lon":23.7327836,"tags":{"addr:city":"\u0391\u03b8\u03ae\u03bd\u03b1","addr:housenumber":"112","addr:street":"28\u03b7\u03c2 \u039f\u03ba\u03c4\u03c9\u03b2\u03c1\u03af\u03bf\u03c5","amenity":"cafe","brand":"Coffee Island","brand:wikidata":"Q60867333","brand:wikipedia":"en:Coffee Island","cuisine":"coffee_shop","name":"Coffee Island","shop":"coffee","takeaway":"yes"}},{"type":"node","id":7917185343,"lat":37.9973073,"lon":23.7328745,"tags":{"addr:city":"\u0391\u03b8\u03ae\u03bd\u03b1","addr:housenumber":"118","addr:street":"28\u03b7\u03c2 \u039f\u03ba\u03c4\u03c9\u03b2\u03c1\u03af\u03bf\u03c5","amenity":"fast_food","drive_through":"no","name":"\u03a0\u03ac\u03bc\u03b5 \u03ba\u03bf\u03c5\u03bb\u03bf\u03cd\u03c1\u03b9"}},{"type":"node","id":9429602134,"lat":37.997561,"lon":23.7325354,"tags":{"name":"HLH","shop":"clothes"}},{"type":"node","id":9915052161,"lat":37.9970718,"lon":23.7323929,"tags":{"name":"tatanka","shop":"shoes"}},{"type":"node","id":10178218925,"lat":37.996922,"lon":23.7327758,"tags":{"addr:city":"\u0391\u03b8\u03ae\u03bd\u03b1","addr:housenumber":"112","addr:street":"28\u03b7\u03c2 \u039f\u03ba\u03c4\u03c9\u03b2\u03c1\u03af\u03bf\u03c5","name":"Tra! Lala","shop":"gift"}},{"type":"node","id":10178329380,"lat":37.9973853,"lon":23.7328053,"tags":{"crossing":"marked","crossing:markings":"yes","highway":"crossing"}},{"type":"node","id":10822802281,"lat":37.9972062,"lon":23.7329159,"tags":{"addr:city":"\u0391\u03b8\u03ae\u03bd\u03b1","addr:housenumber":"118","addr:street":"28\u03b7\u03c2 \u039f\u03ba\u03c4\u03c9\u03b2\u03c1\u03af\u03bf\u03c5"}},{"type":"node","id":10905259416,"lat":37.9971456,"lon":23.732811,"tags":{"addr:city":"\u0391\u03b8\u03ae\u03bd\u03b1","addr:housenumber":"116","addr:street":"28\u03b7\u03c2 \u039f\u03ba\u03c4\u03c9\u03b2\u03c1\u03af\u03bf\u03c5","name":"Vincente Outlet","shop":"clothes"}},{"type":"node","id":11033065882,"lat":37.9969224,"lon":23.7323691,"tags":{"addr:city":"\u0391\u03b8\u03ae\u03bd\u03b1","addr:housenumber":"117","addr:street":"28\u03b7\u03c2 \u039f\u03ba\u03c4\u03c9\u03b2\u03c1\u03af\u03bf\u03c5","name":"Mobile Exchange","shop":"mobile_phone"}},{"type":"node","id":11033082884,"lat":37.9969203,"lon":23.732227,"tags":{"addr:city":"\u0391\u03b8\u03ae\u03bd\u03b1","addr:housenumber":"117","addr:street":"28\u03b7\u03c2 \u039f\u03ba\u03c4\u03c9\u03b2\u03c1\u03af\u03bf\u03c5"}},{"type":"node","id":11044341619,"lat":37.9969514,"lon":23.7328732,"tags":{"addr:city":"\u0391\u03b8\u03ae\u03bd\u03b1","addr:housenumber":"112","addr:street":"28\u03b7\u03c2 \u039f\u03ba\u03c4\u03c9\u03b2\u03c1\u03af\u03bf\u03c5"}},{"type":"node","id":11077707362,"lat":37.9973702,"lon":23.7323031,"tags":{"addr:city":"\u0391\u03b8\u03ae\u03bd\u03b1","addr:housenumber":"123","addr:street":"28\u03b7\u03c2 \u039f\u03ba\u03c4\u03c9\u03b2\u03c1\u03af\u03bf\u03c5"}}]}