{"version":0.6,"generator":"Overpass API 0.7.61.5 4133829e","osm3s":{"timestamp_osm_base":"2023-08-16T11:30:26Z","copyright":"The data included in this document is from www.openstreetmap.org. The data is made available under ODbL."},"elements":[{"type":"node","id":1659512588,"lat":37.9970104,"lon":23.7220935,"tags":{"addr:city":"\u0391\u03b8\u03ae\u03bd\u03b1","addr:country":"GR","addr:housenumber":"121","addr:postcode":"10445","addr:street":"\u039b\u03b9\u03bf\u03c3\u03af\u03c9\u03bd"}},{"type":"node","id":1659512638,"lat":37.9974947,"lon":23.7221192,"tags":{"addr:city":"\u0391\u03b8\u03ae\u03bd\u03b1","addr:country":"GR","addr:housenumber":"133","addr:postcode":"10445","addr:street":"\u039b\u03b9\u03bf\u03c3\u03af\u03c9\u03bd"}},{"type":"node","id":2786688560,"lat":37.9973055,"lon":23.7222855,"tags":{"bench":"yes","bin":"no","bus":"yes","highway":"bus_stop","lit":"no","name":"\u03a0\u039b\u0391\u03a4\u0395\u0399\u0391 \u0391\u03a4\u03a4\u0399\u039a\u0397\u03a3","network":"\u039f\u0391\u03a3\u0391","network:el":"\u039f\u0391\u03a3\u0391","network:en":"OASA","network:wikidata":"Q1814382","operator":"\u039f\u0391\u03a3\u0391","passenger_information_display":"yes","public_transport":"platform","ref":"060126","shelter":"yes"}},{"type":"node","id":2786688563,"lat":37.9974968,"lon":23.7222238,"tags":{"bench":"no","bin":"yes","bus":"yes","highway":"bus_stop","lit":"no","name":"\u03a0\u039b\u0391\u03a4\u0395\u0399\u0391 \u0391\u03a4\u03a4\u0399\u039a\u0397\u03a3","network":"\u039f\u0391\u03a3\u0391","network:el":"\u039f\u0391\u03a3\u0391","network:en":"OASA","network:wikidata":"Q1814382","operator":"\u039f\u0391\u03a3\u0391","public_transport":"platform","ref":"060147","shelter":"no"}},{"type":"node","id":5679705547,"lat":37.9974937,"lon":23.7222658,"tags":{"bus":"yes","name":"\u03a0\u039b\u0391\u03a4\u0395\u0399\u0391 \u0391\u03a4\u03a4\u0399\u039a\u0397\u03a3","operator":"\u039f\u0391\u03a3\u0391","public_transport":"stop_position","ref":"060147","shelter":"no"}},{"type":"node","id":10616870114,"lat":37.9970006,"lon":23.7223676,"tags":{"addr:city":"\u0391\u03b8\u03ae\u03bd\u03b1","addr:street":"\u039b\u03b9\u03bf\u03c3\u03af\u03c9\u03bd","amenity":"restaurant","cuisine":"greek","name":"\u0397 \u039b\u03ad\u03c3\u03c7\u03b7 \u03c4\u03bf\u03c5 \u03c6\u03b1\u03b3\u03b7\u03c4\u03bf\u03cd"}}]}