{"version":0.6,"generator":"Overpass API 0.7.61.5 4133829e","osm3s":{"timestamp_osm_base":"2023-08-16T11:12:44Z","copyright":"The data included in this document is from www.openstreetmap.org. The data is made available under ODbL."},"elements":[{"type":"node","id":1617938382,"lat":37.9986446,"lon":23.7332088,"tags":{"clothes":"men","name":"Button Down","shop":"clothes"}},{"type":"node","id":1799459841,"lat":37.998821,"lon":23.7331071,"tags":{"bus":"yes","name":"\u039a\u0395\u03a6\u0391\u039b\u039b\u0397\u039d\u0399\u0391\u03a3","public_transport":"stop_position","trolleybus":"yes"}},{"type":"node","id":3176358081,"lat":37.9988141,"lon":23.7331777,"tags":{"bench":"yes","bin":"yes","bus":"yes","highway":"bus_stop","lit":"no","name":"\u039a\u0395\u03a6\u0391\u039b\u039b\u0397\u039d\u0399\u0391\u03a3","network":"\u039f\u0391\u03a3\u0391","network:el":"\u039f\u0391\u03a3\u0391","network:en":"OASA","network:wikidata":"Q1814382","operator":"\u039f\u0391\u03a3\u0391","passenger_information_display":"yes","public_transport":"platform","ref":"060874","shelter":"yes","trolleybus":"yes"}},{"type":"node","id":4420149126,"lat":37.9986828,"lon":23.733221,"tags":{"name":"Kem","shop":"bag"}},{"type":"node","id":4706272103,"lat":37.998472,"lon":23.7331799,"tags":{"name":"XP Leaders","shop":"shoes"}},{"type":"node","id":4712385989,"lat":37.9988687,"lon":23.7332714,"tags":{"brand":"Bershka","brand:wikidata":"Q827258","brand:wikipedia":"en:Bershka","name":"Bershka","name:el":"Bershka","name:en":"Bershka","shop":"clothes"}},{"type":"node","id":7003738991,"lat":37.9986428,"lon":23.7333217,"tags":{"addr:city":"\u0391\u03b8\u03ae\u03bd\u03b1","addr:housenumber":"9","addr:street":"\u03a4\u03ae\u03bd\u03bf\u03c5"}},{"type":"node","id":7003738992,"lat":37.9985794,"lon":23.7336248,"tags":{"addr:city":"\u0391\u03b8\u03ae\u03bd\u03b1","addr:housenumber":"15","addr:street":"\u03a4\u03ae\u03bd\u03bf\u03c5"}},{"type":"node","id":7165050124,"lat":37.9986394,"lon":23.7336561,"tags":{"addr:city":"\u0391\u03b8\u03ae\u03bd\u03b1","addr:housenumber":"1","addr:street":"\u039a\u03bf\u03bc\u03bd\u03b1 \u03a4\u03c1\u03b1\u03ba\u03b1"}},{"type":"node","id":7165050125,"lat":37.9987811,"lon":23.7336776,"tags":{"addr:city":"\u0391\u03b8\u03ae\u03bd\u03b1","addr:housenumber":"3","addr:street":"\u039a\u03bf\u03bc\u03bd\u03b1 \u03a4\u03c1\u03b1\u03ba\u03b1"}},{"type":"node","id":7528199153,"lat":37.9985435,"lon":23.733812,"tags":{"addr:city":"\u0391\u03b8\u03ae\u03bd\u03b1","addr:street":"\u03a4\u03ae\u03bd\u03bf\u03c5","shop":"bakery"}},{"type":"node","id":8490900430,"lat":37.9987586,"lon":23.7332423,"tags":{"name":"Ophelia's dreams","shop":"erotic"}},{"type":"node","id":8490908540,"lat":37.9987242,"lon":23.7332322,"tags":{"facebook":"https:\/\/www.facebook.com\/errikahome.gr\/","name":"Errika Home","phone":"2102020013","shop":"houseware","website":"https:\/\/www.errikahome.gr\/"}},{"type":"node","id":8651295361,"lat":37.9983385,"lon":23.7331623,"tags":{"name":"Boutique de la parfumerie","shop":"perfumery"}},{"type":"node","id":8902399675,"lat":37.9989393,"lon":23.7332787,"tags":{"addr:city":"\u0391\u03b8\u03ae\u03bd\u03b1","addr:housenumber":"136","addr:street":"28\u03b7\u03c2 \u039f\u03ba\u03c4\u03c9\u03b2\u03c1\u03af\u03bf\u03c5","clothes":"underwear","email":"patision@minerva.gr","name":"Minerva","phone":"2108216331","shop":"clothes","website":"https:\/\/www.minerva.gr"}},{"type":"node","id":9912582815,"lat":37.9988812,"lon":23.7335352,"tags":{"natural":"tree"}},{"type":"node","id":9951049463,"lat":37.9988086,"lon":23.7335431,"tags":{"natural":"tree"}},{"type":"node","id":10159004475,"lat":37.9983971,"lon":23.7331701,"tags":{"addr:city":"\u0391\u03b8\u03ae\u03bd\u03b1","addr:housenumber":"130","addr:street":"28\u03b7\u03c2 \u039f\u03ba\u03c4\u03c9\u03b2\u03c1\u03af\u03bf\u03c5","brand":"Intimissimi","brand:wikidata":"Q305404","clothes":"underwear","name":"Intimissimi","shop":"clothes"}},{"type":"node","id":10178329377,"lat":37.9985674,"lon":23.7330943,"tags":{"highway":"crossing"}},{"type":"node","id":10307206129,"lat":37.9982926,"lon":23.7332636,"tags":{"name":"Eightball","opening_hours":"Mo-Fr 11:00-19:00; Sa 11:00-15:00; Dec 31-Jan 02, Jan 06-08 off","phone":"+302108214780","shop":"tattoo","website":"https:\/\/eightballtattoo.com\/"}},{"type":"node","id":10822760382,"lat":37.9987541,"lon":23.7333323,"tags":{"addr:city":"\u0391\u03b8\u03ae\u03bd\u03b1","addr:housenumber":"132","addr:street":"28\u03b7\u03c2 \u039f\u03ba\u03c4\u03c9\u03b2\u03c1\u03af\u03bf\u03c5"}},{"type":"node","id":10825913275,"lat":37.9989349,"lon":23.7333792,"tags":{"addr:city":"\u0391\u03b8\u03ae\u03bd\u03b1","addr:housenumber":"136","addr:street":"28\u03b7\u03c2 \u039f\u03ba\u03c4\u03c9\u03b2\u03c1\u03af\u03bf\u03c5"}},{"type":"node","id":10829918230,"lat":37.9984408,"lon":23.7332967,"tags":{"addr:city":"\u0391\u03b8\u03ae\u03bd\u03b1","addr:housenumber":"10","addr:street":"\u03a4\u03ae\u03bd\u03bf\u03c5"}},{"type":"node","id":10858108830,"lat":37.9982998,"lon":23.7331224,"tags":{"addr:city":"\u0391\u03b8\u03ae\u03bd\u03b1","addr:housenumber":"128","addr:street":"28\u03b7\u03c2 \u039f\u03ba\u03c4\u03c9\u03b2\u03c1\u03af\u03bf\u03c5"}}]}