{"version":0.6,"generator":"Overpass API 0.7.61.5 4133829e","osm3s":{"timestamp_osm_base":"2023-08-16T11:28:16Z","copyright":"The data included in this document is from www.openstreetmap.org. The data is made available under ODbL."},"elements":[{"type":"node","id":2870893250,"lat":37.9964702,"lon":23.735668,"tags":{"addr:city":"\u0391\u03b8\u03ae\u03bd\u03b1","addr:country":"GR","addr:housenumber":"14","addr:postcode":"11362","addr:street":"\u039a\u03c5\u03c8\u03ad\u03bb\u03b7\u03c2"}},{"type":"node","id":2870893254,"lat":37.9966474,"lon":23.7358857,"tags":{"addr:city":"\u0391\u03b8\u03ae\u03bd\u03b1","addr:country":"GR","addr:housenumber":"16","addr:postcode":"11362","addr:street":"\u039a\u03c5\u03c8\u03ad\u03bb\u03b7\u03c2"}},{"type":"node","id":2870893258,"lat":37.9967525,"lon":23.7360593,"tags":{"addr:city":"\u0391\u03b8\u03ae\u03bd\u03b1","addr:country":"GR","addr:housenumber":"18","addr:postcode":"11362","addr:street":"\u039a\u03c5\u03c8\u03ad\u03bb\u03b7\u03c2"}},{"type":"node","id":2870893263,"lat":37.9968352,"lon":23.7361692,"tags":{"addr:city":"\u0391\u03b8\u03ae\u03bd\u03b1","addr:country":"GR","addr:housenumber":"20","addr:postcode":"11362","addr:street":"\u039a\u03c5\u03c8\u03ad\u03bb\u03b7\u03c2"}},{"type":"node","id":3223042917,"lat":37.996449,"lon":23.7355993,"tags":{"bus":"yes","highway":"bus_stop","name":"\u0395\u03a0\u03a4\u0391\u039d\u0397\u03a3\u039f\u03a5","network":"\u039f\u0391\u03a3\u0391","network:el":"\u039f\u0391\u03a3\u0391","network:en":"OASA","network:wikidata":"Q1814382","operator":"\u039f\u0391\u03a3\u0391","public_transport":"platform","ref":"060551","route_ref":"2;4;022","shelter":"no","trolleybus":"yes"}},{"type":"node","id":4996540987,"lat":37.9964483,"lon":23.7357935,"tags":{"addr:city":"\u0391\u03b8\u03ae\u03bd\u03b1","addr:housenumber":"2","addr:street":"\u039a\u03b9\u03bc\u03ce\u03bb\u03bf\u03c5"}},{"type":"node","id":4996545235,"lat":37.9965793,"lon":23.7358713,"tags":{"addr:city":"\u0391\u03b8\u03ae\u03bd\u03b1","addr:housenumber":"1","addr:street":"\u039a\u03b9\u03bc\u03ce\u03bb\u03bf\u03c5"}},{"type":"node","id":9457077547,"lat":37.9966891,"lon":23.7357062,"tags":{"amenity":"money_transfer","brand":"MoneyGram","brand:wikidata":"Q1944412","brand:wikipedia":"en:MoneyGram","name":"MoneyGram"}},{"type":"node","id":9457104492,"lat":37.9966728,"lon":23.7356827,"tags":{"name":"Kosmo market","shop":"convenience"}},{"type":"node","id":10665734203,"lat":37.996549,"lon":23.7357446,"tags":{"highway":"stop"}}]}