{"version":0.6,"generator":"Overpass API 0.7.61.5 4133829e","osm3s":{"timestamp_osm_base":"2023-08-16T11:13:45Z","copyright":"The data included in this document is from www.openstreetmap.org. The data is made available under ODbL."},"elements":[{"type":"node","id":4412044294,"lat":37.995056,"lon":23.73229,"tags":{"tourism":"guest_house"}},{"type":"node","id":4417748293,"lat":37.9953165,"lon":23.7323568,"tags":{"shop":"shoes"}},{"type":"node","id":4678713218,"lat":37.9954204,"lon":23.7323848,"tags":{"addr:city":"\u0391\u03b8\u03ae\u03bd\u03b1","addr:country":"GR","addr:housenumber":"94","addr:postcode":"10434","addr:street":"\u03a0\u03b1\u03c4\u03b7\u03c3\u03af\u03c9\u03bd","brand":"Pull & Bear","brand:wikidata":"Q691029","brand:wikipedia":"en:Pull&Bear","name":"Pull & Bear","shop":"clothes"}},{"type":"node","id":4692121198,"lat":37.9954396,"lon":23.7328267,"tags":{"amenity":"fast_food"}},{"type":"node","id":4791991380,"lat":37.9954232,"lon":23.732923,"tags":{"name":"Visto","shop":"optician"}},{"type":"node","id":6077798356,"lat":37.9954673,"lon":23.7326662,"tags":{"shop":"convenience"}},{"type":"node","id":6262295021,"lat":37.9954541,"lon":23.7322839,"tags":{"highway":"traffic_signals","traffic_signals":"signal"}},{"type":"node","id":6799962310,"lat":37.9954533,"lon":23.7327523,"tags":{"shop":"copyshop"}},{"type":"node","id":6808091438,"lat":37.9954113,"lon":23.7329945,"tags":{"addr:city":"\u0391\u03b8\u03ae\u03bd\u03b1","addr:country":"GR","addr:housenumber":"9","addr:postcode":"10434","addr:street":"\u039a\u03bf\u03b4\u03c1\u03b9\u03b3\u03ba\u03c4\u03ce\u03bd\u03bf\u03c2","email":"bournazostores@gmail.com","facebook":"https:\/\/www.facebook.com\/Bournazos-Stores-226923554913618\/","name":"Bournazos Stores","phone":"2114007550","shop":"nutrition_supplements"}},{"type":"node","id":7285164097,"lat":37.9951301,"lon":23.7323089,"tags":{"addr:city":"\u0391\u03b8\u03ae\u03bd\u03b1","addr:housenumber":"88","addr:street":"28\u03b7\u03c2 \u039f\u03ba\u03c4\u03c9\u03b2\u03c1\u03af\u03bf\u03c5","email":"dimpantelis@hotmail.com","facebook":"https:\/\/el-gr.facebook.com\/themathatter\/","name":"Mat Hatter","phone":"210 8821909","shop":"hairdresser","website":"http:\/\/www.mathatter.gr\/"}},{"type":"node","id":7285373335,"lat":37.9949276,"lon":23.7322562,"tags":{"beauty":"nails","shop":"beauty"}},{"type":"node","id":8941078864,"lat":37.9952671,"lon":23.7323499,"tags":{"addr:city":"\u0391\u03b8\u03ae\u03bd\u03b1","addr:housenumber":"92","addr:street":"28\u03b7\u03c2 \u039f\u03ba\u03c4\u03c9\u03b2\u03c1\u03af\u03bf\u03c5","name":"Smyrni","shop":"confectionery"}},{"type":"node","id":9506019492,"lat":37.9954794,"lon":23.732573,"tags":{"amenity":"university","name":"Mediterranean college"}},{"type":"node","id":9509347281,"lat":37.9951783,"lon":23.7323211,"tags":{"addr:city":"\u0391\u03b8\u03ae\u03bd\u03b1","addr:housenumber":"92","addr:street":"28\u03b7\u03c2 \u039f\u03ba\u03c4\u03c9\u03b2\u03c1\u03af\u03bf\u03c5","amenity":"cafe","cuisine":"coffee_shop","name":"Coffee Lime"}},{"type":"node","id":10263543165,"lat":37.9954498,"lon":23.732481,"tags":{"addr:city":"\u0391\u03b8\u03ae\u03bd\u03b1","addr:housenumber":"94","addr:street":"28\u03b7\u03c2 \u039f\u03ba\u03c4\u03c9\u03b2\u03c1\u03af\u03bf\u03c5"}},{"type":"node","id":10700601931,"lat":37.9949915,"lon":23.7322831,"tags":{"addr:city":"\u0391\u03b8\u03ae\u03bd\u03b1","addr:housenumber":"88","addr:street":"28\u03b7\u03c2 \u039f\u03ba\u03c4\u03c9\u03b2\u03c1\u03af\u03bf\u03c5","name":"Oggi","shop":"cosmetics"}}]}