{"version":0.6,"generator":"Overpass API 0.7.61.5 4133829e","osm3s":{"timestamp_osm_base":"2023-08-16T10:58:15Z","copyright":"The data included in this document is from www.openstreetmap.org. The data is made available under ODbL."},"elements":[{"type":"way","id":31896560,"nodes":[360107066,6121970885,357217366,805901657,805902427,805901463,3885510670,805902410,357217973,3755967851],"tags":{"highway":"residential","int_name":"Kallergi","name":"\u039a\u03b1\u03bb\u03bb\u03ad\u03c1\u03b3\u03b7","oneway":"yes","source":"Yahoo","surface":"asphalt"}},{"type":"way","id":31896562,"nodes":[251153467,357217969,357217928,805901664,3879181543,565473756],"tags":{"highway":"residential","int_name":"Georgiou Souri","lanes":"1","name":"\u0393\u03b5\u03c9\u03c1\u03b3\u03af\u03bf\u03c5 \u03a3\u03bf\u03c5\u03c1\u03ae","oneway":"yes","source":"Yahoo","surface":"asphalt"}},{"type":"way","id":31896584,"nodes":[357217672,6121810181,9001938902,805902159,357217671,6121810178,1456227883,805902091,251155173,6121810176,805902111,357217670,805902383,357217366,6121810175,565473756,1730295275],"tags":{"highway":"residential","int_name":"Eirinis","lanes":"1","name":"\u0395\u03b9\u03c1\u03ae\u03bd\u03b7\u03c2","oneway":"yes","source":"survey","surface":"asphalt"}},{"type":"way","id":32077987,"nodes":[360107808,8997087996,8529644509,805902610,360107879,2050682842,805901519,360107880,4622551897,4621392123,360107881],"tags":{"highway":"residential","int_name":"Christofi","name":"\u03a7\u03c1\u03b9\u03c3\u03c4\u03bf\u03c6\u03ae","oneway":"yes","surface":"asphalt"}},{"type":"way","id":32077989,"nodes":[357218129,6120016848,805901886,2055808749,805901547,2255409282,805902014,2255409263,805902493,360107964,360107907,6120052728,4621392125,360107881,360107768,2255409124,3686779590,360108023],"tags":{"highway":"residential","int_name":"Davaki - Pindou","name":"\u0394\u03b1\u03b2\u03ac\u03ba\u03b7 - \u03a0\u03af\u03bd\u03b4\u03bf\u03c5","oneway":"yes","surface":"asphalt"}},{"type":"way","id":66611381,"nodes":[360107965,360107964],"tags":{"highway":"residential","int_name":"Mitsa","name":"\u039c\u03ae\u03c4\u03c3\u03b1","oneway":"yes","surface":"asphalt"}},{"type":"way","id":66611407,"nodes":[360107907,360107908],"tags":{"highway":"residential","int_name":"Nipbana","name":"\u039d\u03b9\u03c1\u03b2\u03ac\u03bd\u03b1","oneway":"yes","surface":"asphalt"}},{"type":"way","id":66676287,"nodes":[806507197,2264918320,2264918318,2264918316,806507198,806507200,2050524129,806507202,806507203,2255409331,2255409328,2255409324,2255409321,2255409318,806507204,2255409303,2255409294,2255409287,806507205,2255409269,2255409266,2255409239,2255409237,2255409224,2255409170,806507197],"tags":{"landuse":"residential"}},{"type":"way","id":66676294,"nodes":[806507212,806507216,2753807217,2255409068,2753807216,2753807215,2753807214,806507219,1456250107,4621934021,806507224,2253052997,806507232,806507235,806507238,2050710871,2050710870,806507241,2050710868,2050710869,806507245,2050710872,806507248,806507251,806507253,806507254,4622567039,806507255,4622567035,2050682840,2050682838,4178745876,2050682836,2050682834,4178745877,2050682832,2050682830,4622564679,806507256,4622564681,806507257,806507212],"tags":{"landuse":"residential"}},{"type":"way","id":216184274,"nodes":[2255408924,2255408945,2255408950,2255409183,2255409213,2255409226,2255409242,2255409252,2255409272,2255409291,2255409296,2255409310,2255409316,2255409333,2255409342],"tags":{"barrier":"wall"}},{"type":"way","id":216184277,"nodes":[2255409433,2255409465,9722259468,9722259467,2255409451,2255409441,2255409421,2255409411,2255409399,2255409391,2255409381,2255409373,2255409363,2255409355,2255409346,2255409313,2255409279,2255409259,2255409250,2255409234,2255409222,2255409210,2255408960,2255408933,2255408913,2255408910,2255408904,2255408898,2255408892,2255408889,2255408874,2255408855,2255408849,2255408846,2255408845,2255408843,2255408840,2255408842,2253052815],"tags":{"barrier":"wall"}},{"type":"way","id":217199200,"nodes":[2264918321,2255409623,2255409611,2255409589,2255409579,2255409576,2255409563,2255409552,2255409536,2255409518,2255409512,2255409505,2255409499,2255409496,2255409487,2255409479,2255409473,2255409467,2255409462,2255409455,2255409444,2255409429,2255409418,2255409407,2255409397,2255409387,2255409379,2255409369,2255409361,2255409351,2255409344,2255409306,2255409277,2255409257,2255409248,2255409231,2255409219,2255409207,2255408953,2255408931],"tags":{"alt_name":"\u03a0\u03c1\u03ac\u03c3\u03b9\u03bd\u03b7 \u03b3\u03c1\u03b1\u03bc\u03bc\u03ae","alt_name:ca":"L\u00ednia verda","alt_name:de":"Gr\u00fcne Linie","alt_name:el":"\u03a0\u03c1\u03ac\u03c3\u03b9\u03bd\u03b7 \u03b3\u03c1\u03b1\u03bc\u03bc\u03ae","alt_name:en":"Green line","alt_name:fr":"Ligne verte","colour":"#007A33","electrified":"rail","electrified:rail":"top","frequency":"0","gauge":"1435","name":"\u0393\u03c1\u03b1\u03bc\u03bc\u03ae 1","name:ca":"L\u00ednia 1","name:de":"Linie 1","name:el":"\u0393\u03c1\u03b1\u03bc\u03bc\u03ae 1","name:en":"Line 1","name:fr":"Ligne 1","name:mk":"\u041b\u0438\u043d\u0438\u0458\u0430 1","name:sq":"Linj\u00eb 1","network":"\u039c\u03b5\u03c4\u03c1\u03cc \u0391\u03b8\u03ae\u03bd\u03b1\u03c2","network:wikidata":"Q336488","operator":"\u03a3\u03a4\u0391\u03a3\u03a5","operator:wikidata":"Q109331635","railway":"subway","start_date":"1869-02-27","usage":"main","voltage":"750"}},{"type":"way","id":384609618,"nodes":[1730295275,1730295249,1730295270,357217525,1730295230,2255409285,357217524,2255409298,1730295233,805901846],"tags":{"highway":"residential","int_name":"Thrasivoulou Zaimi","lanes":"1","name":"\u0398\u03c1\u03b1\u03c3\u03cd\u03b2\u03bf\u03c5\u03bb\u03bf\u03c5 \u0396\u03b1\u0390\u03bc\u03b7","oneway":"yes","surface":"asphalt"}},{"type":"way","id":389042624,"nodes":[3922079459,2253052891,2253052907,2253052914,2253052932,2255408873,2253052982,2255408900,2255408907,1025431030,2255408927,2255408947,2255408957,2255409186,2255409215,2255409228,2255409246,2255409254,2255409274,2255409300,2255409338,2255409348,2255409358,2255409366,2255409376,2255409384,2255409393,2255409403,2255409414,2255409425,2255409437,2255409447,2255409458,2255409463,2255409469,2255409471,2255409475,2255409485,2255409493,2255409502,2255409508,2255409515,2255409524,2255409545,2255409555,2255409565,2255409572,2255409585,2255409600,2255409620],"tags":{"alt_name":"\u03a0\u03c1\u03ac\u03c3\u03b9\u03bd\u03b7 \u03b3\u03c1\u03b1\u03bc\u03bc\u03ae","alt_name:ca":"L\u00ednia verda","alt_name:de":"Gr\u00fcne Linie","alt_name:el":"\u03a0\u03c1\u03ac\u03c3\u03b9\u03bd\u03b7 \u03b3\u03c1\u03b1\u03bc\u03bc\u03ae","alt_name:en":"Green line","alt_name:fr":"Ligne verte","colour":"#007A33","electrified":"rail","electrified:rail":"top","frequency":"0","gauge":"1435","name":"\u0393\u03c1\u03b1\u03bc\u03bc\u03ae 1","name:ca":"L\u00ednia 1","name:de":"Linie 1","name:el":"\u0393\u03c1\u03b1\u03bc\u03bc\u03ae 1","name:en":"Line 1","name:fr":"Ligne 1","name:mk":"\u041b\u0438\u043d\u0438\u0458\u0430 1","name:sq":"Linj\u00eb 1","network":"\u039c\u03b5\u03c4\u03c1\u03cc \u0391\u03b8\u03ae\u03bd\u03b1\u03c2","network:wikidata":"Q336488","operator":"\u03a3\u03a4\u0391\u03a3\u03a5","operator:wikidata":"Q109331635","railway":"subway","start_date":"1869-02-27","usage":"main","voltage":"750"}},{"type":"way","id":393051332,"nodes":[357217529,1702634056,357217527,3686779581,2255409102,360107066,357217526,3879181544,1730295275],"tags":{"highway":"residential","int_name":"Thrasivoulou Zaimi","name":"\u0398\u03c1\u03b1\u03c3\u03cd\u03b2\u03bf\u03c5\u03bb\u03bf\u03c5 \u0396\u03b1\u0390\u03bc\u03b7","oneway":"yes","source":"Yahoo","surface":"asphalt"}},{"type":"way","id":467384045,"nodes":[4620132115,4620132114,4620132113,4620132112,4620132111,4620132110,4620132109,4620132115],"tags":{"building":"yes"}},{"type":"way","id":467384046,"nodes":[4620132123,4620132116,4620132109,4620132115,4620132122,4620132123],"tags":{"building":"yes"}},{"type":"way","id":467384047,"nodes":[4620132129,4620132120,4620132119,4620132125,4620132118,4620132117,4620132129],"tags":{"building":"yes"}},{"type":"way","id":467384048,"nodes":[4620132130,4620132107,4620132106,4620132105,4620132108,4620132123,4620132122,4620132121,4620132120,4620132129,4620132130],"tags":{"building":"yes"}},{"type":"way","id":467384049,"nodes":[4620132134,4620132127,4620132126,4620132119,4620132125,4620132124,4620132133,4620132134],"tags":{"building":"yes"}},{"type":"way","id":467384050,"nodes":[4620132137,4620132130,4620132129,4620132117,4620132128,4620132131,4620132137],"tags":{"building":"yes"}},{"type":"way","id":467384051,"nodes":[4620132137,4620132136,4620132135,4620132134,4620132133,4620132132,4620132131,4620132137],"tags":{"building":"yes"}},{"type":"way","id":467384052,"nodes":[4620132145,4620132142,4620132141,4620132140,4620132139,4620132138,4620132144,4620132145],"tags":{"building":"yes"}},{"type":"way","id":467474135,"nodes":[4620895717,4620895712,4620895711,4620895710,4620895709,4620895708,4620895707,4620895706,4620895717],"tags":{"building":"yes"}},{"type":"way","id":467474137,"nodes":[4620895720,4620895719,4620895733,4620895734,4620895718,4620895717,4620895706,4620895716,4620895715,4620895714,4620895713,4620895720],"tags":{"building":"yes"}},{"type":"way","id":467474138,"nodes":[4620895730,4620895729,4620895728,4620895691,4620895727,4620895726,4620895725,4620895724,4620895723,4620895722,4620895721,4620895720,4620895719,4620895731,4620895730],"tags":{"building":"yes"}},{"type":"way","id":467474139,"nodes":[4620895736,4620895735,4620895734,4620895733,4620895732,4620895731,4620895730,4620895736],"tags":{"building":"yes"}},{"type":"way","id":467503965,"nodes":[4621166750,4621166747,4621166746,4621166745,4621166750],"tags":{"building":"yes"}},{"type":"way","id":467503966,"nodes":[4621166751,4621166750,4621166745,4621166749,4621166748,4621166776,4621166753,4621166754,4621166751],"tags":{"building":"yes"}},{"type":"way","id":467503967,"nodes":[4621166755,4621166752,4621166751,4621166754,4621166755],"tags":{"building":"yes"}},{"type":"way","id":467503968,"nodes":[4621166777,4621166755,4621166754,4621166753,4621166777],"tags":{"building":"yes"}},{"type":"way","id":467503969,"nodes":[4621166759,4621166756,4621166747,4621166746,4621166758,4621166759],"tags":{"building":"yes"}},{"type":"way","id":467503970,"nodes":[4621166761,4621166759,4621166758,4621166757,4621166761],"tags":{"building":"yes"}},{"type":"way","id":467503971,"nodes":[4621166763,4621166761,4621166757,4621166760,4621166762,4621166763],"tags":{"building":"yes"}},{"type":"way","id":467503972,"nodes":[4621166765,4621166763,4621166762,4621166764,4621166765],"tags":{"building":"yes"}},{"type":"way","id":467503973,"nodes":[4621166768,4621166765,4621166764,4621166767,4621166768],"tags":{"building":"yes"}},{"type":"way","id":467503974,"nodes":[4621166771,4621166768,4621166767,4621166766,4621166770,4621166771],"tags":{"building":"yes"}},{"type":"way","id":467503975,"nodes":[4621166774,4621166771,4621166770,4621166769,4621166774],"tags":{"building":"yes"}},{"type":"way","id":467503976,"nodes":[4621167091,4621166774,4621166769,4621166773,4621166772,4621167090,4621167091],"tags":{"building":"yes"}},{"type":"way","id":467503977,"nodes":[4621166780,4621166777,4621166753,4621166776,4621166748,4621166775,4621166780],"tags":{"building":"yes"}},{"type":"way","id":467503978,"nodes":[4621166787,4621166780,4621166775,4621166779,4621166778,4621166787],"tags":{"building":"yes"}},{"type":"way","id":467503979,"nodes":[4621167093,4621166787,4621166778,4621166786,4621166785,4621166784,4621166783,4621166782,4621166781,4621167094,4621167093],"tags":{"building":"yes"}},{"type":"way","id":467503980,"nodes":[4621167097,4621167092,4621167091,4621167090,4621167089,4621166788,4621167097],"tags":{"building":"yes"}},{"type":"way","id":467503981,"nodes":[4621167099,4621167098,4621167097,4621166788,4621167096,4621167095,4621167094,4621167093,4621167099],"tags":{"building":"yes"}},{"type":"way","id":467505255,"nodes":[4621180294,4621180291,4621180290,4621180289,4621180288,4621180287,4621180286,4621180285,4621180284,4621180283,4621180282,4621180281,4621180293,4621180280,4621180279,4621180278,4621180277,4621180294],"tags":{"building":"yes"}},{"type":"way","id":467527883,"nodes":[4621367828,4621367825,4621367815,4621367824,4621367823,4621367827,4621367828],"tags":{"building":"yes"}},{"type":"way","id":467527884,"nodes":[4621367831,4621367828,4621367827,4621367826,4621367831],"tags":{"building":"yes"}},{"type":"way","id":467527885,"nodes":[4621367833,4621367831,4621367826,4621367830,4621367829,4621367833],"tags":{"building":"yes"}},{"type":"way","id":467527886,"nodes":[4621367836,4621367833,4621367829,4621367832,4621367835,4621367836],"tags":{"building":"yes"}},{"type":"way","id":467527887,"nodes":[4621367839,4621367836,4621367835,4621367834,4621367838,4621367839],"tags":{"building":"yes"}},{"type":"way","id":467527888,"nodes":[4621367842,4621367839,4621367838,4621367837,4621367841,4621367842],"tags":{"building":"yes"}},{"type":"way","id":467527889,"nodes":[4621367846,4621367843,4621367842,4621367841,4621367840,4621367845,4621367846],"tags":{"building":"yes"}},{"type":"way","id":467527890,"nodes":[4621367850,4621367846,4621367845,4621367844,4621367849,4621367850],"tags":{"building":"yes"}},{"type":"way","id":467527891,"nodes":[4621367853,4621367851,4621367850,4621367849,4621367848,4621367847,4621367853],"tags":{"building":"yes"}},{"type":"way","id":467527892,"nodes":[4621367856,4621367853,4621367847,4621367852,4621367855,4621367856],"tags":{"building":"yes"}},{"type":"way","id":467527893,"nodes":[4621367860,4621367856,4621367855,4621367854,4621367859,4621367860],"tags":{"building":"yes"}},{"type":"way","id":467527894,"nodes":[4621367863,4621367860,4621367859,4621367858,4621367857,4621367862,4621367863],"tags":{"building":"yes"}},{"type":"way","id":467527895,"nodes":[4621367866,4621367863,4621367862,4621367861,4621367865,4621367866],"tags":{"building":"yes"}},{"type":"way","id":467527896,"nodes":[4621367869,4621367866,4621367865,4621367864,4621367868,4621367869],"tags":{"building":"yes"}},{"type":"way","id":467527897,"nodes":[4621367873,4621367869,4621367868,4621367867,4621367872,4621367873],"tags":{"building":"yes"}},{"type":"way","id":467527898,"nodes":[4621367876,4621367873,4621367872,4621367871,4621367870,4621367875,4621367876],"tags":{"building":"yes"}},{"type":"way","id":467529206,"nodes":[4621388670,4621388669,4621388668,4621388667,4621388670],"tags":{"building":"yes"}},{"type":"way","id":467529207,"nodes":[4621389627,4621388672,4621388670,4621388667,4621388671,4621389626,4621389627],"tags":{"building":"yes"}},{"type":"way","id":467529208,"nodes":[4621388676,4621388675,4621388674,4621388673,4621388676],"tags":{"building":"yes"}},{"type":"way","id":467529210,"nodes":[4621388680,4621388679,4621388678,4621388677,4621388680],"tags":{"building":"yes"}},{"type":"way","id":467529211,"nodes":[4621388684,4621388683,4621388682,4621388681,4621388684],"tags":{"building":"yes"}},{"type":"way","id":467529213,"nodes":[4621389611,4621389591,4621389590,4621389589,4621388688,4621388687,4621388686,4621388685,4621389620,4621389611],"tags":{"building":"yes"}},{"type":"way","id":467529214,"nodes":[4621389595,4621389592,4621389593,4621389594,4621389595],"tags":{"building":"yes"}},{"type":"way","id":467529216,"nodes":[4621389603,4621389602,4621389601,4621389598,4621389597,4621389596,4621389599,4621389600,4621389603],"tags":{"building":"yes"}},{"type":"way","id":467529217,"nodes":[4621389609,4621389608,4621389607,4621389606,4621389605,4621389604,4621389609],"tags":{"building":"yes"}},{"type":"way","id":467529222,"nodes":[4621389629,4621389627,4621389626,4621389628,4621389629],"tags":{"building":"yes"}},{"type":"way","id":467529223,"nodes":[4621389631,4621389629,4621389628,4621389630,4621389631],"tags":{"building":"yes"}},{"type":"way","id":467529224,"nodes":[4621389636,4621389631,4621389630,4621389635,4621389636],"tags":{"building":"yes"}},{"type":"way","id":467529226,"nodes":[4621389641,4621389636,4621389635,4621389634,4621389633,4621389632,4621389641],"tags":{"building":"yes"}},{"type":"way","id":467530579,"nodes":[4621392125,4621392124,4621392123],"tags":{"highway":"pedestrian","int_name":"Xp. Xpistofh","name":"\u03a0\u03ac\u03c1\u03bf\u03b4\u03bf\u03c2 \u03a7\u03c1\u03b9\u03c3\u03c4\u03bf\u03c6\u03ae \u03a7\u03c1.","surface":"unpaved"}},{"type":"way","id":467650191,"nodes":[4622551734,4622551729,4622551728,4622551727,4622551726,4622551725,4622551724,4622551723,4622551705,4622551704,4622551722,4622551721,4622551720,4622551719,4622551718,4622551717,4622551716,4622551715,4622551734],"tags":{"building":"apartments"}},{"type":"way","id":467650192,"nodes":[4622551737,4622551734,4622551715,4622551733,4622551732,4622551703,4622551731,4622551730,4622551737],"tags":{"building":"yes"}},{"type":"node","id":806507216,"lat":37.9480474,"lon":23.6643328},{"type":"node","id":2253052815,"lat":37.9450611,"lon":23.6646266},{"type":"node","id":2255408840,"lat":37.9450659,"lon":23.6647646},{"type":"node","id":2255408842,"lat":37.9450928,"lon":23.664713},{"type":"node","id":2255409068,"lat":37.9479707,"lon":23.6644224},{"type":"node","id":2753807214,"lat":37.9479445,"lon":23.6647108},{"type":"node","id":2753807215,"lat":37.9479491,"lon":23.6645223},{"type":"node","id":2753807216,"lat":37.9479578,"lon":23.6644452},{"type":"node","id":2753807217,"lat":37.9479936,"lon":23.6643704},{"type":"node","id":251155173,"lat":37.9469604,"lon":23.6690979},{"type":"node","id":357217527,"lat":37.947988,"lon":23.6677479},{"type":"node","id":357217529,"lat":37.9460018,"lon":23.6665985},{"type":"node","id":357217670,"lat":37.9479667,"lon":23.6690957},{"type":"node","id":357217671,"lat":37.9459563,"lon":23.6691001},{"type":"node","id":357217672,"lat":37.9448016,"lon":23.6691027},{"type":"node","id":360108023,"lat":37.9475376,"lon":23.667191},{"type":"node","id":805902091,"lat":37.9468675,"lon":23.6690981},{"type":"node","id":805902111,"lat":37.9478743,"lon":23.6690959},{"type":"node","id":805902159,"lat":37.9458777,"lon":23.6691003},{"type":"node","id":806507197,"lat":37.9480103,"lon":23.6678038},{"type":"node","id":806507219,"lat":37.9479423,"lon":23.6651498},{"type":"node","id":806507224,"lat":37.9461218,"lon":23.6662072},{"type":"node","id":806507232,"lat":37.946184,"lon":23.6663863},{"type":"node","id":1025431030,"lat":37.9461804,"lon":23.6666051},{"type":"node","id":1456227883,"lat":37.9463353,"lon":23.6690993},{"type":"node","id":1456250107,"lat":37.9478661,"lon":23.6651775},{"type":"node","id":1702634056,"lat":37.9469526,"lon":23.6671357},{"type":"node","id":2253052891,"lat":37.9454202,"lon":23.6659314},{"type":"node","id":2253052907,"lat":37.9454877,"lon":23.6660215},{"type":"node","id":2253052914,"lat":37.9455645,"lon":23.6661127},{"type":"node","id":2253052932,"lat":37.9456744,"lon":23.6662261},{"type":"node","id":2253052982,"lat":37.9459101,"lon":23.6664374},{"type":"node","id":2253052997,"lat":37.9460691,"lon":23.6662744},{"type":"node","id":2255408843,"lat":37.9452308,"lon":23.6651964},{"type":"node","id":2255408845,"lat":37.9452903,"lon":23.6652481},{"type":"node","id":2255408846,"lat":37.9454363,"lon":23.6655452},{"type":"node","id":2255408849,"lat":37.94548,"lon":23.6655011},{"type":"node","id":2255408855,"lat":37.9455386,"lon":23.6655993},{"type":"node","id":2255408873,"lat":37.9457929,"lon":23.6663426},{"type":"node","id":2255408874,"lat":37.9457997,"lon":23.6660413},{"type":"node","id":2255408889,"lat":37.9459149,"lon":23.6662364},{"type":"node","id":2255408892,"lat":37.9459824,"lon":23.6663258},{"type":"node","id":2255408898,"lat":37.9460191,"lon":23.6663686},{"type":"node","id":2255408900,"lat":37.9460195,"lon":23.6665106},{"type":"node","id":2255408904,"lat":37.9460618,"lon":23.6664089},{"type":"node","id":2255408907,"lat":37.9461017,"lon":23.666556},{"type":"node","id":2255408910,"lat":37.9461174,"lon":23.6664454},{"type":"node","id":2255408913,"lat":37.9462505,"lon":23.6665298},{"type":"node","id":2255408924,"lat":37.9465593,"lon":23.666855},{"type":"node","id":2255408927,"lat":37.9465704,"lon":23.6668239},{"type":"node","id":2255408931,"lat":37.9465871,"lon":23.6667772},{"type":"node","id":2255408933,"lat":37.9466071,"lon":23.6667396},{"type":"node","id":2255408945,"lat":37.9468741,"lon":23.6670362},{"type":"node","id":2255408947,"lat":37.9468841,"lon":23.6670044},{"type":"node","id":2255408950,"lat":37.9468944,"lon":23.6670478},{"type":"node","id":2255408953,"lat":37.9469007,"lon":23.6669577},{"type":"node","id":2255408957,"lat":37.9469055,"lon":23.6670166},{"type":"node","id":2255408960,"lat":37.9469136,"lon":23.6669213},{"type":"node","id":2255409102,"lat":37.9482297,"lon":23.667881},{"type":"node","id":2255409124,"lat":37.9483124,"lon":23.6676491},{"type":"node","id":2264918316,"lat":37.9479502,"lon":23.6714238},{"type":"node","id":2264918318,"lat":37.9479682,"lon":23.6705589},{"type":"node","id":2264918320,"lat":37.9479861,"lon":23.6691622},{"type":"node","id":3686779581,"lat":37.9481234,"lon":23.6678225},{"type":"node","id":3686779590,"lat":37.9482122,"lon":23.6675899},{"type":"node","id":3922079459,"lat":37.9453444,"lon":23.6658119},{"type":"node","id":4621934021,"lat":37.9470397,"lon":23.6656564},{"type":"node","id":6121810176,"lat":37.9469993,"lon":23.6690978},{"type":"node","id":6121810178,"lat":37.9460057,"lon":23.6691},{"type":"node","id":6121810181,"lat":37.9448464,"lon":23.6691026},{"type":"node","id":9001938902,"lat":37.9451953,"lon":23.6691018},{"type":"node","id":806507198,"lat":37.9479411,"lon":23.6721549},{"type":"node","id":806507212,"lat":37.9490221,"lon":23.6640523},{"type":"node","id":806507255,"lat":37.9499676,"lon":23.6647511},{"type":"node","id":806507256,"lat":37.9492448,"lon":23.6642936},{"type":"node","id":806507257,"lat":37.9492091,"lon":23.6639991},{"type":"node","id":2050682830,"lat":37.9490961,"lon":23.664331},{"type":"node","id":2050682832,"lat":37.9491061,"lon":23.6644705},{"type":"node","id":2050682834,"lat":37.9495081,"lon":23.6644761},{"type":"node","id":2050682836,"lat":37.9496029,"lon":23.6644544},{"type":"node","id":2050682838,"lat":37.949784,"lon":23.6645697},{"type":"node","id":2050682840,"lat":37.9498059,"lon":23.6647603},{"type":"node","id":4178745876,"lat":37.9496271,"lon":23.6646008},{"type":"node","id":4178745877,"lat":37.949498,"lon":23.664365},{"type":"node","id":4622564679,"lat":37.9491532,"lon":23.664313},{"type":"node","id":4622564681,"lat":37.9492104,"lon":23.6640328},{"type":"node","id":4622567035,"lat":37.949887,"lon":23.6647557},{"type":"node","id":357217366,"lat":37.9491468,"lon":23.6690931},{"type":"node","id":357217524,"lat":37.95091,"lon":23.6695597},{"type":"node","id":357217525,"lat":37.950737,"lon":23.6693833},{"type":"node","id":357217526,"lat":37.9501756,"lon":23.6689838},{"type":"node","id":357217928,"lat":37.9501102,"lon":23.6702862},{"type":"node","id":357217969,"lat":37.9501058,"lon":23.6713037},{"type":"node","id":357217973,"lat":37.9491106,"lon":23.6712946},{"type":"node","id":357218129,"lat":37.9520073,"lon":23.6702918},{"type":"node","id":360107066,"lat":37.9491538,"lon":23.6684017},{"type":"node","id":360107768,"lat":37.9486339,"lon":23.6678372},{"type":"node","id":360107808,"lat":37.9498871,"lon":23.6653118},{"type":"node","id":360107879,"lat":37.9498799,"lon":23.6664064},{"type":"node","id":360107880,"lat":37.9496687,"lon":23.6670451},{"type":"node","id":360107881,"lat":37.9492577,"lon":23.6681938},{"type":"node","id":360107907,"lat":37.9498205,"lon":23.6685111},{"type":"node","id":360107908,"lat":37.9502328,"lon":23.6673866},{"type":"node","id":360107964,"lat":37.9502529,"lon":23.6687611},{"type":"node","id":360107965,"lat":37.9506273,"lon":23.6677759},{"type":"node","id":565473756,"lat":37.9501154,"lon":23.6690909},{"type":"node","id":805901463,"lat":37.9491272,"lon":23.6701827},{"type":"node","id":805901519,"lat":37.9497635,"lon":23.666793},{"type":"node","id":805901547,"lat":37.9510123,"lon":23.6693097},{"type":"node","id":805901657,"lat":37.9491422,"lon":23.6691806},{"type":"node","id":805901664,"lat":37.9501128,"lon":23.6696773},{"type":"node","id":805901846,"lat":37.9509733,"lon":23.6696742},{"type":"node","id":805901886,"lat":37.9516396,"lon":23.6699309},{"type":"node","id":805902014,"lat":37.9507703,"lon":23.6691069},{"type":"node","id":805902383,"lat":37.9490549,"lon":23.6690933},{"type":"node","id":805902410,"lat":37.9491243,"lon":23.6703781},{"type":"node","id":805902427,"lat":37.9491346,"lon":23.6696809},{"type":"node","id":805902493,"lat":37.9505087,"lon":23.6689278},{"type":"node","id":805902610,"lat":37.9498881,"lon":23.6663406},{"type":"node","id":806507203,"lat":37.9510783,"lon":23.6702191},{"type":"node","id":806507204,"lat":37.9510041,"lon":23.6698281},{"type":"node","id":806507205,"lat":37.9508569,"lon":23.6695361},{"type":"node","id":806507235,"lat":37.950245,"lon":23.6687169},{"type":"node","id":806507238,"lat":37.9506002,"lon":23.6678041},{"type":"node","id":806507241,"lat":37.9505412,"lon":23.6676627},{"type":"node","id":806507245,"lat":37.9505862,"lon":23.6674767},{"type":"node","id":806507248,"lat":37.9507311,"lon":23.6674168},{"type":"node","id":806507251,"lat":37.9509664,"lon":23.6667847},{"type":"node","id":806507253,"lat":37.9505382,"lon":23.6654458},{"type":"node","id":806507254,"lat":37.9499726,"lon":23.6654299},{"type":"node","id":1730295230,"lat":37.9508415,"lon":23.6694797},{"type":"node","id":1730295233,"lat":37.950953,"lon":23.6696295},{"type":"node","id":1730295249,"lat":37.9504915,"lon":23.6691828},{"type":"node","id":1730295270,"lat":37.9506139,"lon":23.6692815},{"type":"node","id":1730295275,"lat":37.9503594,"lon":23.6690904},{"type":"node","id":2050682842,"lat":37.9498712,"lon":23.6664537},{"type":"node","id":2050710868,"lat":37.950539,"lon":23.6675886},{"type":"node","id":2050710869,"lat":37.9505477,"lon":23.6675575},{"type":"node","id":2050710870,"lat":37.950554,"lon":23.6677361},{"type":"node","id":2050710871,"lat":37.9505651,"lon":23.6677662},{"type":"node","id":2050710872,"lat":37.9506537,"lon":23.6674311},{"type":"node","id":2055808749,"lat":37.9513533,"lon":23.6696408},{"type":"node","id":2255409170,"lat":37.9490618,"lon":23.6683969},{"type":"node","id":2255409183,"lat":37.9497677,"lon":23.6686958},{"type":"node","id":2255409186,"lat":37.9497787,"lon":23.6686646},{"type":"node","id":2255409207,"lat":37.9497952,"lon":23.6686178},{"type":"node","id":2255409210,"lat":37.9498081,"lon":23.6685814},{"type":"node","id":2255409213,"lat":37.9500214,"lon":23.668838},{"type":"node","id":2255409215,"lat":37.9500329,"lon":23.6688071},{"type":"node","id":2255409219,"lat":37.95005,"lon":23.6687606},{"type":"node","id":2255409222,"lat":37.9500633,"lon":23.6687245},{"type":"node","id":2255409224,"lat":37.9500998,"lon":23.6689915},{"type":"node","id":2255409226,"lat":37.9502793,"lon":23.6689997},{"type":"node","id":2255409228,"lat":37.9502912,"lon":23.6689691},{"type":"node","id":2255409231,"lat":37.9503093,"lon":23.6689232},{"type":"node","id":2255409234,"lat":37.950323,"lon":23.6688874},{"type":"node","id":2255409237,"lat":37.9503473,"lon":23.6691252},{"type":"node","id":2255409239,"lat":37.9504639,"lon":23.6692125},{"type":"node","id":2255409242,"lat":37.9504797,"lon":23.6691259},{"type":"node","id":2255409246,"lat":37.950492,"lon":23.6690955},{"type":"node","id":2255409248,"lat":37.9505104,"lon":23.6690499},{"type":"node","id":2255409250,"lat":37.9505248,"lon":23.6690144},{"type":"node","id":2255409252,"lat":37.9505953,"lon":23.6692036},{"type":"node","id":2255409254,"lat":37.9506085,"lon":23.6691739},{"type":"node","id":2255409257,"lat":37.9506284,"lon":23.6691292},{"type":"node","id":2255409259,"lat":37.9506439,"lon":23.6690945},{"type":"node","id":2255409263,"lat":37.9506533,"lon":23.6690236},{"type":"node","id":2255409266,"lat":37.9506997,"lon":23.6693959},{"type":"node","id":2255409269,"lat":37.9507756,"lon":23.66946},{"type":"node","id":2255409272,"lat":37.9507875,"lon":23.6693502},{"type":"node","id":2255409274,"lat":37.9508023,"lon":23.6693216},{"type":"node","id":2255409277,"lat":37.9508245,"lon":23.6692788},{"type":"node","id":2255409279,"lat":37.9508418,"lon":23.6692454},{"type":"node","id":2255409282,"lat":37.9508738,"lon":23.669191},{"type":"node","id":2255409285,"lat":37.9508747,"lon":23.6695152},{"type":"node","id":2255409287,"lat":37.9509082,"lon":23.6695988},{"type":"node","id":2255409291,"lat":37.9509106,"lon":23.6694677},{"type":"node","id":2255409294,"lat":37.9509308,"lon":23.6696416},{"type":"node","id":2255409296,"lat":37.9509328,"lon":23.6695001},{"type":"node","id":2255409298,"lat":37.9509364,"lon":23.669598},{"type":"node","id":2255409300,"lat":37.9509455,"lon":23.6694516},{"type":"node","id":2255409303,"lat":37.9509532,"lon":23.6696905},{"type":"node","id":2255409306,"lat":37.9509696,"lon":23.6694105},{"type":"node","id":2255409310,"lat":37.9509696,"lon":23.669563},{"type":"node","id":2255409313,"lat":37.9509884,"lon":23.6693785},{"type":"node","id":2255409316,"lat":37.9510202,"lon":23.6696688},{"type":"node","id":2255409318,"lat":37.9510214,"lon":23.6698828},{"type":"node","id":2255409321,"lat":37.9510361,"lon":23.6699407},{"type":"node","id":2255409324,"lat":37.9510481,"lon":23.6700075},{"type":"node","id":2255409328,"lat":37.95106,"lon":23.6700734},{"type":"node","id":2255409331,"lat":37.9510705,"lon":23.6701562},{"type":"node","id":2255409333,"lat":37.9510778,"lon":23.6698086},{"type":"node","id":2255409338,"lat":37.9511533,"lon":23.6696546},{"type":"node","id":2255409342,"lat":37.9511652,"lon":23.669694},{"type":"node","id":2255409344,"lat":37.9511785,"lon":23.6696145},{"type":"node","id":2255409346,"lat":37.9511981,"lon":23.6695833},{"type":"node","id":2255409348,"lat":37.9512965,"lon":23.6698042},{"type":"node","id":2255409351,"lat":37.9513226,"lon":23.6697651},{"type":"node","id":2255409355,"lat":37.951343,"lon":23.6697346},{"type":"node","id":2255409358,"lat":37.9514173,"lon":23.6699377},{"type":"node","id":2255409361,"lat":37.9514445,"lon":23.6698998},{"type":"node","id":2255409363,"lat":37.9514656,"lon":23.6698703},{"type":"node","id":2255409366,"lat":37.9515535,"lon":23.6701015},{"type":"node","id":2255409369,"lat":37.9515816,"lon":23.6700647},{"type":"node","id":2255409373,"lat":37.9516034,"lon":23.670036},{"type":"node","id":2255409376,"lat":37.9516721,"lon":23.6702497},{"type":"node","id":2255409379,"lat":37.9517013,"lon":23.6702142},{"type":"node","id":2255409381,"lat":37.951724,"lon":23.6701865},{"type":"node","id":2255409384,"lat":37.9517599,"lon":23.6703725},{"type":"node","id":2255409387,"lat":37.9517901,"lon":23.6703384},{"type":"node","id":2255409391,"lat":37.9518136,"lon":23.6703119},{"type":"node","id":2255409393,"lat":37.951854,"lon":23.6705087},{"type":"node","id":2255409397,"lat":37.9518845,"lon":23.6704751},{"type":"node","id":2255409399,"lat":37.9519083,"lon":23.670449},{"type":"node","id":2255409403,"lat":37.9519938,"lon":23.6707162},{"type":"node","id":2255409407,"lat":37.952025,"lon":23.6706836},{"type":"node","id":2255409411,"lat":37.9520403,"lon":23.6706621},{"type":"node","id":2255409414,"lat":37.9521005,"lon":23.6708871},{"type":"node","id":2255409418,"lat":37.9521327,"lon":23.6708561},{"type":"node","id":2255409421,"lat":37.9521468,"lon":23.6708358},{"type":"node","id":2255409425,"lat":37.9521524,"lon":23.6709779},{"type":"node","id":2255409429,"lat":37.9521854,"lon":23.6709483},{"type":"node","id":2255409433,"lat":37.9521905,"lon":23.6706103},{"type":"node","id":2255409437,"lat":37.9521987,"lon":23.6710634},{"type":"node","id":2255409441,"lat":37.9522002,"lon":23.6709279},{"type":"node","id":2255409444,"lat":37.9522322,"lon":23.6710347},{"type":"node","id":2255409447,"lat":37.9522352,"lon":23.6711328},{"type":"node","id":2255409451,"lat":37.9522374,"lon":23.6709947},{"type":"node","id":2255409455,"lat":37.9522691,"lon":23.6711049},{"type":"node","id":2255409458,"lat":37.9522858,"lon":23.6712343},{"type":"node","id":2255409462,"lat":37.9523203,"lon":23.6712075},{"type":"node","id":2255409463,"lat":37.9523251,"lon":23.671318},{"type":"node","id":2255409465,"lat":37.9523474,"lon":23.6708886},{"type":"node","id":2255409467,"lat":37.9523576,"lon":23.6712837},{"type":"node","id":2255409469,"lat":37.9523612,"lon":23.671393},{"type":"node","id":2255409471,"lat":37.9523911,"lon":23.6714622},{"type":"node","id":2255409473,"lat":37.9523942,"lon":23.6713648},{"type":"node","id":2255409475,"lat":37.9524262,"lon":23.6715459},{"type":"node","id":2255409479,"lat":37.9524266,"lon":23.6714378},{"type":"node","id":2255409487,"lat":37.952462,"lon":23.6715222},{"type":"node","id":2255409496,"lat":37.9524932,"lon":23.6715994},{"type":"node","id":3879181543,"lat":37.950115,"lon":23.6691721},{"type":"node","id":3879181544,"lat":37.9502041,"lon":23.6690003},{"type":"node","id":3885510670,"lat":37.9491257,"lon":23.6702849},{"type":"node","id":4620132105,"lat":37.9495823,"lon":23.6687934},{"type":"node","id":4620132106,"lat":37.9495575,"lon":23.6687805},{"type":"node","id":4620132107,"lat":37.9495611,"lon":23.6687693},{"type":"node","id":4620132108,"lat":37.9495859,"lon":23.6687821},{"type":"node","id":4620132109,"lat":37.9496912,"lon":23.6689111},{"type":"node","id":4620132110,"lat":37.9497065,"lon":23.668914},{"type":"node","id":4620132111,"lat":37.9497118,"lon":23.6688858},{"type":"node","id":4620132112,"lat":37.9497361,"lon":23.6688322},{"type":"node","id":4620132113,"lat":37.9499381,"lon":23.6689341},{"type":"node","id":4620132114,"lat":37.949938,"lon":23.6689743},{"type":"node","id":4620132115,"lat":37.9496885,"lon":23.6689877},{"type":"node","id":4620132116,"lat":37.9496938,"lon":23.6688389},{"type":"node","id":4620132117,"lat":37.9494168,"lon":23.6688323},{"type":"node","id":4620132118,"lat":37.9494146,"lon":23.6688576},{"type":"node","id":4620132119,"lat":37.949367,"lon":23.6689354},{"type":"node","id":4620132120,"lat":37.9494687,"lon":23.6689367},{"type":"node","id":4620132121,"lat":37.9494664,"lon":23.668969},{"type":"node","id":4620132122,"lat":37.9496229,"lon":23.6689783},{"type":"node","id":4620132123,"lat":37.9496388,"lon":23.6688094},{"type":"node","id":4620132124,"lat":37.9493363,"lon":23.6688496},{"type":"node","id":4620132125,"lat":37.949367,"lon":23.6688509},{"type":"node","id":4620132126,"lat":37.949367,"lon":23.6689596},{"type":"node","id":4620132127,"lat":37.949238,"lon":23.6689609},{"type":"node","id":4620132128,"lat":37.9493702,"lon":23.6688281},{"type":"node","id":4620132129,"lat":37.9494759,"lon":23.6688375},{"type":"node","id":4620132130,"lat":37.9494854,"lon":23.6687302},{"type":"node","id":4620132131,"lat":37.9493744,"lon":23.6687691},{"type":"node","id":4620132132,"lat":37.9493374,"lon":23.6687732},{"type":"node","id":4620132133,"lat":37.9493406,"lon":23.6688027},{"type":"node","id":4620132134,"lat":37.9492401,"lon":23.6688027},{"type":"node","id":4620132135,"lat":37.9492486,"lon":23.6686203},{"type":"node","id":4620132136,"lat":37.9492644,"lon":23.6685975},{"type":"node","id":4620132137,"lat":37.9493807,"lon":23.6686632},{"type":"node","id":4620132138,"lat":37.9489716,"lon":23.6687484},{"type":"node","id":4620132139,"lat":37.9490843,"lon":23.6687564},{"type":"node","id":4620132140,"lat":37.9490774,"lon":23.6689131},{"type":"node","id":4620132141,"lat":37.949062,"lon":23.668912},{"type":"node","id":4620132142,"lat":37.9490582,"lon":23.6689981},{"type":"node","id":4620132144,"lat":37.9489679,"lon":23.6688338},{"type":"node","id":4620132145,"lat":37.948961,"lon":23.6689912},{"type":"node","id":4620895691,"lat":37.9505133,"lon":23.6694788},{"type":"node","id":4620895706,"lat":37.9503506,"lon":23.669523},{"type":"node","id":4620895707,"lat":37.9503991,"lon":23.6695242},{"type":"node","id":4620895708,"lat":37.9503984,"lon":23.6695728},{"type":"node","id":4620895709,"lat":37.9504341,"lon":23.6695737},{"type":"node","id":4620895710,"lat":37.9504349,"lon":23.6695267},{"type":"node","id":4620895711,"lat":37.9504784,"lon":23.6695278},{"type":"node","id":4620895712,"lat":37.9504766,"lon":23.6696481},{"type":"node","id":4620895713,"lat":37.9503525,"lon":23.6694582},{"type":"node","id":4620895714,"lat":37.9503335,"lon":23.6694575},{"type":"node","id":4620895715,"lat":37.9503324,"lon":23.6695017},{"type":"node","id":4620895716,"lat":37.9503516,"lon":23.6695025},{"type":"node","id":4620895717,"lat":37.9503487,"lon":23.669645},{"type":"node","id":4620895718,"lat":37.9502202,"lon":23.6696433},{"type":"node","id":4620895719,"lat":37.9503539,"lon":23.6693972},{"type":"node","id":4620895720,"lat":37.9503535,"lon":23.6694123},{"type":"node","id":4620895721,"lat":37.9504038,"lon":23.6694404},{"type":"node","id":4620895722,"lat":37.9504218,"lon":23.6694163},{"type":"node","id":4620895723,"lat":37.950444,"lon":23.6694391},{"type":"node","id":4620895724,"lat":37.9504207,"lon":23.6694887},{"type":"node","id":4620895725,"lat":37.9504567,"lon":23.6695129},{"type":"node","id":4620895726,"lat":37.9504768,"lon":23.669474},{"type":"node","id":4620895727,"lat":37.9505011,"lon":23.6695008},{"type":"node","id":4620895728,"lat":37.9505583,"lon":23.6693905},{"type":"node","id":4620895729,"lat":37.9503805,"lon":23.6692473},{"type":"node","id":4620895730,"lat":37.9503605,"lon":23.6692661},{"type":"node","id":4620895731,"lat":37.9503552,"lon":23.6693801},{"type":"node","id":4620895732,"lat":37.9503277,"lon":23.6693801},{"type":"node","id":4620895733,"lat":37.9503287,"lon":23.6693963},{"type":"node","id":4620895734,"lat":37.950226,"lon":23.6693925},{"type":"node","id":4620895735,"lat":37.9502272,"lon":23.6692272},{"type":"node","id":4620895736,"lat":37.950352,"lon":23.6692326},{"type":"node","id":4621166745,"lat":37.9499212,"lon":23.6694198},{"type":"node","id":4621166746,"lat":37.9499205,"lon":23.669541},{"type":"node","id":4621166747,"lat":37.9500189,"lon":23.6695418},{"type":"node","id":4621166748,"lat":37.9498935,"lon":23.6693684},{"type":"node","id":4621166749,"lat":37.9498932,"lon":23.6694195},{"type":"node","id":4621166750,"lat":37.9500196,"lon":23.6694206},{"type":"node","id":4621166751,"lat":37.9500201,"lon":23.6693236},{"type":"node","id":4621166752,"lat":37.9500206,"lon":23.6692415},{"type":"node","id":4621166753,"lat":37.9499095,"lon":23.6693226},{"type":"node","id":4621166754,"lat":37.9499665,"lon":23.6693231},{"type":"node","id":4621166755,"lat":37.949967,"lon":23.669241},{"type":"node","id":4621166756,"lat":37.9500183,"lon":23.6696525},{"type":"node","id":4621166757,"lat":37.9497945,"lon":23.6695398},{"type":"node","id":4621166758,"lat":37.9498894,"lon":23.6695407},{"type":"node","id":4621166759,"lat":37.9498887,"lon":23.6696513},{"type":"node","id":4621166760,"lat":37.9497948,"lon":23.6694987},{"type":"node","id":4621166761,"lat":37.9497939,"lon":23.6696505},{"type":"node","id":4621166762,"lat":37.9496944,"lon":23.6694978},{"type":"node","id":4621166763,"lat":37.9496935,"lon":23.6696496},{"type":"node","id":4621166764,"lat":37.9496077,"lon":23.669497},{"type":"node","id":4621166765,"lat":37.9496068,"lon":23.6696488},{"type":"node","id":4621166766,"lat":37.9494713,"lon":23.6694958},{"type":"node","id":4621166767,"lat":37.9495532,"lon":23.6694965},{"type":"node","id":4621166768,"lat":37.9495523,"lon":23.6696483},{"type":"node","id":4621166769,"lat":37.9494107,"lon":23.6695145},{"type":"node","id":4621166770,"lat":37.9494712,"lon":23.669515},{"type":"node","id":4621166771,"lat":37.9494705,"lon":23.6696475},{"type":"node","id":4621166772,"lat":37.9493488,"lon":23.6694797},{"type":"node","id":4621166773,"lat":37.9494108,"lon":23.6694803},{"type":"node","id":4621166774,"lat":37.9494099,"lon":23.669647},{"type":"node","id":4621166775,"lat":37.9497935,"lon":23.6693675},{"type":"node","id":4621166776,"lat":37.9499093,"lon":23.6693686},{"type":"node","id":4621166777,"lat":37.94991,"lon":23.6692405},{"type":"node","id":4621166778,"lat":37.9496161,"lon":23.6694262},{"type":"node","id":4621166779,"lat":37.9497931,"lon":23.6694278},{"type":"node","id":4621166780,"lat":37.9497942,"lon":23.6692394},{"type":"node","id":4621166781,"lat":37.9494355,"lon":23.6694752},{"type":"node","id":4621166782,"lat":37.949475,"lon":23.6694755},{"type":"node","id":4621166783,"lat":37.9494751,"lon":23.6694607},{"type":"node","id":4621166784,"lat":37.9495867,"lon":23.6694617},{"type":"node","id":4621166785,"lat":37.9495865,"lon":23.6694873},{"type":"node","id":4621166786,"lat":37.9496157,"lon":23.6694875},{"type":"node","id":4621166787,"lat":37.9496171,"lon":23.6692378},{"type":"node","id":4621166788,"lat":37.9493244,"lon":23.6694565},{"type":"node","id":4621167089,"lat":37.9493239,"lon":23.6695503},{"type":"node","id":4621167090,"lat":37.9493484,"lon":23.6695505},{"type":"node","id":4621167091,"lat":37.9493478,"lon":23.6696464},{"type":"node","id":4621167092,"lat":37.9492239,"lon":23.6696453},{"type":"node","id":4621167093,"lat":37.9494368,"lon":23.6692362},{"type":"node","id":4621167094,"lat":37.9494359,"lon":23.669396},{"type":"node","id":4621167095,"lat":37.9493372,"lon":23.6693951},{"type":"node","id":4621167096,"lat":37.9493368,"lon":23.6694566},{"type":"node","id":4621167097,"lat":37.9492249,"lon":23.6694556},{"type":"node","id":4621167098,"lat":37.9492262,"lon":23.6692343},{"type":"node","id":4621167099,"lat":37.9493455,"lon":23.6692354},{"type":"node","id":4621180277,"lat":37.9505928,"lon":23.6684392},{"type":"node","id":4621180278,"lat":37.9505738,"lon":23.6684903},{"type":"node","id":4621180279,"lat":37.950614,"lon":23.6685225},{"type":"node","id":4621180280,"lat":37.950635,"lon":23.6684652},{"type":"node","id":4621180281,"lat":37.9507219,"lon":23.6685238},{"type":"node","id":4621180282,"lat":37.9506774,"lon":23.6686271},{"type":"node","id":4621180283,"lat":37.9506997,"lon":23.6687572},{"type":"node","id":4621180284,"lat":37.950762,"lon":23.6688068},{"type":"node","id":4621180285,"lat":37.9506933,"lon":23.6689449},{"type":"node","id":4621180286,"lat":37.9504659,"lon":23.6687773},{"type":"node","id":4621180287,"lat":37.9504807,"lon":23.6687411},{"type":"node","id":4621180288,"lat":37.9505622,"lon":23.6687183},{"type":"node","id":4621180289,"lat":37.9505569,"lon":23.6686472},{"type":"node","id":4621180290,"lat":37.9504712,"lon":23.66867},{"type":"node","id":4621180291,"lat":37.9503993,"lon":23.6686324},{"type":"node","id":4621180293,"lat":37.9506822,"lon":23.6684942},{"type":"node","id":4621180294,"lat":37.950496,"lon":23.6683797},{"type":"node","id":4621367815,"lat":37.950421,"lon":23.6677981},{"type":"node","id":4621367823,"lat":37.9503677,"lon":23.6678794},{"type":"node","id":4621367824,"lat":37.9504042,"lon":23.6677874},{"type":"node","id":4621367825,"lat":37.9505294,"lon":23.6678659},{"type":"node","id":4621367826,"lat":37.9503694,"lon":23.6679907},{"type":"node","id":4621367827,"lat":37.950401,"lon":23.6679007},{"type":"node","id":4621367828,"lat":37.9504918,"lon":23.6679606},{"type":"node","id":4621367829,"lat":37.9503073,"lon":23.6680819},{"type":"node","id":4621367830,"lat":37.9503469,"lon":23.6679755},{"type":"node","id":4621367831,"lat":37.9504617,"lon":23.6680421},{"type":"node","id":4621367832,"lat":37.9502709,"lon":23.6680616},{"type":"node","id":4621367833,"lat":37.9504187,"lon":23.6681486},{"type":"node","id":4621367834,"lat":37.9501838,"lon":23.6682919},{"type":"node","id":4621367835,"lat":37.9502315,"lon":23.6681705},{"type":"node","id":4621367836,"lat":37.950379,"lon":23.6682563},{"type":"node","id":4621367837,"lat":37.950188,"lon":23.6684536},{"type":"node","id":4621367838,"lat":37.9502378,"lon":23.6683261},{"type":"node","id":4621367839,"lat":37.9503302,"lon":23.6683848},{"type":"node","id":4621367840,"lat":37.9502319,"lon":23.6685094},{"type":"node","id":4621367841,"lat":37.9502403,"lon":23.6684864},{"type":"node","id":4621367842,"lat":37.9502827,"lon":23.668513},{"type":"node","id":4621367843,"lat":37.9502306,"lon":23.6686583},{"type":"node","id":4621367844,"lat":37.9500954,"lon":23.6684238},{"type":"node","id":4621367845,"lat":37.9501713,"lon":23.6684738},{"type":"node","id":4621367846,"lat":37.9501263,"lon":23.6685972},{"type":"node","id":4621367847,"lat":37.9500855,"lon":23.6684008},{"type":"node","id":4621367848,"lat":37.950073,"lon":23.6684318},{"type":"node","id":4621367849,"lat":37.9500881,"lon":23.6684415},{"type":"node","id":4621367850,"lat":37.9500453,"lon":23.6685451},{"type":"node","id":4621367851,"lat":37.9499062,"lon":23.668457},{"type":"node","id":4621367852,"lat":37.9501019,"lon":23.6684095},{"type":"node","id":4621367853,"lat":37.9499612,"lon":23.6683204},{"type":"node","id":4621367854,"lat":37.9501768,"lon":23.6682229},{"type":"node","id":4621367855,"lat":37.9501424,"lon":23.6683052},{"type":"node","id":4621367856,"lat":37.9500019,"lon":23.6682176},{"type":"node","id":4621367857,"lat":37.9501855,"lon":23.6682096},{"type":"node","id":4621367858,"lat":37.950135,"lon":23.6681781},{"type":"node","id":4621367859,"lat":37.9501286,"lon":23.6681945},{"type":"node","id":4621367860,"lat":37.9500327,"lon":23.6681381},{"type":"node","id":4621367861,"lat":37.9502578,"lon":23.6680314},{"type":"node","id":4621367862,"lat":37.9502143,"lon":23.6681355},{"type":"node","id":4621367863,"lat":37.9500691,"lon":23.6680449},{"type":"node","id":4621367864,"lat":37.9502751,"lon":23.667945},{"type":"node","id":4621367865,"lat":37.9502453,"lon":23.6680234},{"type":"node","id":4621367866,"lat":37.9501103,"lon":23.6679375},{"type":"node","id":4621367867,"lat":37.9502928,"lon":23.6678606},{"type":"node","id":4621367868,"lat":37.9502638,"lon":23.6679381},{"type":"node","id":4621367869,"lat":37.9501403,"lon":23.6678627},{"type":"node","id":4621367870,"lat":37.9503038,"lon":23.6678508},{"type":"node","id":4621367871,"lat":37.9502666,"lon":23.6678276},{"type":"node","id":4621367872,"lat":37.9502612,"lon":23.6678415},{"type":"node","id":4621367873,"lat":37.9501687,"lon":23.6677857},{"type":"node","id":4621367875,"lat":37.9503281,"lon":23.667788},{"type":"node","id":4621367876,"lat":37.9501985,"lon":23.667707},{"type":"node","id":4621388667,"lat":37.9497567,"lon":23.6682262},{"type":"node","id":4621388668,"lat":37.9497164,"lon":23.6683324},{"type":"node","id":4621388669,"lat":37.9497781,"lon":23.66837},{"type":"node","id":4621388670,"lat":37.9498184,"lon":23.6682638},{"type":"node","id":4621388671,"lat":37.949742,"lon":23.6682173},{"type":"node","id":4621388672,"lat":37.9498296,"lon":23.6682707},{"type":"node","id":4621388673,"lat":37.9496991,"lon":23.6683378},{"type":"node","id":4621388674,"lat":37.9495848,"lon":23.6682732},{"type":"node","id":4621388675,"lat":37.949619,"lon":23.668176},{"type":"node","id":4621388676,"lat":37.9497333,"lon":23.6682407},{"type":"node","id":4621388677,"lat":37.9497378,"lon":23.6681831},{"type":"node","id":4621388678,"lat":37.9496347,"lon":23.6681175},{"type":"node","id":4621388679,"lat":37.9496755,"lon":23.6680143},{"type":"node","id":4621388680,"lat":37.9497786,"lon":23.6680799},{"type":"node","id":4621388681,"lat":37.9497268,"lon":23.6678538},{"type":"node","id":4621388682,"lat":37.9496822,"lon":23.6679656},{"type":"node","id":4621388683,"lat":37.9497822,"lon":23.6680298},{"type":"node","id":4621388684,"lat":37.9498268,"lon":23.6679179},{"type":"node","id":4621388685,"lat":37.9498607,"lon":23.6677505},{"type":"node","id":4621388686,"lat":37.9498417,"lon":23.6678007},{"type":"node","id":4621388687,"lat":37.949877,"lon":23.6678222},{"type":"node","id":4621388688,"lat":37.9498445,"lon":23.6679084},{"type":"node","id":4621389589,"lat":37.9497568,"lon":23.6678552},{"type":"node","id":4621389590,"lat":37.949775,"lon":23.6678068},{"type":"node","id":4621389591,"lat":37.9497173,"lon":23.6677718},{"type":"node","id":4621389592,"lat":37.9496946,"lon":23.6678342},{"type":"node","id":4621389593,"lat":37.9496322,"lon":23.6679992},{"type":"node","id":4621389594,"lat":37.9496006,"lon":23.66798},{"type":"node","id":4621389595,"lat":37.949663,"lon":23.667815},{"type":"node","id":4621389596,"lat":37.9494754,"lon":23.667998},{"type":"node","id":4621389597,"lat":37.9494528,"lon":23.6680655},{"type":"node","id":4621389598,"lat":37.9494786,"lon":23.6680794},{"type":"node","id":4621389599,"lat":37.9495012,"lon":23.668012},{"type":"node","id":4621389600,"lat":37.949516,"lon":23.667968},{"type":"node","id":4621389601,"lat":37.9494652,"lon":23.6681196},{"type":"node","id":4621389602,"lat":37.9495721,"lon":23.6681771},{"type":"node","id":4621389603,"lat":37.9496228,"lon":23.6680256},{"type":"node","id":4621389604,"lat":37.9496099,"lon":23.6679136},{"type":"node","id":4621389605,"lat":37.9495632,"lon":23.6678851},{"type":"node","id":4621389606,"lat":37.9495875,"lon":23.6678209},{"type":"node","id":4621389607,"lat":37.9495096,"lon":23.6677733},{"type":"node","id":4621389608,"lat":37.9495278,"lon":23.6677254},{"type":"node","id":4621389609,"lat":37.9496524,"lon":23.6678015},{"type":"node","id":4621389611,"lat":37.9497506,"lon":23.6676837},{"type":"node","id":4621389620,"lat":37.9497988,"lon":23.667713},{"type":"node","id":4621389626,"lat":37.9497779,"lon":23.6681228},{"type":"node","id":4621389627,"lat":37.9498655,"lon":23.6681761},{"type":"node","id":4621389628,"lat":37.949814,"lon":23.6680274},{"type":"node","id":4621389629,"lat":37.9499016,"lon":23.6680808},{"type":"node","id":4621389630,"lat":37.9498463,"lon":23.6679422},{"type":"node","id":4621389631,"lat":37.9499339,"lon":23.6679956},{"type":"node","id":4621389632,"lat":37.949929,"lon":23.6677888},{"type":"node","id":4621389633,"lat":37.9499137,"lon":23.6678291},{"type":"node","id":4621389634,"lat":37.9498938,"lon":23.667817},{"type":"node","id":4621389635,"lat":37.949875,"lon":23.6678665},{"type":"node","id":4621389636,"lat":37.9499626,"lon":23.6679199},{"type":"node","id":4621389641,"lat":37.9499966,"lon":23.6678301},{"type":"node","id":4621392123,"lat":37.9494491,"lon":23.667659},{"type":"node","id":4621392124,"lat":37.9497233,"lon":23.6678191},{"type":"node","id":4621392125,"lat":37.9495364,"lon":23.668351},{"type":"node","id":4622551703,"lat":37.9490873,"lon":23.6676368},{"type":"node","id":4622551704,"lat":37.9491852,"lon":23.6675767},{"type":"node","id":4622551705,"lat":37.9492254,"lon":23.6674614},{"type":"node","id":4622551715,"lat":37.9491388,"lon":23.6678146},{"type":"node","id":4622551716,"lat":37.9491834,"lon":23.6678411},{"type":"node","id":4622551717,"lat":37.9491961,"lon":23.6678063},{"type":"node","id":4622551718,"lat":37.9491612,"lon":23.6677821},{"type":"node","id":4622551719,"lat":37.9492045,"lon":23.6676547},{"type":"node","id":4622551720,"lat":37.9492627,"lon":23.6676869},{"type":"node","id":4622551721,"lat":37.9492775,"lon":23.6676346},{"type":"node","id":4622551722,"lat":37.9492119,"lon":23.6675917},{"type":"node","id":4622551723,"lat":37.9492521,"lon":23.6674764},{"type":"node","id":4622551724,"lat":37.9493304,"lon":23.6675233},{"type":"node","id":4622551725,"lat":37.9493452,"lon":23.6674817},{"type":"node","id":4622551726,"lat":37.9492817,"lon":23.6674428},{"type":"node","id":4622551727,"lat":37.949305,"lon":23.6673771},{"type":"node","id":4622551728,"lat":37.9494393,"lon":23.6674603},{"type":"node","id":4622551729,"lat":37.9492342,"lon":23.6680718},{"type":"node","id":4622551730,"lat":37.9489894,"lon":23.6677447},{"type":"node","id":4622551731,"lat":37.9490419,"lon":23.6677776},{"type":"node","id":4622551732,"lat":37.9491009,"lon":23.6676453},{"type":"node","id":4622551733,"lat":37.9491559,"lon":23.6676749},{"type":"node","id":4622551734,"lat":37.9491157,"lon":23.6680034},{"type":"node","id":4622551737,"lat":37.9489385,"lon":23.6678909},{"type":"node","id":4622551897,"lat":37.9495537,"lon":23.6673665},{"type":"node","id":4622567039,"lat":37.9499708,"lon":23.6651891},{"type":"node","id":6120016848,"lat":37.9519694,"lon":23.6702546},{"type":"node","id":6120052728,"lat":37.9497996,"lon":23.6684994},{"type":"node","id":6121810175,"lat":37.9492303,"lon":23.6690929},{"type":"node","id":6121970885,"lat":37.9491447,"lon":23.6690107},{"type":"node","id":8529644509,"lat":37.9499,"lon":23.6653752},{"type":"node","id":8997087996,"lat":37.9498974,"lon":23.6653405},{"type":"node","id":9722259467,"lat":37.952326,"lon":23.6709092},{"type":"node","id":9722259468,"lat":37.952343,"lon":23.6708929},{"type":"node","id":251153467,"lat":37.9501018,"lon":23.6722295},{"type":"node","id":806507200,"lat":37.9510618,"lon":23.6721773},{"type":"node","id":806507202,"lat":37.9510867,"lon":23.6720538},{"type":"node","id":2050524129,"lat":37.9510789,"lon":23.672152},{"type":"node","id":2255409485,"lat":37.9524571,"lon":23.6716225},{"type":"node","id":2255409493,"lat":37.9524894,"lon":23.6717044},{"type":"node","id":2255409499,"lat":37.9525255,"lon":23.6716815},{"type":"node","id":2255409502,"lat":37.9525273,"lon":23.6718005},{"type":"node","id":2255409505,"lat":37.9525608,"lon":23.6717771},{"type":"node","id":2255409508,"lat":37.9525736,"lon":23.6719287},{"type":"node","id":2255409512,"lat":37.9526076,"lon":23.6719042},{"type":"node","id":2255409515,"lat":37.9526157,"lon":23.6720534},{"type":"node","id":2255409518,"lat":37.9526528,"lon":23.672033},{"type":"node","id":2255409524,"lat":37.9526761,"lon":23.6722297},{"type":"node","id":2255409536,"lat":37.9527132,"lon":23.6722094},{"type":"node","id":2255409545,"lat":37.9527309,"lon":23.6723935},{"type":"node","id":2255409552,"lat":37.9527682,"lon":23.6723738},{"type":"node","id":2255409555,"lat":37.95278,"lon":23.6725448},{"type":"node","id":2255409563,"lat":37.9528175,"lon":23.6725256},{"type":"node","id":2255409565,"lat":37.9528291,"lon":23.6727015},{"type":"node","id":2255409572,"lat":37.9528628,"lon":23.6728083},{"type":"node","id":2255409576,"lat":37.9528668,"lon":23.672683},{"type":"node","id":2255409579,"lat":37.9529003,"lon":23.672789},{"type":"node","id":2255409585,"lat":37.9530987,"lon":23.6735508},{"type":"node","id":2255409589,"lat":37.9531363,"lon":23.6735321},{"type":"node","id":2255409600,"lat":37.9533851,"lon":23.6744999},{"type":"node","id":2255409611,"lat":37.9534228,"lon":23.6744813},{"type":"node","id":2255409620,"lat":37.9536224,"lon":23.6752602},{"type":"node","id":2255409623,"lat":37.9536546,"lon":23.6752139},{"type":"node","id":2264918321,"lat":37.9536659,"lon":23.6752482},{"type":"node","id":3755967851,"lat":37.9490971,"lon":23.6722003}]}