{"version":0.6,"generator":"Overpass API 0.7.61.5 4133829e","osm3s":{"timestamp_osm_base":"2023-08-16T11:17:53Z","copyright":"The data included in this document is from www.openstreetmap.org. The data is made available under ODbL."},"elements":[{"type":"node","id":1741489595,"lat":37.9948597,"lon":23.7300421,"tags":{"addr:city":"\u0391\u03b8\u03ae\u03bd\u03b1","addr:country":"GR","addr:housenumber":"31","addr:postcode":"10434","addr:street":"\u0394\u03b5\u03c1\u03b9\u03b3\u03bd\u03cd"}},{"type":"node","id":4933541262,"lat":37.9944831,"lon":23.7298742,"tags":{"amenity":"community_centre","name":"Victoria Square Project","phone":"+302108135567","website":"http:\/\/victoriasquareproject.gr"}},{"type":"node","id":4947147543,"lat":37.994542,"lon":23.7299502,"tags":{"amenity":"restaurant","cuisine":"greek;seafood","delivery":"yes","name":"\u03a4\u03bf \u039f\u03c5\u03b6\u03b5\u03c1\u03af \u03c4\u03bf\u03c5 \u039b\u03ac\u03ba\u03b7","phone":"+30 21 08213776","website":"http:\/\/www.ouzeritoulaki.info"}},{"type":"node","id":7438957650,"lat":37.9945272,"lon":23.7295937,"tags":{"addr:city":"\u0391\u03b8\u03ae\u03bd\u03b1","addr:country":"GR","addr:housenumber":"5","addr:postcode":"10434","addr:street":"\u039c\u03bf\u03bd\u03ae\u03c2 \u03a0\u03c1\u03bf\u03b4\u03c1\u03cc\u03bc\u03bf\u03c5"}},{"type":"node","id":7439030148,"lat":37.9945884,"lon":23.7296297,"tags":{"addr:city":"\u0391\u03b8\u03ae\u03bd\u03b1","addr:country":"GR","addr:housenumber":"4","addr:postcode":"10434","addr:street":"\u039c\u03bf\u03bd\u03ae\u03c2 \u03a0\u03c1\u03bf\u03b4\u03c1\u03cc\u03bc\u03bf\u03c5"}},{"type":"node","id":7563583400,"lat":37.9945753,"lon":23.7297218,"tags":{"addr:city":"\u0391\u03b8\u03ae\u03bd\u03b1","addr:country":"GR","addr:housenumber":"2","addr:postcode":"10434","addr:street":"\u039c\u03bf\u03bd\u03ae\u03c2 \u03a0\u03c1\u03bf\u03b4\u03c1\u03cc\u03bc\u03bf\u03c5"}},{"type":"node","id":8615756032,"lat":37.9943648,"lon":23.7303824,"tags":{"addr:city":"\u0391\u03b8\u03ae\u03bd\u03b1","addr:housenumber":"103","addr:street":"3\u03b7\u03c2 \u03a3\u03b5\u03c0\u03c4\u03b5\u03bc\u03b2\u03c1\u03af\u03bf\u03c5","email":"athenssmartwash@gmail.com","facebook":"https:\/\/www.facebook.com\/AthensSmartWashselfservicelaundty\/","name":"Athens smart wash","self_service":"yes","shop":"laundry"}},{"type":"node","id":9937401134,"lat":37.9943081,"lon":23.7303681,"tags":{"addr:city":"\u0391\u03b8\u03ae\u03bd\u03b1","addr:housenumber":"103","addr:street":"3\u03b7\u03c2 \u03a3\u03b5\u03c0\u03c4\u03b5\u03bc\u03b2\u03c1\u03af\u03bf\u03c5","facebook":"https:\/\/el-gr.facebook.com\/kommotiriokaterinaathens","name":"\u039a\u03b1\u03c4\u03b5\u03c1\u03af\u03bd\u03b1","phone":"2108222414","shop":"hairdresser","website":"kommotirio-katerina.gr"}},{"type":"node","id":10013612582,"lat":37.9942198,"lon":23.7303476,"tags":{"addr:city":"\u0391\u03b8\u03ae\u03bd\u03b1","addr:housenumber":"101","addr:street":"3\u03b7\u03c2 \u03a3\u03b5\u03c0\u03c4\u03b5\u03bc\u03b2\u03c1\u03af\u03bf\u03c5","clothes":"women","name":"\u0391\u03bd\u03b1\u0390\u03c2","shop":"clothes"}}]}