{"version":0.6,"generator":"Overpass API 0.7.61.5 4133829e","osm3s":{"timestamp_osm_base":"2023-08-16T11:05:30Z","copyright":"The data included in this document is from www.openstreetmap.org. The data is made available under ODbL."},"elements":[{"type":"node","id":961043910,"lat":37.9995995,"lon":23.7305872,"tags":{"highway":"crossing"}},{"type":"node","id":1649205861,"lat":37.9994423,"lon":23.7306817,"tags":{"addr:city":"\u0391\u03b8\u03ae\u03bd\u03b1","addr:country":"GR","addr:housenumber":"172","addr:postcode":"11251","addr:street":"\u0391\u03c1\u03b9\u03c3\u03c4\u03bf\u03c4\u03ad\u03bb\u03bf\u03c5\u03c2"}},{"type":"node","id":1649205869,"lat":37.9994501,"lon":23.7304346,"tags":{"addr:city":"\u0391\u03b8\u03ae\u03bd\u03b1","addr:country":"GR","addr:housenumber":"179","addr:postcode":"11251","addr:street":"\u0391\u03c1\u03b9\u03c3\u03c4\u03bf\u03c4\u03ad\u03bb\u03bf\u03c5\u03c2"}},{"type":"node","id":2681081556,"lat":37.9995361,"lon":23.7309375,"tags":{"addr:city":"\u0391\u03b8\u03ae\u03bd\u03b1","addr:housenumber":"64","addr:postcode":"11251","addr:street":"\u039a\u03b5\u03c6\u03b1\u03bb\u03bb\u03b7\u03bd\u03af\u03b1\u03c2","name":"Priveshop.gr","opening_hours":"09:00-18:00","phone":"+302108629945","shop":"computer","source":"http:\/\/www.priveshop.gr","website":"http:\/\/www.priveshop.gr"}},{"type":"node","id":2681081557,"lat":37.9992674,"lon":23.731171,"tags":{"addr:city":"\u0391\u03b8\u03ae\u03bd\u03b1","addr:housenumber":"15","addr:postcode":"11251","addr:street":"\u039a\u03b1\u03bb\u03cd\u03bc\u03bd\u03bf\u03c5","name":"ITLAB","office":"it","opening_hours":"09:00-17:00","phone":"+302108665710","source":"http:\/\/www.itlab.gr","website":"http:\/\/www.itlab.gr"}},{"type":"node","id":3280434871,"lat":37.9995895,"lon":23.7311374,"tags":{"addr:city":"\u0391\u03b8\u03ae\u03bd\u03b1","addr:housenumber":"12","addr:postcode":"11251","addr:street":"\u039a\u03b1\u03bb\u03cd\u03bc\u03bd\u03bf\u03c5"}},{"type":"node","id":5872459193,"lat":37.9995853,"lon":23.7307643,"tags":{"addr:city":"\u0391\u03b8\u03ae\u03bd\u03b1","addr:housenumber":"68","addr:street":"\u039a\u03b5\u03c6\u03b1\u03bb\u03bb\u03b7\u03bd\u03af\u03b1\u03c2"}},{"type":"node","id":5872459194,"lat":37.999579,"lon":23.7310325,"tags":{"addr:city":"\u0391\u03b8\u03ae\u03bd\u03b1","addr:housenumber":"64","addr:street":"\u039a\u03b5\u03c6\u03b1\u03bb\u03bb\u03b7\u03bd\u03af\u03b1\u03c2"}},{"type":"node","id":6279890761,"lat":37.9996157,"lon":23.7305914,"tags":{"highway":"traffic_signals","traffic_signals":"signal"}},{"type":"node","id":6279890762,"lat":37.9995037,"lon":23.7306474,"tags":{"highway":"traffic_signals","traffic_signals":"signal"}}]}