{"version":0.6,"generator":"Overpass API 0.7.61.5 4133829e","osm3s":{"timestamp_osm_base":"2023-08-16T11:12:44Z","copyright":"The data included in this document is from www.openstreetmap.org. The data is made available under ODbL."},"elements":[{"type":"node","id":2680906842,"lat":38.0005885,"lon":23.7333419,"tags":{"name":"Bookworld - \u0397\u03bb\u03b5\u03ba\u03c4\u03c1\u03bf\u03bd\u03b9\u03ba\u03cc \u03b2\u03b9\u03b2\u03bb\u03b9\u03bf\u03c0\u03c9\u03bb\u03b5\u03af\u03bf","opening_hours":"10:00-17:00","phone":"+302118009950","shop":"books","website":"https:\/\/bookworld.gr\/"}},{"type":"node","id":2800846119,"lat":38.0008005,"lon":23.7337636,"tags":{"addr:city":"\u0391\u03b8\u03ae\u03bd\u03b1","addr:country":"GR","addr:housenumber":"7","addr:postcode":"11257","addr:street":"\u0391\u03b3\u03b1\u03b8\u03bf\u03c5\u03c0\u03cc\u03bb\u03b5\u03c9\u03c2"}},{"type":"node","id":2800846148,"lat":38.0008745,"lon":23.7333,"tags":{"addr:city":"\u0391\u03b8\u03ae\u03bd\u03b1","addr:country":"GR","addr:housenumber":"9","addr:postcode":"11252","addr:street":"\u0391\u03b3\u03b1\u03b8\u03bf\u03c5\u03c0\u03cc\u03bb\u03b5\u03c9\u03c2","name":"\u03a4\u03b6\u03b1\u03b2\u03ac\u03c1\u03b1\u03c2","shop":"bakery"}},{"type":"node","id":3936338637,"lat":38.0008949,"lon":23.7336333,"tags":{"crossing":"traffic_signals","highway":"crossing"}},{"type":"node","id":3936338638,"lat":38.0009214,"lon":23.7334796,"tags":{"crossing":"traffic_signals","highway":"crossing"}},{"type":"node","id":3936338639,"lat":38.0009514,"lon":23.733575,"tags":{"crossing":"traffic_signals","crossing:island":"no","highway":"crossing"}},{"type":"node","id":4396365582,"lat":38.0007285,"lon":23.7336635,"tags":{"name":"\u03a4\u03c3\u03ad\u03bb\u03b9\u03bf\u03c2 \u03a6\u03c9\u03c4\u03bf\u03b3\u03c1\u03b1\u03c6\u03ae\u03c3\u03b5\u03b9\u03c2 - \u0392\u03b9\u03bd\u03c4\u03b5\u03bf\u03c3\u03ba\u03bf\u03c0\u03ae\u03c3\u03b5\u03b9\u03c2","shop":"photo"}},{"type":"node","id":4418494666,"lat":38.0005678,"lon":23.7335455,"tags":{"addr:city":"\u0391\u03b8\u03ae\u03bd\u03b1","addr:housenumber":"152","addr:street":"\u03a0\u03b1\u03c4\u03b7\u03c3\u03af\u03c9\u03bd","amenity":"post_box"}},{"type":"node","id":4628179506,"lat":38.0008285,"lon":23.7334031,"tags":{"addr:city":"\u0391\u03b8\u03ae\u03bd\u03b1","addr:street":"\u03a0\u03b1\u03c4\u03b7\u03c3\u03af\u03c9\u03bd","shop":"jewelry"}},{"type":"node","id":4707768768,"lat":38.0003458,"lon":23.7335434,"tags":{"addr:city":"\u0391\u03b8\u03ae\u03bd\u03b1","addr:housenumber":"150","addr:street":"\u03a0\u03b1\u03c4\u03b7\u03c3\u03af\u03c9\u03bd","clothes":"women","name":"attr@ttivo","shop":"clothes"}},{"type":"node","id":4941136109,"lat":38.0007536,"lon":23.7333795,"tags":{"addr:city":"\u0391\u03b8\u03ae\u03bd\u03b1","addr:housenumber":"157\u0391","addr:street":"\u03a0\u03b1\u03c4\u03b7\u03c3\u03af\u03c9\u03bd","name":"\u039c\u03b5\u03bb\u03af\u03bd\u03c4\u03b1","shop":"hairdresser"}},{"type":"node","id":5255309315,"lat":38.0006739,"lon":23.7336431,"tags":{"clothes":"men","shop":"clothes"}},{"type":"node","id":5481545087,"lat":38.0007978,"lon":23.7336794,"tags":{"addr:city":"\u0391\u03b8\u03ae\u03bd\u03b1","addr:housenumber":"154","addr:street":"\u03a0\u03b1\u03c4\u03b7\u03c3\u03af\u03c9\u03bd","clothes":"women","name":"Palatto","shop":"clothes"}},{"type":"node","id":5677429456,"lat":38.0007677,"lon":23.7336711,"tags":{"name":"Nova","office":"telecommunication"}},{"type":"node","id":6036590605,"lat":38.0009819,"lon":23.7337231,"tags":{"amenity":"cafe","name":"L' angolo del coffee"}},{"type":"node","id":6262365583,"lat":38.0008891,"lon":23.733667,"tags":{"highway":"traffic_signals","traffic_signals":"signal"}},{"type":"node","id":6262368385,"lat":38.0008395,"lon":23.7335468,"tags":{"highway":"traffic_signals","traffic_signals":"signal","traffic_signals:direction":"backward"}},{"type":"node","id":6571109270,"lat":38.0003451,"lon":23.7332962,"tags":{"amenity":"cafe","name":"City Icon"}},{"type":"node","id":6574720640,"lat":38.0004141,"lon":23.7333099,"tags":{"name":"\u03a0\u03b1\u03bb\u03b1\u03b9\u03bf\u03c0\u03c9\u03bb\u03b5\u03af\u03bf","shop":"antiques"}},{"type":"node","id":10178181100,"lat":38.0006875,"lon":23.7333683,"tags":{"addr:housenumber":"157","addr:street":"\u03a0\u03b1\u03c4\u03b7\u03c3\u03af\u03c9\u03bd","name":"\u03a4\u03c1\u03bf\u03c7\u03b5\u03af\u03bf","shop":"hairdresser_supply"}},{"type":"node","id":10178211470,"lat":38.0004358,"lon":23.7333153,"tags":{"name":"Alfa Mobile","shop":"mobile_phone"}},{"type":"node","id":10178216367,"lat":38.0006367,"lon":23.7336335,"tags":{"shop":"clothes"}},{"type":"node","id":10178218453,"lat":38.0006541,"lon":23.7333597,"tags":{"name":"Picture-on-wood.gr","shop":"yes"}},{"type":"node","id":10178222947,"lat":38.0005461,"lon":23.7333371,"tags":{"name":"Mog phone","shop":"mobile_phone"}},{"type":"node","id":10178236216,"lat":38.0006159,"lon":23.7333507,"tags":{"shop":"shoes"}},{"type":"node","id":10178329344,"lat":38.000897,"lon":23.7336212,"tags":{"crossing":"traffic_signals","highway":"crossing"}},{"type":"node","id":10185509495,"lat":38.0006026,"lon":23.7336263,"tags":{"amenity":"fast_food","drive_through":"no","name":"\u039f\u03b9 \u03bd\u03bf\u03c3\u03c4\u03b9\u03bc\u03b9\u03ad\u03c2 \u03c4\u03b7\u03c2 \u0392\u03ac\u03c3\u03c9\u03c2"}},{"type":"node","id":10829902111,"lat":38.0004793,"lon":23.7335967,"tags":{"addr:city":"\u0391\u03b8\u03ae\u03bd\u03b1","addr:housenumber":"152","addr:street":"\u03a0\u03b1\u03c4\u03b7\u03c3\u03af\u03c9\u03bd"}}]}