{"version":0.6,"generator":"Overpass API 0.7.61.5 4133829e","osm3s":{"timestamp_osm_base":"2023-08-16T11:33:35Z","copyright":"The data included in this document is from www.openstreetmap.org. The data is made available under ODbL."},"elements":[{"type":"node","id":3049438671,"lat":38.0013676,"lon":23.7369896,"tags":{"amenity":"arts_centre","name":"Snehta Residency"}},{"type":"node","id":4658159814,"lat":38.0011968,"lon":23.7366062,"tags":{"amenity":"bar","name":"\u039f\u03c1\u03c6\u03b5\u03b1\u03c2"}},{"type":"node","id":4658159822,"lat":38.0012966,"lon":23.7372436,"tags":{"brand":"Circle K","brand:wikidata":"Q3268010","brand:wikipedia":"en:Circle K","name":"Circle K","shop":"convenience"}},{"type":"node","id":7262991495,"lat":38.0015518,"lon":23.7371101,"tags":{"addr:city":"\u0391\u03b8\u03ae\u03bd\u03b1","addr:housenumber":"1\u0391","addr:street":"\u0391\u03b3\u03af\u03b1\u03c2 \u0396\u03ce\u03bd\u03b7\u03c2","name":"Melissa","shop":"nuts"}},{"type":"node","id":8050224900,"lat":38.0012432,"lon":23.7369773,"tags":{"addr:city":"\u0391\u03b8\u03ae\u03bd\u03b1","amenity":"hookah_lounge","name":"Black & White"}},{"type":"node","id":8393135408,"lat":38.0014767,"lon":23.7368555,"tags":{"addr:city":"\u0391\u03b8\u03ae\u03bd\u03b1","addr:housenumber":"1","addr:postcode":"11361","addr:street":"\u039c\u03b7\u03b8\u03cd\u03bc\u03bd\u03b7\u03c2"}},{"type":"node","id":8393141449,"lat":38.0013406,"lon":23.73705,"tags":{"addr:city":"\u0391\u03b8\u03ae\u03bd\u03b1","addr:housenumber":"1","addr:postcode":"11361","addr:street":"\u0391\u03b3\u03af\u03b1\u03c2 \u0396\u03ce\u03bd\u03b7\u03c2"}},{"type":"node","id":8450947840,"lat":38.0016269,"lon":23.7371015,"tags":{"addr:city":"\u0391\u03b8\u03ae\u03bd\u03b1","addr:housenumber":"1\u0391","addr:street":"\u0391\u03b3\u03af\u03b1\u03c2 \u0396\u03ce\u03bd\u03b7\u03c2","shop":"chemist"}},{"type":"node","id":9457107124,"lat":38.0016347,"lon":23.7364588,"tags":{"addr:city":"\u0391\u03b8\u03ae\u03bd\u03b1","addr:housenumber":"10","addr:postcode":"11361","addr:street":"\u039c\u03b7\u03b8\u03cd\u03bc\u03bd\u03b7\u03c2"}},{"type":"node","id":10056179361,"lat":38.0014188,"lon":23.7370259,"tags":{"addr:city":"\u0391\u03b8\u03ae\u03bd\u03b1","addr:housenumber":"1","addr:street":"\u0391\u03b3\u03af\u03b1\u03c2 \u0396\u03ce\u03bd\u03b7\u03c2","amenity":"bar"}}]}