{"version":0.6,"generator":"Overpass API 0.7.61.5 4133829e","osm3s":{"timestamp_osm_base":"2023-08-16T11:22:04Z","copyright":"The data included in this document is from www.openstreetmap.org. The data is made available under ODbL."},"elements":[{"type":"node","id":1051391056,"lat":38.0013239,"lon":23.73488,"tags":{"button_operated":"no","crossing":"traffic_signals","highway":"crossing","traffic_signals:sound":"no","traffic_signals:vibration":"no"}},{"type":"node","id":1051391585,"lat":38.001303,"lon":23.7350195,"tags":{"highway":"crossing"}},{"type":"node","id":2669981907,"lat":38.0009956,"lon":23.7349805,"tags":{"addr:city":"\u0391\u03b8\u03ae\u03bd\u03b1","addr:housenumber":"17","addr:postcode":"11257","addr:street":"\u03a6\u03c9\u03ba\u03af\u03c9\u03bd\u03bf\u03c2 \u039d\u03ad\u03b3\u03c1\u03b7","amenity":"fast_food","cuisine":"burger","delivery":"yes","drive_through":"no","name":"Goodys","outdoor_seating":"yes","smoking":"outside","takeaway":"yes"}},{"type":"node","id":4396692100,"lat":38.0012626,"lon":23.7347855,"tags":{"addr:city":"\u0391\u03b8\u03ae\u03bd\u03b1","addr:housenumber":"11","addr:street":"\u0398\u03ae\u03c1\u03b1\u03c2"}},{"type":"node","id":4634294749,"lat":38.0014187,"lon":23.7348315,"tags":{"addr:city":"\u0391\u03b8\u03ae\u03bd\u03b1","addr:housenumber":"12","addr:street":"\u0398\u03ae\u03c1\u03b1\u03c2"}},{"type":"node","id":5325863250,"lat":38.0012177,"lon":23.7348434,"tags":{"addr:city":"\u0391\u03b8\u03ae\u03bd\u03b1","addr:housenumber":"77","addr:street":"\u0399\u03c9\u03ac\u03bd\u03bd\u03bf\u03c5 \u0394\u03c1\u03bf\u03c3\u03bf\u03c0\u03bf\u03cd\u03bb\u03bf\u03c5"}},{"type":"node","id":5325865987,"lat":38.0014414,"lon":23.7348859,"tags":{"addr:city":"\u0391\u03b8\u03ae\u03bd\u03b1","addr:housenumber":"79","addr:street":"\u0399\u03c9\u03ac\u03bd\u03bd\u03bf\u03c5 \u0394\u03c1\u03bf\u03c3\u03bf\u03c0\u03bf\u03cd\u03bb\u03bf\u03c5"}},{"type":"node","id":6399648138,"lat":38.0012224,"lon":23.7350407,"tags":{"addr:city":"\u0391\u03b8\u03ae\u03bd\u03b1","addr:housenumber":"68","addr:street":"\u0399\u03c9\u03ac\u03bd\u03bd\u03bf\u03c5 \u0394\u03c1\u03bf\u03c3\u03bf\u03c0\u03bf\u03cd\u03bb\u03bf\u03c5","name":"Stegno","shop":"dry_cleaning"}},{"type":"node","id":7150029135,"lat":38.0011776,"lon":23.7351049,"tags":{"addr:city":"\u0391\u03b8\u03ae\u03bd\u03b1","addr:housenumber":"9","addr:street":"\u0398\u03ae\u03c1\u03b1\u03c2"}},{"type":"node","id":7197289124,"lat":38.0011636,"lon":23.7352655,"tags":{"addr:city":"\u0391\u03b8\u03ae\u03bd\u03b1","addr:housenumber":"7","addr:postcode":"11257","addr:street":"\u0398\u03ae\u03c1\u03b1\u03c2"}},{"type":"node","id":7197289125,"lat":38.0011533,"lon":23.7353828,"tags":{"addr:city":"\u0391\u03b8\u03ae\u03bd\u03b1","addr:housenumber":"5","addr:postcode":"11257","addr:street":"\u0398\u03ae\u03c1\u03b1\u03c2"}},{"type":"node","id":7197289126,"lat":38.0011408,"lon":23.7355258,"tags":{"addr:city":"\u0391\u03b8\u03ae\u03bd\u03b1","addr:housenumber":"3","addr:postcode":"11257","addr:street":"\u0398\u03ae\u03c1\u03b1\u03c2"}},{"type":"node","id":7216454902,"lat":38.0013662,"lon":23.735131,"tags":{"addr:city":"\u0391\u03b8\u03ae\u03bd\u03b1","addr:housenumber":"10","addr:street":"\u0398\u03ae\u03c1\u03b1\u03c2"}},{"type":"node","id":8718569841,"lat":38.0010073,"lon":23.7352629,"tags":{"amenity":"hookah_lounge","name":"1000 \u03bd\u03cd\u03c7\u03c4\u03b5\u03c2"}},{"type":"node","id":8718594739,"lat":38.0010139,"lon":23.7353554,"tags":{"addr:city":"\u0391\u03b8\u03ae\u03bd\u03b1","addr:housenumber":"17","addr:street":"\u03a6\u03c9\u03ba\u03af\u03c9\u03bd\u03bf\u03c2 \u039d\u03ad\u03b3\u03c1\u03b7","amenity":"restaurant","name":"\u03a0\u03b9\u03ac\u03c4\u03c3\u03b1 \u03ba\u03b1\u03bb\u03b1\u03bc\u03ac\u03ba\u03b9","phone":"+302108612195"}},{"type":"node","id":8828053899,"lat":38.0010556,"lon":23.7347412,"tags":{"addr:city":"\u0391\u03b8\u03ae\u03bd\u03b1","addr:housenumber":"73-75","addr:street":"\u0399\u03c9\u03ac\u03bd\u03bd\u03bf\u03c5 \u0394\u03c1\u03bf\u03c3\u03bf\u03c0\u03bf\u03cd\u03bb\u03bf\u03c5","name":"JS accounting","office":"accountant"}},{"type":"node","id":9366935478,"lat":38.0012816,"lon":23.7349433,"tags":{"highway":"traffic_signals","traffic_signals":"signal"}},{"type":"node","id":9366935479,"lat":38.0013198,"lon":23.7349072,"tags":{"highway":"traffic_signals","traffic_signals":"signal"}},{"type":"node","id":9919308949,"lat":38.0016558,"lon":23.7351385,"tags":{"addr:city":"\u0391\u03b8\u03ae\u03bd\u03b1","addr:housenumber":"74","addr:street":"\u0399. \u0394\u03c1\u03bf\u03c3\u03bf\u03c0\u03bf\u03cd\u03bb\u03bf\u03c5"}},{"type":"node","id":9919308950,"lat":38.0014022,"lon":23.7351009,"tags":{"addr:city":"\u0391\u03b8\u03ae\u03bd\u03b1","addr:housenumber":"70","addr:street":"\u0399. \u0394\u03c1\u03bf\u03c3\u03bf\u03c0\u03bf\u03cd\u03bb\u03bf\u03c5"}},{"type":"node","id":10056179360,"lat":38.0016481,"lon":23.7352067,"tags":{"addr:city":"\u0391\u03b8\u03ae\u03bd\u03b1","addr:housenumber":"23","addr:street":"\u039c\u03b7\u03b8\u03cd\u03bc\u03bd\u03b7\u03c2"}},{"type":"node","id":10099012917,"lat":38.0009921,"lon":23.7350625,"tags":{"addr:housenumber":"15","addr:street":"\u03a6\u03c9\u03ba\u03af\u03c9\u03bd\u03bf\u03c2 \u039d\u03ad\u03b3\u03c1\u03b7","amenity":"restaurant","cuisine":"greek","name":"\u03a3\u039f\u03a5\u0392\u039b\u0391\u039a\u039f\u03a0\u03a9\u039b\u0395\u0399\u039f\u039d \u03c1\u03af\u03b3\u03b1\u03bd\u03b7","phone":"2108617022"}},{"type":"node","id":10576880148,"lat":38.0010464,"lon":23.7354945,"tags":{"amenity":"restaurant","cuisine":"oriental","diet:vegan":"only","name":"\u0393\u03b5\u03cd\u03c3\u03b5\u03b9\u03c2 \u03c4\u03b7\u03c2 \u0394\u03b1\u03bc\u03b1\u03c3\u03ba\u03bf\u03cd","opening_hours":"Tu-Su 12:30-24:00; Jan 01-03, Aug 7-26 off","phone":"+302111177714","website":"https:\/\/tastesofdamascus.wordpress.com\/"}},{"type":"node","id":10658598092,"lat":38.0011154,"lon":23.7349914,"tags":{"addr:city":"\u0391\u03b8\u03ae\u03bd\u03b1","addr:housenumber":"68","addr:street":"\u0399\u03c9\u03ac\u03bd\u03bd\u03bf\u03c5 \u0394\u03c1\u03bf\u03c3\u03bf\u03c0\u03bf\u03cd\u03bb\u03bf\u03c5"}},{"type":"node","id":10658598093,"lat":38.0010668,"lon":23.7349834,"tags":{"addr:city":"\u0391\u03b8\u03ae\u03bd\u03b1","addr:housenumber":"66","addr:street":"\u0399\u03c9\u03ac\u03bd\u03bd\u03bf\u03c5 \u0394\u03c1\u03bf\u03c3\u03bf\u03c0\u03bf\u03cd\u03bb\u03bf\u03c5"}},{"type":"node","id":10686168931,"lat":38.00116,"lon":23.7349934,"tags":{"addr:city":"\u0391\u03b8\u03ae\u03bd\u03b1","addr:housenumber":"68","addr:street":"\u0399\u03c9\u03ac\u03bd\u03bd\u03bf\u03c5 \u0394\u03c1\u03bf\u03c3\u03bf\u03c0\u03bf\u03cd\u03bb\u03bf\u03c5","shop":"convenience"}},{"type":"node","id":10978871829,"lat":38.0013589,"lon":23.7350706,"tags":{"addr:housenumber":"70","addr:street":"\u0394\u03c1\u03bf\u03c3\u03bf\u03c0\u03bf\u03cd\u03bb\u03bf\u03c5","amenity":"bar","description":"\u039c\u03c0\u03b1\u03c1 \u03bc\u03b5 \u03bc\u03b9\u03ba\u03c1\u03ae \u03b1\u03c5\u03bb\u03af\u03c4\u03c3\u03b1 \u03ba\u03b1\u03b9 \u03bc\u03c0\u03b1\u03bb\u03ba\u03cc\u03bd\u03b9 \u03bc\u03b5 \u03b4\u03c5\u03bf \u03c4\u03c1\u03b1\u03c0\u03ad\u03b6\u03b9\u03b1 \u03c3\u03c4\u03bf\u03bd \u03b5\u03c0\u03ac\u03bd\u03c9 \u03cc\u03c1\u03bf\u03c6\u03bf.","name":"\u039b\u03bf\u03b3\u03b9\u03ce\u03c4\u03b1\u03c4\u03bf\u03c2","opening_hours":"Mo-Su 17:00-03:00","phone":"21 0821 9005"}}]}