{"version":0.6,"generator":"Overpass API 0.7.61.5 4133829e","osm3s":{"timestamp_osm_base":"2023-08-16T11:11:45Z","copyright":"The data included in this document is from www.openstreetmap.org. The data is made available under ODbL."},"elements":[{"type":"node","id":1600197059,"lat":38.0010037,"lon":23.7273335,"tags":{"addr:city":"\u0391\u03b8\u03ae\u03bd\u03b1","addr:country":"GR","addr:housenumber":"108","addr:postcode":"10446","addr:street":"\u0391\u03b3\u03af\u03bf\u03c5 \u039c\u03b5\u03bb\u03b5\u03c4\u03af\u03bf\u03c5"}},{"type":"node","id":1773646132,"lat":38.0010669,"lon":23.7274157,"tags":{"addr:city":"\u0391\u03b8\u03ae\u03bd\u03b1","addr:country":"GR","addr:housenumber":"165","addr:postcode":"10446","addr:street":"\u0391\u03c7\u03b1\u03c1\u03bd\u03ce\u03bd"}},{"type":"node","id":1773646135,"lat":38.0011715,"lon":23.72744,"tags":{"addr:city":"\u0391\u03b8\u03ae\u03bd\u03b1","addr:country":"GR","addr:housenumber":"169","addr:postcode":"10446","addr:street":"\u0391\u03c7\u03b1\u03c1\u03bd\u03ce\u03bd"}},{"type":"node","id":1773646137,"lat":38.0015549,"lon":23.7275322,"tags":{"addr:city":"\u0391\u03b8\u03ae\u03bd\u03b1","addr:country":"GR","addr:housenumber":"171-173","addr:postcode":"10446","addr:street":"\u0391\u03c7\u03b1\u03c1\u03bd\u03ce\u03bd"}},{"type":"node","id":2181376842,"lat":38.0013602,"lon":23.727709,"tags":{"bus":"yes","public_transport":"stop_position","trolleybus":"yes"}},{"type":"node","id":2560172132,"lat":38.0013943,"lon":23.7277182,"tags":{"bus":"yes","public_transport":"stop_position","trolleybus":"yes"}},{"type":"node","id":2786680157,"lat":38.0013439,"lon":23.7277918,"tags":{"bench":"yes","bus":"yes","highway":"bus_stop","name":"\u0391\u0393\u0399\u039f\u03a5 \u039c\u0395\u039b\u0395\u03a4\u0399\u039f\u03a5","network":"\u039f\u0391\u03a3\u0391","network:el":"\u039f\u0391\u03a3\u0391","network:en":"OASA","network:wikidata":"Q1814382","operator":"\u039f\u0391\u03a3\u0391","passenger_information_display":"yes","public_transport":"platform","ref":"060897","shelter":"yes","trolleybus":"yes"}},{"type":"node","id":2786680159,"lat":38.0015069,"lon":23.7276149,"tags":{"bus":"yes","highway":"bus_stop","name":"\u0391\u0393\u0399\u039f\u03a5 \u039c\u0395\u039b\u0395\u03a4\u0399\u039f\u03a5","network":"\u039f\u0391\u03a3\u0391","network:el":"\u039f\u0391\u03a3\u0391","network:en":"OASA","network:wikidata":"Q1814382","operator":"\u039f\u0391\u03a3\u0391","passenger_information_display":"yes","public_transport":"platform","ref":"060917","shelter":"yes","trolleybus":"yes"}},{"type":"node","id":2960985991,"lat":38.0014033,"lon":23.7271585,"tags":{"barrier":"chain"}},{"type":"node","id":6002434588,"lat":38.00129,"lon":23.7274646,"tags":{"addr:city":"\u0391\u03b8\u03ae\u03bd\u03b1","addr:housenumber":"169","addr:street":"\u0391\u03c7\u03b1\u03c1\u03bd\u03ce\u03bd","shop":"hairdresser"}},{"type":"node","id":6018973134,"lat":38.0014225,"lon":23.7274942,"tags":{"amenity":"pharmacy","healthcare":"pharmacy","name":"\u039d\u03af\u03ba\u03bf\u03c2 \u03a8\u03c9\u03bc\u03ac\u03c2"}},{"type":"node","id":6018973135,"lat":38.001451,"lon":23.7273172,"tags":{"currency:EUR":"yes","name":"\u03a3\u039a\u039b\u0391\u0392\u0395\u039d\u0399\u03a4\u0397\u03a3","opening_hours":"Mo-Fr 08:00-21:00; Sa 08:00-20:00; Su closed","opening_hours:covid19":"Mo-Fr 08:00-20:30; Sa 08:00-20:00; Su closed","shop":"supermarket"}},{"type":"node","id":7141793112,"lat":38.0010129,"lon":23.7277233,"tags":{"addr:city":"\u0391\u03b8\u03ae\u03bd\u03b1","addr:housenumber":"182","addr:street":"\u0391\u03c7\u03b1\u03c1\u03bd\u03ce\u03bd","name:signed":"no","shop":"kiosk"}},{"type":"node","id":7254812336,"lat":38.0014791,"lon":23.7275098,"tags":{"addr:city":"\u0391\u03b8\u03ae\u03bd\u03b1","addr:housenumber":"171-173","addr:street":"\u0391\u03c7\u03b1\u03c1\u03bd\u03ce\u03bd","name":"Nitro Net","shop":"mobile_phone"}},{"type":"node","id":10294210869,"lat":38.0016304,"lon":23.7275576,"tags":{"addr:city":"\u0391\u03b8\u03ae\u03bd\u03b1","addr:street":"\u0391\u03c7\u03b1\u03c1\u03bd\u03ce\u03bd","name":"Backstage","shop":"clothes"}},{"type":"node","id":10574150814,"lat":38.0012441,"lon":23.727452,"tags":{"addr:city":"\u0391\u03b8\u03ae\u03bd\u03b1","addr:housenumber":"169","addr:street":"\u0391\u03c7\u03b1\u03c1\u03bd\u03ce\u03bd","shop":"convenience"}}]}