{"version":0.6,"generator":"Overpass API 0.7.61.5 4133829e","osm3s":{"timestamp_osm_base":"2023-08-16T11:16:56Z","copyright":"The data included in this document is from www.openstreetmap.org. The data is made available under ODbL."},"elements":[{"type":"node","id":4387817622,"lat":38.0015771,"lon":23.7338902,"tags":{"name":"VOI & NOI","opening_hours":"Tu,Th,Fr 09:00-21:00; Sa 09:00-15:00; Su off; Mo,We 09:00-17:00","phone":"21 6900 1975","shoes":"women","shop":"shoes","website":"voi-noi.gr"}},{"type":"node","id":4396687751,"lat":38.0013869,"lon":23.7338715,"tags":{"addr:city":"\u0391\u03b8\u03ae\u03bd\u03b1","addr:housenumber":"25","addr:street":"\u0398\u03ae\u03c1\u03b1\u03c2"}},{"type":"node","id":4634294856,"lat":38.0015572,"lon":23.7339919,"tags":{"addr:city":"\u0391\u03b8\u03ae\u03bd\u03b1","addr:housenumber":"26","addr:street":"\u0398\u03ae\u03c1\u03b1\u03c2"}},{"type":"node","id":7197289127,"lat":38.0014676,"lon":23.7345353,"tags":{"addr:city":"\u0391\u03b8\u03ae\u03bd\u03b1","addr:housenumber":"16","addr:postcode":"11257","addr:street":"\u0398\u03ae\u03c1\u03b1\u03c2"}},{"type":"node","id":7197289128,"lat":38.0014431,"lon":23.7346898,"tags":{"addr:city":"\u0391\u03b8\u03ae\u03bd\u03b1","addr:housenumber":"14","addr:postcode":"11257","addr:street":"\u0398\u03ae\u03c1\u03b1\u03c2"}},{"type":"node","id":7197289129,"lat":38.0013226,"lon":23.7343531,"tags":{"addr:city":"\u0391\u03b8\u03ae\u03bd\u03b1","addr:housenumber":"17","addr:postcode":"11257","addr:street":"\u0398\u03ae\u03c1\u03b1\u03c2"}},{"type":"node","id":7216458431,"lat":38.0015015,"lon":23.734237,"tags":{"amenity":"parking","fee":"yes","parking":"multi-storey"}}]}