{"version":0.6,"generator":"Overpass API 0.7.61.5 4133829e","osm3s":{"timestamp_osm_base":"2023-08-16T11:31:29Z","copyright":"The data included in this document is from www.openstreetmap.org. The data is made available under ODbL."},"elements":[{"type":"node","id":1619241134,"lat":38.001979,"lon":23.72224,"tags":{"bus":"yes","name":"\u0391\u0393\u0399\u039f\u03a5 \u039c\u0395\u039b\u0395\u03a4\u0399\u039f\u03a5","operator":"\u039f\u0391\u03a3\u0391","passenger_information_display":"yes","public_transport":"stop_position","ref":"060128","shelter":"no"}},{"type":"node","id":1770458802,"lat":38.0017275,"lon":23.7221647,"tags":{"addr:city":"\u0391\u03b8\u03ae\u03bd\u03b1","addr:country":"GR","addr:housenumber":"191","addr:postcode":"10445","addr:street":"\u039b\u03b9\u03bf\u03c3\u03af\u03c9\u03bd"}},{"type":"node","id":1770458804,"lat":38.0019631,"lon":23.7221518,"tags":{"addr:city":"\u0391\u03b8\u03ae\u03bd\u03b1","addr:country":"GR","addr:housenumber":"193","addr:postcode":"10445","addr:street":"\u039b\u03b9\u03bf\u03c3\u03af\u03c9\u03bd"}},{"type":"node","id":2638326666,"lat":38.0020714,"lon":23.7220943,"tags":{"addr:city":"\u0391\u03b8\u03ae\u03bd\u03b1","addr:country":"GR","addr:housenumber":"1","addr:postcode":"10445","addr:street":"\u03a3\u03c4\u03b5\u03bd\u03b7\u03bc\u03ac\u03c7\u03bf\u03c5"}},{"type":"node","id":2666004417,"lat":38.0019807,"lon":23.7222611,"tags":{"bench":"no","bin":"yes","bus":"yes","highway":"bus_stop","lit":"no","name":"\u0391\u0393\u0399\u039f\u03a5 \u039c\u0395\u039b\u0395\u03a4\u0399\u039f\u03a5","network":"\u039f\u0391\u03a3\u0391","network:el":"\u039f\u0391\u03a3\u0391","network:en":"OASA","network:wikidata":"Q1814382","operator":"\u039f\u0391\u03a3\u0391","passenger_information_display":"yes","public_transport":"platform","ref":"060128","shelter":"no"}},{"type":"node","id":2835656457,"lat":38.0021071,"lon":23.7226684,"tags":{"addr:city":"\u0391\u03b8\u03ae\u03bd\u03b1","addr:country":"GR","addr:housenumber":"11","addr:postcode":"10445","addr:street":"\u03a0\u03b1\u03c1\u03b1\u03c3\u03ba\u03b5\u03c5\u03bf\u03c0\u03bf\u03cd\u03bb\u03bf\u03c5"}},{"type":"node","id":2835656902,"lat":38.0022726,"lon":23.7226923,"tags":{"addr:city":"\u0391\u03b8\u03ae\u03bd\u03b1","addr:country":"GR","addr:housenumber":"13","addr:postcode":"10445","addr:street":"\u03a0\u03b1\u03c1\u03b1\u03c3\u03ba\u03b5\u03c5\u03bf\u03c0\u03bf\u03cd\u03bb\u03bf\u03c5"}},{"type":"node","id":2835656994,"lat":38.0016974,"lon":23.7225948,"tags":{"addr:city":"\u0391\u03b8\u03ae\u03bd\u03b1","addr:country":"GR","addr:housenumber":"3","addr:postcode":"10445","addr:street":"\u03a0\u03b1\u03c1\u03b1\u03c3\u03ba\u03b5\u03c5\u03bf\u03c0\u03bf\u03cd\u03bb\u03bf\u03c5"}},{"type":"node","id":2835657023,"lat":38.0017465,"lon":23.7227306,"tags":{"addr:city":"\u0391\u03b8\u03ae\u03bd\u03b1","addr:country":"GR","addr:housenumber":"4","addr:postcode":"10445","addr:street":"\u03a0\u03b1\u03c1\u03b1\u03c3\u03ba\u03b5\u03c5\u03bf\u03c0\u03bf\u03cd\u03bb\u03bf\u03c5"}},{"type":"node","id":2835657043,"lat":38.001837,"lon":23.7226177,"tags":{"addr:city":"\u0391\u03b8\u03ae\u03bd\u03b1","addr:country":"GR","addr:housenumber":"5","addr:postcode":"10445","addr:street":"\u03a0\u03b1\u03c1\u03b1\u03c3\u03ba\u03b5\u03c5\u03bf\u03c0\u03bf\u03cd\u03bb\u03bf\u03c5"}},{"type":"node","id":2835657086,"lat":38.0019344,"lon":23.7226381,"tags":{"addr:city":"\u0391\u03b8\u03ae\u03bd\u03b1","addr:country":"GR","addr:housenumber":"7","addr:postcode":"10445","addr:street":"\u03a0\u03b1\u03c1\u03b1\u03c3\u03ba\u03b5\u03c5\u03bf\u03c0\u03bf\u03cd\u03bb\u03bf\u03c5"}},{"type":"node","id":2835657331,"lat":38.0019611,"lon":23.7226473,"tags":{"addr:city":"\u0391\u03b8\u03ae\u03bd\u03b1","addr:country":"GR","addr:housenumber":"9","addr:postcode":"10445","addr:street":"\u03a0\u03b1\u03c1\u03b1\u03c3\u03ba\u03b5\u03c5\u03bf\u03c0\u03bf\u03cd\u03bb\u03bf\u03c5"}},{"type":"node","id":6517733300,"lat":38.0021507,"lon":23.7221259,"tags":{"natural":"tree"}},{"type":"node","id":10274491609,"lat":38.0016682,"lon":23.7221721,"tags":{"addr:city":"\u0391\u03b8\u03ae\u03bd\u03b1","addr:housenumber":"191","addr:street":"\u039b\u03b9\u03bf\u03c3\u03af\u03c9\u03bd","amenity":"car_wash"}},{"type":"node","id":10840557104,"lat":38.0019324,"lon":23.7222465,"tags":{"direction":"backward","maxspeed":"30","traffic_sign":"maxspeed"}}]}