{"version":0.6,"generator":"Overpass API 0.7.61.5 4133829e","osm3s":{"timestamp_osm_base":"2023-08-16T11:09:40Z","copyright":"The data included in this document is from www.openstreetmap.org. The data is made available under ODbL."},"elements":[{"type":"node","id":1617938616,"lat":38.0003132,"lon":23.7328198,"tags":{"addr:city":"\u0391\u03b8\u03ae\u03bd\u03b1","addr:country":"GR","addr:housenumber":"58","addr:postcode":"11252","addr:street":"\u0391\u03b3\u03af\u03bf\u03c5 \u039c\u03b5\u03bb\u03b5\u03c4\u03af\u03bf\u03c5"}},{"type":"node","id":1617938620,"lat":38.0003334,"lon":23.7326661,"tags":{"addr:city":"\u0391\u03b8\u03ae\u03bd\u03b1","addr:country":"GR","addr:housenumber":"60","addr:postcode":"11252","addr:street":"\u0391\u03b3\u03af\u03bf\u03c5 \u039c\u03b5\u03bb\u03b5\u03c4\u03af\u03bf\u03c5"}},{"type":"node","id":1617938634,"lat":38.0003344,"lon":23.7324769,"tags":{"addr:city":"\u0391\u03b8\u03ae\u03bd\u03b1","addr:country":"GR","addr:housenumber":"62","addr:postcode":"11252","addr:street":"\u0391\u03b3\u03af\u03bf\u03c5 \u039c\u03b5\u03bb\u03b5\u03c4\u03af\u03bf\u03c5"}},{"type":"node","id":1617938653,"lat":38.0004358,"lon":23.7321881,"tags":{"addr:city":"\u0391\u03b8\u03ae\u03bd\u03b1","addr:country":"GR","addr:housenumber":"66","addr:postcode":"11252","addr:street":"\u0391\u03b3\u03af\u03bf\u03c5 \u039c\u03b5\u03bb\u03b5\u03c4\u03af\u03bf\u03c5"}},{"type":"node","id":4739500955,"lat":38.0004184,"lon":23.7324239,"tags":{"addr:city":"\u0391\u03b8\u03ae\u03bd\u03b1","addr:housenumber":"2","addr:street":"\u03a3\u03cc\u03c1\u03bf\u03b2\u03b9\u03c4\u03c2"}},{"type":"node","id":5200303840,"lat":38.0009706,"lon":23.7327446,"tags":{"amenity":"restaurant","cuisine":"greek","name":"\u03a4\u03c1\u03af\u03c3\u03c4\u03bf\u03b9\u03c7\u03bf"}},{"type":"node","id":6540932243,"lat":38.0003389,"lon":23.7324045,"tags":{"addr:city":"\u0391\u03b8\u03ae\u03bd\u03b1","addr:housenumber":"62","addr:street":"\u0391\u03b3\u03af\u03bf\u03c5 \u039c\u03b5\u03bb\u03b5\u03c4\u03af\u03bf\u03c5","name":"Roudy","shop":"clothes"}},{"type":"node","id":7931425333,"lat":38.0003188,"lon":23.732594,"tags":{"addr:city":"\u0391\u03b8\u03ae\u03bd\u03b1","addr:housenumber":"60","addr:street":"\u0391\u03b3\u03af\u03bf\u03c5 \u039c\u03b5\u03bb\u03b5\u03c4\u03af\u03bf\u03c5","name":"\u03a0\u03b1\u03c1\u03b1\u03b4\u03bf\u03c3\u03b9\u03b1\u03ba\u03cc\u03bd","shop":"confectionery"}},{"type":"node","id":8096584312,"lat":38.0003293,"lon":23.732538,"tags":{"addr:city":"\u0391\u03b8\u03ae\u03bd\u03b1","addr:housenumber":"62","addr:street":"\u0391\u03b3\u03af\u03bf\u03c5 \u039c\u03b5\u03bb\u03b5\u03c4\u03af\u03bf\u03c5","name":"\u0393. \u03a0. \u03a4\u03c3\u03b9\u03c1\u03af\u03ba\u03bf\u03c2","shop":"chemist"}},{"type":"node","id":9492917587,"lat":38.0009762,"lon":23.7328532,"tags":{"name":"\u039d\u03cd\u03c7\u03bf\u03c5","shop":"beauty"}},{"type":"node","id":9629457669,"lat":38.0003675,"lon":23.7322283,"tags":{"addr:city":"\u0391\u03b8\u03ae\u03bd\u03b1","addr:housenumber":"66","addr:street":"\u0391\u03b3\u03af\u03bf\u03c5 \u039c\u03b5\u03bb\u03b5\u03c4\u03af\u03bf\u03c5","amenity":"cafe","cuisine":"coffee_shop","name":"Lana"}},{"type":"node","id":9732508736,"lat":38.0003723,"lon":23.7321829,"tags":{"addr:city":"\u0391\u03b8\u03ae\u03bd\u03b1","addr:housenumber":"66","addr:street":"\u0391\u03b3\u03af\u03bf\u03c5 \u039c\u03b5\u03bb\u03b5\u03c4\u03af\u03bf\u03c5","sex":"male","shop":"hairdresser"}},{"type":"node","id":9764186048,"lat":38.0003744,"lon":23.7321422,"tags":{"addr:city":"\u0391\u03b8\u03ae\u03bd\u03b1","addr:housenumber":"66","addr:street":"\u0391\u03b3\u03af\u03bf\u03c5 \u039c\u03b5\u03bb\u03b5\u03c4\u03af\u03bf\u03c5","shop":"mobile_phone"}},{"type":"node","id":9859147719,"lat":38.0009015,"lon":23.7324881,"tags":{"addr:city":"\u0391\u03b8\u03ae\u03bd\u03b1","addr:housenumber":"10","addr:street":"\u03a3\u03cc\u03c1\u03bf\u03b2\u03b9\u03c4\u03c2"}},{"type":"node","id":9859147720,"lat":38.0006985,"lon":23.7324881,"tags":{"addr:city":"\u0391\u03b8\u03ae\u03bd\u03b1","addr:housenumber":"6","addr:street":"\u03a3\u03cc\u03c1\u03bf\u03b2\u03b9\u03c4\u03c2"}},{"type":"node","id":9859151757,"lat":38.0009712,"lon":23.732354,"tags":{"addr:city":"\u0391\u03b8\u03ae\u03bd\u03b1","addr:housenumber":"11","addr:street":"\u03a3\u03cc\u03c1\u03bf\u03b2\u03b9\u03c4\u03c2"}}]}