{"version":0.6,"generator":"Overpass API 0.7.61.5 4133829e","osm3s":{"timestamp_osm_base":"2023-08-16T11:27:15Z","copyright":"The data included in this document is from www.openstreetmap.org. The data is made available under ODbL."},"elements":[{"type":"node","id":3946386512,"lat":38.0016907,"lon":23.7362233,"tags":{"addr:city":"\u0391\u03b8\u03ae\u03bd\u03b1","addr:housenumber":"12","addr:postcode":"11257","addr:street":"\u039c\u03b7\u03b8\u03cd\u03bc\u03bd\u03b7\u03c2","name":"\u0393\u03ba\u03b1\u03bb\u03b5\u03c1\u03af \u0391\u03b3\u03ba\u03ac\u03b8\u03b9-\u039aarta\u03bb\u03bf\u03c2","shop":"art"}},{"type":"node","id":6513534036,"lat":38.0021127,"lon":23.7363893,"tags":{"highway":"stop"}},{"type":"node","id":8140544047,"lat":38.0022216,"lon":23.7360286,"tags":{"addr:city":"\u0391\u03b8\u03ae\u03bd\u03b1","addr:housenumber":"21","addr:postcode":"11257","addr:street":"\u03a4\u03b5\u03bd\u03ad\u03b4\u03bf\u03c5","addr:unit":"\u0392","name":"\u0391\u03a1\u03a3\u0399\u03a3, \u039d\u0395\u03a9\u039d \u03a7\u03a9\u03a1\u0391","office":"ngo","phone":"+302108611132","website":"http:\/\/www.arsis.gr\/"}},{"type":"node","id":9457107085,"lat":38.0016911,"lon":23.7364054,"tags":{"addr:city":"\u0391\u03b8\u03ae\u03bd\u03b1","addr:housenumber":"52","addr:postcode":"11361","addr:street":"\u0395\u03c0\u03c4\u03b1\u03bd\u03ae\u03c3\u03bf\u03c5"}},{"type":"node","id":9457107086,"lat":38.0017537,"lon":23.7362735,"tags":{"addr:city":"\u0391\u03b8\u03ae\u03bd\u03b1","addr:housenumber":"55","addr:postcode":"11257","addr:street":"\u0395\u03c0\u03c4\u03b1\u03bd\u03ae\u03c3\u03bf\u03c5"}},{"type":"node","id":10056172950,"lat":38.0017083,"lon":23.7361454,"tags":{"addr:city":"\u0391\u03b8\u03ae\u03bd\u03b1","addr:housenumber":"12","addr:street":"\u039c\u03b7\u03b8\u03cd\u03bc\u03bd\u03b7\u03c2"}},{"type":"node","id":10083532857,"lat":38.0019937,"lon":23.736236,"tags":{"addr:city":"\u0391\u03b8\u03ae\u03bd\u03b1","addr:housenumber":"26","addr:street":"\u03a4\u03b5\u03bd\u03ad\u03b4\u03bf\u03c5"}}]}