{"version":0.6,"generator":"Overpass API 0.7.61.5 4133829e","osm3s":{"timestamp_osm_base":"2023-08-16T11:31:29Z","copyright":"The data included in this document is from www.openstreetmap.org. The data is made available under ODbL."},"elements":[{"type":"node","id":661097553,"lat":38.0014495,"lon":23.7220933,"tags":{"addr:city":"\u0391\u03b8\u03ae\u03bd\u03b1","addr:country":"GR","addr:housenumber":"167","addr:postcode":"10445","addr:street":"\u0391\u03b3\u03af\u03bf\u03c5 \u039c\u03b5\u03bb\u03b5\u03c4\u03af\u03bf\u03c5"}},{"type":"node","id":661097564,"lat":38.0016277,"lon":23.7220512,"tags":{"addr:city":"\u0391\u03b8\u03ae\u03bd\u03b1","addr:country":"GR","addr:housenumber":"172","addr:postcode":"10445","addr:street":"\u0391\u03b3\u03af\u03bf\u03c5 \u039c\u03b5\u03bb\u03b5\u03c4\u03af\u03bf\u03c5"}},{"type":"node","id":661097567,"lat":38.0013955,"lon":23.7225211,"tags":{"addr:city":"\u0391\u03b8\u03ae\u03bd\u03b1","addr:country":"GR","addr:housenumber":"165","addr:postcode":"10445","addr:street":"\u0391\u03b3\u03af\u03bf\u03c5 \u039c\u03b5\u03bb\u03b5\u03c4\u03af\u03bf\u03c5"}},{"type":"node","id":661097570,"lat":38.0015921,"lon":23.7225038,"tags":{"addr:city":"\u0391\u03b8\u03ae\u03bd\u03b1","addr:country":"GR","addr:housenumber":"170","addr:postcode":"10445","addr:street":"\u0391\u03b3\u03af\u03bf\u03c5 \u039c\u03b5\u03bb\u03b5\u03c4\u03af\u03bf\u03c5"}},{"type":"node","id":1659512647,"lat":38.0013304,"lon":23.7224508,"tags":{"addr:city":"\u0391\u03b8\u03ae\u03bd\u03b1","addr:country":"GR","addr:housenumber":"136","addr:postcode":"10445","addr:street":"\u039b\u03b9\u03bf\u03c3\u03af\u03c9\u03bd"}},{"type":"node","id":1659512793,"lat":38.0011135,"lon":23.7222395,"tags":{"addr:city":"\u0391\u03b8\u03ae\u03bd\u03b1","addr:country":"GR","addr:housenumber":"183","addr:postcode":"10445","addr:street":"\u039b\u03b9\u03bf\u03c3\u03af\u03c9\u03bd"}},{"type":"node","id":1659512806,"lat":38.0014148,"lon":23.7222296,"tags":{"addr:city":"\u0391\u03b8\u03ae\u03bd\u03b1","addr:country":"GR","addr:housenumber":"189","addr:postcode":"10445","addr:street":"\u039b\u03b9\u03bf\u03c3\u03af\u03c9\u03bd"}},{"type":"node","id":1770458787,"lat":38.0016321,"lon":23.7224087,"tags":{"addr:city":"\u0391\u03b8\u03ae\u03bd\u03b1","addr:country":"GR","addr:housenumber":"138","addr:postcode":"10445","addr:street":"\u039b\u03b9\u03bf\u03c3\u03af\u03c9\u03bd"}},{"type":"node","id":2546948760,"lat":38.0012105,"lon":23.7222363,"tags":{"addr:city":"\u0391\u03b8\u03ae\u03bd\u03b1","addr:country":"GR","addr:housenumber":"185","addr:postcode":"10445","addr:street":"\u039b\u03b9\u03bf\u03c3\u03af\u03c9\u03bd"}},{"type":"node","id":2546948766,"lat":38.0010791,"lon":23.7222051,"tags":{"addr:city":"\u0391\u03b8\u03ae\u03bd\u03b1","addr:country":"GR","addr:housenumber":"2","addr:postcode":"10445","addr:street":"\u03a3\u03b7\u03bb\u03c5\u03b2\u03c1\u03af\u03b1\u03c2"}},{"type":"node","id":2546948790,"lat":38.0010954,"lon":23.7221066,"tags":{"addr:city":"\u0391\u03b8\u03ae\u03bd\u03b1","addr:country":"GR","addr:housenumber":"4","addr:postcode":"10445","addr:street":"\u03a3\u03b7\u03bb\u03c5\u03b2\u03c1\u03af\u03b1\u03c2"}},{"type":"node","id":2546948794,"lat":38.0011117,"lon":23.7220084,"tags":{"addr:city":"\u0391\u03b8\u03ae\u03bd\u03b1","addr:country":"GR","addr:housenumber":"6","addr:postcode":"10445","addr:street":"\u03a3\u03b7\u03bb\u03c5\u03b2\u03c1\u03af\u03b1\u03c2"}},{"type":"node","id":2546948812,"lat":38.0011295,"lon":23.7219003,"tags":{"addr:city":"\u0391\u03b8\u03ae\u03bd\u03b1","addr:country":"GR","addr:housenumber":"8","addr:postcode":"10445","addr:street":"\u03a3\u03b7\u03bb\u03c5\u03b2\u03c1\u03af\u03b1\u03c2"}},{"type":"node","id":2638326661,"lat":38.0016023,"lon":23.7225767,"tags":{"addr:city":"\u0391\u03b8\u03ae\u03bd\u03b1","addr:country":"GR","addr:housenumber":"1","addr:postcode":"10445","addr:street":"\u03a0\u03b1\u03c1\u03b1\u03c3\u03ba\u03b5\u03c5\u03bf\u03c0\u03bf\u03cd\u03bb\u03bf\u03c5"}},{"type":"node","id":2638326778,"lat":38.001626,"lon":23.7227086,"tags":{"addr:city":"\u0391\u03b8\u03ae\u03bd\u03b1","addr:country":"GR","addr:housenumber":"2","addr:postcode":"10445","addr:street":"\u03a0\u03b1\u03c1\u03b1\u03c3\u03ba\u03b5\u03c5\u03bf\u03c0\u03bf\u03cd\u03bb\u03bf\u03c5"}},{"type":"node","id":4998450869,"lat":38.0013772,"lon":23.7220874,"tags":{"addr:city":"\u0391\u03b8\u03ae\u03bd\u03b1","addr:street":"\u039b\u03b9\u03bf\u03c3\u03af\u03c9\u03bd","name":"Bike Station","shop":"bicycle"}},{"type":"node","id":6166161474,"lat":38.0014483,"lon":23.7223932,"tags":{"amenity":"fast_food","brand":"\u0393\u03c1\u03b7\u03b3\u03cc\u03c1\u03b7\u03c2","brand:el":"\u0393\u03c1\u03b7\u03b3\u03cc\u03c1\u03b7\u03c2","brand:en":"Gregory's","brand:wikidata":"Q62273834","cuisine":"sandwich","name":"\u0393\u03c1\u03b7\u03b3\u03cc\u03c1\u03b7\u03c2","name:el":"\u0393\u03c1\u03b7\u03b3\u03cc\u03c1\u03b7\u03c2","name:en":"Gregory's","takeaway":"yes"}},{"type":"node","id":6402054944,"lat":38.0010774,"lon":23.7222327,"tags":{"name":"Naka Motoparts","shop":"motorcycle_repair"}},{"type":"node","id":6466864759,"lat":38.0016064,"lon":23.7221669,"tags":{"amenity":"fast_food","name":"Dream Land"}},{"type":"node","id":7343290563,"lat":38.0014446,"lon":23.7223054,"tags":{"highway":"traffic_signals","traffic_signals":"signal","traffic_signals:direction":"backward"}},{"type":"node","id":7343290564,"lat":38.0015964,"lon":23.7222937,"tags":{"highway":"traffic_signals","traffic_signals":"signal","traffic_signals:direction":"forward"}},{"type":"node","id":7343290565,"lat":38.0015073,"lon":23.7224041,"tags":{"highway":"traffic_signals","traffic_signals":"signal","traffic_signals:direction":"forward"}},{"type":"node","id":7343290566,"lat":38.0015304,"lon":23.7222002,"tags":{"highway":"traffic_signals","traffic_signals":"signal","traffic_signals:direction":"backward"}},{"type":"node","id":10078597089,"lat":38.0015272,"lon":23.7222288,"tags":{"crossing":"traffic_signals","highway":"crossing"}},{"type":"node","id":10078597090,"lat":38.0015113,"lon":23.7223701,"tags":{"crossing":"traffic_signals","highway":"crossing"}},{"type":"node","id":10078597091,"lat":38.0015746,"lon":23.7222961,"tags":{"crossing":"traffic_signals","highway":"crossing"}},{"type":"node","id":10078597092,"lat":38.0014668,"lon":23.7223044,"tags":{"crossing":"traffic_signals","highway":"crossing"}},{"type":"node","id":10975218920,"lat":38.0013192,"lon":23.7222204,"tags":{"addr:city":"\u0391\u03b8\u03ae\u03bd\u03b1","addr:housenumber":"187","addr:street":"\u039b\u03b9\u03bf\u03c3\u03af\u03c9\u03bd","name":"Sirios sofa","shop":"furniture"}}]}