{"version":0.6,"generator":"Overpass API 0.7.62.5 1bd436f1","osm3s":{"timestamp_osm_base":"2025-03-11T07:38:35Z","timestamp_areas_base":"2025-02-06T02:17:44Z","copyright":"The data included in this document is from www.openstreetmap.org. The data is made available under ODbL."},"elements":[{"type":"way","id":439271467,"nodes":[4369008265,4369008246,4369008236,4369008234,9262386676,4369008227,4369008225,4369008224,4369008221,4369008220,4369008215,4369008212,4369008209,4369008205,4369008203,4369008198,4369008194,7859076441,7859076392,4369008193,4369008199,4369008195,4369008188,6131131022,4369008179,4369008175,4369008165,4369008149,4369008133,4369008121,4369008118,4369008115,4369008112,4369008109,4369008105,4369008104,4369008106,4369008108,4369008103,7799940419,4369008100,4369008099,4369008097,4369008096,4369008098,4369008101,4369008102,4369008107,4369008110,4369008113,4369008120,4369008122,7394381024,4369008128,4369008143,4369008151,4369008183,4816172926,4369008190,4369008197,4369008206,4369008218,4369008235,4369008252,4369008275,4369008280,4369008279,4369008282,4369008281,4369008286,4369008294,4369008298,4369008303,4369008304,4369008305,4369008295,4369008270,4369008265],"tags":{"description":"Rozleg\u0142y region, ograniczony od zach. dolin\u0105 Warty, zdominowany przez r\u00f3wninne krajobrazy peryglacjalne, z udzia\u0142em krajobraz\u00f3w wzg\u00f3rzowych w cz\u0119\u015bci centralnej. W cz\u0119\u015bci pn. r\u00f3wnie\u017c p\u0142aty r\u00f3wninnych krajobraz\u00f3w fluwioglacjalnych oraz pag\u00f3","name":"Wysoczyzna \u0141aska","ref":"318.19"}},{"type":"way","id":1215877024,"nodes":[11265569851,12106431068,12106431000,12106430999,12106431839,12106432071,12106432072,12106431864,11265569857,12106432470,11265569853,12106430568,12106430569,12106432364,12106432367,12106432257,1885143699,4529087689,1885143715,3351429454,1885143722,1885143739,12106432305,12106432396,12106432368,12106431313,12106432397,12106430501,1885143772,12106431388,1885143778,12106431389,12106431832,12106431834,12106431833,12106431830,12106431831,12106431378,10167712494,12106406600,1885143790,12106431305,12106431307,12106431329,12106430930,12309385707,12106431328,12106431641,12106431644,10167712496,4079700815,4079700806,1468475599,12106431081,12106431124,1468475624,12106431120,12106431062,12106431066,12106431065,12106431063,12106431055,1468476001,11265569851],"tags":{"check_date":"2023-10-15","landuse":"construction","name":"Przebudowa dworca \u0141\u00f3d\u017a Kaliska"}},{"type":"area","id":3600049715,"tags":{"ISO3166-1":"PL","ISO3166-1:alpha2":"PL","ISO3166-1:alpha3":"POL","ISO3166-1:numeric":"616","TMC:cid_58:tabcd_1:Class":"Area","TMC:cid_58:tabcd_1:LCLversion":"8.00","TMC:cid_58:tabcd_1:LocationCode":"8","admin_level":"2","alt_name:ar":"\u0628\u0648\u0644\u0648\u0646\u064a\u0627","alt_name:eo":"Polio;Polujo","boundary":"administrative","currency":"PLN","daytime_headlight":"yes","default_language":"pl","driving_side":"right","flag":"https:\/\/upload.wikimedia.org\/wikipedia\/commons\/1\/12\/Flag_of_Poland.svg","int_name":"Polska","long_name:ar":"Rzeczpospolita Polska","name":"Polska","name:ab":"\u041f\u043e\u043b\u0448\u0430","name:ace":"Polandia","name:af":"Pole","name:ak":"Poland","name:als":"Polen","name:am":"\u1356\u120b\u1295\u12f5","name:an":"Polonia","name:ang":"Polaland","name:ar":"\u0628\u0648\u0644\u0646\u062f\u0627","name:arc":"\u0726\u0718\u0720\u0722\u0715","name:arz":"\u0628\u0648\u0644\u0627\u0646\u062f\u0627","name:ast":"Polonia","name:ay":"Pulu\u00f1a","name:az":"Pol\u015fa","name:ba":"\u041f\u043e\u043b\u044c\u0448\u0430","name:bar":"Poin","name:bat-smg":"L\u0117nk\u0117j\u0117","name:bcl":"Polonya","name:be":"\u041f\u043e\u043b\u044c\u0448\u0447\u0430","name:be-tarask":"\u041f\u043e\u043b\u044c\u0448\u0447\u0430","name:bg":"\u041f\u043e\u043b\u0448\u0430","name:bi":"Poland","name:bn":"\u09aa\u09cb\u09b2\u09cd\u09af\u09be\u09a8\u09cd\u09a1","name:bo":"\u0f55\u0f7c\u0f0b\u0f63\u0f53\u0f0d","name:bpy":"\u09aa\u09cb\u09b2\u09cd\u09af\u09be\u09a8\u09cd\u09a1","name:br":"Polonia","name:bs":"Poljska","name:bxr":"\u041f\u043e\u043b\u044c\u0448","name:ca":"Pol\u00f2nia","name:cdo":"P\u014f\u0324-l\u00e0ng","name:ce":"\u041f\u043e\u043b\u044c\u0448\u0430","name:ceb":"Polonya","name:chr":"\u13c9\u13b3\u13c2","name:chy":"Poland","name:ckb":"\u067e\u06c6\u06b5\u06d5\u0646\u062f\u0627","name:cnr":"Poljska","name:co":"Polonia","name:crh":"Lehistan","name:cs":"Polsko","name:csb":"P\u00f2lsk\u00f4","name:cu":"\u041f\u043e\u043b\u0484\u044c\u0441\u043a\u0430","name:cv":"\u041f\u043e\u043b\u044c\u0448\u0430","name:cy":"Gwlad Pwyl","name:da":"Polen","name:dative":"Polsce","name:de":"Polen","name:diq":"Polonya","name:dsb":"P\u00f3lska","name:dv":"\u0795\u07ae\u078d\u07ac\u0782\u07b0\u0791\u07aa","name:ee":"Poland","name:el":"\u03a0\u03bf\u03bb\u03c9\u03bd\u03af\u03b1","name:eml":"Pul\u00f3gna","name:en":"Poland","name:eo":"Pollando","name:es":"Polonia","name:et":"Poola","name:eu":"Polonia","name:ext":"Polo\u00f1a","name:fa":"\u0644\u0647\u0633\u062a\u0627\u0646","name:ff":"Poloonya","name:fi":"Puola","name:fo":"P\u00f3lland","name:fr":"Pologne","name:frp":"Pologne","name:frr":"Poolen","name:fur":"Polonie","name:fy":"Poalen","name:ga":"An Pholainn","name:gag":"Pol\u015fa","name:gan":"\u6ce2\u862d","name:gd":"A' Ph\u00f2lainn","name:gl":"Polonia","name:gn":"Polo\u00f1a","name:gu":"\u0aaa\u0acb\u0ab2\u0ac7\u0a82\u0aa1","name:gv":"Yn Pholynn","name:ha":"Poland","name:hak":"P\u00f4-l\u00e0n","name:haw":"P\u014dlani","name:he":"\u05e4\u05d5\u05dc\u05d9\u05df","name:hi":"\u092a\u094b\u0932\u0948\u0902\u0921","name:hif":"Poland","name:hr":"Poljska","name:hsb":"P\u00f3lska","name:ht":"Pol\u00f2y","name:hu":"Lengyelorsz\u00e1g","name:hy":"\u053c\u0565\u0570\u0561\u057d\u057f\u0561\u0576","name:ia":"Polonia","name:id":"Polandia","name:ie":"Polonia","name:ig":"Poland","name:ilo":"Polonia","name:io":"Polonia","name:is":"P\u00f3lland","name:it":"Polonia","name:iu":"\u1433\u14da\u14d0\u1466","name:ja":"\u30dd\u30fc\u30e9\u30f3\u30c9","name:jbo":"polskas","name:jv":"Polandia","name:ka":"\u10de\u10dd\u10da\u10dd\u10dc\u10d4\u10d7\u10d8","name:kaa":"Polsha","name:kab":"Bulunda","name:kbd":"\u041b\u0430\u0445\u044c \u0436\u044b\u043b\u044d","name:kg":"Pologne","name:kk":"\u041f\u043e\u043b\u044c\u0448\u0430","name:kl":"Poleni","name:km":"\u1794\u17d2\u179a\u1791\u17c1\u179f\u1794\u17c9\u17bc\u17a1\u17bc\u1789","name:kn":"\u0caa\u0ccb\u0cb2\u0cc6\u0c82\u0ca1\u0ccd","name:ko":"\ud3f4\ub780\ub4dc","name:koi":"\u041f\u043e\u043b\u044c\u0441\u043a\u0430","name:krc":"\u041f\u043e\u043b\u044c\u0448\u0430","name:ku":"Polonya","name:kv":"\u041f\u043e\u043b\u044c\u0448\u0430","name:kw":"Poloni","name:ky":"\u041f\u043e\u043b\u044c\u0448\u0430","name:la":"Polonia","name:lad":"Polonia","name:lb":"Polen","name:lez":"\u041f\u043e\u043b\u044c\u0448\u0430","name:lg":"Bupoolo","name:li":"Pole","name:lij":"Polonia","name:lmo":"Pul\u00f2nia","name:ln":"Poloni","name:lt":"Lenkija","name:ltg":"Puoleja","name:lv":"Polija","name:lzh":"\u6ce2\u862d","name:map-bms":"Polandia","name:mdf":"\u041f\u043e\u043b\u0435\u043d\u044c \u043c\u0430\u0441\u0442\u043e\u0440","name:mg":"Polonia","name:mhr":"\u041f\u043e\u043b\u044c\u0448\u043e","name:mi":"P\u014drana","name:mk":"\u041f\u043e\u043b\u0441\u043a\u0430","name:ml":"\u0d2a\u0d4b\u0d33\u0d23\u0d4d\u0d1f\u0d4d","name:mn":"\u041f\u043e\u043b\u044c\u0448","name:mr":"\u092a\u094b\u0932\u0902\u0921","name:mrj":"\u041f\u043e\u043b\u044c\u0448\u0430","name:ms":"Poland","name:mt":"Polonja","name:mwl":"Pol\u00f3nia","name:my":"\u1015\u102d\u102f\u101c\u1014\u103a\u1014\u102d\u102f\u1004\u103a\u1004\u1036","name:mzn":"\u0644\u0647\u0633\u062a\u0648\u0646","name:na":"Poran","name:nah":"Polonia","name:nan":"Polska","name:nan-Hans":"\u6ce2\u862d","name:nan-Latn-pehoeji":"Polska","name:nan-Latn-tailo":"P\u00f3-l\u00e2n","name:nap":"Pulonnia","name:nds":"Polen","name:nds-nl":"Pooln","name:ne":"\u092a\u094b\u0932\u094d\u092f\u093e\u0923\u094d\u0921","name:nl":"Polen","name:nn":"Polen","name:no":"Polen","name:nov":"Polonia","name:nrm":"Polongne","name:nv":"P\u00f3olish Dine\u02bc\u00e9 Bik\u00e9yah","name:oc":"Polonha","name:or":"\u0b2a\u0b4b\u0b32\u0b3e\u0b23\u0b4d\u0b21","name:os":"\u041f\u043e\u043b\u044c\u0448\u00e6","name:pa":"\u0a2a\u0a4b\u0a32\u0a48\u0a02\u0a21","name:pam":"Polonya","name:pap":"Polonia","name:pcd":"Polonne","name:pdc":"Polen","name:pfl":"Pole","name:pih":"Poeland","name:pl":"Polska","name:pms":"Pol\u00f2nia","name:pnb":"\u067e\u0648\u0644\u06cc\u0646\u0688","name:pnt":"\u03a0\u03bf\u03bb\u03c9\u03bd\u03af\u03b1","name:ps":"\u067e\u0648\u0644\u0646\u0689","name:pt":"Pol\u00f3nia","name:qu":"Pulunya","name:rm":"Pologna","name:rmy":"Polska","name:rn":"Polonia","name:ro":"Polonia","name:roa-tara":"Pulonie","name:ru":"\u041f\u043e\u043b\u044c\u0448\u0430","name:rue":"\u041f\u043e\u043b\u044c\u0441\u043a\u043e","name:rw":"Polonye","name:sa":"\u092a\u094b\u0932\u0948\u0902\u0921","name:sah":"\u041f\u043e\u043b\u044c\u0448\u0430","name:sc":"Polonia","name:scn":"Pulonia","name:sco":"Poland","name:se":"Polska","name:sg":"P\u00f6l\u00f4ni","name:sh":"Poljska","name:si":"\u0db4\u0ddd\u0dbd\u0db1\u0dca\u0dad\u0dba","name:sk":"Po\u013esko","name:sl":"Poljska","name:sm":"Polagi","name:smn":"Puola","name:sms":"Puola","name:so":"Boland","name:sq":"Polonia","name:sr":"\u041f\u043e\u0459\u0441\u043a\u0430","name:ss":"IPholandi","name:st":"Poland","name:stq":"Polen","name:su":"Polandia","name:sv":"Polen","name:sw":"Poland","name:szl":"Polska","name:ta":"\u0baa\u0bcb\u0bb2\u0ba8\u0bcd\u0ba4\u0bc1","name:te":"\u0c2a\u0c4b\u0c32\u0c3e\u0c02\u0c21\u0c4d","name:tet":"Pol\u00f3nia","name:tg":"\u041b\u0430\u04b3\u0438\u0441\u0442\u043e\u043d","name:th":"\u0e1b\u0e23\u0e30\u0e40\u0e17\u0e28\u0e42\u0e1b\u0e41\u0e25\u0e19\u0e14\u0e4c","name:tk":"Pol\u015fa","name:tl":"Polonya","name:tok":"ma Posuka","name:tpi":"Polan","name:tr":"Polonya","name:tt":"\u041f\u043e\u043b\u044c\u0448\u0430","name:tzl":"Polognh","name:udm":"\u041f\u043e\u043b\u044c\u0448\u0430","name:ug":"\u067e\u0648\u0644\u0634\u0627","name:uk":"\u041f\u043e\u043b\u044c\u0449\u0430","name:ur":"\u067e\u0648\u0644\u06cc\u0646\u0688","name:uz":"Polsha","name:vec":"Po\u0142onia","name:vep":"Pol'\u0161anma","name:vi":"Ba Lan","name:vls":"Pooln","name:vo":"Pol\u00e4n","name:vro":"Poola","name:wa":"Pologne","name:war":"Polonya","name:wo":"Polo\u00f1","name:wuu":"\u6ce2\u5170","name:xal":"\u041f\u043e\u043b\u044c\u0448\u0438\u043d \u041e\u0440\u043d","name:xmf":"\u10de\u10dd\u10da\u10dd\u10dc\u10d4\u10d7\u10d8","name:yi":"\u05e4\u05d5\u05d9\u05dc\u05df","name:yo":"Polandi","name:yue":"\u6ce2\u862d","name:zea":"Po\u00f4l'n","name:zh":"\u6ce2\u5170 \/ \u6ce2\u862d","name:zh-Hans":"\u6ce2\u5170","name:zh-Hant":"\u6ce2\u862d","name:zu":"IPolandi","official_name":"Rzeczpospolita Polska","official_name:ar":"\u0627\u0644\u062c\u0645\u0647\u0648\u0631\u064a\u0629 \u0627\u0644\u0628\u0648\u0644\u0646\u062f\u064a\u0629","official_name:be":"\u0420\u044d\u0441\u043f\u0443\u0431\u043b\u0456\u043a\u0430 \u041f\u043e\u043b\u044c\u0448\u0447\u0430","official_name:be-tarask":"\u0420\u044d\u0441\u043f\u0443\u0431\u043b\u0456\u043a\u0430 \u041f\u043e\u043b\u044c\u0448\u0447\u0430","official_name:ca":"Rep\u00fablica de Pol\u00f2nia","official_name:cnr":"Republika Poljska","official_name:cs":"Polsk\u00e1 republika","official_name:de":"Republik Polen","official_name:el":"\u0394\u03b7\u03bc\u03bf\u03ba\u03c1\u03b1\u03c4\u03af\u03b1 \u03c4\u03b7\u03c2 \u03a0\u03bf\u03bb\u03c9\u03bd\u03af\u03b1\u03c2","official_name:en":"Republic of Poland","official_name:eo":"Pola Respubliko","official_name:es":"Rep\u00fablica de Polonia","official_name:fi":"Puolan tasavalta","official_name:fr":"R\u00e9publique de Pologne","official_name:mi":"Whenua P\u014drana","official_name:pl":"Rzeczpospolita Polska","official_name:ru":"\u0420\u0435\u0441\u043f\u0443\u0431\u043b\u0438\u043a\u0430 \u041f\u043e\u043b\u044c\u0448\u0430","official_name:sr":"\u0420\u0435\u043f\u0443\u0431\u043b\u0438\u043a\u0430 \u041f\u043e\u0459\u0441\u043a\u0430","old_name:is":"Sl\u00e9ttumannaland","short_name":"RP","short_name:be":"\u0420\u041f","source":"geoportal.gov.pl;PRG;Urz\u0105d Morski w Gdyni;Ustawa o obszarach morskich Rzeczypospolitej Polskiej i Administracji Morskiej;Act on maritime areas of the Republic of Poland and Maritime Administration;United Nations Convention on the Law of the Sea","teryt:terc":"1","timezone":"Europe\/Warsaw","type":"boundary","wikidata":"Q36","wikipedia":"pl:Polska"}},{"type":"area","id":3600224458,"tags":{"ISO3166-2":"PL-10","admin_level":"4","boundary":"administrative","loc_ref":"E","name":"wojew\u00f3dztwo \u0142\u00f3dzkie","name:ar":"\u0645\u062d\u0627\u0641\u0638\u0629 \u0648\u0648\u062f\u062c","name:az":"Lodz voyevodlu\u011fu","name:azb":"\u0648\u0648\u0686 \u0648\u06cc\u0648\u0648\u062f\u0627\u0644\u06cc\u063a\u06cc","name:be":"\u041b\u043e\u0434\u0437\u0456\u043d\u0441\u043a\u0430\u0435 \u0432\u0430\u044f\u0432\u043e\u0434\u0441\u0442\u0432\u0430","name:be-tarask":"\u041b\u043e\u0434\u0437\u0456\u043d\u0441\u043a\u0430\u0435 \u0432\u0430\u044f\u0432\u043e\u0434\u0437\u0442\u0432\u0430","name:bg":"\u041b\u043e\u0434\u0437\u043a\u043e \u0432\u043e\u0439\u0432\u043e\u0434\u0441\u0442\u0432\u043e","name:bn":"\u09b2\u09cb\u099c \u09ad\u09af\u09bc\u09ad\u09cb\u09a1\u09c7\u09b6\u09bf\u09aa","name:bs":"Lodzko vojvodstvo","name:ca":"voivodat de \u0141\u00f3d\u017a","name:crh":"Luc voyevodal\u0131\u011f\u0131","name:cs":"Lod\u017esk\u00e9 vojvodstv\u00ed","name:csb":"\u0141\u00f3dzcz\u00e9 w\u00f2jew\u00f3dztw\u00f2","name:cy":"\u0141\u00f3d\u017a Voivodeship","name:da":"Voivodskabet \u0141\u00f3d\u017ask","name:de":"Woiwodschaft Lodz","name:el":"\u0392\u03bf\u03b5\u03b2\u03bf\u03b4\u03ac\u03c4\u03bf \u039b\u03bf\u03c4\u03b6","name:en":"\u0141\u00f3d\u017a Voivodeship","name:eo":"Lodza Provinco","name:es":"Voivodato de \u0141\u00f3d\u017a","name:et":"\u0141\u00f3d\u017ai vojevoodkond","name:eu":"Lodzeko voivoderria","name:fa":"\u0648\u06cc\u0648\u0648\u062f\u0647\u200c\u0644\u06cc\u0642 \u0648\u0648\u0686","name:fi":"\u0141\u00f3d\u017ain voivodikunta","name:fr":"Vo\u00efvodie de \u0141\u00f3d\u017a","name:frr":"Lodsch Prowins","name:gu":"\u0ab2\u0acb\u0aa1\u0acd\u0a9d \u0ab5\u0acb\u0a88\u0ab5\u0acb\u0aa6\u0ac7\u0ab6\u0ac0\u0aaa","name:gv":"Queiggey \u0141\u00f3d\u017a","name:he":"\u05dc\u05d5\u05d3\u05d6'","name:hi":"\u0932\u094c\u0921\u094d\u091c\u093c \u0935\u094b\u0908\u0935\u094b\u0921\u0940\u0936\u093f\u092a","name:hr":"Vojvodstvo Lodz","name:hsb":"\u0141\u00f3d\u017aske wojew\u00f3dstwo","name:hu":"\u0141\u00f3d\u017ai vajdas\u00e1g","name:hy":"\u053c\u0578\u0571\u056b \u057e\u0578\u0575\u0565\u057e\u0578\u0564\u0578\u0582\u0569\u0575\u0578\u0582\u0576","name:id":"Provinsi \u0141\u00f3d\u017a","name:io":"Provinco \u0141\u00f3d\u017a","name:is":"h\u00e9ra\u00f0i \u0141\u00f3d\u017a","name:it":"voivodato di \u0141\u00f3d\u017a","name:ja":"\u30a6\u30c3\u30c1\u770c","name:jv":"Provinsi Lodz","name:ka":"\u10da\u10dd\u10eb\u10d8\u10e1 \u10e1\u10d0\u10d5\u10dd\u10d4\u10d5\u10dd\u10d3\u10dd","name:kk":"\u041b\u043e\u0434\u0437\u044c \u0432\u043e\u0439\u0432\u043e\u0434\u0430\u043b\u044b\u0493\u044b","name:kk-Arab":"\u0644\u0648\u062f\u0632 \u06c6\u0648\u064a\u06c6\u0648\u062f\u0627\u0644\u0649\u0639\u0649","name:kk-Cyrl":"\u041b\u043e\u0434\u0437\u044c \u0432\u043e\u0439\u0432\u043e\u0434\u0430\u043b\u044b\u0493\u044b","name:kk-Latn":"Lodz voivodaly\u011fy","name:kn":"\u0cb2\u0ccb\u0ca1\u0ccd\u0c9c\u0ccd \u0cb5\u0cbe\u0caf\u0cbf\u0cb5\u0cca\u0ca1\u0cc6\u0cb6\u0cbf\u0caa\u0ccd","name:ko":"\uc6b0\uce58\uc8fc","name:ky":"\u041b\u043e\u0434\u0437 \u0432\u043e\u0435\u0432\u043e\u0434\u0434\u0443\u0433\u0443","name:ky-Arab":"\u0644\u0648\u062f\u0632 \u06cb\u0648\u06d5\u06cb\u0648\u062f\u062f\u06c7\u0639\u06c7","name:lo":"Voivodaa de \u0141\u00f3dz","name:lt":"Lodz\u0117s vaivadija","name:lv":"Lodzas vojevodiste","name:mk":"\u041b\u043e\u0453\u0441\u043a\u043e \u0412\u043e\u0458\u0432\u043e\u0434\u0441\u0442\u0432\u043e","name:mr":"\u0935\u0942\u0924\u094d\u0936\u094d\u0915\u093e \u092a\u094d\u0930\u093e\u0902\u0924","name:ms":"Wilayah Lodzkie","name:myv":"\u041b\u043e\u0434\u0437\u0438\u043d\u044d\u043d\u044c \u0432\u043e\u0435\u0432\u043e\u0434\u0441\u0442\u0432\u0430","name:nl":"Woiwodschap Lodz","name:nn":"\u0141\u00f3d\u017a-voivodskapet","name:no":"\u0141\u00f3d\u017a voivodskap","name:oc":"Vo\u00efvodia de Lodz","name:os":"\u041b\u043e\u0434\u0437\u044b \u0432\u043e\u0435\u0432\u043e\u0434\u00e6\u0439\u0430\u0434","name:ota":"\u0644\u0648\u062f\u0686 \u0648\u06cc\u0648\u0648\u062f\u0647\u200c\u0644\u06cc\u063a\u06cc","name:pap":"Voivodat di Lodz","name:pl":"wojew\u00f3dztwo \u0142\u00f3dzkie","name:pnb":"\u0635\u0648\u0628\u06c1 \u0644\u0648\u062f\u0632","name:ps":"\u0648\u0648\u062a\u0633\u06a9\u064a","name:pt":"Voivodia de \u0141\u00f3d\u017a","name:qu":"\u0141\u00f3d\u017a suyu","name:ro":"Voievodatul \u0141\u00f3d\u017a","name:ru":"\u041b\u043e\u0434\u0437\u0438\u043d\u0441\u043a\u043e\u0435 \u0432\u043e\u0435\u0432\u043e\u0434\u0441\u0442\u0432\u043e","name:scn":"Vuivudatu di \u0141\u00f3d\u017a","name:sco":"\u0141\u00f3d\u017a Voivodeship","name:sh":"Lodzko vojvodstvo","name:si":"\u0dbd\u0ddd\u0da9\u0dca\u0dc3\u0dca \u0db4\u0dca\u200d\u0dbb\u0dcf\u0db1\u0dca\u0dad\u0dba","name:sk":"Lod\u017esk\u00e9 vojvodstvo","name:sl":"Lodzsko vojvodstvo","name:sr":"\u0412\u043e\u0458\u0432\u043e\u0434\u0441\u0442\u0432\u043e \u041b\u043e\u0452","name:sv":"\u0141\u00f3d\u017a vojvodskap","name:szl":"\u0142\u014ddzke wojew\u014ddztwo","name:ta":"\u0bb2\u0bca\u0b9f\u0bcd\u0bb8\u0bcd \u0b93\u0baf\u0bcd\u0bb5\u0bcb\u0b9f\u0bc7\u0bb7\u0bbf\u0baa\u0bcd","name:te":"\u0c32\u0c4b\u0c21\u0c4d\u0c1c\u0c4d \u0c35\u0c4b\u0c2f\u0c3f\u0c35\u0c4b\u0c21\u0c46\u0c37\u0c3f\u0c2a\u0c4d","name:th":"\u0e08\u0e31\u0e07\u0e2b\u0e27\u0e31\u0e14\u0e27\u0e38\u0e0a","name:tr":"\u0141\u00f3d\u017a Voyvodal\u0131\u011f\u0131","name:tt":"\u041b\u0443\u0497 \u0432\u043e\u0435\u0432\u043e\u0434\u0430\u043b\u044b\u0433\u044b","name:ug":"\u06cb\u06c7\u0686 \u06cb\u0648\u064a\u06cb\u0648\u062f\u0627\u0644\u0649\u063a\u0649","name:uk":"\u041b\u043e\u0434\u0437\u044c\u043a\u0435 \u0432\u043e\u0454\u0432\u043e\u0434\u0441\u0442\u0432\u043e","name:ur":"\u0648\u0648\u0686 \u0635\u0648\u0628\u06c1","name:uz-Arab":"\u0648\u0648\u0686 \u0648\u06c9\u06cc\u0648\u06c9\u062f\u0647\u200c\u0644\u06cc\u063a\u06cc","name:vec":"Voivodato de \u0141\u00f3d\u017a","name:xmf":"\u10da\u10dd\u10eb\u10d8\u10e8 \u10e1\u10d0\u10d5\u10dd\u10d4\u10d5\u10dd\u10d3\u10d4","name:yi":"\u05dc\u05d0\u05d3\u05d6\u05e9\u05e2\u05e8 \u05d5\u05d5\u05d0\u05d9\u05e2\u05d5\u05d5\u05d0\u05d3\u05e2\u05e9\u05d0\u05e4\u05d8","name:zea":"Woiwodschap \u0141\u00f3d\u017a","name:zh-Hans":"\u7f57\u5179\u7701","name:zh-Hant":"\u7f85\u8332\u7701","population":"2378483","population:date":"2022-12-31","ref":"\u0141D","ref:nuts":"PL71","ref:nuts:2":"PL71","reg_name":"\u0141\u00f3dzkie","source:population":"https:\/\/stat.gov.pl\/download\/gfx\/portalinformacyjny\/pl\/defaultaktualnosci\/5515\/3\/17\/1\/rocznik_demograficzny_2023_zakladki_pl.pdf","teryt:terc":"10","type":"boundary","vehicle_plate_code:police":"HPF","vehicle_plate_code:prefix":"E","wikidata":"Q54158","wikipedia":"pl:Wojew\u00f3dztwo \u0142\u00f3dzkie"}},{"type":"area","id":3600936128,"tags":{"admin_level":"2","boundary":"land_area","land_area":"administrative","name":"Polska (l\u0105d)","name:de":"Polen (Landmasse)","name:en":"Poland (land mass)","name:eo":"Pollando (tero)","name:fr":"Pologne (terres)","name:ja":"\u30dd\u30fc\u30e9\u30f3\u30c9","name:pl":"Polska (l\u0105d)","name:ru":"\u041f\u043e\u043b\u044c\u0448\u0430 (\u0441\u0443\u0448\u0430)","name:uk":"\u041f\u043e\u043b\u044c\u0449\u0430 (\u0437\u0435\u043c\u043b\u044f)","source":"PRG","type":"boundary"}},{"type":"area","id":3601582777,"tags":{"admin_level":"8","boundary":"administrative","int_name":"Lodz","name":"\u0141\u00f3d\u017a","name:ar":"\u0648\u0648\u062f\u062c","name:be":"\u041b\u043e\u0434\u0437\u044c","name:cs":"Lod\u017e","name:dative":"\u0141odzi","name:de":"Lodz","name:eo":"Lodzo","name:pl":"\u0141\u00f3d\u017a","name:prefix":"miasto","name:ru":"\u041b\u043e\u0434\u0437\u044c","name:sk":"Lod\u017e","name:szl":"\u0141\u014dd\u017a","population":"667923","population:date":"2021-06-30","source:population":"stat.gov.pl","type":"boundary","wikidata":"Q580","wikipedia":"pl:\u0141\u00f3d\u017a"}},{"type":"area","id":3602410817,"tags":{"admin_level":"11","boundary":"administrative","name":"Zdrowie-Mania","name:prefix":"Osiedle","type":"boundary","wikidata":"Q9389534","wikipedia":"pl:Zdrowie-Mania"}},{"type":"area","id":3602413177,"tags":{"admin_level":"9","boundary":"administrative","name":"\u0141\u00f3d\u017a-Polesie","name:prefix":"Dzielnica","population":"131164","population:date":"2021","source:population":"stat.gov.pl","type":"boundary","wikidata":"Q4574196","wikipedia":"pl:Polesie (\u0141\u00f3d\u017a)"}},{"type":"area","id":3602413295,"tags":{"admin_level":"6","boundary":"administrative","name":"\u0141\u00f3d\u017a","name:ar":"\u0648\u0648\u062f\u062c","name:be":"\u041b\u043e\u0434\u0437\u044c","name:de":"Lodz","name:pl":"\u0141\u00f3d\u017a","name:prefix":"miasto na prawach powiatu","name:ru":"\u041b\u043e\u0434\u0437\u044c","name:sk":"Lod\u017e","name:uk":"\u041b\u043e\u0434\u0437\u044c","name:zh":"\u7f57\u5179","population":"711332","source:population":"http:\/\/stat.gov.pl\/obszary-tematyczne\/ludnosc\/ludnosc\/ludnosc-stan-i-struktura-ludnosci-oraz-ruch-naturalny-w-przekroju-terytorialnym-w-2013-r-stan-w-dniu-31-xii,6,12.html Tabela07.xls","teryt:terc":"1061","type":"boundary","vehicle_plate_code":"EL","wikidata":"Q580","wikipedia":"pl:\u0141\u00f3d\u017a"}},{"type":"area","id":3602907537,"tags":{"admin_level":"7","boundary":"administrative","name":"\u0141\u00f3d\u017a","name:ar":"\u0648\u0648\u062f\u062c","name:de":"Lodz","name:pl":"\u0141\u00f3d\u017a","name:prefix":"gmina miejska","name:ru":"\u041b\u043e\u0434\u0437\u044c","name:sk":"Lod\u017e","population":"667923","population:date":"2021-06-30","source:population":"https:\/\/www.polskawliczbach.pl\/Lodz","teryt:terc":"1061011","type":"boundary","wikidata":"Q580","wikipedia":"pl:\u0141\u00f3d\u017a"}},{"type":"area","id":3616478940,"tags":{"boundary":"political","name":"Okr\u0119g do Sejmu RP nr 9","official_name":"Okr\u0119g wyborczy do Sejmu Rzeczypospolitej Polskiej numer 9","political_division":"PL:sejm","ref":"9","type":"boundary","wikidata":"Q8081135","wikipedia":"pl:Okr\u0119g wyborczy nr 9 do Sejmu Rzeczypospolitej Polskiej"}},{"type":"area","id":3616819467,"tags":{"boundary":"timezone","name":"UTC+01:00 standard time","name:de":"UTC+01:00 Standardzeit","name:en":"UTC+01:00 standard time","name:mk":"\u0421\u0440\u0435\u0434\u043d\u043e\u0435\u0432\u0440\u043e\u043f\u0441\u043a\u043e \u0432\u0440\u0435\u043c\u0435 (UTC+01:00)","name:pl":"UTC+01:00 czas standardowy","note":"Work in progress.","type":"boundary","wikidata":"Q6655","wikipedia":"en:UTC+01:00"}},{"type":"area","id":3617255236,"tags":{"admin_level":"10","boundary":"administrative","name":"Zdrowie","name:prefix":"obszar Systemu Informacji Miejskiej","type":"boundary"}},{"type":"area","id":3617564459,"tags":{"admin_level":"3","boundary":"statistical","name":"Makroregion centralny","name:en":"Central Macroregion","name:pl":"Makroregion centralny","ref:nuts:1":"PL7","type":"boundary"}},{"type":"node","id":4369008122,"lat":51.5422361,"lon":18.8594184},{"type":"node","id":4369008151,"lat":51.6044881,"lon":18.793494},{"type":"node","id":7394381024,"lat":51.5600001,"lon":18.846688},{"type":"node","id":4369008128,"lat":51.5636345,"lon":18.8440796},{"type":"node","id":4369008143,"lat":51.5821893,"lon":18.8386684},{"type":"node","id":4369008098,"lat":51.3957005,"lon":19.0739138},{"type":"node","id":4369008096,"lat":51.3904107,"lon":19.1347657},{"type":"node","id":4369008097,"lat":51.3932086,"lon":19.1781397},{"type":"node","id":4369008107,"lat":51.472349,"lon":18.9673411},{"type":"node","id":4369008110,"lat":51.4847131,"lon":18.9398887},{"type":"node","id":4369008101,"lat":51.4181548,"lon":19.0319156},{"type":"node","id":4369008102,"lat":51.4555545,"lon":18.9900624},{"type":"node","id":4369008120,"lat":51.5285864,"lon":18.8958561},{"type":"node","id":4369008113,"lat":51.5070766,"lon":18.9284188},{"type":"node","id":4369008099,"lat":51.4036199,"lon":19.2139459},{"type":"node","id":4369008100,"lat":51.4085382,"lon":19.2395595},{"type":"node","id":4369008103,"lat":51.4577134,"lon":19.2911481},{"type":"node","id":7799940419,"lat":51.4576561,"lon":19.2910879},{"type":"node","id":4369008108,"lat":51.4738098,"lon":19.3240228},{"type":"node","id":4369008106,"lat":51.4722728,"lon":19.3613557},{"type":"node","id":4369008104,"lat":51.463548,"lon":19.4092912},{"type":"node","id":4369008105,"lat":51.4705682,"lon":19.442124},{"type":"node","id":4369008109,"lat":51.4838421,"lon":19.455974},{"type":"node","id":4369008121,"lat":51.5421498,"lon":19.326696},{"type":"node","id":4369008118,"lat":51.5231584,"lon":19.3747288},{"type":"node","id":4369008133,"lat":51.5731175,"lon":19.3154609},{"type":"node","id":4369008149,"lat":51.5992819,"lon":19.3202276},{"type":"node","id":4369008115,"lat":51.5149313,"lon":19.4150914},{"type":"node","id":4369008112,"lat":51.5033734,"lon":19.4515931},{"type":"node","id":4369008190,"lat":51.6894931,"lon":18.7165973},{"type":"node","id":4369008183,"lat":51.6707804,"lon":18.7501943},{"type":"node","id":4816172926,"lat":51.6728486,"lon":18.7464816},{"type":"node","id":4369008197,"lat":51.7116648,"lon":18.6909173},{"type":"node","id":4369008206,"lat":51.7401419,"lon":18.6710281},{"type":"node","id":4369008218,"lat":51.7825184,"lon":18.678004},{"type":"node","id":4369008235,"lat":51.8433362,"lon":18.7150853},{"type":"node","id":4369008252,"lat":51.8852441,"lon":18.7683684},{"type":"node","id":4369008275,"lat":51.9327323,"lon":18.7780358},{"type":"node","id":4369008280,"lat":51.9360673,"lon":18.8571317},{"type":"node","id":4369008279,"lat":51.9357844,"lon":18.9454836},{"type":"node","id":4369008282,"lat":51.9367693,"lon":19.0198516},{"type":"node","id":4369008281,"lat":51.9364627,"lon":19.106596},{"type":"node","id":4369008286,"lat":51.9421265,"lon":19.1499249},{"type":"node","id":4369008294,"lat":51.9517064,"lon":19.1898156},{"type":"node","id":4369008298,"lat":51.9634701,"lon":19.1992626},{"type":"node","id":4369008303,"lat":51.9727164,"lon":19.2296493},{"type":"node","id":4369008165,"lat":51.6315708,"lon":19.3510285},{"type":"node","id":4369008175,"lat":51.6507657,"lon":19.3879198},{"type":"node","id":4369008179,"lat":51.6636809,"lon":19.3678255},{"type":"node","id":6131131022,"lat":51.6664865,"lon":19.3671142},{"type":"node","id":4369008188,"lat":51.6841626,"lon":19.3626317},{"type":"node","id":4369008195,"lat":51.7088578,"lon":19.3796831},{"type":"node","id":4369008193,"lat":51.7048161,"lon":19.4462931},{"type":"node","id":4369008194,"lat":51.7051748,"lon":19.4761718},{"type":"node","id":7859076392,"lat":51.7051683,"lon":19.4756265},{"type":"node","id":7859076441,"lat":51.7051713,"lon":19.475884},{"type":"node","id":4369008199,"lat":51.7125622,"lon":19.4103602},{"type":"node","id":11265569853,"lat":51.7567515,"lon":19.4307821},{"type":"node","id":11265569857,"lat":51.7563924,"lon":19.4309693},{"type":"node","id":12106430568,"lat":51.756798,"lon":19.4307578},{"type":"node","id":12106430569,"lat":51.7568091,"lon":19.4307521},{"type":"node","id":12106431864,"lat":51.7565037,"lon":19.4312626},{"type":"node","id":12106432072,"lat":51.7565219,"lon":19.4313115},{"type":"node","id":12106432257,"lat":51.7568267,"lon":19.4307427},{"type":"node","id":12106432364,"lat":51.7568101,"lon":19.4307558},{"type":"node","id":12106432367,"lat":51.756827,"lon":19.430744},{"type":"node","id":12106432470,"lat":51.7567048,"lon":19.4308066},{"type":"node","id":1468476001,"lat":51.7567136,"lon":19.431697},{"type":"node","id":11265569851,"lat":51.7566746,"lon":19.4317206},{"type":"node","id":12106430999,"lat":51.7566287,"lon":19.4315976},{"type":"node","id":12106431000,"lat":51.7566401,"lon":19.4316283},{"type":"node","id":12106431055,"lat":51.7567186,"lon":19.4316938},{"type":"node","id":12106431062,"lat":51.7570478,"lon":19.4314523},{"type":"node","id":12106431063,"lat":51.7570311,"lon":19.4314646},{"type":"node","id":12106431065,"lat":51.7570303,"lon":19.4314615},{"type":"node","id":12106431066,"lat":51.7570471,"lon":19.43145},{"type":"node","id":12106431068,"lat":51.7566445,"lon":19.43164},{"type":"node","id":12106431120,"lat":51.7570668,"lon":19.4314383},{"type":"node","id":12106431839,"lat":51.7566194,"lon":19.4315728},{"type":"node","id":12106432071,"lat":51.7566098,"lon":19.4315469},{"type":"node","id":1468475599,"lat":51.7574081,"lon":19.431186},{"type":"node","id":1468475624,"lat":51.7570874,"lon":19.4314234},{"type":"node","id":1885143699,"lat":51.7572527,"lon":19.4305247},{"type":"node","id":1885143715,"lat":51.7574225,"lon":19.4304623},{"type":"node","id":1885143722,"lat":51.7574329,"lon":19.4305028},{"type":"node","id":1885143739,"lat":51.7575526,"lon":19.4304205},{"type":"node","id":1885143772,"lat":51.7582846,"lon":19.4299878},{"type":"node","id":1885143778,"lat":51.7582785,"lon":19.429955},{"type":"node","id":1885143790,"lat":51.7581263,"lon":19.4306184},{"type":"node","id":3351429454,"lat":51.7574273,"lon":19.4304812},{"type":"node","id":4079700806,"lat":51.7575644,"lon":19.4310781},{"type":"node","id":4079700815,"lat":51.7575578,"lon":19.4310532},{"type":"node","id":4529087689,"lat":51.7572656,"lon":19.4305717},{"type":"node","id":10167712494,"lat":51.7584914,"lon":19.4302935},{"type":"node","id":10167712496,"lat":51.7575525,"lon":19.431033},{"type":"node","id":12106406600,"lat":51.7581428,"lon":19.4306038},{"type":"node","id":12106430501,"lat":51.7579743,"lon":19.430145},{"type":"node","id":12106430930,"lat":51.7580648,"lon":19.430669},{"type":"node","id":12106431081,"lat":51.7571173,"lon":19.4314016},{"type":"node","id":12106431124,"lat":51.7571081,"lon":19.4314084},{"type":"node","id":12106431305,"lat":51.7581109,"lon":19.4306331},{"type":"node","id":12106431307,"lat":51.7580954,"lon":19.4306479},{"type":"node","id":12106431313,"lat":51.7579513,"lon":19.4301567},{"type":"node","id":12106431328,"lat":51.7580055,"lon":19.4307107},{"type":"node","id":12106431329,"lat":51.7580892,"lon":19.4306518},{"type":"node","id":12106431378,"lat":51.7584979,"lon":19.430313},{"type":"node","id":12106431388,"lat":51.7582837,"lon":19.4299832},{"type":"node","id":12106431389,"lat":51.7582953,"lon":19.4299467},{"type":"node","id":12106431641,"lat":51.7579713,"lon":19.4307347},{"type":"node","id":12106431644,"lat":51.7578755,"lon":19.43081},{"type":"node","id":12106431830,"lat":51.758586,"lon":19.4302584},{"type":"node","id":12106431831,"lat":51.7585043,"lon":19.4303324},{"type":"node","id":12106431832,"lat":51.7584141,"lon":19.429888},{"type":"node","id":12106431833,"lat":51.7590128,"lon":19.429867},{"type":"node","id":12106431834,"lat":51.758948,"lon":19.4296239},{"type":"node","id":12106432305,"lat":51.7578698,"lon":19.4302005},{"type":"node","id":12106432368,"lat":51.7579307,"lon":19.4301677},{"type":"node","id":12106432396,"lat":51.7579058,"lon":19.4301809},{"type":"node","id":12106432397,"lat":51.7579556,"lon":19.4301545},{"type":"node","id":12309385707,"lat":51.7580404,"lon":19.4306861},{"type":"node","id":4369008198,"lat":51.7117925,"lon":19.4872737},{"type":"node","id":4369008212,"lat":51.7564917,"lon":19.4966506},{"type":"node","id":4369008225,"lat":51.8131603,"lon":19.4146518},{"type":"node","id":4369008224,"lat":51.8109981,"lon":19.4335203},{"type":"node","id":4369008215,"lat":51.7712772,"lon":19.4891414},{"type":"node","id":4369008220,"lat":51.7870047,"lon":19.4839396},{"type":"node","id":4369008221,"lat":51.7965791,"lon":19.4702257},{"type":"node","id":4369008203,"lat":51.7212246,"lon":19.5077587},{"type":"node","id":4369008205,"lat":51.7335651,"lon":19.515562},{"type":"node","id":4369008209,"lat":51.7454864,"lon":19.5103308},{"type":"node","id":4369008227,"lat":51.8225632,"lon":19.3929264},{"type":"node","id":4369008234,"lat":51.8337215,"lon":19.386417},{"type":"node","id":9262386676,"lat":51.8325535,"lon":19.3870984},{"type":"node","id":4369008236,"lat":51.8458959,"lon":19.3892875},{"type":"node","id":4369008246,"lat":51.8739336,"lon":19.4018318},{"type":"node","id":4369008265,"lat":51.9112334,"lon":19.425118},{"type":"node","id":4369008295,"lat":51.9542415,"lon":19.3735319},{"type":"node","id":4369008304,"lat":51.9776774,"lon":19.300399},{"type":"node","id":4369008305,"lat":51.9786211,"lon":19.337898},{"type":"node","id":4369008270,"lat":51.9248819,"lon":19.4009995}]}