{"version":0.6,"generator":"Overpass API 0.7.62.5 1bd436f1","osm3s":{"timestamp_osm_base":"2025-03-12T13:14:00Z","copyright":"The data included in this document is from www.openstreetmap.org. The data is made available under ODbL."},"elements":[{"type":"node","id":316886524,"lat":52.2229052,"lon":21.0168778,"tags":{"addr:city":"Warszawa","addr:housenumber":"6","addr:postcode":"00-550","addr:street":"Plac Konstytucji","amenity":"bank","atm":"yes","brand":"Millennium Bank","brand:wikidata":"Q4855947","brand:wikipedia":"pl:Bank Millennium","check_date":"2022-07-29","millennium:date":"2009-09-14 14:49:45","millennium:ref":"20791","millennium:us\u0142ugi":"Millennium, Biznes, PRESTIGE, Centrum Finansowe","name":"Millennium Bank","opening_hours":"Mo-Fr 09:30-17:00","operator":"Millenium Bank S.A.","wheelchair":"yes"}},{"type":"node","id":935798853,"lat":52.2228262,"lon":21.0169121,"tags":{"addr:city":"Warszawa","addr:housenumber":"6","addr:street":"Plac Konstytucji","amenity":"atm","atm_ref":"ML1817B","brand":"Euronet","brand:wikidata":"Q5412010","brand:wikipedia":"en:Euronet Worldwide","cash_in":"yes","covered":"yes","millennium:date":"2009-05-21 17:13:02","millennium:network":"Millennium","millennium:ref":"18178","millennium:subtype":"Euronet","name":"Euronet","opening_hours":"24\/7","operator":"Euronet","operator:wikidata":"Q5412010","operator:wikipedia":"en:Euronet Worldwide","wheelchair":"yes"}},{"type":"node","id":2334295498,"lat":52.2232842,"lon":21.016962,"tags":{"barrier":"gate"}},{"type":"node","id":2334323726,"lat":52.2226503,"lon":21.0165911,"tags":{"natural":"tree"}},{"type":"node","id":2334323745,"lat":52.2228212,"lon":21.0165777,"tags":{"natural":"tree"}},{"type":"node","id":2334323752,"lat":52.2227128,"lon":21.0165563,"tags":{"natural":"tree"}},{"type":"node","id":2334323766,"lat":52.22267,"lon":21.0166582,"tags":{"natural":"tree"}},{"type":"node","id":2334323770,"lat":52.222882,"lon":21.0165402,"tags":{"leaf_type":"broadleaved","natural":"tree"}},{"type":"node","id":3159232857,"lat":52.2229316,"lon":21.017039,"tags":{"addr:city":"Warszawa","addr:housenumber":"6\/55","addr:postcode":"00-550","addr:street":"Plac Konstytucji","air_conditioning":"yes","amenity":"clinic","check_date":"2023-04-28","healthcare":"clinic","healthcare:speciality":"dermatology;plastic_surgery","level":"1","name":"Instytut Medycyny Estetycznej","opening_hours":"Mo-Fr 10:00-18:00","operator:type":"private","website":"https:\/\/www.instytutmedycynyestetycznej.pl","wheelchair":"limited"}},{"type":"node","id":9791016252,"lat":52.2231844,"lon":21.0167054,"tags":{"addr:city":"Warszawa","addr:housenumber":"6","addr:postcode":"00-550","addr:street":"Plac Konstytucji","check_date":"2022-07-29","email":"warszawa@goldenmark.com","name":"Goldenmark","opening_hours":"Mo-Fr 09:00-19:00; Sa 10:00-14:00","phone":"+48 22 266 85 46","shop":"jewelry","website":"https:\/\/goldenmark.com\/pl\/content\/warszawa","wheelchair":"yes"}},{"type":"node","id":9864954628,"lat":52.2230684,"lon":21.0167734,"tags":{"addr:city":"Warszawa","addr:housenumber":"6","addr:street":"Plac Konstytucji","amenity":"community_centre","check_date":"2022-07-29","name":"Bia\u0142oruski M\u0142odzie\u017cowy Hub","name:be":"\u0411\u0435\u043b\u0430\u0440\u0443\u0441\u043a\u0456 \u041c\u043e\u043b\u0430\u0434\u0437\u0435\u0432\u044b \u0425\u0430\u0431","name:en":"Belarusian Youth Hub","name:pl":"Bia\u0142oruski M\u0142odzie\u017cowy Hub","name:ru":"\u0411\u0435\u043b\u0430\u0440\u0443\u0441\u043a\u0438\u0439 \u041c\u043e\u043b\u043e\u0434\u0435\u0436\u043d\u044b\u0439 \u0425\u0430\u0431","phone":"+48 727 888 800","website":"http:\/\/bmhub.org\/","wheelchair":"yes"}},{"type":"node","id":9919766639,"lat":52.22268,"lon":21.0170137,"tags":{"addr:housenumber":"6","addr:street":"Plac Konstytucji","amenity":"dentist","brand":"Medicover","check_date":"2022-07-29","healthcare":"dentist","name":"Medicover Stomatologia","opening_hours":"Mo-Fr 08:00-20:00; Sa 08:00-14:00","wheelchair":"yes"}},{"type":"node","id":9919766644,"lat":52.2230058,"lon":21.0168129,"tags":{"addr:housenumber":"6","addr:street":"Plac Konstytucji","check_date":"2022-07-29","name":"Picador","opening_hours":"Mo-Fr 07:00-18:00; Sa 08:00-18:00; Su 08:00-16:00","shop":"bakery","wheelchair":"yes"}},{"type":"node","id":9919766645,"lat":52.2228427,"lon":21.0169001,"tags":{"amenity":"atm","brand":"Millennium Bank","brand:wikidata":"Q4855947","cash_in":"yes","check_date":"2025-03-01","covered":"yes","opening_hours":"24\/7","operator":"Millennium Bank","operator:wikidata":"Q4855947","wheelchair":"yes"}},{"type":"node","id":10647002829,"lat":52.2231048,"lon":21.0175289,"tags":{"access":"private","barrier":"gate"}},{"type":"node","id":10647002852,"lat":52.2231251,"lon":21.0174035,"tags":{"noexit":"yes"}},{"type":"node","id":10853116878,"lat":52.2232435,"lon":21.0171697,"tags":{"addr:housenumber":"21","addr:street":"Pi\u0119kna","check_date":"2024-10-11","level":"3","name":"Sen Pszczo\u0142y","tourism":"hotel"}},{"type":"node","id":10931461210,"lat":52.2232556,"lon":21.0165645,"tags":{"highway":"street_lamp"}},{"type":"node","id":10931461211,"lat":52.2231101,"lon":21.0165922,"tags":{"highway":"street_lamp"}},{"type":"node","id":10931461212,"lat":52.2229586,"lon":21.0166826,"tags":{"highway":"street_lamp"}},{"type":"node","id":10931461213,"lat":52.2228127,"lon":21.0167675,"tags":{"highway":"street_lamp"}},{"type":"node","id":10931461214,"lat":52.2226645,"lon":21.0168578,"tags":{"highway":"street_lamp"}},{"type":"node","id":11446056363,"lat":52.223207,"lon":21.0165956,"tags":{"information":"board","name":"Plac Konstytucji","tourism":"information"}},{"type":"node","id":11446056364,"lat":52.2231253,"lon":21.0166428,"tags":{"historic":"memorial","memorial":"plaque","name":"Lucjan Szenwald"}},{"type":"node","id":11450070755,"lat":52.2232764,"lon":21.0168447,"tags":{"information":"board","name":"Ulica Pi\u0119kna","tourism":"information"}},{"type":"node","id":12091704507,"lat":52.2230151,"lon":21.0167306,"tags":{"information":"board","name":"Kawiarnia Niespodzianka","tourism":"information"}}]}