{"version":0.6,"generator":"Overpass API 0.7.62.5 1bd436f1","osm3s":{"timestamp_osm_base":"2025-03-12T13:23:01Z","copyright":"The data included in this document is from www.openstreetmap.org. The data is made available under ODbL."},"elements":[{"type":"node","id":32629258,"lat":52.2233842,"lon":21.0157565,"tags":{"button_operated":"yes","crossing":"traffic_signals","crossing_ref":"zebra","highway":"crossing","tactile_paving":"yes","traffic_signals:sound":"yes","traffic_signals:vibration":"yes"}},{"type":"node","id":316886537,"lat":52.2233983,"lon":21.0162726,"tags":{"addr:city":"Warszawa","addr:floor":"G","addr:housenumber":"28\/34","addr:postcode":"00-547","addr:street":"Pi\u0119kna","alt_name":"Kentucky Fried Chicken","amenity":"fast_food","brand":"KFC","brand:wikidata":"Q524757","brand:wikipedia":"en:KFC","check_date":"2024-11-26","cuisine":"chicken","delivery":"yes","drive_through":"no","indoor_seating":"yes","level":"0","name":"KFC","opening_hours":"Mo-Th,Su 09:00-24:00; Fr-Sa 09:00-01:00","operator":"AmRest","outdoor_seating":"no","payment:contactless":"yes","payment:maestro":"yes","payment:mastercard":"yes","payment:v_pay":"yes","payment:visa":"yes","payment:visa_electron":"yes","phone":"+48 22 536 36 36","takeaway":"yes","website":"https:\/\/kfc.pl\/main\/home\/restaurant\/14","wheelchair":"yes"}},{"type":"node","id":316886543,"lat":52.2233192,"lon":21.0154584,"tags":{"button_operated":"yes","crossing":"traffic_signals","crossing_ref":"zebra","highway":"crossing","tactile_paving":"yes","traffic_signals:sound":"yes","traffic_signals:vibration":"yes"}},{"type":"node","id":1412975402,"lat":52.2234886,"lon":21.015493,"tags":{"name":"Plac Konstytucji 05","network":"ZTM Warszawa","network:wikidata":"Q8066998","operator":"Tramwaje Warszawskie","operator:wikidata":"Q9360809","public_transport":"stop_position","railway":"tram_stop","ref":"701105","shelter":"yes","tactile_paving":"yes","tactile_paving:slab_size":"40x40","tram":"yes"}},{"type":"node","id":1412975505,"lat":52.2233524,"lon":21.0156105,"tags":{"button_operated":"yes","crossing":"traffic_signals","crossing:island":"no","crossing_ref":"zebra","railway":"tram_crossing","tactile_paving":"yes","traffic_signals:sound":"yes","traffic_signals:vibration":"yes"}},{"type":"node","id":1412975506,"lat":52.2233626,"lon":21.0156575,"tags":{"button_operated":"yes","crossing":"traffic_signals","crossing:island":"no","crossing_ref":"zebra","railway":"tram_crossing","tactile_paving":"yes","traffic_signals:sound":"yes","traffic_signals:vibration":"yes"}},{"type":"node","id":1777913771,"lat":52.2236311,"lon":21.0159249,"tags":{"addr:city":"Warszawa","addr:housenumber":"56","addr:street":"Marsza\u0142kowska","amenity":"theatre","check_date":"2024-09-18","email":"bilety@teatrpolonia.pl","fax":"+48 22 892 04 57","name":"Polonia","official_name":"Teatr Polonia","opening_hours":"Mo-Sa 10:00-19:00; Su 12:00-19:00","phone":"+48 22 622 21 32","website":"https:\/\/teatrpolonia.pl","wheelchair":"yes","wikidata":"Q9356126","wikipedia":"pl:Teatr Polonia"}},{"type":"node","id":3426522976,"lat":52.2233485,"lon":21.0155928,"tags":{"barrier":"kerb","kerb":"flush","tactile_paving":"yes"}},{"type":"node","id":3426522980,"lat":52.223398,"lon":21.0158194,"tags":{"barrier":"kerb","kerb":"lowered","tactile_paving":"yes"}},{"type":"node","id":3717079197,"lat":52.2233077,"lon":21.0162565,"tags":{"barrier":"kerb","kerb":"lowered","tactile_paving":"yes"}},{"type":"node","id":6874965815,"lat":52.2236804,"lon":21.015897,"tags":{"addr:city":"Warszawa","addr:housenumber":"56","addr:street":"Marsza\u0142kowska","check_date":"2024-09-18","cuisine":"kebab","disused:amenity":"fast_food","name":"Dalaman Kebab","opening_hours":"24\/7","outdoor_seating":"yes","website":"https:\/\/www.liderkebab.pl\/lokal1","wheelchair":"limited"}},{"type":"node","id":6874965816,"lat":52.2235783,"lon":21.0160571,"tags":{"check_date":"2024-09-18","name":"Igie\u0142ka","opening_hours":"Mo-Th 10:30-17:30","shop":"tailor","wheelchair":"limited"}},{"type":"node","id":6874965817,"lat":52.223566,"lon":21.0159865,"tags":{"check_date":"2024-09-18","disused:shop":"kiosk","name":"Kolporter","wheelchair":"yes"}},{"type":"node","id":6874965818,"lat":52.2235468,"lon":21.0160341,"tags":{"barrier":"gate","foot":"yes"}},{"type":"node","id":7239067085,"lat":52.2234564,"lon":21.0164192,"tags":{"addr:city":"Warszawa","addr:housenumber":"28\/34","addr:postcode":"00-547","addr:street":"Pi\u0119kna","check_date":"2024-03-23","fee":"yes","museum":"history","name":"Muzeum \u017bycia w PRL","name:en":"Museum of Life Under Communism","opening_hours":"Mo-Th,Sa-Su 10:00-18:00; Fr 12:00-20:00","phone":"+ 48 511 044 808","tourism":"museum","website":"https:\/\/mzprl.pl\/","wheelchair":"limited"}},{"type":"node","id":8500805435,"lat":52.2237909,"lon":21.0156923,"tags":{"emergency":"fire_hydrant","fire_hydrant:diameter":"150","fire_hydrant:position":"sidewalk","fire_hydrant:type":"underground","water_source":"main"}},{"type":"node","id":8500805439,"lat":52.2234355,"lon":21.015905,"tags":{"emergency":"fire_hydrant","fire_hydrant:diameter":"150","fire_hydrant:position":"sidewalk","fire_hydrant:type":"underground","water_source":"main"}},{"type":"node","id":8917359787,"lat":52.2237462,"lon":21.0158583,"tags":{"addr:housenumber":"56","addr:street":"Marsza\u0142kowska","cannabis:cbd":"only","check_date":"2024-09-18","name":"E-Tabak","shop":"e-cigarette","wheelchair":"limited"}},{"type":"node","id":8917359788,"lat":52.2235139,"lon":21.0160129,"tags":{"addr:housenumber":"28\/34","addr:street":"Pi\u0119kna","amenity":"cafe","check_date":"2022-07-29","name":"Kawa Popularna","opening_hours":"Mo-Fr 08:00-18:00; Sa 11:00-16:00","takeaway":"only","wheelchair":"yes"}},{"type":"node","id":8917359789,"lat":52.2237614,"lon":21.0156778,"tags":{"advertising":"column"}},{"type":"node","id":8917359790,"lat":52.223829,"lon":21.0158049,"tags":{"addr:housenumber":"58","addr:street":"Marsza\u0142kowska","check_date":"2024-09-18","name":"Bracia Strzelczyk","office":"estate_agent","opening_hours":"Mo-Fr 09:00-19:00; Sa 09:00-14:00","wheelchair":"no"}},{"type":"node","id":8917359791,"lat":52.2233672,"lon":21.0160771,"tags":{"addr:housenumber":"28\/34","addr:street":"Pi\u0119kna","beauty":"nails","check_date":"2024-09-18","disused:shop":"beauty","name":"Pardon My French","opening_hours":"Mo-Fr 09:00-20:00; Sa 09:00-17:00; Su 10:00-17:00","wheelchair":"limited"}},{"type":"node","id":8917359793,"lat":52.2234104,"lon":21.0160538,"tags":{"addr:housenumber":"28\/34","addr:street":"Pi\u0119kna","brand":"Carrefour Express","brand:wikidata":"Q2940190","brand:wikipedia":"fr:Carrefour Express","check_date":"2024-09-18","name":"Carrefour Express","opening_hours":"Mo-Th,Su 06:00-23:00; Fr 06:00-24:00; Sa 00:00-24:00","shop":"convenience","wheelchair":"limited"}},{"type":"node","id":8917359800,"lat":52.223646,"lon":21.0158766,"tags":{"amenity":"atm","brand":"Euronet","brand:wikidata":"Q5412010","cash_in":"no","check_date":"2024-09-18","covered":"no","opening_hours":"24\/7","operator":"Euronet","operator:wikidata":"Q5412010","wheelchair":"yes"}},{"type":"node","id":8927686648,"lat":52.2233326,"lon":21.0155198,"tags":{"barrier":"kerb","kerb":"flush","tactile_paving":"yes"}},{"type":"node","id":9502756689,"lat":52.2239671,"lon":21.0155769,"tags":{"amenity":"vending_machine","operator":"ZDM Warszawa","ref":"G020509","vending":"parking_tickets"}},{"type":"node","id":9919680837,"lat":52.2235851,"lon":21.0159255,"tags":{"access":"yes","amenity":"bicycle_parking","bicycle_parking":"wall_loops","capacity":"3","covered":"no","fee":"no"}},{"type":"node","id":10682741193,"lat":52.2239378,"lon":21.0157317,"tags":{"addr:housenumber":"58","addr:street":"Marsza\u0142kowska","beauty":"skin_care;aesthetic;cosmetics;spa","check_date":"2024-09-18","name":"Dr Chlebus","opening_hours":"Mo-Fr 10:00-20:00","shop":"beauty","wheelchair":"yes"}},{"type":"node","id":10931504175,"lat":52.2234966,"lon":21.0154377,"tags":{"bench":"yes","bin":"yes","lit":"yes","name":"Plac Konstytucji 05","network":"ZTM Warszawa","operator":"Tramwaje Warszawskie","passenger_information_display":"yes","public_transport":"platform","ref":"701105","shelter":"yes","tactile_paving":"yes","tram":"yes","url":"https:\/\/www.wtp.waw.pl\/rozklady-jazdy\/?wtp_md=8&wtp_st=7011&wtp_pt=05"}},{"type":"node","id":11054394705,"lat":52.2238834,"lon":21.0157856,"tags":{"access":"customers","defibrillator:location":"Na \u015bcianie w salonie","defibrillator:location:en":"on the wall in the living room","emergency":"defibrillator","indoor":"yes","phone":"+48609504666"}}]}