{"version":0.6,"generator":"Overpass API 0.7.62.5 1bd436f1","osm3s":{"timestamp_osm_base":"2025-03-12T14:17:10Z","copyright":"The data included in this document is from www.openstreetmap.org. The data is made available under ODbL."},"elements":[{"type":"node","id":7134208290,"lat":52.2247777,"lon":21.0102235,"tags":{"addr:city":"Warszawa","addr:housenumber":"51","addr:street":"Ho\u017ca","amenity":"ice_cream","check_date":"2024-06-05","name":"T\u0142usty Kotek","name:en":"Tlusty Kotek","outdoor_seating":"yes"}},{"type":"node","id":10827707115,"lat":52.2253223,"lon":21.0105061,"tags":{"addr:housenumber":"43\/49","addr:street":"Ho\u017ca","amenity":"ice_cream","check_date":"2024-06-05","name":"-14","opening_hours":"12:30-18:30","outdoor_seating":"no","takeaway":"only","wheelchair":"no"}},{"type":"node","id":10827707123,"lat":52.2252968,"lon":21.0103918,"tags":{"addr:housenumber":"43\/49","addr:street":"Ho\u017ca","amenity":"cafe","check_date":"2024-06-05","name":"Dickery","opening_hours":"12:00-20:00","outdoor_seating":"yes","shop":"pastry","wheelchair":"no"}},{"type":"node","id":10827707124,"lat":52.2252615,"lon":21.010239,"tags":{"addr:housenumber":"43\/49","addr:street":"Ho\u017ca","check_date":"2024-06-05","name":"Edere","opening_hours":"Mo-Fr 08:00-17:00; Sa 08:00-16:00","shop":"bakery","wheelchair":"no"}},{"type":"node","id":10827707125,"lat":52.2252173,"lon":21.0100466,"tags":{"addr:housenumber":"43\/49","addr:street":"Ho\u017ca","check_date":"2024-06-05","name":"Sp\u00f3\u0142dzielnia Mieszkaniowa Idealne Mieszkanie Centrum","office":"property_management","opening_hours":"Mo 10:00-18:00; Tu-Fr 08:00-16:00","wheelchair":"yes"}},{"type":"node","id":10827707127,"lat":52.2246976,"lon":21.0102734,"tags":{"addr:housenumber":"51","addr:street":"Ho\u017ca","amenity":"fast_food","check_date":"2023-04-20","cuisine":"burger","name":"Arizona Burger","outdoor_seating":"yes","wheelchair":"no"}},{"type":"node","id":11958852133,"lat":52.2248626,"lon":21.0101548,"tags":{"addr:housenumber":"51","addr:street":"Ho\u017ca","check_date":"2024-06-05","leisure":"fitness_centre","name":"New Moon","sport":"yoga"}}]}