{"version":0.6,"generator":"Overpass API 0.7.62.5 1bd436f1","osm3s":{"timestamp_osm_base":"2025-03-12T13:10:00Z","copyright":"The data included in this document is from www.openstreetmap.org. The data is made available under ODbL."},"elements":[{"type":"node","id":3985025975,"lat":52.2240271,"lon":21.0156876,"tags":{"addr:housenumber":"60","addr:street":"Marsza\u0142kowska","brand":"Loombard","brand:wikidata":"Q113227799","check_date":"2024-09-18","name":"Loombard","opening_hours":"Mo-Sa 08:00-21:00; Su 09:00-18:00","payment:contactless":"yes","payment:maestro":"yes","payment:mastercard":"yes","payment:v_pay":"yes","payment:visa":"yes","payment:visa_electron":"yes","shop":"pawnbroker","wheelchair":"limited"}},{"type":"node","id":8500805431,"lat":52.2240201,"lon":21.0155475,"tags":{"emergency":"fire_hydrant","fire_hydrant:diameter":"150","fire_hydrant:position":"sidewalk","fire_hydrant:type":"underground","water_source":"main"}},{"type":"node","id":8917359784,"lat":52.2242972,"lon":21.0156097,"tags":{"addr:door":"3","addr:housenumber":"62","addr:street":"Marsza\u0142kowska","amenity":"doctors","check_date":"2024-09-18","healthcare":"doctor","name":"Lecznica Lekarzy Specjalist\u00f3w","opening_hours":"Mo-Th 09:00-19:00; Fr 14:00-19:00","website":"https:\/\/www.lecznicamarszalkowska.pl\/"}},{"type":"node","id":8917359796,"lat":52.2242167,"lon":21.0155818,"tags":{"addr:housenumber":"62","addr:street":"Marsza\u0142kowska","alt_name":"Galeria Ksi\u0105\u017cki","check_date":"2024-09-18","name":"Kurtiak i Ley","office":"publisher","opening_hours":"Tu-We 13:00-19:00; Th 13:00-16:00","wheelchair":"limited"}},{"type":"node","id":8917359797,"lat":52.2241308,"lon":21.0156259,"tags":{"addr:housenumber":"60","addr:street":"Marsza\u0142kowska","brand":"Lotto","check_date":"2024-09-18","leisure":"adult_gaming_centre","name":"Lotto","opening_hours":"Mo-Fr 08:30-14:30,15:00-19:30; Sa 08:30-14:30,15:00-17:30","shop":"lottery","wheelchair":"limited"}},{"type":"node","id":8917359799,"lat":52.2243106,"lon":21.0155286,"tags":{"addr:housenumber":"62","addr:street":"Marsza\u0142kowska","amenity":"restaurant","check_date":"2024-09-18","cuisine":"italian","name":"Si Due","opening_hours":"Mo 12:00-22:00; Tu-Th 12:00-23:00; Fr-Sa 12:00-24:00; Su 12:00-21:00","outdoor_seating":"yes","wheelchair":"yes"}},{"type":"node","id":11482430003,"lat":52.2242892,"lon":21.0154908,"tags":{"information":"board","name":"Radiostacja Anna","tourism":"information"}},{"type":"node","id":11966332063,"lat":52.2245122,"lon":21.0154841,"tags":{"addr:city":"Warszawa","addr:city:simc":"0918123","addr:housenumber":"64","addr:postcode":"00-545","addr:street":"Marsza\u0142kowska","source:addr":"gugik.gov.pl"}},{"type":"node","id":12184578614,"lat":52.2240236,"lon":21.0156507,"tags":{"historic":"memorial","material":"stone","memorial":"plaque","name":"Perec i Samuel Willenberg"}}]}