{"version":0.6,"generator":"Overpass API 0.7.62.5 1bd436f1","osm3s":{"timestamp_osm_base":"2025-03-12T13:14:00Z","copyright":"The data included in this document is from www.openstreetmap.org. The data is made available under ODbL."},"elements":[{"type":"node","id":582762500,"lat":52.2224937,"lon":21.0120506,"tags":{"addr:city":"Warszawa","addr:housenumber":"59","addr:postcode":"00-660","addr:street":"Koszykowa","brand":"Dedalus","brand:wikidata":"Q113308417","check_date":"2024-11-04","name":"Dedalus","opening_hours":"Mo-Sa 11:00-19:00","operator":"Dedalus. Sk\u0142ad tanich ksi\u0105\u017cek","shop":"books","website":"http:\/\/www.dedalus.pl","wheelchair":"limited"}},{"type":"node","id":4460884028,"lat":52.2222894,"lon":21.0114122,"tags":{"addr:housenumber":"63","addr:street":"Koszykowa","check_date":"2023-03-08","level":"0","name":"Crazy Butcher","shop":"butcher","wheelchair":"yes"}},{"type":"node","id":4460884029,"lat":52.2223435,"lon":21.0115643,"tags":{"addr:housenumber":"63","addr:street":"Koszykowa","brand":"Duka","brand:wikidata":"Q20354074","brand:wikipedia":"pl:Duka","check_date":"2023-03-08","disused:shop":"houseware","level":"0","name":"Duka","wheelchair":"yes"}},{"type":"node","id":4460884030,"lat":52.2222343,"lon":21.0111931,"tags":{"addr:housenumber":"63","addr:street":"Koszykowa","brand":"Eurospar","check_date":"2023-03-08","layer":"-1","level":"-1","name":"Eurospar","opening_hours":"Mo-Sa 08:00-22:00; Su 09:00-20:00","shop":"supermarket","wheelchair":"yes"}},{"type":"node","id":4460884031,"lat":52.2222822,"lon":21.011065,"tags":{"addr:housenumber":"63","addr:street":"Koszykowa","brand":"Rossmann","brand:wikidata":"Q316004","brand:wikipedia":"pl:Rossmann","check_date":"2023-03-08","layer":"-1","level":"-1","name":"Rossmann","opening_hours":"Mo-Sa 08:00-22:00; Su 09:00-20:00","shop":"chemist","wheelchair":"yes"}},{"type":"node","id":4460884033,"lat":52.222153,"lon":21.0115309,"tags":{"addr:housenumber":"63","addr:street":"Koszykowa","brand":"\u015awiat Ksi\u0105\u017cki","brand:wikidata":"Q9396199","brand:wikipedia":"pl:\u015awiat Ksi\u0105\u017cki","check_date":"2023-03-08","level":"0","name":"\u015awiat Ksi\u0105\u017cki","shop":"books","wheelchair":"yes"}},{"type":"node","id":4553444672,"lat":52.2223418,"lon":21.0110366,"tags":{"entrance":"main"}},{"type":"node","id":5544715627,"lat":52.2225401,"lon":21.0115095,"tags":{"entrance":"yes"}},{"type":"node","id":5941387909,"lat":52.2221036,"lon":21.0118366,"tags":{"addr:city":"Warszawa","addr:housenumber":"61","addr:postcode":"00-667","addr:street":"Koszykowa","email":"biuro@inventity.net","name":"Inventity Foundation","office":"foundation","phone":"+48 22 280 99 69","website":"https:\/\/www.inventity.net\/"}},{"type":"node","id":7132996706,"lat":52.2224249,"lon":21.011433,"tags":{"addr:housenumber":"63","addr:street":"Koszykowa","alt_name":"\u0106ma by Mateusz Gessler","amenity":"restaurant","check_date":"2023-06-04","cuisine":"polish","email":"rezerwacja@gessler-koszyki.pl","level":"0","name":"\u0106ma","opening_hours":"24\/7","phone":"+48 577 378 949; +48 577 377 368","website":"https:\/\/www.mateuszgessler.com.pl\/restauracje\/cma.html","wheelchair":"yes"}},{"type":"node","id":8612800380,"lat":52.2226169,"lon":21.0115127,"tags":{"button_operated":"yes","crossing":"traffic_signals","crossing:island":"yes","crossing_ref":"zebra","highway":"crossing","tactile_paving":"yes","traffic_signals:sound":"yes","traffic_signals:vibration":"yes"}},{"type":"node","id":9193871407,"lat":52.2226212,"lon":21.0114426,"tags":{"highway":"traffic_signals","traffic_signals:direction":"backward"}},{"type":"node","id":9193871408,"lat":52.2226128,"lon":21.0115881,"tags":{"highway":"traffic_signals","traffic_signals:direction":"forward"}},{"type":"node","id":9356665372,"lat":52.2221716,"lon":21.0110986,"tags":{"amenity":"parcel_locker","brand":"Paczkomat InPost","brand:wikidata":"Q110970254","check_date":"2023-03-08","description":"Wyj\u015bcie na parkingi -2","image":"https:\/\/geowidget.easypack24.net\/uploads\/pl\/images\/WAW12HO.jpg","level":"-2","operator":"InPost","operator:wikidata":"Q3182097","operator:wikipedia":"pl:InPost","parcel_mail_in":"yes","parcel_pickup":"yes","ref":"WAW12HO"}},{"type":"node","id":9400387001,"lat":52.2221627,"lon":21.0112885,"tags":{"addr:housenumber":"63","addr:street":"Koszykowa","amenity":"fast_food","check_date":"2023-06-04","cuisine":"thai","indoor_seating":"yes","level":"0","name":"Tuk Tuk","outdoor_seating":"no","wheelchair":"yes"}},{"type":"node","id":9400387002,"lat":52.2221672,"lon":21.0111938,"tags":{"addr:housenumber":"63","addr:street":"Koszykowa","amenity":"fast_food","check_date":"2023-06-04","cuisine":"caribbean","indoor_seating":"yes","level":"0","name":"Buena Vista Social Food","outdoor_seating":"no","wheelchair":"yes"}},{"type":"node","id":9400387003,"lat":52.2221152,"lon":21.0110782,"tags":{"addr:housenumber":"63","addr:street":"Koszykowa","amenity":"restaurant","check_date":"2023-03-08","cuisine":"italian","level":"0","name":"Semolino","wheelchair":"yes"}},{"type":"node","id":9400387009,"lat":52.2222237,"lon":21.0113918,"tags":{"addr:housenumber":"63","addr:street":"Koszykowa","amenity":"fast_food","check_date":"2023-06-04","cuisine":"french_fries","level":"0","name":"The Fry","wheelchair":"yes"}},{"type":"node","id":9400387010,"lat":52.222229,"lon":21.0113008,"tags":{"addr:housenumber":"63","addr:street":"Koszykowa","amenity":"fast_food","check_date":"2023-03-08","cuisine":"burger","indoor_seating":"yes","level":"0","name":"Soul Food","outdoor_seating":"no","wheelchair":"yes"}},{"type":"node","id":9400406124,"lat":52.2223028,"lon":21.011152,"tags":{"addr:housenumber":"63","addr:street":"Koszykowa","amenity":"restaurant","check_date":"2023-03-08","cuisine":"fish;seafood","level":"0","name":"Port Royal","wheelchair":"yes"}},{"type":"node","id":9400406125,"lat":52.2222953,"lon":21.0112934,"tags":{"addr:housenumber":"63","addr:street":"Koszykowa","amenity":"fast_food","check_date":"2023-06-04","cuisine":"mexican","level":"0","name":"Gringo Bar","website":"https:\/\/gringobar.pl\/","wheelchair":"yes"}},{"type":"node","id":9400406130,"lat":52.2224663,"lon":21.0115849,"tags":{"addr:housenumber":"63","addr:street":"Koszykowa","alt_name":"Warszawski Sen by Mateusz Gessler","amenity":"restaurant","check_date":"2023-03-08","cuisine":"polish","level":"0","name":"Warszawski Sen","wheelchair":"yes"}},{"type":"node","id":9400406131,"lat":52.2220806,"lon":21.011467,"tags":{"amenity":"toilets","check_date":"2023-03-08","fee":"no","level":"0","opening_hours":"09:00-01:00","wheelchair":"no"}},{"type":"node","id":9502745132,"lat":52.2225389,"lon":21.0120271,"tags":{"amenity":"vending_machine","check_date":"2023-03-08","operator":"ZDM Warszawa","ref":"G160208","vending":"parking_tickets"}},{"type":"node","id":10721673500,"lat":52.2225281,"lon":21.011374,"tags":{"amenity":"bicycle_parking","bicycle_parking":"stands","capacity":"8","covered":"no"}},{"type":"node","id":10721693763,"lat":52.2221548,"lon":21.0114499,"tags":{"addr:housenumber":"63","addr:street":"Koszykowa","amenity":"fast_food","check_date":"2023-06-04","cuisine":"chinese;dumpling","level":"0","name":"Dimsum","wheelchair":"yes"}},{"type":"node","id":10721693767,"lat":52.2225173,"lon":21.0115926,"tags":{"addr:housenumber":"63","addr:street":"Koszykowa","check_date":"2023-03-08","level":"0","name":"Diptyque","opening_hours":"Mo-Sa 11:00-21:00","shop":"perfumery","wheelchair":"limited"}},{"type":"node","id":10721693770,"lat":52.2222461,"lon":21.0115469,"tags":{"addr:housenumber":"63","addr:street":"Koszykowa","amenity":"cafe","brand":"Vincent","brand:wikidata":"Q113308366","check_date":"2023-06-04","level":"0","name":"Vincent","shop":"bakery","wheelchair":"yes"}},{"type":"node","id":10721759616,"lat":52.2221695,"lon":21.0111202,"tags":{"amenity":"atm","brand":"Euronet","brand:wikidata":"Q5412010","cash_in":"yes","check_date":"2023-03-08","indoor":"yes","level":"-1","operator":"Euronet","operator:wikidata":"Q5412010","wheelchair":"yes"}},{"type":"node","id":10721780473,"lat":52.2222405,"lon":21.0111141,"tags":{"addr:housenumber":"63","addr:street":"Koszykowa","amenity":"food_court","check_date":"2023-06-04","level":"0","name":"Koszyki","opening_hours":"09:00-01:00","wheelchair":"yes"}},{"type":"node","id":10721807264,"lat":52.2223127,"lon":21.0112117,"tags":{"addr:housenumber":"63","addr:street":"Koszykowa","alt_name":"Polnord","check_date":"2023-03-08","level":"1","name":"Cordia","office":"estate_agent","opening_hours":"Mo-Fr 09:30-17:30","wheelchair":"yes"}},{"type":"node","id":10721807265,"lat":52.2222171,"lon":21.0115624,"tags":{"addr:housenumber":"63","addr:street":"Koszykowa","check_date":"2023-03-08","level":"1","name":"Forbo","shop":"flooring","wheelchair":"yes"}},{"type":"node","id":10721807267,"lat":52.222141,"lon":21.0113434,"tags":{"addr:housenumber":"63","addr:street":"Koszykowa","check_date":"2023-03-08","level":"1","name":"Kawai Gallery","shop":"art","wheelchair":"yes"}},{"type":"node","id":10721807268,"lat":52.2222317,"lon":21.0112393,"tags":{"fee":"no","level":"1","name":"Karta z Powstania","opening_hours":"12:00-19:00","tourism":"attraction"}},{"type":"node","id":10722383093,"lat":52.2220532,"lon":21.0113822,"tags":{"entrance":"yes"}},{"type":"node","id":10722407156,"lat":52.2225703,"lon":21.0115036,"tags":{"barrier":"kerb","kerb":"lowered","tactile_paving":"yes"}},{"type":"node","id":10801901276,"lat":52.2224842,"lon":21.0112583,"tags":{"natural":"tree"}},{"type":"node","id":10801901277,"lat":52.2224639,"lon":21.0111335,"tags":{"natural":"tree"}},{"type":"node","id":10801901278,"lat":52.2224257,"lon":21.0112036,"tags":{"natural":"tree"}},{"type":"node","id":12039887600,"lat":52.2225421,"lon":21.0113871,"tags":{"information":"board","name":"Hala Targowa \u201eKoszyki\u201d","tourism":"information"}}]}