{"version":0.6,"generator":"Overpass API 0.7.62.5 1bd436f1","osm3s":{"timestamp_osm_base":"2025-03-12T14:22:15Z","timestamp_areas_base":"2024-12-31T00:49:33Z","copyright":"The data included in this document is from www.openstreetmap.org. The data is made available under ODbL."},"elements":[{"type":"way","id":263050767,"nodes":[12557447196,12557447197,12557447198,12557447199,12557447200,12557578301,12557578302,12557578303,12557578304,12557578305,12557578306,12557578307,12557578308,12557578309,12557578310,12557578311,12557578312,12557578313,12557578314,12557578315,12557578316,12557578317,12557578318,12557578319,12557578320,12557578321,12557578322,12557578323,12557578324,12557578325,12557578326,12557578327,12557578328,12557578329,12557578330,12557578331,12557578332,12557578333,12557578334,12557578335,12557578336,12557578337,12557578338,12557578339,12557578340,12557578341,12557578342,12557578343,12557578344,12557578345,12557578346,12557578347,12557578348,12557578349,12557578350,12557578351,12557578352,12557578353,12557578354,12557578355,12557578356,12557578357,12557578358,12557578359,12557578360,12557578361,12557578362,12557578363,12557578364,12557578365,12557578366,12557578367,12557578368,12557578369,10297389444,2686763406,2686763410,2686763431,2686763437,2686763495,2686763605,2686763648,2686763677,2686763687,2686763736,2686763803,2686763807,2686763814,2686763840,2686763846,2686763848,2686763855,2686763850,2686763878,2686763881,2686763890,3132833467,2686763893,2686763896,2686763899,2686763902,2686763904,2686763928,2686763939,2686763941,2686763943,2686763951,2686763956,2686763962,2686763968,2686763978,2686763985,2686763988,2686763998,2686764007,2686764013,2686764024,2686764041,2686764049,2686764053,2686764064,11771720819,2686764093,2686764115,2686764125,2686764128,2686764130,2686764148,2686764154,2686764162,2686764166,2686764222,2686764246,2686764259,2686764279,2686764327,2686764329,2686764350,2686764354,2686764356,9251462112,9251462111,9251462110,9251462113,9251462109,9251462114,9251462108,9251462115,9251462116,9251485417,9251485418,9251485424,9251485425,9251485426,9251485419,9251485420,9251485427,9251485421,9251485422,9251485428,9251485423,9251485429,9251485430,9251485431,9251485432,9251485433,9251485434,9251485435,9251485436,9251485437,9251485438,9251485439,9251485440,9251485441,9251485442,9251485443,9251485444,9251485445,9251485446,9251485447,9251485448,9251485449,9251485450,9251485451,9251485452,9251485453,9251485454,9251485455,9251485456,7884600100,7884600101,7884600102,7884600103,7884600104,7884600105,7884600106,7884600107,7884600108,7884600109,7884600110,7884600111,7884600112,7884600113,7884600114,7884600115,7884600116,7884600117,7884600118,7884600119,7884600120,7884600121,7884600122,7884600123,7884600124,7884600125,7884600126,7884600127,7884600128,11295500834,7884600129,7884600130,7884600131,7884600132,7884600133,7884600134,7884600135,7884600136,7884600137,7884600138,7884600139,9251462072,9251462073,9251462074,9251462075,9251462076,9251462077,9251462078,9251462079,9251462080,9251462081,9251462082,9251462083,9251462084,9251462085,9251462086,9251462087,9251462088,9251462089,9251462090,9251462091,9251462092,9251462093,9251462094,9251462095,9251462096,9251462097,9251462098,9251462099,9251462100,9251462101,9251462102,9251462103,12557447196],"tags":{"note":"Obrys strefy p\u0142atnego parkowania niestrze\u017conego","website":"https:\/\/zdm.waw.pl\/sprawy\/parkowanie\/o-strefie-platnego-parkowania-niestrzez\/"}},{"type":"way","id":439274632,"nodes":[4369104510,4369104509,4369104507,4369104506,4369104505,4369104504,4369104502,4369104501,4369104500,4369104498,4642980630,4369104496,4369104495,4369104493,4369104491,4369104490,4369104382,4369104372,4369104369,4369104364,4369104354,4369104344,12094739262,4369104335,7079365711,11445361919,4369104316,4369104313,4369104294,4369104305,4369104310,4369104321,4369104330,4369104334,4369104341,4369104349,4369104362,4369104371,4369104374,4369008325,4369008330,4369008343,4369008355,4369008367,4369008593,4369008603,4369008614,4940970751,4369008638,4369008652,4369008658,4369008684,4369104521,1049811491,4369104522,4369104520,4369104519,4369104517,4369104516,4369104515,4369104514,4369104512,4369104510],"tags":{"description":"Region zdominowany przez r\u00f3wninny krajobraz peryglacjalny, z niewielkimi p\u0142atami r\u00f3wninnych fluwioglacjalnych oraz pag\u00f3rkowatych peryglacjalnych w cz\u0119\u015bci pd.-zach. Przeci\u0119ty przez rzeki Jeziork\u0119 i Krask\u0119, kt\u00f3rym towarzysz\u0105 krajobrazy zalewowyc","name":"R\u00f3wnina Warszawska","ref":"318.76"}},{"type":"way","id":1298193055,"nodes":[12026769953,12026769952,12026769951,12026769950,12026769949,12026769948,12026769947,12026769946,12026769945,12026769944,12026769943,12026769942,12026769941,12026769940,12026769939,12026769938,12026769937,12026769936,12026769935,12026769934,12026769933,12026769932,12031874916,12026769930,12026769928,12026769927,4299081701,4299081582,4299081581,4299081559,4299081557,4299081551,4299081539,4299081530,4299081540,4299081529,4299081522,4299081532,4299081527,4299081520,12050905180,12050905179,12026769923,12026769922,12026769921,12026769920,12026769919,12026769918,12026769917,12026769916,12026769915,12026769914,12026769913,12026769912,12026769911,12031874917,3647547994,10595930946,10595930945,3647547997,10595930948,10595930947,10595930950,3647548000,10595930830,10595930829,10595930974,10595930975,10595930976,2272560583,2272560586,3848331878,3848331857,10595930954,10595930952,10595930953,3848331750,3848331747,10595930822,3848331745,7664028689,3848331704,3848331695,3848331689,3848331681,3848331678,3848331673,3848331670,3848331666,3848331657,10595930772,3848331546,10595930779,10595930782,3848331530,3848331526,3848331513,12026769910,12034769293,334077713,334077716,3848331214,334077720,3848331212,10595845081,10595845033,334077723,10595845034,10595845035,10595845036,3476192706,10595931157,317953350,317953352,3848331198,3476192681,317953355,12034769294,12026769909,12026769908,12026769907,12026769906,12026769905,12026769904,12026769903,12026769902,12026769901,12026769900,12026769899,12037589422,8772418988,8772419255,9500853529,9500853528,9500853527,9500853526,9500853525,9500790806,9500853524,9500853523,9500853522,9500853521,9500790798,9500790799,9500790800,12037589423,12037589425,8772418704,8772409209,9500884122,9500884123,9500884119,9500865916,9500884117,9500865915,9500865901,9500865900,9464742799,9464742800,12037589424,12026769897,12037589426,316886385,9500865844,316886391,8772419396,8772418900,8772418427,316886389,316886387,12037589427,12026769896,12026769895,12026769894,12026769893,12026769892,12026769891,12026769890,12026769889,12026769888,12026769887,12026769886,12026769885,12026769884,12026769883,12026769882,12026769881,12026769880,12026769879,12026769878,12026769877,12026769876,12026769875,12026769874,12026769873,12026769872,12026769871,12026769870,12026769869,12026753768,12026753767,12026753766,12026753765,12026753764,12026753763,12026753762,12026753761,12026753760,12026753759,12026753758,12026753757,12026753756,12026753755,12026753754,12026753753,12026753752,12026753751,12026753750,12026753749,12026753748,12026753747,12026753746,12026753745,12026753744,12026753743,12026753742,12026753741,12026753740,12026753739,12026753738,12026753737,12026753736,12026753735,12026753734,12026753733,12026753732,12026753731,12026753730,12026753729,12026753728,12026753727,12026753726,12026753725,12026753724,12026753723,12026753722,307573549,307573546,11926584653,11926584654,11926584655,9823639728,9823639729,9823639730,307573544,307573547,9812280350,9812280351,11926584685,286603946,9394368602,9394368601,9394368600,9394368599,9394368598,9394368597,9394368596,12509442284,9394368595,9394368594,9394368593,9394368592,9394368591,9394368590,9394368589,9394368588,9394368587,286603945,9394368612,317727923,9394368433,9394368449,9394368482,1181666230,1181665469,9394368462,317727901,317727907,317727909,317727911,9394368467,9394368489,9394368441,9394368431,6736170495,9394368457,317727919,9394368445,9394368469,315798575,12034769295,12034769298,776329849,776329422,776329523,8486243274,8486243275,10135450972,10135451073,8486243314,8486243313,776329967,10135451068,776329337,776330240,411095532,10135450977,10135450976,10135450980,10135451002,10135451000,10135451170,10135450989,10135450987,11439704427,7813747341,10135451092,12034769297,12026753718,4777691852,4777691851,411095514,9328513345,10135298311,6264250745,6264250736,12020458899,8868021847,12020458900,12020458901,12020458902,12020458903,12020458904,11765115551,12020458905,12020458906,12020458907,12020458908,12020458909,12020458910,8868021842,8868021841,6264250751,6264250755,6264266119,12026753713,12026753712,12026753711,12026753710,12026753709,12026769953],"tags":{"note":"Granica Strefy Czystego Transportu"}},{"type":"area","id":3600049715,"tags":{"ISO3166-1":"PL","ISO3166-1:alpha2":"PL","ISO3166-1:alpha3":"POL","ISO3166-1:numeric":"616","TMC:cid_58:tabcd_1:Class":"Area","TMC:cid_58:tabcd_1:LCLversion":"8.00","TMC:cid_58:tabcd_1:LocationCode":"8","admin_level":"2","alt_name:ar":"\u0628\u0648\u0644\u0648\u0646\u064a\u0627","alt_name:eo":"Polio;Polujo","boundary":"administrative","currency":"PLN","daytime_headlight":"yes","default_language":"pl","driving_side":"right","flag":"https:\/\/upload.wikimedia.org\/wikipedia\/commons\/1\/12\/Flag_of_Poland.svg","int_name":"Polska","long_name:ar":"Rzeczpospolita Polska","name":"Polska","name:ab":"\u041f\u043e\u043b\u0448\u0430","name:ace":"Polandia","name:af":"Pole","name:ak":"Poland","name:als":"Polen","name:am":"\u1356\u120b\u1295\u12f5","name:an":"Polonia","name:ang":"Polaland","name:ar":"\u0628\u0648\u0644\u0646\u062f\u0627","name:arc":"\u0726\u0718\u0720\u0722\u0715","name:arz":"\u0628\u0648\u0644\u0627\u0646\u062f\u0627","name:ast":"Polonia","name:ay":"Pulu\u00f1a","name:az":"Pol\u015fa","name:ba":"\u041f\u043e\u043b\u044c\u0448\u0430","name:bar":"Poin","name:bat-smg":"L\u0117nk\u0117j\u0117","name:bcl":"Polonya","name:be":"\u041f\u043e\u043b\u044c\u0448\u0447\u0430","name:be-tarask":"\u041f\u043e\u043b\u044c\u0448\u0447\u0430","name:bg":"\u041f\u043e\u043b\u0448\u0430","name:bi":"Poland","name:bn":"\u09aa\u09cb\u09b2\u09cd\u09af\u09be\u09a8\u09cd\u09a1","name:bo":"\u0f55\u0f7c\u0f0b\u0f63\u0f53\u0f0d","name:bpy":"\u09aa\u09cb\u09b2\u09cd\u09af\u09be\u09a8\u09cd\u09a1","name:br":"Polonia","name:bs":"Poljska","name:bxr":"\u041f\u043e\u043b\u044c\u0448","name:ca":"Pol\u00f2nia","name:cdo":"P\u014f\u0324-l\u00e0ng","name:ce":"\u041f\u043e\u043b\u044c\u0448\u0430","name:ceb":"Polonya","name:chr":"\u13c9\u13b3\u13c2","name:chy":"Poland","name:ckb":"\u067e\u06c6\u06b5\u06d5\u0646\u062f\u0627","name:cnr":"Poljska","name:co":"Polonia","name:crh":"Lehistan","name:cs":"Polsko","name:csb":"P\u00f2lsk\u00f4","name:cu":"\u041f\u043e\u043b\u0484\u044c\u0441\u043a\u0430","name:cv":"\u041f\u043e\u043b\u044c\u0448\u0430","name:cy":"Gwlad Pwyl","name:da":"Polen","name:dative":"Polsce","name:de":"Polen","name:diq":"Polonya","name:dsb":"P\u00f3lska","name:dv":"\u0795\u07ae\u078d\u07ac\u0782\u07b0\u0791\u07aa","name:ee":"Poland","name:el":"\u03a0\u03bf\u03bb\u03c9\u03bd\u03af\u03b1","name:eml":"Pul\u00f3gna","name:en":"Poland","name:eo":"Pollando","name:es":"Polonia","name:et":"Poola","name:eu":"Polonia","name:ext":"Polo\u00f1a","name:fa":"\u0644\u0647\u0633\u062a\u0627\u0646","name:ff":"Poloonya","name:fi":"Puola","name:fo":"P\u00f3lland","name:fr":"Pologne","name:frp":"Pologne","name:frr":"Poolen","name:fur":"Polonie","name:fy":"Poalen","name:ga":"An Pholainn","name:gag":"Pol\u015fa","name:gan":"\u6ce2\u862d","name:gd":"A' Ph\u00f2lainn","name:gl":"Polonia","name:gn":"Polo\u00f1a","name:gu":"\u0aaa\u0acb\u0ab2\u0ac7\u0a82\u0aa1","name:gv":"Yn Pholynn","name:ha":"Poland","name:hak":"P\u00f4-l\u00e0n","name:haw":"P\u014dlani","name:he":"\u05e4\u05d5\u05dc\u05d9\u05df","name:hi":"\u092a\u094b\u0932\u0948\u0902\u0921","name:hif":"Poland","name:hr":"Poljska","name:hsb":"P\u00f3lska","name:ht":"Pol\u00f2y","name:hu":"Lengyelorsz\u00e1g","name:hy":"\u053c\u0565\u0570\u0561\u057d\u057f\u0561\u0576","name:ia":"Polonia","name:id":"Polandia","name:ie":"Polonia","name:ig":"Poland","name:ilo":"Polonia","name:io":"Polonia","name:is":"P\u00f3lland","name:it":"Polonia","name:iu":"\u1433\u14da\u14d0\u1466","name:ja":"\u30dd\u30fc\u30e9\u30f3\u30c9","name:jbo":"polskas","name:jv":"Polandia","name:ka":"\u10de\u10dd\u10da\u10dd\u10dc\u10d4\u10d7\u10d8","name:kaa":"Polsha","name:kbd":"\u041b\u0430\u0445\u044c \u0436\u044b\u043b\u044d","name:kg":"Pologne","name:kk":"\u041f\u043e\u043b\u044c\u0448\u0430","name:kl":"Poleni","name:km":"\u1794\u17d2\u179a\u1791\u17c1\u179f\u1794\u17c9\u17bc\u17a1\u17bc\u1789","name:kn":"\u0caa\u0ccb\u0cb2\u0cc6\u0c82\u0ca1\u0ccd","name:ko":"\ud3f4\ub780\ub4dc","name:koi":"\u041f\u043e\u043b\u044c\u0441\u043a\u0430","name:krc":"\u041f\u043e\u043b\u044c\u0448\u0430","name:ku":"Polonya","name:kv":"\u041f\u043e\u043b\u044c\u0448\u0430","name:kw":"Poloni","name:ky":"\u041f\u043e\u043b\u044c\u0448\u0430","name:la":"Polonia","name:lad":"Polonia","name:lb":"Polen","name:lez":"\u041f\u043e\u043b\u044c\u0448\u0430","name:lg":"Bupoolo","name:li":"Pole","name:lij":"Polonia","name:lmo":"Pul\u00f2nia","name:ln":"Poloni","name:lt":"Lenkija","name:ltg":"Puoleja","name:lv":"Polija","name:lzh":"\u6ce2\u862d","name:map-bms":"Polandia","name:mdf":"\u041f\u043e\u043b\u0435\u043d\u044c \u043c\u0430\u0441\u0442\u043e\u0440","name:mg":"Polonia","name:mhr":"\u041f\u043e\u043b\u044c\u0448\u043e","name:mi":"P\u014drana","name:mk":"\u041f\u043e\u043b\u0441\u043a\u0430","name:ml":"\u0d2a\u0d4b\u0d33\u0d23\u0d4d\u0d1f\u0d4d","name:mn":"\u041f\u043e\u043b\u044c\u0448","name:mr":"\u092a\u094b\u0932\u0902\u0921","name:mrj":"\u041f\u043e\u043b\u044c\u0448\u0430","name:ms":"Poland","name:mt":"Polonja","name:mwl":"Pol\u00f3nia","name:my":"\u1015\u102d\u102f\u101c\u1014\u103a\u1014\u102d\u102f\u1004\u103a\u1004\u1036","name:mzn":"\u0644\u0647\u0633\u062a\u0648\u0646","name:na":"Poran","name:nah":"Polonia","name:nan":"Polska","name:nan-Hans":"\u6ce2\u862d","name:nan-Latn-pehoeji":"Polska","name:nan-Latn-tailo":"P\u00f3-l\u00e2n","name:nap":"Pulonnia","name:nds":"Polen","name:nds-nl":"Pooln","name:ne":"\u092a\u094b\u0932\u094d\u092f\u093e\u0923\u094d\u0921","name:nl":"Polen","name:nn":"Polen","name:no":"Polen","name:nov":"Polonia","name:nrm":"Polongne","name:nv":"P\u00f3olish Dine\u02bc\u00e9 Bik\u00e9yah","name:oc":"Polonha","name:or":"\u0b2a\u0b4b\u0b32\u0b3e\u0b23\u0b4d\u0b21","name:os":"\u041f\u043e\u043b\u044c\u0448\u00e6","name:pa":"\u0a2a\u0a4b\u0a32\u0a48\u0a02\u0a21","name:pam":"Polonya","name:pap":"Polonia","name:pcd":"Polonne","name:pdc":"Polen","name:pfl":"Pole","name:pih":"Poeland","name:pl":"Polska","name:pms":"Pol\u00f2nia","name:pnb":"\u067e\u0648\u0644\u06cc\u0646\u0688","name:pnt":"\u03a0\u03bf\u03bb\u03c9\u03bd\u03af\u03b1","name:ps":"\u067e\u0648\u0644\u0646\u0689","name:pt":"Pol\u00f3nia","name:qu":"Pulunya","name:rm":"Pologna","name:rmy":"Polska","name:rn":"Polonia","name:ro":"Polonia","name:roa-tara":"Pulonie","name:ru":"\u041f\u043e\u043b\u044c\u0448\u0430","name:rue":"\u041f\u043e\u043b\u044c\u0441\u043a\u043e","name:rw":"Polonye","name:sa":"\u092a\u094b\u0932\u0948\u0902\u0921","name:sah":"\u041f\u043e\u043b\u044c\u0448\u0430","name:sc":"Polonia","name:scn":"Pulonia","name:sco":"Poland","name:se":"Polska","name:sg":"P\u00f6l\u00f4ni","name:sh":"Poljska","name:si":"\u0db4\u0ddd\u0dbd\u0db1\u0dca\u0dad\u0dba","name:sk":"Po\u013esko","name:sl":"Poljska","name:sm":"Polagi","name:smn":"Puola","name:sms":"Puola","name:so":"Boland","name:sq":"Polonia","name:sr":"\u041f\u043e\u0459\u0441\u043a\u0430","name:ss":"IPholandi","name:st":"Poland","name:stq":"Polen","name:su":"Polandia","name:sv":"Polen","name:sw":"Poland","name:szl":"Polska","name:ta":"\u0baa\u0bcb\u0bb2\u0ba8\u0bcd\u0ba4\u0bc1","name:te":"\u0c2a\u0c4b\u0c32\u0c3e\u0c02\u0c21\u0c4d","name:tet":"Pol\u00f3nia","name:tg":"\u041b\u0430\u04b3\u0438\u0441\u0442\u043e\u043d","name:th":"\u0e1b\u0e23\u0e30\u0e40\u0e17\u0e28\u0e42\u0e1b\u0e41\u0e25\u0e19\u0e14\u0e4c","name:tk":"Pol\u015fa","name:tl":"Polonya","name:tok":"ma Posuka","name:tpi":"Polan","name:tr":"Polonya","name:tt":"\u041f\u043e\u043b\u044c\u0448\u0430","name:tzl":"Polognh","name:udm":"\u041f\u043e\u043b\u044c\u0448\u0430","name:ug":"\u067e\u0648\u0644\u0634\u0627","name:uk":"\u041f\u043e\u043b\u044c\u0449\u0430","name:ur":"\u067e\u0648\u0644\u06cc\u0646\u0688","name:uz":"Polsha","name:vec":"Po\u0142onia","name:vep":"Pol'\u0161anma","name:vi":"Ba Lan","name:vls":"Pooln","name:vo":"Pol\u00e4n","name:vro":"Poola","name:wa":"Pologne","name:war":"Polonya","name:wo":"Polo\u00f1","name:wuu":"\u6ce2\u5170","name:xal":"\u041f\u043e\u043b\u044c\u0448\u0438\u043d \u041e\u0440\u043d","name:xmf":"\u10de\u10dd\u10da\u10dd\u10dc\u10d4\u10d7\u10d8","name:yi":"\u05e4\u05d5\u05d9\u05dc\u05df","name:yo":"Polandi","name:yue":"\u6ce2\u862d","name:zea":"Po\u00f4l'n","name:zh":"\u6ce2\u5170 \/ \u6ce2\u862d","name:zh-Hans":"\u6ce2\u5170","name:zh-Hant":"\u6ce2\u862d","name:zu":"IPolandi","official_name":"Rzeczpospolita Polska","official_name:ar":"\u0627\u0644\u062c\u0645\u0647\u0648\u0631\u064a\u0629 \u0627\u0644\u0628\u0648\u0644\u0646\u062f\u064a\u0629","official_name:be":"\u0420\u044d\u0441\u043f\u0443\u0431\u043b\u0456\u043a\u0430 \u041f\u043e\u043b\u044c\u0448\u0447\u0430","official_name:be-tarask":"\u0420\u044d\u0441\u043f\u0443\u0431\u043b\u0456\u043a\u0430 \u041f\u043e\u043b\u044c\u0448\u0447\u0430","official_name:ca":"Rep\u00fablica de Pol\u00f2nia","official_name:cnr":"Republika Poljska","official_name:cs":"Polsk\u00e1 republika","official_name:de":"Republik Polen","official_name:el":"\u0394\u03b7\u03bc\u03bf\u03ba\u03c1\u03b1\u03c4\u03af\u03b1 \u03c4\u03b7\u03c2 \u03a0\u03bf\u03bb\u03c9\u03bd\u03af\u03b1\u03c2","official_name:en":"Republic of Poland","official_name:eo":"Pola Respubliko","official_name:es":"Rep\u00fablica de Polonia","official_name:fi":"Puolan tasavalta","official_name:fr":"R\u00e9publique de Pologne","official_name:mi":"Whenua P\u014drana","official_name:pl":"Rzeczpospolita Polska","official_name:ru":"\u0420\u0435\u0441\u043f\u0443\u0431\u043b\u0438\u043a\u0430 \u041f\u043e\u043b\u044c\u0448\u0430","official_name:sr":"\u0420\u0435\u043f\u0443\u0431\u043b\u0438\u043a\u0430 \u041f\u043e\u0459\u0441\u043a\u0430","old_name:is":"Sl\u00e9ttumannaland","short_name":"RP","short_name:be":"\u0420\u041f","source":"geoportal.gov.pl;PRG;Urz\u0105d Morski w Gdyni;Ustawa o obszarach morskich Rzeczypospolitej Polskiej i Administracji Morskiej;Act on maritime areas of the Republic of Poland and Maritime Administration;United Nations Convention on the Law of the Sea","teryt:terc":"1","timezone":"Europe\/Warsaw","type":"boundary","wikidata":"Q36","wikipedia":"pl:Polska"}},{"type":"area","id":3600130935,"tags":{"ISO3166-2":"PL-14","admin_level":"4","boundary":"administrative","loc_ref":"W","name":"wojew\u00f3dztwo mazowieckie","name:af":"Woiwodskap Masowi\u00eb","name:an":"Voivodato de Mazovia","name:ang":"M\u00e6g\u00fea voivodscip","name:ar":"\u0645\u062d\u0627\u0641\u0638\u0629 \u0645\u0627\u0632\u0648\u0641\u064a\u0627","name:ast":"Voivodatu de Mazovia","name:az":"Mazovets voyevodlu\u011fu","name:azb":"\u0645\u0627\u0633\u0648\u0648\u06cc \u0648\u06cc\u0648\u0648\u062f\u0627\u0644\u06cc\u063a\u06cc","name:ba":"\u041c\u0430\u0437\u043e\u0432\u0438\u044f \u0432\u043e\u0435\u0432\u043e\u0434\u043b\u044b\u0493\u044b","name:be":"\u041c\u0430\u0437\u0430\u0432\u0435\u0446\u043a\u0430\u0435 \u0432\u0430\u044f\u0432\u043e\u0434\u0441\u0442\u0432\u0430","name:be-tarask":"\u041c\u0430\u0437\u0430\u0432\u0435\u0446\u043a\u0430\u0435 \u0432\u0430\u044f\u0432\u043e\u0434\u0437\u0442\u0432\u0430","name:bg":"\u041c\u0430\u0437\u043e\u0432\u0441\u043a\u043e \u0432\u043e\u0439\u0432\u043e\u0434\u0441\u0442\u0432\u043e","name:bn":"\u09ae\u09c7\u09b8\u09cb\u09ad\u09bf\u09af\u09bc\u09be\u09a8 \u09ad\u09af\u09bc\u09ad\u09cb\u09a1\u09c7\u09b6\u09bf\u09aa","name:bs":"Mazovjecko vojvodstvo","name:ca":"Voivodat de Mas\u00f2via","name:crh":"Mazoviya voyevodal\u0131\u011f\u0131","name:cs":"Mazovsk\u00e9 vojvodstv\u00ed","name:csb":"Mazowieccz\u00e9 w\u00f2jew\u00f3dztw\u00f2","name:da":"Voivodskabet Masovien","name:de":"Woiwodschaft Masowien","name:el":"\u0392\u03bf\u03b5\u03b2\u03bf\u03b4\u03ac\u03c4\u03bf \u039c\u03b1\u03c3\u03bf\u03b2\u03af\u03b1\u03c2","name:en":"Masovian Voivodeship","name:eo":"Mazovia Provinco","name:es":"Voivodato de Mazovia","name:et":"Masoovia vojevoodkond","name:eu":"Mazoviako voivoderria","name:fa":"\u0648\u06cc\u0648\u0648\u062f\u0647\u200c\u0644\u06cc\u0642 \u0645\u0627\u0633\u0648\u0648\u06cc","name:fi":"Masovian voivodikunta","name:fr":"Vo\u00efvodie de Mazovie","name:frr":"Masoowien Prowins","name:gu":"\u0aae\u0ac7\u0ab8\u0acb\u0ab5\u0abf\u0a86\u0aa8 \u0ab5\u0acb\u0a88\u0ab5\u0acb\u0aa6\u0ac7\u0ab6\u0ac0\u0aaa","name:he":"\u05de\u05d6\u05d5\u05d1\u05d9\u05d4","name:hi":"\u092e\u093e\u0938\u094b\u0935\u093f\u092f\u0928 \u0935\u094b\u0908\u0935\u094b\u0921\u0940\u0936\u093f\u092a","name:hr":"Mazovjecko vojvodstvo","name:hsb":"Mazowske wojew\u00f3dstwo","name:hu":"Maz\u00f3viai vajdas\u00e1g","name:hy":"\u0544\u0561\u0566\u0578\u057e\u0565\u0581\u056b \u057e\u0578\u0575\u0565\u057e\u0578\u0564\u0578\u0582\u0569\u0575\u0578\u0582\u0576","name:id":"Provinsi Mazowsze","name:it":"Voivodato della Masovia","name:ja":"\u30de\u30be\u30d5\u30b7\u30a7\u770c","name:jv":"Provinsi Mazowia","name:ka":"\u10db\u10d0\u10d6\u10dd\u10d5\u10d8\u10d4\u10ea\u10d8\u10e1 \u10e1\u10d0\u10d5\u10dd\u10d4\u10d5\u10dd\u10d3\u10dd","name:kk":"\u041c\u0430\u0437\u043e\u0432\u0435\u0446 \u0432\u043e\u0439\u0432\u043e\u0434\u0430\u043b\u044b\u0493\u044b","name:kk-Arab":"\u0645\u0627\u0632\u0648\u06c6\u06d5\u062a\u0633 \u06c6\u0648\u064a\u06c6\u0648\u062f\u0627\u0644\u0649\u0639\u0649","name:kk-Cyrl":"\u041c\u0430\u0437\u043e\u0432\u0435\u0446 \u0432\u043e\u0439\u0432\u043e\u0434\u0430\u043b\u044b\u0493\u044b","name:kk-Latn":"Mazovets voivodaly\u011fy","name:kn":"\u0cae\u0cbe\u0cb5\u0ccb\u0cb5\u0cbf\u0caf\u0ca8\u0ccd \u0cb5\u0cbe\u0caf\u0cbf\u0cb5\u0ccb\u0ca1\u0cc6\u0cb6\u0cbf\u0caa\u0ccd","name:ko":"\ub9c8\uc870\ud504\uc170\uc8fc","name:ky":"\u041c\u0430\u0437\u043e\u0432\u0438\u044f \u0432\u043e\u0435\u0432\u043e\u0434\u0434\u0443\u0433\u0443","name:ky-Arab":"\u0645\u0627\u0632\u0648\u06cb\u0649\u064a\u0627 \u06cb\u0648\u06d5\u06cb\u0648\u062f\u062f\u06c7\u0639\u06c7","name:ky-Cyrl":"\u041c\u0430\u0437\u043e\u0432\u0438\u044f \u0432\u043e\u0435\u0432\u043e\u0434\u0434\u0443\u0433\u0443","name:lt":"Mazovijos vaivadija","name:lv":"Mazovijas vojevodiste","name:mk":"\u041c\u0430\u0437\u043e\u0432\u0441\u043a\u043e \u0412\u043e\u0458\u0432\u043e\u0434\u0441\u0442\u0432\u043e","name:mr":"\u092e\u093e\u091d\u094b\u0935\u094d\u092f\u0947\u0924\u094d\u0938\u094d\u0915\u093e \u092a\u094d\u0930\u093e\u0902\u0924","name:ms":"Wilayah Mazowieckie","name:myv":"\u041c\u0430\u0437\u043e\u0432\u0435\u0446\u043a\u043e\u0435\u043d\u044c \u0432\u043e\u0435\u0432\u043e\u0434\u0441\u0442\u0432\u0430","name:nb":"Masoviske voivodskap","name:nl":"Woiwodschap Mazovi\u00eb","name:nn":"Masoviske voivodskap","name:no":"Masoviske voivodskap","name:oc":"Voivodat de Maz\u00f2via","name:os":"\u041c\u0430\u0437\u043e\u0432\u0438\u0439\u044b \u0432\u043e\u0435\u0432\u043e\u0434\u00e6\u0439\u0430\u0434","name:ota":"\u0645\u0627\u0635\u0648\u0648\u06cc\u0647 \u0648\u06cc\u0648\u0648\u062f\u0647\u200c\u0644\u06cc\u063a\u06cc","name:pap":"Voivodat di Mazovia","name:pl":"wojew\u00f3dztwo mazowieckie","name:pnb":"\u0635\u0648\u0628\u06c1 \u0645\u0627\u0633\u0648\u0648\u06cc","name:ps":"\u0645\u0627\u0633\u0648\u0648\u06cc\u0627\u0646","name:pt":"Voivodia da Maz\u00f3via","name:qu":"Mazowya suyu","name:ro":"Voievodatul Mazovia","name:ru":"\u041c\u0430\u0437\u043e\u0432\u0435\u0446\u043a\u043e\u0435 \u0432\u043e\u0435\u0432\u043e\u0434\u0441\u0442\u0432\u043e","name:sh":"Mazovjecko vojvodstvo","name:si":"\u0db8\u0dd0\u0dc3\u0ddc\u0dc0\u0dd2\u0dba\u0dcf \u0db4\u0dc5\u0dcf\u0dad","name:sk":"Mazovsk\u00e9 vojvodstvo","name:sl":"Mazovijsko vojvodstvo","name:sr":"\u0412\u043e\u0458\u0432\u043e\u0434\u0441\u0442\u0432\u043e \u041c\u0430\u0437\u043e\u0432\u0441\u043a\u043e","name:sv":"Masoviens vojvodskap","name:szl":"Mazowjecke wojew\u016fdztwo","name:ta":"\u0bae\u0b9a\u0bcb\u0bb5\u0bbf\u0ba9\u0bcd \u0b93\u0baf\u0bcd\u0bb5\u0bcb\u0b9f\u0bc7\u0bb7\u0bbf\u0baa\u0bcd","name:te":"\u0c2e\u0c3e\u0c38\u0c4b\u0c35\u0c3f\u0c2f\u0c28\u0c4d \u0c35\u0c3e\u0c2f\u0c3f\u0c35\u0c4b\u0c21\u0c46\u0c37\u0c3f\u0c2a\u0c4d","name:th":"\u0e08\u0e31\u0e07\u0e2b\u0e27\u0e31\u0e14\u0e21\u0e32\u0e0b\u0e2d\u0e1f\u0e41\u0e0a","name:tr":"Mazovya Voyvodal\u0131\u011f\u0131","name:tt":"\u041c\u0430\u0437\u043e\u0432\u0438\u044f \u0432\u043e\u0435\u0432\u043e\u0434\u0430\u043b\u044b\u0433\u044b","name:ug":"\u0645\u0627\u0632\u0648\u06cb\u0649\u064a\u06d5 \u06cb\u0648\u064a\u06cb\u0648\u062f\u0627\u0644\u0649\u063a\u0649","name:uk":"\u041c\u0430\u0437\u043e\u0432\u0435\u0446\u044c\u043a\u0435 \u0432\u043e\u0454\u0432\u043e\u0434\u0441\u0442\u0432\u043e","name:ur":"\u0635\u0648\u0628\u06c1 \u0645\u0627\u0633\u0648\u0648\u06cc","name:uz-Arab":"\u0645\u0627\u0632\u06c9\u0648\u06cc\u0647 \u0648\u06c9\u06cc\u0648\u06c9\u062f\u0647\u200c\u0644\u06cc\u063a\u06cc","name:vec":"Voivodato de \u0142a Maz\u00f2via","name:vls":"Woiwodschap Mazovi\u00eb","name:xmf":"\u10db\u10d0\u10d6\u10dd\u10d5\u10d8\u10d4\u10ea\u10d8\u10e8 \u10e1\u10d0\u10d5\u10dd\u10d4\u10d5\u10dd\u10d3\u10dd","name:yi":"\u05de\u05d0\u05d6\u05d0\u05d5\u05d5\u05d9\u05e2\u05e8 \u05d5\u05d5\u05d0\u05d9\u05e2\u05d5\u05d5\u05d0\u05d3\u05e2\u05e9\u05d0\u05e4\u05d8","name:zh":"\u9a6c\u4f50\u592b\u820d\u7701","name:zh-Hans":"\u9a6c\u4f50\u592b\u820d\u7701","name:zh-Hant":"\u99ac\u4f50\u592b\u820d\u7701","population":"5510612","population:date":"2022-12-31","ref":"MA","ref:nuts":"PL9","ref:nuts:1":"PL9","reg_name":"Mazowieckie","source:population":"https:\/\/stat.gov.pl\/download\/gfx\/portalinformacyjny\/pl\/defaultaktualnosci\/5515\/3\/17\/1\/rocznik_demograficzny_2023_zakladki_pl.pdf","teryt:terc":"14","type":"boundary","vehicle_plate_code:police":"HPH","vehicle_plate_code:prefix":"W;A","wikidata":"Q54169","wikipedia":"pl:Wojew\u00f3dztwo mazowieckie"}},{"type":"area","id":3600336074,"tags":{"admin_level":"8","boundary":"administrative","capital":"yes","name":"Warszawa","name:ab":"\u0412\u0430\u0440\u0448\u0430\u0432\u0430","name:ace":"Warsawa","name:af":"Warskou","name:ak":"Warsaw","name:am":"\u12cb\u122d\u1236\u12cd","name:an":"Varsovia","name:ang":"Warsaw","name:ar":"\u0648\u0627\u0631\u0633\u0648","name:arc":"\u0718\u0710\u072a\u0723\u0718","name:arz":"\u0648\u0627\u0631\u0633\u0648","name:ast":"Varsovia","name:az":"Var\u015fava","name:ba":"\u0412\u0430\u0440\u0448\u0430\u0432\u0430","name:bat-smg":"Var\u0161ova","name:be":"\u0412\u0430\u0440\u0448\u0430\u0432\u0430","name:be-tarask":"\u0412\u0430\u0440\u0448\u0430\u0432\u0430","name:bg":"\u0412\u0430\u0440\u0448\u0430\u0432\u0430","name:bi":"Warsaw","name:bn":"\u0993\u09af\u09bc\u09be\u09b0\u09cd\u09b8\u09be","name:bo":"\u0f5d\u0f62\u0f0b\u0f66\u0f7c\u0f0d","name:br":"Varsovia","name:bs":"Var\u0161ava","name:ca":"Vars\u00f2via","name:ckb":"\u0648\u0627\u0631\u0633\u0627\u0648","name:crh":"Var\u015fava","name:cs":"Var\u0161ava","name:csb":"Warszawa","name:cu":"\u0412\u0430\u0440\u0448\u0430\u0432\u0430","name:cv":"\u0412\u0430\u0440\u0448\u0430\u0432\u0430","name:cy":"Warsaw","name:da":"Warszawa","name:dative":"Warszawie","name:de":"Warschau","name:diq":"War\u015fowa","name:dsb":"War\u0161awa","name:ee":"Warsaw","name:el":"\u0392\u03b1\u03c1\u03c3\u03bf\u03b2\u03af\u03b1","name:en":"Warsaw","name:eo":"Varsovio","name:es":"Varsovia","name:et":"Varssavi","name:eu":"Varsovia","name:fa":"\u0648\u0631\u0634\u0648","name:fi":"Varsova","name:fo":"Warszawa","name:fr":"Varsovie","name:frp":"Varsovie","name:fy":"Warsjau","name:ga":"V\u00e1rs\u00e1","name:gag":"Var\u015fava","name:gd":"Warsaw","name:gl":"Varsovia - Warszawa","name:gv":"Warszawa","name:he":"\u05d5\u05e8\u05e9\u05d4","name:hi":"\u0935\u093e\u0930\u0938\u0949","name:hif":"Warsaw","name:hr":"Var\u0161ava","name:hsb":"War\u0161awa","name:ht":"Vasovi","name:hu":"Vars\u00f3","name:hy":"\u054e\u0561\u0580\u0577\u0561\u057e\u0561","name:ia":"Varsovia","name:id":"Warsawa","name:ie":"Warszawa","name:io":"Warszawa","name:is":"Varsj\u00e1","name:it":"Varsavia","name:ja":"\u30ef\u30eb\u30b7\u30e3\u30ef","name:jbo":"varcavas","name:jv":"Warsawa","name:ka":"\u10d5\u10d0\u10e0\u10e8\u10d0\u10d5\u10d0","name:kk":"\u0412\u0430\u0440\u0448\u0430\u0432\u0430","name:kl":"Warszawa","name:ko":"\ubc14\ub974\uc0e4\ubc14","name:krc":"\u0412\u0430\u0440\u0448\u0430\u0432\u0430","name:ku":"War\u015fova","name:kv":"\u0412\u0430\u0440\u0448\u0430\u0432\u0430","name:kw":"Warszawa","name:ky":"\u0412\u0430\u0440\u0448\u0430\u0432\u0430","name:la":"Varsovia","name:lb":"Warschau","name:lij":"Varsavvia","name:lmo":"Varsavia","name:ln":"Warsaw","name:lt":"Var\u0161uva","name:lv":"Var\u0161ava","name:mg":"Vars\u00f4via","name:mi":"Pakangakite","name:mk":"\u0412\u0430\u0440\u0448\u0430\u0432\u0430","name:ml":"\u0d35\u0d3e\u0d34\u0d4d\u200c\u0d38","name:mn":"\u0412\u0430\u0440\u0448\u0430\u0432","name:mr":"\u0935\u0930\u094d\u091d\u093e\u0935\u093e","name:mrj":"\u0412\u0430\u0440\u0448\u0430\u0432\u0430","name:ms":"Warsaw","name:mt":"Varsavja","name:my":"\u101d\u102b\u1006\u1031\u102c\u1019\u103c\u102d\u102f\u1037","name:na":"Warsaw","name:nah":"Varsovia","name:nan":"Warszawa","name:nap":"Varsavia","name:nds":"Warschau","name:nl":"Warschau","name:nn":"Warszawa","name:no":"Warszawa","name:nov":"Varsava","name:oc":"Vars\u00f2via","name:os":"\u0412\u0430\u0440\u0448\u0430\u0432\u00e6","name:pa":"\u0a35\u0a3e\u0a30\u0a38\u0a3e","name:pap":"Varsovia","name:pdc":"Woarschau","name:pih":"Worsaaw","name:pl":"Warszawa","name:pms":"Varsavia","name:pnb":"\u0648\u0627\u0631\u0633\u0627","name:prefix":"miasto","name:pt":"Vars\u00f3via","name:qu":"Warszawa","name:rm":"Varsovia","name:ro":"Var\u0219ovia","name:roa-rup":"Varshava","name:ru":"\u0412\u0430\u0440\u0448\u0430\u0432\u0430","name:sah":"\u0412\u0430\u0440\u0448\u0430\u0432\u0430","name:sc":"Varsavia","name:scn":"Varsavia","name:sco":"Warsaw","name:sh":"Var\u0161ava","name:sk":"Var\u0161ava","name:sl":"Var\u0161ava","name:sq":"Varshava","name:sr":"\u0412\u0430\u0440\u0448\u0430\u0432\u0430","name:st":"Warsaw","name:sv":"Warszawa","name:sw":"Warshawa","name:szl":"Warszawa","name:ta":"\u0bb5\u0bbe\u0bb0\u0bcd\u0b9a\u0bbe","name:tet":"Vars\u00f3via","name:tg":"\u0412\u0430\u0440\u0448\u0430\u0432\u0430","name:th":"\u0e27\u0e2d\u0e23\u0e4c\u0e0b\u0e2d","name:tk":"War\u015fawa","name:tl":"Warsaw","name:tpi":"Woso","name:tr":"Var\u015fova","name:tt":"\u0412\u0430\u0440\u0448\u0430\u0432\u0430","name:tzl":"Varschava","name:udm":"\u0412\u0430\u0440\u0448\u0430\u0432\u0430","name:ug":"Warshawa","name:uk":"\u0412\u0430\u0440\u0448\u0430\u0432\u0430","name:ur":"\u0648\u0627\u0631\u0633\u0627","name:uz":"Varshava","name:vec":"Varsavia","name:vep":"Var\u0161av","name:vi":"Warszawa","name:vo":"Warszawa","name:vro":"Varssavi","name:war":"Warsovya","name:wo":"Warsaw","name:xmf":"\u10d5\u10d0\u10e0\u10e8\u10d0\u10d5\u10d0","name:yi":"\u05d5\u05d5\u05d0\u05e8\u05e9\u05e2","name:yo":"Warsaw","name:yue":"\u83ef\u6c99","name:zh":"\u534e\u6c99","name:zu":"IWarshawa","rank":"10","teryt:rm":"96","teryt:simc":"0918123","teryt:stan_na":"2009-01-01","teryt:updated_by":"teryt2osm combine.py v. 49","type":"boundary","wikidata":"Q270","wikipedia":"pl:Warszawa"}},{"type":"area","id":3600336075,"tags":{"admin_level":"6","boundary":"administrative","name":"Warszawa","name:az":"Var\u015fava","name:de":"Warschau","name:en":"Warsaw","name:es":"Varsovia","name:lt":"Var\u0161uva","name:pl":"Warszawa","name:prefix":"miasto na prawach powiatu","name:ru":"\u0412\u0430\u0440\u0448\u0430\u0432\u0430","name:sk":"Var\u0161ava","name:uk":"\u0412\u0430\u0440\u0448\u0430\u0432\u0430","teryt:terc":"1465","type":"boundary","website":"http:\/\/www.um.warszawa.pl\/","wikidata":"Q270","wikipedia":"pl:Warszawa"}},{"type":"area","id":3600936128,"tags":{"admin_level":"2","boundary":"land_area","land_area":"administrative","name":"Polska (l\u0105d)","name:de":"Polen (Landmasse)","name:en":"Poland (land mass)","name:eo":"Pollando (tero)","name:fr":"Pologne (terres)","name:ja":"\u30dd\u30fc\u30e9\u30f3\u30c9","name:pl":"Polska (l\u0105d)","name:ru":"\u041f\u043e\u043b\u044c\u0448\u0430 (\u0441\u0443\u0448\u0430)","name:uk":"\u041f\u043e\u043b\u044c\u0449\u0430 (\u0437\u0435\u043c\u043b\u044f)","source":"PRG","type":"boundary"}},{"type":"area","id":3602534036,"tags":{"admin_level":"9","boundary":"administrative","name":"\u015ar\u00f3dmie\u015bcie","name:de":"Stadtmitte","name:en":"Midtown","name:pl":"\u015ar\u00f3dmie\u015bcie","name:prefix":"dzielnica","population":"121163","source:population":"http:\/\/stat.gov.pl\/obszary-tematyczne\/ludnosc\/ludnosc\/ludnosc-stan-i-struktura-ludnosci-oraz-ruch-naturalny-w-przekroju-terytorialnym-w-2013-r-stan-w-dniu-31-xii,6,12.html","teryt:simc":"0919810","teryt:terc":"1465108","type":"boundary","vehicle_plate_code":"WI;AI","website":"http:\/\/www.srodmiescie.warszawa.pl\/","wikidata":"Q7095","wikipedia":"pl:\u015ar\u00f3dmie\u015bcie (Warszawa)"}},{"type":"area","id":3602907540,"tags":{"admin_level":"7","boundary":"administrative","name":"Warszawa","name:de":"Warschau","name:en":"Warsaw","name:fi":"Varsova","name:pl":"Warszawa","name:prefix":"miasto sto\u0142eczne","name:sk":"Var\u0161ava","teryt:terc":"1465011","type":"boundary","website":"http:\/\/www.um.warszawa.pl\/","website:zbiorkom":"https:\/\/zbiorkom.live\/warsaw","wikidata":"Q270","wikipedia":"pl:Warszawa"}},{"type":"area","id":3603533124,"tags":{"boundary":"zone","fee":"yes","fee:conditional":"no @ (Mo-Fr 00:00-08:00,20:00-24:00; Sa; Su)","name":"Strefa P\u0142atnego Parkowania Niestrze\u017conego w Warszawie","operator":"ZDM Warszawa","short_name":"SPPN Warszawa","type":"boundary","website":"https:\/\/zdm.waw.pl\/sprawy\/parkowanie\/o-strefie-platnego-parkowania-niestrzez\/","zone":"parking"}},{"type":"area","id":3609294678,"tags":{"admin_level":"6","boundary":"religious_administration","denomination":"roman_catholic","name":"Archidiecezja warszawska","name:de":"Erzbistum Warschau","religion":"christian","type":"boundary","wikidata":"Q254994","wikipedia":"pl:Archidiecezja warszawska"}},{"type":"area","id":3611191569,"tags":{"admin_level":"10","boundary":"administrative","name":"\u015ar\u00f3dmie\u015bcie Po\u0142udniowe","name:prefix":"obszar Miejskiego Systemu Informacji","type":"boundary","wikidata":"Q9395946","wikipedia":"pl:\u015ar\u00f3dmie\u015bcie Po\u0142udniowe"}},{"type":"area","id":3611380847,"tags":{"admin_level":"8","boundary":"religious_administration","denomination":"roman_catholic","diocese":"Archidiecezja warszawska","name":"Dekanat \u015br\u00f3dmiejski","religion":"christian","type":"boundary","website":"https:\/\/www.archwwa.pl\/parafie\/podzial\/parafie-warszawskie\/dekanat-srodmiejski","wikidata":"Q11693765","wikipedia":"pl:Dekanat \u015br\u00f3dmiejski"}},{"type":"area","id":3611381814,"tags":{"admin_level":"10","boundary":"religious_administration","deanery":"Dekanat \u015br\u00f3dmiejski","denomination":"roman_catholic","diocese":"Archidiecezja warszawska","name":"Parafia \u015bw. Barbary w Warszawie","parish:id":"02105","phone":"+48 22 621 36 22","religion":"christian","start_date":"1781","type":"boundary","website":"https:\/\/swbarbara.mkw.pl\/","wikidata":"Q11808020","wikipedia":"pl:Parafia \u015bw. Barbary w Warszawie"}},{"type":"area","id":3616478963,"tags":{"boundary":"political","name":"Okr\u0119g do Sejmu RP nr 19","official_name":"Okr\u0119g wyborczy do Sejmu Rzeczypospolitej Polskiej numer 19","political_division":"PL:sejm","ref":"19","type":"boundary","wikidata":"Q7970905","wikipedia":"pl:Okr\u0119g wyborczy nr 19 do Sejmu Rzeczypospolitej Polskiej"}},{"type":"area","id":3616490559,"tags":{"boundary":"political","name":"Okr\u0119g do Senatu RP nr 44","official_name":"Okr\u0119g wyborczy do Senatu Rzeczypospolitej Polskiej numer 44","political_division":"PL:senat","ref":"44","type":"boundary","wikidata":"Q11797388","wikipedia":"pl:Okr\u0119g wyborczy nr 44 do Senatu Rzeczypospolitej Polskiej"}},{"type":"area","id":3616819467,"tags":{"boundary":"timezone","name":"UTC+01:00 standard time","name:de":"UTC+01:00 Standardzeit","name:en":"UTC+01:00 standard time","name:mk":"\u0421\u0440\u0435\u0434\u043d\u043e\u0435\u0432\u0440\u043e\u043f\u0441\u043a\u043e \u0432\u0440\u0435\u043c\u0435 (UTC+01:00)","name:pl":"UTC+01:00 czas standardowy","note":"Work in progress.","type":"boundary","wikidata":"Q6655","wikipedia":"en:UTC+01:00"}},{"type":"area","id":3617564182,"tags":{"admin_level":"3","boundary":"statistical","name":"Makroregion wojew\u00f3dztwo mazowieckie","ref:nuts:1":"PL9","type":"boundary"}},{"type":"area","id":3617627236,"tags":{"admin_level":"5","boundary":"statistical","name":"Warszawski sto\u0142eczny","name:en":"Warsaw metropolitan area","name:pl":"Warszawski sto\u0142eczny","ref:nuts:2":"PL91","type":"boundary"}},{"type":"area","id":3617792822,"tags":{"boundary":"low_emission_zone","motor_vehicle:conditional":"no @ (fuel=diesel AND emissions<euro_4; fuel=petrol AND emissions<euro_2)","name":"Strefa Czystego Transportu","short_name":"SCT","start_date":"2024-07-01","type":"boundary","website":"https:\/\/transport.um.warszawa.pl\/sct"}},{"type":"node","id":4369104310,"lat":51.7454213,"lon":20.9584867},{"type":"node","id":4369104321,"lat":51.785229,"lon":20.9474353},{"type":"node","id":4369104330,"lat":51.8170088,"lon":20.9541817},{"type":"node","id":4369104334,"lat":51.8412031,"lon":20.9590716},{"type":"node","id":4369104341,"lat":51.8631154,"lon":20.9292713},{"type":"node","id":4369104349,"lat":51.8913896,"lon":20.8881715},{"type":"node","id":4369104362,"lat":51.9206267,"lon":20.8755422},{"type":"node","id":4369008325,"lat":52.0228143,"lon":20.8474414},{"type":"node","id":4369104371,"lat":51.9667907,"lon":20.875928},{"type":"node","id":4369104374,"lat":51.9996113,"lon":20.8773001},{"type":"node","id":4369008330,"lat":52.0363295,"lon":20.8537562},{"type":"node","id":4369008343,"lat":52.0626814,"lon":20.8541588},{"type":"node","id":4369008355,"lat":52.0919223,"lon":20.8443608},{"type":"node","id":4369008367,"lat":52.1189413,"lon":20.8214772},{"type":"node","id":4369008593,"lat":52.1635089,"lon":20.84589},{"type":"node","id":4369008603,"lat":52.1726974,"lon":20.8434069},{"type":"node","id":4369008614,"lat":52.1955366,"lon":20.8263331},{"type":"node","id":4940970751,"lat":52.1962088,"lon":20.8262402},{"type":"node","id":4369008638,"lat":52.2233435,"lon":20.8224869},{"type":"node","id":9251462098,"lat":52.2025834,"lon":20.9445655},{"type":"node","id":9251462091,"lat":52.209224,"lon":20.9389222},{"type":"node","id":9251462092,"lat":52.2086652,"lon":20.9391582},{"type":"node","id":9251462093,"lat":52.2082181,"lon":20.9395015},{"type":"node","id":9251462094,"lat":52.2042666,"lon":20.943557},{"type":"node","id":9251462095,"lat":52.2037735,"lon":20.9440398},{"type":"node","id":9251462096,"lat":52.203379,"lon":20.9442758},{"type":"node","id":9251462097,"lat":52.2028069,"lon":20.9443939},{"type":"node","id":9251462099,"lat":52.2019521,"lon":20.9454024},{"type":"node","id":9251462100,"lat":52.2014787,"lon":20.9463787},{"type":"node","id":9251462101,"lat":52.201242,"lon":20.9470975},{"type":"node","id":9251462102,"lat":52.2010776,"lon":20.9477305},{"type":"node","id":9251462081,"lat":52.2143419,"lon":20.9452414},{"type":"node","id":9251462082,"lat":52.2142959,"lon":20.9444368},{"type":"node","id":9251462083,"lat":52.2141907,"lon":20.9435624},{"type":"node","id":9251462084,"lat":52.2140329,"lon":20.9428811},{"type":"node","id":9251462085,"lat":52.2136517,"lon":20.9418082},{"type":"node","id":9251462086,"lat":52.2130206,"lon":20.9406441},{"type":"node","id":9251462087,"lat":52.2124322,"lon":20.9400701},{"type":"node","id":9251462088,"lat":52.2109136,"lon":20.9391796},{"type":"node","id":9251462089,"lat":52.2102956,"lon":20.9389865},{"type":"node","id":9251462090,"lat":52.2096842,"lon":20.9388792},{"type":"node","id":9251462075,"lat":52.2157848,"lon":20.9566998},{"type":"node","id":9251462076,"lat":52.2152523,"lon":20.9560132},{"type":"node","id":9251462077,"lat":52.2147133,"lon":20.9549779},{"type":"node","id":9251462078,"lat":52.2145523,"lon":20.9542376},{"type":"node","id":9251462079,"lat":52.2143583,"lon":20.9530842},{"type":"node","id":9251462080,"lat":52.214309,"lon":20.9519631},{"type":"node","id":9251462073,"lat":52.2174676,"lon":20.9581911},{"type":"node","id":9251462074,"lat":52.2164027,"lon":20.9572363},{"type":"node","id":7884600134,"lat":52.222126,"lon":20.9588056},{"type":"node","id":7884600135,"lat":52.2218395,"lon":20.959008},{"type":"node","id":7884600136,"lat":52.2210848,"lon":20.9595967},{"type":"node","id":7884600137,"lat":52.2207243,"lon":20.9598095},{"type":"node","id":7884600138,"lat":52.2204755,"lon":20.9598838},{"type":"node","id":7884600139,"lat":52.2183929,"lon":20.9601137},{"type":"node","id":9251462072,"lat":52.2179803,"lon":20.9589851},{"type":"node","id":12026769916,"lat":52.2190439,"lon":20.9638441},{"type":"node","id":12026769917,"lat":52.2186707,"lon":20.9620481},{"type":"node","id":12026769918,"lat":52.2182635,"lon":20.9603384},{"type":"node","id":12026769919,"lat":52.2199059,"lon":20.9602026},{"type":"node","id":12026769920,"lat":52.2208448,"lon":20.9600846},{"type":"node","id":12026769921,"lat":52.2213174,"lon":20.9596561},{"type":"node","id":12026769922,"lat":52.2221522,"lon":20.9589518},{"type":"node","id":12026769912,"lat":52.2199991,"lon":20.9707105},{"type":"node","id":12026769913,"lat":52.2197657,"lon":20.9701995},{"type":"node","id":12026769914,"lat":52.2199831,"lon":20.9682645},{"type":"node","id":12026769915,"lat":52.2194107,"lon":20.9656618},{"type":"node","id":7884600123,"lat":52.2289075,"lon":20.9506786},{"type":"node","id":7884600124,"lat":52.2286411,"lon":20.9508142},{"type":"node","id":7884600125,"lat":52.2285316,"lon":20.9509605},{"type":"node","id":7884600126,"lat":52.2282144,"lon":20.9511443},{"type":"node","id":7884600127,"lat":52.2278749,"lon":20.9512418},{"type":"node","id":7884600128,"lat":52.2275615,"lon":20.9514102},{"type":"node","id":4299081701,"lat":52.2259319,"lon":20.9583525},{"type":"node","id":7884600129,"lat":52.2277566,"lon":20.9542885},{"type":"node","id":7884600130,"lat":52.2279565,"lon":20.9573047},{"type":"node","id":7884600131,"lat":52.225822,"lon":20.9577941},{"type":"node","id":7884600132,"lat":52.2242581,"lon":20.958105},{"type":"node","id":11295500834,"lat":52.2277136,"lon":20.9536387},{"type":"node","id":12026769927,"lat":52.2271605,"lon":20.9579307},{"type":"node","id":12026769928,"lat":52.2286339,"lon":20.9575751},{"type":"node","id":12050905179,"lat":52.2249449,"lon":20.9581842},{"type":"node","id":7884600121,"lat":52.2293791,"lon":20.9511624},{"type":"node","id":7884600122,"lat":52.2291035,"lon":20.9505554},{"type":"node","id":7884600113,"lat":52.2345257,"lon":20.9558204},{"type":"node","id":7884600114,"lat":52.2337065,"lon":20.9558503},{"type":"node","id":7884600115,"lat":52.233084,"lon":20.9559315},{"type":"node","id":7884600116,"lat":52.2308918,"lon":20.956461},{"type":"node","id":7884600117,"lat":52.2308074,"lon":20.9560252},{"type":"node","id":7884600118,"lat":52.2307109,"lon":20.9554551},{"type":"node","id":7884600119,"lat":52.2304616,"lon":20.9545566},{"type":"node","id":7884600120,"lat":52.2296436,"lon":20.9520053},{"type":"node","id":4299081520,"lat":52.2249693,"lon":20.9587844},{"type":"node","id":4299081522,"lat":52.224984,"lon":20.9588314},{"type":"node","id":4299081527,"lat":52.2250061,"lon":20.9587571},{"type":"node","id":4299081529,"lat":52.2250141,"lon":20.9589133},{"type":"node","id":4299081530,"lat":52.2250161,"lon":20.9587527},{"type":"node","id":4299081532,"lat":52.2250188,"lon":20.9587953},{"type":"node","id":4299081539,"lat":52.2250556,"lon":20.9587614},{"type":"node","id":4299081540,"lat":52.2250563,"lon":20.9588794},{"type":"node","id":4299081551,"lat":52.2251051,"lon":20.9587811},{"type":"node","id":4299081557,"lat":52.2251426,"lon":20.9588346},{"type":"node","id":4299081559,"lat":52.2251893,"lon":20.9590004},{"type":"node","id":4299081581,"lat":52.2256405,"lon":20.9586298},{"type":"node","id":4299081582,"lat":52.2256412,"lon":20.9585991},{"type":"node","id":7884600133,"lat":52.2225145,"lon":20.958627},{"type":"node","id":12026769923,"lat":52.2234783,"lon":20.9585701},{"type":"node","id":12050905180,"lat":52.2248791,"lon":20.958746},{"type":"node","id":4369008652,"lat":52.2507021,"lon":20.8352633},{"type":"node","id":4369008658,"lat":52.266717,"lon":20.8451139},{"type":"node","id":4369008684,"lat":52.3029308,"lon":20.8439991},{"type":"node","id":7884600109,"lat":52.2396945,"lon":20.9566912},{"type":"node","id":7884600110,"lat":52.2383942,"lon":20.9561727},{"type":"node","id":7884600111,"lat":52.2375148,"lon":20.9559596},{"type":"node","id":7884600112,"lat":52.2361482,"lon":20.955853},{"type":"node","id":12026769930,"lat":52.237867,"lon":20.9579605},{"type":"node","id":12031874916,"lat":52.2382484,"lon":20.9581745},{"type":"node","id":7884600103,"lat":52.2475687,"lon":20.9573014},{"type":"node","id":7884600104,"lat":52.2464938,"lon":20.9576845},{"type":"node","id":7884600105,"lat":52.244824,"lon":20.9580645},{"type":"node","id":7884600106,"lat":52.2441758,"lon":20.9581174},{"type":"node","id":7884600107,"lat":52.2435931,"lon":20.9580956},{"type":"node","id":7884600108,"lat":52.2429932,"lon":20.9579645},{"type":"node","id":12026769932,"lat":52.2441918,"lon":20.9588794},{"type":"node","id":12026769933,"lat":52.2468282,"lon":20.9591984},{"type":"node","id":7884600100,"lat":52.2526648,"lon":20.9546272},{"type":"node","id":7884600101,"lat":52.2514556,"lon":20.9552507},{"type":"node","id":7884600102,"lat":52.249267,"lon":20.9564243},{"type":"node","id":9251485452,"lat":52.2548336,"lon":20.9523117},{"type":"node","id":9251485453,"lat":52.2545709,"lon":20.9530091},{"type":"node","id":9251485454,"lat":52.2543147,"lon":20.9534919},{"type":"node","id":9251485455,"lat":52.2540389,"lon":20.953846},{"type":"node","id":9251485456,"lat":52.2537565,"lon":20.9540713},{"type":"node","id":9251485446,"lat":52.2567185,"lon":20.9485674},{"type":"node","id":9251485447,"lat":52.2563967,"lon":20.9484708},{"type":"node","id":9251485448,"lat":52.2562456,"lon":20.9485352},{"type":"node","id":9251485449,"lat":52.2560026,"lon":20.9487498},{"type":"node","id":9251485450,"lat":52.2557465,"lon":20.9490824},{"type":"node","id":9251485451,"lat":52.2555954,"lon":20.9494257},{"type":"node","id":9251485445,"lat":52.2615715,"lon":20.9531593},{"type":"node","id":12026769934,"lat":52.2489572,"lon":20.9592902},{"type":"node","id":12026769935,"lat":52.2503991,"lon":20.9598016},{"type":"node","id":12026769936,"lat":52.2511523,"lon":20.9604752},{"type":"node","id":12026769937,"lat":52.2519136,"lon":20.9613847},{"type":"node","id":12026769938,"lat":52.2525186,"lon":20.9625008},{"type":"node","id":12026769939,"lat":52.2538908,"lon":20.9658237},{"type":"node","id":9251485444,"lat":52.2648285,"lon":20.9564316},{"type":"node","id":9251485443,"lat":52.2679801,"lon":20.9599614},{"type":"node","id":9251485440,"lat":52.2717355,"lon":20.9648967},{"type":"node","id":9251485441,"lat":52.2699366,"lon":20.9622788},{"type":"node","id":9251485442,"lat":52.268965,"lon":20.9610772},{"type":"node","id":9251485438,"lat":52.2745519,"lon":20.9695315},{"type":"node","id":9251485439,"lat":52.2731798,"lon":20.9671497},{"type":"node","id":4369104515,"lat":52.2760092,"lon":20.9706534},{"type":"node","id":4369104516,"lat":52.286528,"lon":20.9584229},{"type":"node","id":4369104521,"lat":52.3084483,"lon":20.8836814},{"type":"node","id":1049811491,"lat":52.3087504,"lon":20.891812},{"type":"node","id":4369104522,"lat":52.3094451,"lon":20.9105136},{"type":"node","id":4369104520,"lat":52.3080912,"lon":20.9279265},{"type":"node","id":4369104519,"lat":52.3050277,"lon":20.9406047},{"type":"node","id":4369104517,"lat":52.2973065,"lon":20.9542406},{"type":"node","id":4369104294,"lat":51.6923931,"lon":21.0068653},{"type":"node","id":4369104305,"lat":51.7245859,"lon":20.9911425},{"type":"node","id":4369104313,"lat":51.7402514,"lon":21.0961197},{"type":"node","id":4369104316,"lat":51.7646307,"lon":21.1307108},{"type":"node","id":11445361919,"lat":51.8029178,"lon":21.2440843},{"type":"node","id":7079365711,"lat":51.8074859,"lon":21.2576174},{"type":"node","id":4369104335,"lat":51.8432545,"lon":21.2425592},{"type":"node","id":12094739262,"lat":51.863527,"lon":21.2376128},{"type":"node","id":4369104354,"lat":51.9011995,"lon":21.2305358},{"type":"node","id":4369104344,"lat":51.8743397,"lon":21.2349737},{"type":"node","id":4369104364,"lat":51.9262758,"lon":21.2260048},{"type":"node","id":4369104369,"lat":51.9597292,"lon":21.224333},{"type":"node","id":4369104372,"lat":51.9978855,"lon":21.2025645},{"type":"node","id":4369104382,"lat":52.0381021,"lon":21.1812149},{"type":"node","id":4369104490,"lat":52.0726851,"lon":21.1499843},{"type":"node","id":4369104493,"lat":52.1083092,"lon":21.0989886},{"type":"node","id":4369104491,"lat":52.085195,"lon":21.1343872},{"type":"node","id":4369104496,"lat":52.1445572,"lon":21.0698973},{"type":"node","id":4369104498,"lat":52.1666231,"lon":21.0462702},{"type":"node","id":4642980630,"lat":52.165029,"lon":21.0479775},{"type":"node","id":12557578328,"lat":52.1830273,"lon":21.0247411},{"type":"node","id":12557578329,"lat":52.182868,"lon":21.0250813},{"type":"node","id":12557578330,"lat":52.1825169,"lon":21.0254312},{"type":"node","id":12557578331,"lat":52.1821998,"lon":21.0256007},{"type":"node","id":12557578332,"lat":52.1818742,"lon":21.0256101},{"type":"node","id":12557578333,"lat":52.1818802,"lon":21.0270622},{"type":"node","id":12557578334,"lat":52.1820639,"lon":21.0270696},{"type":"node","id":12557578335,"lat":52.1821235,"lon":21.0282057},{"type":"node","id":12557578336,"lat":52.1823947,"lon":21.0282122},{"type":"node","id":12557578337,"lat":52.1824449,"lon":21.0279919},{"type":"node","id":12557578340,"lat":52.1830223,"lon":21.0275971},{"type":"node","id":12557578341,"lat":52.1830257,"lon":21.0268471},{"type":"node","id":4369104501,"lat":52.1791026,"lon":21.0329636},{"type":"node","id":4369104500,"lat":52.1740923,"lon":21.0437638},{"type":"node","id":9251462103,"lat":52.193046,"lon":20.9821917},{"type":"node","id":12557447196,"lat":52.1941379,"lon":20.9825795},{"type":"node","id":12557447197,"lat":52.1941007,"lon":20.9828957},{"type":"node","id":12557447198,"lat":52.1936467,"lon":20.9828639},{"type":"node","id":12557447199,"lat":52.1934237,"lon":20.9828927},{"type":"node","id":12557447200,"lat":52.1930465,"lon":20.9841654},{"type":"node","id":12557578306,"lat":52.1894371,"lon":20.9876484},{"type":"node","id":12557578307,"lat":52.1892181,"lon":20.9882892},{"type":"node","id":12557578308,"lat":52.1889034,"lon":20.990157},{"type":"node","id":12557578309,"lat":52.1887755,"lon":20.9916014},{"type":"node","id":12557578310,"lat":52.1886155,"lon":20.9930443},{"type":"node","id":12557578311,"lat":52.1886428,"lon":20.9954424},{"type":"node","id":12557578312,"lat":52.1890149,"lon":20.9956739},{"type":"node","id":12557578301,"lat":52.1924587,"lon":20.9854404},{"type":"node","id":12557578302,"lat":52.1921219,"lon":20.9858668},{"type":"node","id":12557578303,"lat":52.1911948,"lon":20.9866542},{"type":"node","id":12557578304,"lat":52.1904374,"lon":20.9871122},{"type":"node","id":12557578305,"lat":52.1896838,"lon":20.9874193},{"type":"node","id":12557578313,"lat":52.189045,"lon":20.9995145},{"type":"node","id":12557578314,"lat":52.1890834,"lon":21.0012529},{"type":"node","id":12557578315,"lat":52.1888225,"lon":21.0023921},{"type":"node","id":12557578316,"lat":52.188966,"lon":21.0137401},{"type":"node","id":12557578317,"lat":52.1867391,"lon":21.013805},{"type":"node","id":12557578318,"lat":52.1867004,"lon":21.0139503},{"type":"node","id":12557578319,"lat":52.1852894,"lon":21.0140395},{"type":"node","id":12557578320,"lat":52.1845284,"lon":21.0141813},{"type":"node","id":12557578321,"lat":52.1833401,"lon":21.0142253},{"type":"node","id":12557578322,"lat":52.1834009,"lon":21.0170708},{"type":"node","id":12557578323,"lat":52.1833336,"lon":21.0198205},{"type":"node","id":12557578324,"lat":52.1832619,"lon":21.0215034},{"type":"node","id":12557578325,"lat":52.1833164,"lon":21.0219395},{"type":"node","id":12557578326,"lat":52.1833526,"lon":21.0229458},{"type":"node","id":2272560583,"lat":52.2187721,"lon":20.9753048},{"type":"node","id":2272560586,"lat":52.2187681,"lon":20.9753043},{"type":"node","id":3647547994,"lat":52.2186967,"lon":20.9747331},{"type":"node","id":3647547997,"lat":52.2187603,"lon":20.9747613},{"type":"node","id":3647548000,"lat":52.2189781,"lon":20.9749281},{"type":"node","id":3848331513,"lat":52.2181572,"lon":20.9763638},{"type":"node","id":3848331526,"lat":52.2181859,"lon":20.9763978},{"type":"node","id":3848331530,"lat":52.2182043,"lon":20.9763616},{"type":"node","id":3848331546,"lat":52.218272,"lon":20.9763221},{"type":"node","id":3848331657,"lat":52.2183067,"lon":20.9763328},{"type":"node","id":3848331666,"lat":52.2183422,"lon":20.9763574},{"type":"node","id":3848331670,"lat":52.2183549,"lon":20.9763853},{"type":"node","id":3848331673,"lat":52.2183675,"lon":20.9764222},{"type":"node","id":3848331678,"lat":52.2183825,"lon":20.9764784},{"type":"node","id":3848331681,"lat":52.2183979,"lon":20.976511},{"type":"node","id":3848331689,"lat":52.2184152,"lon":20.9765376},{"type":"node","id":3848331695,"lat":52.218434,"lon":20.976554},{"type":"node","id":3848331704,"lat":52.2184795,"lon":20.9765835},{"type":"node","id":3848331745,"lat":52.2186357,"lon":20.9766071},{"type":"node","id":3848331747,"lat":52.2186471,"lon":20.9763915},{"type":"node","id":3848331750,"lat":52.2186566,"lon":20.9761811},{"type":"node","id":3848331857,"lat":52.2186794,"lon":20.9757461},{"type":"node","id":3848331878,"lat":52.2187474,"lon":20.9757495},{"type":"node","id":7664028689,"lat":52.2184997,"lon":20.9765897},{"type":"node","id":10595930772,"lat":52.2183041,"lon":20.9763232},{"type":"node","id":10595930779,"lat":52.2182408,"lon":20.9763293},{"type":"node","id":10595930782,"lat":52.2182183,"lon":20.9763453},{"type":"node","id":10595930822,"lat":52.2186447,"lon":20.976436},{"type":"node","id":10595930829,"lat":52.218781,"lon":20.975066},{"type":"node","id":10595930830,"lat":52.218976,"lon":20.9751016},{"type":"node","id":10595930945,"lat":52.2187601,"lon":20.9747371},{"type":"node","id":10595930946,"lat":52.2187048,"lon":20.9747323},{"type":"node","id":10595930947,"lat":52.218948,"lon":20.9747809},{"type":"node","id":10595930948,"lat":52.2189202,"lon":20.9747801},{"type":"node","id":10595930950,"lat":52.2189861,"lon":20.9747877},{"type":"node","id":10595930952,"lat":52.2186893,"lon":20.9761651},{"type":"node","id":10595930953,"lat":52.2186883,"lon":20.9761869},{"type":"node","id":10595930954,"lat":52.218658,"lon":20.9761599},{"type":"node","id":10595930974,"lat":52.2187785,"lon":20.9751067},{"type":"node","id":10595930975,"lat":52.218769,"lon":20.9752867},{"type":"node","id":10595930976,"lat":52.218773,"lon":20.9752873},{"type":"node","id":12026769910,"lat":52.2177549,"lon":20.9773588},{"type":"node","id":12026769911,"lat":52.2196962,"lon":20.9716492},{"type":"node","id":12031874917,"lat":52.2186504,"lon":20.9747135},{"type":"node","id":317953350,"lat":52.2172491,"lon":20.9811846},{"type":"node","id":317953352,"lat":52.2170153,"lon":20.9812236},{"type":"node","id":317953355,"lat":52.2166194,"lon":20.9810229},{"type":"node","id":334077713,"lat":52.2170788,"lon":20.9796385},{"type":"node","id":334077716,"lat":52.2172845,"lon":20.9798057},{"type":"node","id":334077720,"lat":52.2172716,"lon":20.980139},{"type":"node","id":334077723,"lat":52.2172861,"lon":20.9805148},{"type":"node","id":3476192681,"lat":52.2168861,"lon":20.9812572},{"type":"node","id":3476192706,"lat":52.2172624,"lon":20.9809238},{"type":"node","id":3848331198,"lat":52.2168905,"lon":20.9812434},{"type":"node","id":3848331212,"lat":52.2171844,"lon":20.9804185},{"type":"node","id":3848331214,"lat":52.2171936,"lon":20.9800706},{"type":"node","id":10595845033,"lat":52.2172878,"lon":20.9804855},{"type":"node","id":10595845034,"lat":52.2172808,"lon":20.9806061},{"type":"node","id":10595845035,"lat":52.2172732,"lon":20.9807392},{"type":"node","id":10595845036,"lat":52.2172655,"lon":20.9808722},{"type":"node","id":10595845081,"lat":52.2172701,"lon":20.9804897},{"type":"node","id":10595931157,"lat":52.2172579,"lon":20.9809943},{"type":"node","id":12026769908,"lat":52.2162754,"lon":20.9843586},{"type":"node","id":12026769909,"lat":52.2161358,"lon":20.9820971},{"type":"node","id":12034769293,"lat":52.2170089,"lon":20.979542},{"type":"node","id":12034769294,"lat":52.2165257,"lon":20.9809561},{"type":"node","id":12026769902,"lat":52.2165959,"lon":20.9911663},{"type":"node","id":12026769903,"lat":52.2165206,"lon":20.9896976},{"type":"node","id":12026769904,"lat":52.2165568,"lon":20.9892035},{"type":"node","id":12026769905,"lat":52.2166229,"lon":20.9882474},{"type":"node","id":12026769906,"lat":52.2165014,"lon":20.9877559},{"type":"node","id":12026769907,"lat":52.2164052,"lon":20.9871246},{"type":"node","id":12026769900,"lat":52.2169301,"lon":20.9970617},{"type":"node","id":12026769901,"lat":52.2167524,"lon":20.9939961},{"type":"node","id":316886385,"lat":52.2173567,"lon":21.003334},{"type":"node","id":316886387,"lat":52.2173805,"lon":21.0037518},{"type":"node","id":316886389,"lat":52.2175642,"lon":21.0037579},{"type":"node","id":316886391,"lat":52.2175783,"lon":21.003346},{"type":"node","id":8772409209,"lat":52.217314,"lon":21.0015935},{"type":"node","id":8772418427,"lat":52.2175714,"lon":21.0035814},{"type":"node","id":8772418704,"lat":52.2172597,"lon":21.0015995},{"type":"node","id":8772418900,"lat":52.2175752,"lon":21.0034601},{"type":"node","id":8772418988,"lat":52.2171851,"lon":21.0003199},{"type":"node","id":8772419255,"lat":52.2172419,"lon":21.0003122},{"type":"node","id":8772419396,"lat":52.2175783,"lon":21.0033893},{"type":"node","id":9464742799,"lat":52.2173311,"lon":21.0020638},{"type":"node","id":9464742800,"lat":52.2172832,"lon":21.0020705},{"type":"node","id":9500790798,"lat":52.2174385,"lon":21.000778},{"type":"node","id":9500790799,"lat":52.2173608,"lon":21.0007907},{"type":"node","id":9500790800,"lat":52.2172114,"lon":21.0008118},{"type":"node","id":9500790806,"lat":52.2175341,"lon":21.0004076},{"type":"node","id":9500853521,"lat":52.2174707,"lon":21.0007766},{"type":"node","id":9500853522,"lat":52.2174728,"lon":21.0006774},{"type":"node","id":9500853523,"lat":52.2175475,"lon":21.0006809},{"type":"node","id":9500853524,"lat":52.2175545,"lon":21.0004102},{"type":"node","id":9500853525,"lat":52.2174824,"lon":21.000401},{"type":"node","id":9500853526,"lat":52.217485,"lon":21.0002862},{"type":"node","id":9500853527,"lat":52.2174607,"lon":21.0002848},{"type":"node","id":9500853528,"lat":52.2173869,"lon":21.0002883},{"type":"node","id":9500853529,"lat":52.2173165,"lon":21.0003018},{"type":"node","id":9500865844,"lat":52.217528,"lon":21.0033433},{"type":"node","id":9500865900,"lat":52.2174187,"lon":21.00205},{"type":"node","id":9500865901,"lat":52.2174972,"lon":21.0020376},{"type":"node","id":9500865915,"lat":52.2175498,"lon":21.0020294},{"type":"node","id":9500865916,"lat":52.2175617,"lon":21.001591},{"type":"node","id":9500884117,"lat":52.2175573,"lon":21.0018094},{"type":"node","id":9500884119,"lat":52.2175145,"lon":21.0015878},{"type":"node","id":9500884122,"lat":52.2173558,"lon":21.0015897},{"type":"node","id":9500884123,"lat":52.2174367,"lon":21.0015824},{"type":"node","id":12026769897,"lat":52.2172846,"lon":21.0030318},{"type":"node","id":12026769899,"lat":52.2171057,"lon":20.9997839},{"type":"node","id":12037589422,"lat":52.2171376,"lon":21.0003268},{"type":"node","id":12037589423,"lat":52.217163,"lon":21.0008197},{"type":"node","id":12037589424,"lat":52.2172356,"lon":21.0020805},{"type":"node","id":12037589425,"lat":52.2172092,"lon":21.001605},{"type":"node","id":12037589426,"lat":52.2173017,"lon":21.0033299},{"type":"node","id":12037589427,"lat":52.2173653,"lon":21.0037527},{"type":"node","id":12026769893,"lat":52.2174574,"lon":21.0103785},{"type":"node","id":12026769894,"lat":52.2175098,"lon":21.0083282},{"type":"node","id":12026769895,"lat":52.2175151,"lon":21.0071372},{"type":"node","id":12026769896,"lat":52.2174181,"lon":21.0053578},{"type":"node","id":12026769888,"lat":52.2175929,"lon":21.0170498},{"type":"node","id":12026769889,"lat":52.2174223,"lon":21.0160871},{"type":"node","id":12026769890,"lat":52.2173168,"lon":21.0150375},{"type":"node","id":12026769891,"lat":52.2172789,"lon":21.0142549},{"type":"node","id":12026769892,"lat":52.2173304,"lon":21.0130845},{"type":"node","id":12026769881,"lat":52.2200164,"lon":21.0237887},{"type":"node","id":12026769882,"lat":52.2198377,"lon":21.0235987},{"type":"node","id":12026769883,"lat":52.2194569,"lon":21.0236697},{"type":"node","id":12026769884,"lat":52.2192943,"lon":21.0239408},{"type":"node","id":12026769886,"lat":52.2184954,"lon":21.0213796},{"type":"node","id":12026769887,"lat":52.2177514,"lon":21.0181737},{"type":"node","id":4369104502,"lat":52.1873766,"lon":21.0292755},{"type":"node","id":12557578327,"lat":52.1831042,"lon":21.0244232},{"type":"node","id":12557578338,"lat":52.1830538,"lon":21.0279818},{"type":"node","id":12557578339,"lat":52.1830549,"lon":21.0277748},{"type":"node","id":12557578342,"lat":52.1850696,"lon":21.0268704},{"type":"node","id":12557578343,"lat":52.1850761,"lon":21.0283275},{"type":"node","id":12557578344,"lat":52.1856933,"lon":21.028553},{"type":"node","id":12557578345,"lat":52.1859559,"lon":21.0284033},{"type":"node","id":12557578346,"lat":52.1861178,"lon":21.0283652},{"type":"node","id":12557578347,"lat":52.1862186,"lon":21.0283127},{"type":"node","id":12557578348,"lat":52.1862806,"lon":21.02803},{"type":"node","id":12557578349,"lat":52.1863919,"lon":21.0280631},{"type":"node","id":12557578350,"lat":52.1868342,"lon":21.0288479},{"type":"node","id":12557578351,"lat":52.1871895,"lon":21.0293578},{"type":"node","id":12557578352,"lat":52.1878779,"lon":21.0297396},{"type":"node","id":12557578353,"lat":52.1881817,"lon":21.0300613},{"type":"node","id":12557578354,"lat":52.1883507,"lon":21.0305433},{"type":"node","id":12557578355,"lat":52.1887821,"lon":21.0348552},{"type":"node","id":12557578356,"lat":52.189002,"lon":21.0360404},{"type":"node","id":4369104504,"lat":52.1959275,"lon":21.0302459},{"type":"node","id":12557578357,"lat":52.1899865,"lon":21.0385656},{"type":"node","id":12557578358,"lat":52.1904739,"lon":21.0405221},{"type":"node","id":12557578359,"lat":52.191056,"lon":21.0425024},{"type":"node","id":12557578360,"lat":52.1916118,"lon":21.0444195},{"type":"node","id":12557578361,"lat":52.1919027,"lon":21.0457611},{"type":"node","id":12557578362,"lat":52.1921068,"lon":21.0482605},{"type":"node","id":12557578363,"lat":52.1922081,"lon":21.0490725},{"type":"node","id":4369104505,"lat":52.2049049,"lon":21.027169},{"type":"node","id":10297389444,"lat":52.2071114,"lon":21.0485519},{"type":"node","id":12557578364,"lat":52.1927081,"lon":21.0548733},{"type":"node","id":12557578365,"lat":52.19278,"lon":21.0565514},{"type":"node","id":12557578366,"lat":52.1939454,"lon":21.0551627},{"type":"node","id":12557578367,"lat":52.196747,"lon":21.0521278},{"type":"node","id":12557578368,"lat":52.1979135,"lon":21.0512831},{"type":"node","id":12557578369,"lat":52.19981,"lon":21.0504796},{"type":"node","id":4369104506,"lat":52.2123856,"lon":21.0280908},{"type":"node","id":12026769872,"lat":52.2203591,"lon":21.0289651},{"type":"node","id":12026769873,"lat":52.2203629,"lon":21.0285359},{"type":"node","id":12026769874,"lat":52.2202515,"lon":21.0275936},{"type":"node","id":12026769875,"lat":52.2201476,"lon":21.0267693},{"type":"node","id":12026769876,"lat":52.2200455,"lon":21.0262346},{"type":"node","id":12026769877,"lat":52.2199506,"lon":21.0257963},{"type":"node","id":12026769878,"lat":52.2199411,"lon":21.0253458},{"type":"node","id":12026769879,"lat":52.2200363,"lon":21.0248184},{"type":"node","id":12026769880,"lat":52.2201382,"lon":21.0243231},{"type":"node","id":12026769885,"lat":52.2192724,"lon":21.0246064},{"type":"node","id":4369104507,"lat":52.2212431,"lon":21.0319819},{"type":"node","id":12026769870,"lat":52.222323,"lon":21.0368171},{"type":"node","id":12026769871,"lat":52.2213786,"lon":21.0330997},{"type":"node","id":2686763406,"lat":52.2142968,"lon":21.0464166},{"type":"node","id":2686763410,"lat":52.2143401,"lon":21.0467401},{"type":"node","id":2686763431,"lat":52.2151113,"lon":21.0465339},{"type":"node","id":2686763437,"lat":52.2155612,"lon":21.0464108},{"type":"node","id":2686763495,"lat":52.2160431,"lon":21.0463438},{"type":"node","id":2686763605,"lat":52.2169422,"lon":21.0462518},{"type":"node","id":2686763648,"lat":52.2171607,"lon":21.0461213},{"type":"node","id":2686763677,"lat":52.2183771,"lon":21.0459921},{"type":"node","id":2686763687,"lat":52.2185705,"lon":21.0461052},{"type":"node","id":2686763736,"lat":52.219439,"lon":21.0458766},{"type":"node","id":2686763803,"lat":52.2221618,"lon":21.0449136},{"type":"node","id":4369104509,"lat":52.230138,"lon":21.0284506},{"type":"node","id":2686763878,"lat":52.2257582,"lon":21.0435841},{"type":"node","id":2686763881,"lat":52.2265878,"lon":21.043143},{"type":"node","id":2686763890,"lat":52.2271982,"lon":21.0429032},{"type":"node","id":2686763893,"lat":52.2284365,"lon":21.0424621},{"type":"node","id":2686763896,"lat":52.2285811,"lon":21.0425603},{"type":"node","id":3132833467,"lat":52.2275719,"lon":21.0427711},{"type":"node","id":12026753764,"lat":52.2253103,"lon":21.0433853},{"type":"node","id":12026753765,"lat":52.2253928,"lon":21.0429225},{"type":"node","id":12026753766,"lat":52.225292,"lon":21.0425809},{"type":"node","id":12026753767,"lat":52.2237858,"lon":21.0404076},{"type":"node","id":12026753768,"lat":52.2233748,"lon":21.0398675},{"type":"node","id":12026769869,"lat":52.2225251,"lon":21.0375754},{"type":"node","id":2686763807,"lat":52.2224686,"lon":21.044885},{"type":"node","id":2686763814,"lat":52.2229527,"lon":21.0447831},{"type":"node","id":2686763840,"lat":52.2233226,"lon":21.0447235},{"type":"node","id":2686763846,"lat":52.2239764,"lon":21.0443371},{"type":"node","id":2686763848,"lat":52.2240426,"lon":21.0447061},{"type":"node","id":2686763850,"lat":52.2245998,"lon":21.044219},{"type":"node","id":2686763855,"lat":52.2246287,"lon":21.0443706},{"type":"node","id":12026753760,"lat":52.2245622,"lon":21.0445571},{"type":"node","id":12026753761,"lat":52.22462,"lon":21.044363},{"type":"node","id":12026753762,"lat":52.2247631,"lon":21.0441352},{"type":"node","id":12026753763,"lat":52.2253005,"lon":21.0438898},{"type":"node","id":2686763899,"lat":52.2289433,"lon":21.0424447},{"type":"node","id":2686763902,"lat":52.2292257,"lon":21.0421813},{"type":"node","id":2686763904,"lat":52.2297188,"lon":21.0419875},{"type":"node","id":2686763928,"lat":52.2304418,"lon":21.0417203},{"type":"node","id":2686763939,"lat":52.2307614,"lon":21.0415687},{"type":"node","id":2686763941,"lat":52.2312249,"lon":21.0412618},{"type":"node","id":2686763943,"lat":52.2317416,"lon":21.0407934},{"type":"node","id":2686763951,"lat":52.2334067,"lon":21.0392639},{"type":"node","id":2686763956,"lat":52.2338716,"lon":21.038952},{"type":"node","id":2686763962,"lat":52.2340246,"lon":21.0389719},{"type":"node","id":2686763968,"lat":52.2347483,"lon":21.0385072},{"type":"node","id":12026753749,"lat":52.2272166,"lon":21.0565387},{"type":"node","id":12026753750,"lat":52.2272604,"lon":21.0562053},{"type":"node","id":12026753751,"lat":52.2273318,"lon":21.0560646},{"type":"node","id":12026753752,"lat":52.227674,"lon":21.0541166},{"type":"node","id":12026753753,"lat":52.2278468,"lon":21.0534055},{"type":"node","id":12026753754,"lat":52.2279702,"lon":21.053178},{"type":"node","id":12026753755,"lat":52.2277758,"lon":21.052602},{"type":"node","id":12026753756,"lat":52.227377,"lon":21.0529094},{"type":"node","id":12026753757,"lat":52.2270113,"lon":21.0532698},{"type":"node","id":12026753758,"lat":52.2265658,"lon":21.0534921},{"type":"node","id":12026753759,"lat":52.2263407,"lon":21.0532385},{"type":"node","id":12026753744,"lat":52.2287019,"lon":21.0625965},{"type":"node","id":12026753745,"lat":52.2285948,"lon":21.0622979},{"type":"node","id":12026753746,"lat":52.2284136,"lon":21.061711},{"type":"node","id":12026753747,"lat":52.227221,"lon":21.0572146},{"type":"node","id":12026753748,"lat":52.2271994,"lon":21.0569253},{"type":"node","id":12026753739,"lat":52.2305803,"lon":21.0694736},{"type":"node","id":12026753740,"lat":52.2304327,"lon":21.0690148},{"type":"node","id":12026753741,"lat":52.2301772,"lon":21.0681287},{"type":"node","id":12026753742,"lat":52.2293955,"lon":21.0651595},{"type":"node","id":12026753743,"lat":52.2289919,"lon":21.0637288},{"type":"node","id":12026753734,"lat":52.2338239,"lon":21.0761232},{"type":"node","id":12026753735,"lat":52.2326358,"lon":21.0743091},{"type":"node","id":12026753736,"lat":52.2316382,"lon":21.0724917},{"type":"node","id":12026753737,"lat":52.2311161,"lon":21.0710308},{"type":"node","id":12026753738,"lat":52.2309814,"lon":21.0705181},{"type":"node","id":4369104495,"lat":52.1342607,"lon":21.0796807},{"type":"node","id":12026753729,"lat":52.2354471,"lon":21.0781765},{"type":"node","id":12026753730,"lat":52.2353722,"lon":21.0777701},{"type":"node","id":12026753731,"lat":52.2351448,"lon":21.0771624},{"type":"node","id":12026753732,"lat":52.2345704,"lon":21.0767325},{"type":"node","id":12026753733,"lat":52.2341477,"lon":21.0764072},{"type":"node","id":12026769940,"lat":52.2583042,"lon":20.9786769},{"type":"node","id":12026769941,"lat":52.2589149,"lon":20.9804525},{"type":"node","id":12026769942,"lat":52.2591743,"lon":20.9814986},{"type":"node","id":12026769943,"lat":52.2592958,"lon":20.9822496},{"type":"node","id":12026769944,"lat":52.2593648,"lon":20.983419},{"type":"node","id":12026769945,"lat":52.2593615,"lon":20.9847333},{"type":"node","id":12026769946,"lat":52.2592892,"lon":20.9890409},{"type":"node","id":12026769947,"lat":52.2591481,"lon":20.9958323},{"type":"node","id":4369104510,"lat":52.2457052,"lon":21.015948},{"type":"node","id":2686764064,"lat":52.2456943,"lon":21.0228254},{"type":"node","id":2686764093,"lat":52.2465388,"lon":21.0215182},{"type":"node","id":2686764115,"lat":52.2478259,"lon":21.0195178},{"type":"node","id":11771720819,"lat":52.2463177,"lon":21.0218432},{"type":"node","id":12026769948,"lat":52.2589707,"lon":20.9998234},{"type":"node","id":12026769949,"lat":52.2589806,"lon":21.0012021},{"type":"node","id":12026769950,"lat":52.2591021,"lon":21.0024144},{"type":"node","id":12026769951,"lat":52.2593089,"lon":21.0035356},{"type":"node","id":12026769952,"lat":52.2593812,"lon":21.0038199},{"type":"node","id":2686764246,"lat":52.2563451,"lon":21.0107865},{"type":"node","id":2686764259,"lat":52.2572572,"lon":21.0100678},{"type":"node","id":2686764279,"lat":52.2584393,"lon":21.0090978},{"type":"node","id":2686764327,"lat":52.2594901,"lon":21.0082491},{"type":"node","id":2686764329,"lat":52.2599397,"lon":21.0080048},{"type":"node","id":2686764350,"lat":52.2600999,"lon":21.007931},{"type":"node","id":2686764354,"lat":52.2601731,"lon":21.0081401},{"type":"node","id":2686764356,"lat":52.2604355,"lon":21.0079082},{"type":"node","id":9251462111,"lat":52.2611334,"lon":21.0075912},{"type":"node","id":9251462112,"lat":52.2605175,"lon":21.00815},{"type":"node","id":2686764148,"lat":52.2515626,"lon":21.0157277},{"type":"node","id":2686764154,"lat":52.2520951,"lon":21.015248},{"type":"node","id":2686764162,"lat":52.2526792,"lon":21.0146769},{"type":"node","id":2686764166,"lat":52.2528266,"lon":21.014285},{"type":"node","id":2686764125,"lat":52.2487905,"lon":21.0185263},{"type":"node","id":2686764128,"lat":52.2489969,"lon":21.0184548},{"type":"node","id":2686764130,"lat":52.249297,"lon":21.018121},{"type":"node","id":2686764222,"lat":52.2551737,"lon":21.0119603},{"type":"node","id":4369104514,"lat":52.2704171,"lon":20.9897064},{"type":"node","id":9251485437,"lat":52.2782936,"lon":20.97628},{"type":"node","id":9251485436,"lat":52.2803416,"lon":20.9805179},{"type":"node","id":9251485435,"lat":52.2821467,"lon":20.9843373},{"type":"node","id":9251485431,"lat":52.2855399,"lon":20.9951198},{"type":"node","id":9251485432,"lat":52.2859796,"lon":20.9948516},{"type":"node","id":9251485433,"lat":52.2863144,"lon":20.9947121},{"type":"node","id":9251485434,"lat":52.2867245,"lon":20.9944493},{"type":"node","id":4369104512,"lat":52.2637604,"lon":21.0033715},{"type":"node","id":9251462108,"lat":52.2671462,"lon":21.0039711},{"type":"node","id":9251462114,"lat":52.2665291,"lon":21.0042715},{"type":"node","id":9251462109,"lat":52.2651733,"lon":21.0049377},{"type":"node","id":9251462110,"lat":52.2628472,"lon":21.0063148},{"type":"node","id":9251462113,"lat":52.2639814,"lon":21.0056126},{"type":"node","id":9251462115,"lat":52.2683347,"lon":21.0035795},{"type":"node","id":9251462116,"lat":52.2695427,"lon":21.0032308},{"type":"node","id":9251485417,"lat":52.270928,"lon":21.0031664},{"type":"node","id":9251485418,"lat":52.2714861,"lon":21.0029518},{"type":"node","id":9251485419,"lat":52.2738626,"lon":21.0025763},{"type":"node","id":9251485420,"lat":52.2742631,"lon":21.002351},{"type":"node","id":9251485424,"lat":52.2717946,"lon":21.0025978},{"type":"node","id":9251485425,"lat":52.2729632,"lon":21.0024905},{"type":"node","id":9251485426,"lat":52.2733702,"lon":21.0026514},{"type":"node","id":12026769953,"lat":52.262044,"lon":21.0127838},{"type":"node","id":12026753709,"lat":52.2647898,"lon":21.0217232},{"type":"node","id":9251485421,"lat":52.2751427,"lon":21.0023403},{"type":"node","id":9251485422,"lat":52.2753003,"lon":21.0020292},{"type":"node","id":9251485423,"lat":52.2766526,"lon":21.0015024},{"type":"node","id":9251485427,"lat":52.2748145,"lon":21.002512},{"type":"node","id":9251485428,"lat":52.2758517,"lon":21.0020184},{"type":"node","id":9251485429,"lat":52.2771449,"lon":21.0014069},{"type":"node","id":9251485430,"lat":52.2792258,"lon":21.0000658},{"type":"node","id":2686764024,"lat":52.241392,"lon":21.0302476},{"type":"node","id":2686763988,"lat":52.2366529,"lon":21.0366496},{"type":"node","id":2686763998,"lat":52.2372411,"lon":21.0359637},{"type":"node","id":2686764007,"lat":52.2382318,"lon":21.0346802},{"type":"node","id":2686764013,"lat":52.2390992,"lon":21.0335446},{"type":"node","id":2686764041,"lat":52.2434082,"lon":21.0269872},{"type":"node","id":2686764049,"lat":52.2442907,"lon":21.025362},{"type":"node","id":2686764053,"lat":52.2450416,"lon":21.0239735},{"type":"node","id":2686763978,"lat":52.2354826,"lon":21.0380263},{"type":"node","id":2686763985,"lat":52.2359612,"lon":21.0374672},{"type":"node","id":12026753713,"lat":52.2611065,"lon":21.0631814},{"type":"node","id":12026753710,"lat":52.2680695,"lon":21.0332969},{"type":"node","id":12026753711,"lat":52.2683476,"lon":21.035674},{"type":"node","id":12026753712,"lat":52.268161,"lon":21.0372652},{"type":"node","id":12026753728,"lat":52.240023,"lon":21.081627},{"type":"node","id":286603945,"lat":52.2458026,"lon":21.0812725},{"type":"node","id":286603946,"lat":52.245703,"lon":21.0824391},{"type":"node","id":307573544,"lat":52.2457249,"lon":21.0827648},{"type":"node","id":307573547,"lat":52.2455714,"lon":21.0827409},{"type":"node","id":317727901,"lat":52.2470931,"lon":21.0814549},{"type":"node","id":317727907,"lat":52.2471271,"lon":21.0814603},{"type":"node","id":317727909,"lat":52.2472479,"lon":21.0814798},{"type":"node","id":317727911,"lat":52.2473379,"lon":21.0817467},{"type":"node","id":317727919,"lat":52.2472978,"lon":21.0825779},{"type":"node","id":317727923,"lat":52.2462209,"lon":21.0813326},{"type":"node","id":1181665469,"lat":52.2468683,"lon":21.0814173},{"type":"node","id":1181666230,"lat":52.2467164,"lon":21.0813935},{"type":"node","id":6736170495,"lat":52.2473197,"lon":21.0821256},{"type":"node","id":9394368431,"lat":52.2473206,"lon":21.0821067},{"type":"node","id":9394368433,"lat":52.2464106,"lon":21.0813582},{"type":"node","id":9394368441,"lat":52.2473295,"lon":21.0819336},{"type":"node","id":9394368449,"lat":52.246558,"lon":21.0813749},{"type":"node","id":9394368457,"lat":52.2473071,"lon":21.0823801},{"type":"node","id":9394368462,"lat":52.2469212,"lon":21.0814265},{"type":"node","id":9394368467,"lat":52.2473326,"lon":21.0818583},{"type":"node","id":9394368482,"lat":52.2466653,"lon":21.0813866},{"type":"node","id":9394368489,"lat":52.2473341,"lon":21.0818613},{"type":"node","id":9394368587,"lat":52.2458009,"lon":21.0812973},{"type":"node","id":9394368588,"lat":52.2457739,"lon":21.0812932},{"type":"node","id":9394368589,"lat":52.2457725,"lon":21.0812974},{"type":"node","id":9394368590,"lat":52.2457684,"lon":21.0813707},{"type":"node","id":9394368591,"lat":52.2457625,"lon":21.0813683},{"type":"node","id":9394368592,"lat":52.2457496,"lon":21.0815694},{"type":"node","id":9394368593,"lat":52.2457566,"lon":21.0815701},{"type":"node","id":9394368594,"lat":52.2457531,"lon":21.0816264},{"type":"node","id":9394368595,"lat":52.2457461,"lon":21.0816252},{"type":"node","id":9394368596,"lat":52.2457169,"lon":21.0821053},{"type":"node","id":9394368597,"lat":52.2457232,"lon":21.0821058},{"type":"node","id":9394368598,"lat":52.245721,"lon":21.0821484},{"type":"node","id":9394368599,"lat":52.2457203,"lon":21.0821604},{"type":"node","id":9394368600,"lat":52.2457135,"lon":21.082161},{"type":"node","id":9394368601,"lat":52.2457012,"lon":21.0823606},{"type":"node","id":9394368602,"lat":52.245708,"lon":21.0823606},{"type":"node","id":9394368612,"lat":52.2459018,"lon":21.0812894},{"type":"node","id":9812280350,"lat":52.2455907,"lon":21.0825017},{"type":"node","id":9812280351,"lat":52.2455948,"lon":21.0824404},{"type":"node","id":9823639728,"lat":52.245909,"lon":21.0828616},{"type":"node","id":9823639729,"lat":52.2459139,"lon":21.0827983},{"type":"node","id":9823639730,"lat":52.2458691,"lon":21.0827891},{"type":"node","id":11926584685,"lat":52.2455963,"lon":21.0824192},{"type":"node","id":12509442284,"lat":52.2457443,"lon":21.0816551},{"type":"node","id":307573546,"lat":52.2457983,"lon":21.0834892},{"type":"node","id":307573549,"lat":52.2455301,"lon":21.0834474},{"type":"node","id":315798575,"lat":52.2472227,"lon":21.0839941},{"type":"node","id":9394368445,"lat":52.2472718,"lon":21.0830253},{"type":"node","id":9394368469,"lat":52.2472595,"lon":21.0832568},{"type":"node","id":11926584653,"lat":52.2458267,"lon":21.0834954},{"type":"node","id":11926584654,"lat":52.2458391,"lon":21.0832894},{"type":"node","id":11926584655,"lat":52.2458855,"lon":21.0833},{"type":"node","id":12026753722,"lat":52.2451396,"lon":21.0834372},{"type":"node","id":12026753723,"lat":52.2447394,"lon":21.0835192},{"type":"node","id":12026753724,"lat":52.2445303,"lon":21.0836945},{"type":"node","id":12026753725,"lat":52.2443504,"lon":21.08432},{"type":"node","id":12026753726,"lat":52.2434223,"lon":21.0840464},{"type":"node","id":12026753727,"lat":52.242796,"lon":21.0837032},{"type":"node","id":12034769295,"lat":52.2472221,"lon":21.0840095},{"type":"node","id":411095532,"lat":52.2518366,"lon":21.0826411},{"type":"node","id":776329337,"lat":52.2516257,"lon":21.0825867},{"type":"node","id":776329967,"lat":52.2515249,"lon":21.0825764},{"type":"node","id":776330240,"lat":52.2516249,"lon":21.0826175},{"type":"node","id":8486243313,"lat":52.2515232,"lon":21.0826069},{"type":"node","id":8486243314,"lat":52.2513079,"lon":21.0825853},{"type":"node","id":10135450972,"lat":52.2512942,"lon":21.0828982},{"type":"node","id":10135450976,"lat":52.2518595,"lon":21.0826322},{"type":"node","id":10135450977,"lat":52.251845,"lon":21.0826323},{"type":"node","id":10135450980,"lat":52.2518811,"lon":21.0825945},{"type":"node","id":10135451000,"lat":52.2524615,"lon":21.0825824},{"type":"node","id":10135451002,"lat":52.2520277,"lon":21.0825926},{"type":"node","id":10135451068,"lat":52.2515739,"lon":21.0825814},{"type":"node","id":10135451073,"lat":52.2513005,"lon":21.0827848},{"type":"node","id":10135451170,"lat":52.2524632,"lon":21.0827921},{"type":"node","id":411095514,"lat":52.25455,"lon":21.0837925},{"type":"node","id":776329422,"lat":52.2506597,"lon":21.0836331},{"type":"node","id":776329523,"lat":52.2508371,"lon":21.0836556},{"type":"node","id":776329849,"lat":52.2506255,"lon":21.0844703},{"type":"node","id":4777691851,"lat":52.2539484,"lon":21.0837978},{"type":"node","id":4777691852,"lat":52.2539534,"lon":21.0848928},{"type":"node","id":6264250736,"lat":52.2547444,"lon":21.0836132},{"type":"node","id":6264250745,"lat":52.2546498,"lon":21.0835412},{"type":"node","id":7813747341,"lat":52.2524712,"lon":21.084402},{"type":"node","id":8486243274,"lat":52.2511627,"lon":21.0838624},{"type":"node","id":8486243275,"lat":52.2511921,"lon":21.0831569},{"type":"node","id":9328513345,"lat":52.2545756,"lon":21.0837374},{"type":"node","id":10135298311,"lat":52.2546116,"lon":21.0836463},{"type":"node","id":10135450987,"lat":52.2524657,"lon":21.0832914},{"type":"node","id":10135450989,"lat":52.2524647,"lon":21.0830849},{"type":"node","id":10135451092,"lat":52.2524717,"lon":21.0847319},{"type":"node","id":11439704427,"lat":52.2524677,"lon":21.0836937},{"type":"node","id":12020458899,"lat":52.2549955,"lon":21.0830074},{"type":"node","id":12026753718,"lat":52.2533337,"lon":21.0848613},{"type":"node","id":12034769297,"lat":52.2524717,"lon":21.0847426},{"type":"node","id":12034769298,"lat":52.2506249,"lon":21.0844878},{"type":"node","id":6264250751,"lat":52.2560948,"lon":21.0802636},{"type":"node","id":6264250755,"lat":52.2563871,"lon":21.0792211},{"type":"node","id":6264266119,"lat":52.2565118,"lon":21.0787544},{"type":"node","id":8868021841,"lat":52.2558812,"lon":21.0808203},{"type":"node","id":8868021842,"lat":52.2556076,"lon":21.0814475},{"type":"node","id":8868021847,"lat":52.2555047,"lon":21.0817741},{"type":"node","id":11765115551,"lat":52.2555579,"lon":21.0816159},{"type":"node","id":12020458900,"lat":52.2555066,"lon":21.0817629},{"type":"node","id":12020458901,"lat":52.2555201,"lon":21.0817297},{"type":"node","id":12020458902,"lat":52.2555291,"lon":21.0817012},{"type":"node","id":12020458903,"lat":52.2555361,"lon":21.0816787},{"type":"node","id":12020458904,"lat":52.2555476,"lon":21.0816462},{"type":"node","id":12020458905,"lat":52.2555626,"lon":21.0815956},{"type":"node","id":12020458906,"lat":52.2555677,"lon":21.0815765},{"type":"node","id":12020458907,"lat":52.2555722,"lon":21.081555},{"type":"node","id":12020458908,"lat":52.2555798,"lon":21.0815235},{"type":"node","id":12020458909,"lat":52.2555884,"lon":21.081496},{"type":"node","id":12020458910,"lat":52.2555975,"lon":21.0814705}]}