{"version":0.6,"generator":"Overpass API 0.7.62.5 1bd436f1","osm3s":{"timestamp_osm_base":"2025-03-12T13:13:00Z","copyright":"The data included in this document is from www.openstreetmap.org. The data is made available under ODbL."},"elements":[{"type":"node","id":1338573963,"lat":52.2250519,"lon":21.0170462,"tags":{"addr:city":"Warszawa","addr:housenumber":"25","addr:street":"Wilcza","amenity":"cafe","check_date":"2023-07-19","description":"Kawiarnia\/pub z cz\u0119stami pokazami podr\u00f3\u017cniczymi","diet:vegetarian":"yes","email":"kawiarnia@poludnikzero.pl","internet_access":"wlan","name":"Po\u0142udnik Zero","opening_hours":"Sep-Jun Mo-We,Su 14:00-24:00; Th-Sa 14:00-02:00;Jul-Aug Mo-Th,Su 16:00-24:00; Fr-Sa 16:00-02:00","phone":"+48 22 270 22 41","website":"http:\/\/www.poludnikzero.pl\/","wheelchair":"no"}},{"type":"node","id":2153212692,"lat":52.225253,"lon":21.0171848,"tags":{"amenity":"vending_machine","operator":"ZDM Warszawa","payment:coins":"yes","ref":"G020323","vending":"parking_tickets"}},{"type":"node","id":3542063716,"lat":52.2253119,"lon":21.017083,"tags":{"addr:housenumber":"26","addr:street":"Wilcza","check_date":"2023-07-19","female:signed":"no","male:signed":"no","name":"M\u0105\u017c Fryzjerki","opening_hours":"Mo-Fr 09:00-20:00; Sa 09:00-16:00","shop":"hairdresser","website":"https:\/\/www.mazfryzjerki.com\/","wheelchair":"yes"}},{"type":"node","id":4375857798,"lat":52.2249819,"lon":21.0167139,"tags":{"addr:city":"Warszawa","addr:housenumber":"27","addr:postcode":"00-544","addr:street":"Wilcza","amenity":"bar","check_date":"2023-07-19","cuisine":"wine","name":"Rausz","opening_hours":"Mo-Th 16:00-23:00; Fr-Sa 14:00-24:00; Su 14:00-22:00","operator":"Wilcza 27 Sp. z o.o.","outdoor_seating":"yes","payment:cash":"yes","payment:credit_cards":"yes","phone":"+48691313838","website":"https:\/\/rausz.me","wheelchair":"no"}},{"type":"node","id":4622547616,"lat":52.225089,"lon":21.017222,"tags":{"addr:city":"Warszawa","addr:housenumber":"25","addr:postcode":"00-544","addr:street":"Wilcza","check_date":"2023-07-19","fax":"+48226299497","name":"Loko-Model","opening_hours":"Mo-Fr 11:00-19:00; Sa 10:00-14:00","phone":"+48226299497","shop":"model","website":"https:\/\/www.lokomodel.pl\/","wheelchair":"no"}},{"type":"node","id":7440116717,"lat":52.2249776,"lon":21.0165685,"tags":{"access":"private","barrier":"gate"}},{"type":"node","id":7995942153,"lat":52.2250191,"lon":21.0168862,"tags":{"addr:housenumber":"27","addr:street":"Wilcza","brand":"\u017babka","brand:wikidata":"Q2589061","brand:wikipedia":"pl:\u017babka (sie\u0107 sklep\u00f3w)","check_date":"2023-07-19","name":"\u017babka","name:uk":"\u0416\u0430\u0431\u043a\u0430","opening_hours":"Mo-Sa 06:00-23:00; Su 11:00-20:00","shop":"convenience","wheelchair":"no"}},{"type":"node","id":8628127340,"lat":52.22516,"lon":21.0166079,"tags":{"addr:housenumber":"28","addr:street":"Wilcza","check_date":"2023-07-19","email":"winanaturalne@wp.pl","name":"La Cave","opening_hours":"Mo-Fr 13:00-20:00; Sa 11:00-20:00","phone":"+48519126004","shop":"wine","website":"http:\/\/winanaturalne.pl\/","wheelchair":"no"}},{"type":"node","id":9461363662,"lat":52.2247154,"lon":21.0176154,"tags":{"noexit":"yes"}},{"type":"node","id":9461363670,"lat":52.2247422,"lon":21.0171318,"tags":{"access":"private","barrier":"gate"}},{"type":"node","id":9461363671,"lat":52.2248182,"lon":21.0170853,"tags":{"noexit":"yes"}},{"type":"node","id":9461363675,"lat":52.2248691,"lon":21.0170073,"tags":{"noexit":"yes"}},{"type":"node","id":9528382664,"lat":52.2248953,"lon":21.0173865,"tags":{"contact:email":"kontakt@zagadkownia.pl","contact:facebook":"zagadkowniapl","contact:instagram":"zagadkownia","contact:phone":"+48 664 231 052","contact:website":"https:\/\/zagadkownia.pl\/","leisure":"escape_game","name":"Zagadkownia","reservation":"required"}},{"type":"node","id":11055300989,"lat":52.2251415,"lon":21.0172174,"tags":{"amenity":"bicycle_parking","bicycle_parking":"stands","capacity":"6","covered":"no"}},{"type":"node","id":11055300993,"lat":52.2253266,"lon":21.0171575,"tags":{"addr:housenumber":"26","addr:street":"Wilcza","check_date":"2023-07-19","craft":"tailor","noname":"yes","opening_hours":"Mo-Fr 11:00-18:00","shop":"tailor","wheelchair":"limited"}},{"type":"node","id":11055300997,"lat":52.2251034,"lon":21.0172911,"tags":{"addr:housenumber":"25","addr:street":"Wilcza","check_date":"2023-07-19","leisure":"escape_game","name":"Zagadkownia"}},{"type":"node","id":11055301001,"lat":52.2249435,"lon":21.0172396,"tags":{"denomination":"roman_catholic","historic":"wayside_shrine","religion":"christian"}},{"type":"node","id":11055366006,"lat":52.2252021,"lon":21.0168189,"tags":{"addr:housenumber":"28","addr:street":"Wilcza","check_date":"2023-07-19","name":"Naked","shop":"clothes","wheelchair":"no"}},{"type":"node","id":11055366007,"lat":52.2251893,"lon":21.0167538,"tags":{"addr:housenumber":"28","addr:street":"Wilcza","check_date":"2023-07-19","craft":"tailor","noname":"yes","opening_hours":"Mo-Fr 09:00-18:00","shop":"tailor","wheelchair":"no"}},{"type":"node","id":11055366008,"lat":52.2251708,"lon":21.0166701,"tags":{"addr:housenumber":"28","addr:street":"Wilcza","check_date":"2023-07-19","noname":"yes","shop":"hairdresser","wheelchair":"no"}}]}