{"version":0.6,"generator":"Overpass API 0.7.62.5 1bd436f1","osm3s":{"timestamp_osm_base":"2025-03-12T14:22:15Z","copyright":"The data included in this document is from www.openstreetmap.org. The data is made available under ODbL."},"elements":[{"type":"node","id":8175499807,"lat":52.2277628,"lon":21.0157074,"tags":{"barrier":"gate"}},{"type":"node","id":8175499812,"lat":52.227865,"lon":21.0155405,"tags":{"natural":"tree"}},{"type":"node","id":8175499813,"lat":52.2279594,"lon":21.0154991,"tags":{"natural":"tree"}},{"type":"node","id":8175499814,"lat":52.2279786,"lon":21.0159457,"tags":{"natural":"tree"}},{"type":"node","id":8175499815,"lat":52.2280092,"lon":21.0157831,"tags":{"natural":"tree"}},{"type":"node","id":8568559108,"lat":52.2274089,"lon":21.0155703,"tags":{"crossing":"unmarked","crossing:island":"no","crossing:markings":"no","highway":"crossing","tactile_paving":"no"}},{"type":"node","id":9128643384,"lat":52.227743,"lon":21.0155204,"tags":{"addr:city":"Warszawa","addr:housenumber":"30","addr:postcode":"00-930","addr:street":"Wsp\u00f3lna","check_date":"2024-03-21","government":"audit","name":"G\u0142\u00f3wny Inspektorat Weterynarii","name:en":"General Veterinary Inspectorate","office":"government","phone":"+48 22 623 17 17","website":"http:\/\/www.wetgiw.gov.pl\/"}},{"type":"node","id":9463237751,"lat":52.2277812,"lon":21.0156692,"tags":{"entrance":"yes"}},{"type":"node","id":9502959299,"lat":52.2275802,"lon":21.0164596,"tags":{"amenity":"vending_machine","check_date":"2023-07-14","operator":"ZDM Warszawa","ref":"G020310","vending":"parking_tickets"}},{"type":"node","id":9502959304,"lat":52.2276538,"lon":21.0160411,"tags":{"amenity":"vending_machine","operator":"ZDM Warszawa","ref":"G020304","vending":"parking_tickets"}},{"type":"node","id":10154587303,"lat":52.2273867,"lon":21.0155075,"tags":{"traffic_sign":"PL:D-40"}},{"type":"node","id":10276361845,"lat":52.2274512,"lon":21.0159992,"tags":{"addr:housenumber":"27A","addr:street":"Wsp\u00f3lna","check_date":"2023-07-14","contact:phone":"+48 22 629 48 18","contact:website":"http:\/\/www.xerofan.pl\/","email":"xerofan@xerofan.pl","level":"0","name":"XeroFan","opening_hours":"Mo-Fr 09:00-17:00; Sa-Su off","payment:american_express":"yes","payment:blik":"yes","payment:cash":"yes","payment:coins":"yes","payment:jcb":"yes","payment:mastercard":"yes","payment:visa":"yes","shop":"copyshop","wheelchair":"no"}},{"type":"node","id":11047081446,"lat":52.2275478,"lon":21.0164842,"tags":{"addr:housenumber":"27","addr:street":"Wsp\u00f3lna","check_date":"2023-07-14","male":"yes","name":"Kasta","opening_hours":"Mo-Fr 09:00-21:00; Sa 09:00-20:00; Su 10:00-18:00","shop":"hairdresser","wheelchair":"no"}},{"type":"node","id":11047081447,"lat":52.2275229,"lon":21.0163371,"tags":{"addr:housenumber":"27","addr:street":"Wsp\u00f3lna","brand":"\u017babka","brand:wikidata":"Q2589061","check_date":"2023-07-14","disused:shop":"convenience","name":"\u017babka Nano","wheelchair":"no"}},{"type":"node","id":11047081448,"lat":52.2274988,"lon":21.0162491,"tags":{"addr:housenumber":"27A","addr:street":"Wsp\u00f3lna","check_date":"2023-07-14","name":"Amber","opening_hours":"Mo-Fr 09:00-17:00","shop":"funeral_directors","wheelchair":"no"}},{"type":"node","id":11047081449,"lat":52.2274325,"lon":21.0158945,"tags":{"addr:housenumber":"27A","addr:street":"Wsp\u00f3lna","check_date":"2023-07-14","clothes":"oversize","name":"Maxi","opening_hours":"Mo-Fr 11:00-19:00; Sa 10:00-14:00","shop":"clothes","wheelchair":"no"}},{"type":"node","id":11047081450,"lat":52.2274178,"lon":21.0158161,"tags":{"addr:housenumber":"27A","addr:street":"Wsp\u00f3lna","check_date":"2023-07-14","name":"Nodi Studio","opening_hours":"Tu-Sa 12:00-18:00","shop":"pottery","wheelchair":"no"}},{"type":"node","id":11047240834,"lat":52.2274144,"lon":21.0156009,"tags":{"barrier":"kerb","kerb":"flush","tactile_paving":"no"}},{"type":"node","id":11047240835,"lat":52.227401,"lon":21.0155268,"tags":{"barrier":"kerb","kerb":"flush","tactile_paving":"no"}},{"type":"node","id":12574323891,"lat":52.2277355,"lon":21.0155224,"tags":{"access":"customers","defibrillator:location":"na korytarzu przy sekretariacie","emergency":"defibrillator","indoor":"yes","level":"4"}}]}