{"version":0.6,"generator":"Overpass API 0.7.62.5 1bd436f1","osm3s":{"timestamp_osm_base":"2025-03-12T14:14:01Z","copyright":"The data included in this document is from www.openstreetmap.org. The data is made available under ODbL."},"elements":[{"type":"node","id":1330283420,"lat":52.2233401,"lon":21.008446,"tags":{"crossing":"uncontrolled","crossing:island":"no","crossing:markings":"zebra","crossing_ref":"zebra","highway":"crossing","tactile_paving":"yes"}},{"type":"node","id":1330283453,"lat":52.2233746,"lon":21.0082749,"tags":{"crossing":"uncontrolled","crossing:island":"no","crossing:markings":"zebra","crossing_ref":"zebra","highway":"crossing","tactile_paving":"yes"}},{"type":"node","id":2762789983,"lat":52.2233889,"lon":21.0083402,"tags":{"barrier":"kerb","kerb":"lowered","tactile_paving":"yes"}},{"type":"node","id":8260670017,"lat":52.2233071,"lon":21.0081989,"tags":{"barrier":"kerb","kerb":"flush","tactile_paving":"yes"}},{"type":"node","id":8260670019,"lat":52.2233664,"lon":21.0082379,"tags":{"barrier":"kerb","kerb":"flush","tactile_paving":"yes"}},{"type":"node","id":8893575187,"lat":52.2233827,"lon":21.0080703,"tags":{"addr:city":"Warszawa","addr:housenumber":"70","addr:postcode":"00-670","addr:street":"Wilcza","check_date":"2024-06-20","name":"Agra-Art","office":"company","opening_hours":"Mo-Fr 11:00-18:00; Sa 11:00-15:00","shop":"auction_house","wheelchair":"yes"}},{"type":"node","id":9165210864,"lat":52.2236953,"lon":21.0082812,"tags":{"addr:housenumber":"8","addr:street":"Emilii Plater","check_date":"2023-04-20","disused:shop":"yes","wheelchair":"limited"}},{"type":"node","id":9211164272,"lat":52.2237697,"lon":21.0079249,"tags":{"access":"private","barrier":"gate"}},{"type":"node","id":9348665747,"lat":52.2235773,"lon":21.0084989,"tags":{"entrance":"main"}},{"type":"node","id":9348665748,"lat":52.2236374,"lon":21.0086818,"tags":{"entrance":"main"}},{"type":"node","id":9348665757,"lat":52.2235252,"lon":21.0085136,"tags":{"addr:housenumber":"66\/68","addr:street":"Wilcza","check_date":"2023-04-20","healthcare":"counselling","name":"Centrum Nowa","website":"https:\/\/www.centrumnowa.pl\/"}},{"type":"node","id":9502756683,"lat":52.2234671,"lon":21.0083267,"tags":{"amenity":"vending_machine","check_date":"2023-03-08","operator":"ZDM Warszawa","ref":"G040604","vending":"parking_tickets"}},{"type":"node","id":10085734114,"lat":52.2238324,"lon":21.0080114,"tags":{"direction":"both","surface":"paving_stones","traffic_calming":"table"}},{"type":"node","id":10131191147,"lat":52.2233727,"lon":21.008428,"tags":{"barrier":"kerb","kerb":"lowered","tactile_paving":"yes"}},{"type":"node","id":10131191148,"lat":52.2233024,"lon":21.0084669,"tags":{"barrier":"kerb","kerb":"lowered","tactile_paving":"yes"}},{"type":"node","id":10802082230,"lat":52.2234253,"lon":21.0081562,"tags":{"amenity":"bicycle_parking","bicycle_parking":"stands","capacity":"4","covered":"no"}},{"type":"node","id":10827749219,"lat":52.2239649,"lon":21.0081146,"tags":{"addr:housenumber":"10","addr:street":"Emilii Plater","beauty":"nails;hair;cosmetics;eyelash;hair_removal;aesthetic","check_date":"2023-04-20","name":"Kalinowski & Kawecki","shop":"beauty","wheelchair":"yes"}},{"type":"node","id":10827749222,"lat":52.2238035,"lon":21.0082166,"tags":{"addr:housenumber":"8","addr:street":"Emilii Plater","check_date":"2023-04-20","craft":"saddler","name":"Mark-Sk\u00f3r","opening_hours":"Mo-Fr 10:00-18:00","wheelchair":"limited"}},{"type":"node","id":10827749223,"lat":52.2238437,"lon":21.008192,"tags":{"addr:housenumber":"8","addr:street":"Emilii Plater","check_date":"2023-04-20","name":"Barbastel","shop":"wine","wheelchair":"limited"}},{"type":"node","id":10827749224,"lat":52.2237378,"lon":21.0082541,"tags":{"addr:housenumber":"8","addr:street":"Emilii Plater","check_date":"2023-04-20","name":"Innevino","opening_hours":"\"closed\"","shop":"wine","wheelchair":"no"}},{"type":"node","id":10827749225,"lat":52.2235462,"lon":21.0083648,"tags":{"addr:housenumber":"66\/68","addr:street":"Wilcza","check_date":"2024-06-20","name":"SDP Nieruchomo\u015bci","office":"estate_agent","wheelchair":"no"}},{"type":"node","id":10827749228,"lat":52.2235107,"lon":21.0084437,"tags":{"addr:housenumber":"66\/68","addr:street":"Wilcza","beauty":"hair;cosmetics","check_date":"2024-06-20","level":"1","name":"Hugz","opening_hours":"Mo-Fr 09:00-21:00; Sa 09:00-17:00","shop":"beauty","wheelchair":"no"}},{"type":"node","id":10827749229,"lat":52.2234098,"lon":21.0084966,"tags":{"amenity":"bicycle_parking","bicycle_parking":"stands","capacity":"2","covered":"no"}},{"type":"node","id":10827749230,"lat":52.2233096,"lon":21.0085502,"tags":{"amenity":"bicycle_parking","bicycle_parking":"stands","capacity":"2","covered":"no"}},{"type":"node","id":10827749231,"lat":52.2233668,"lon":21.0088168,"tags":{"amenity":"bicycle_parking","bicycle_parking":"stands","capacity":"2","covered":"no"}},{"type":"node","id":11760544733,"lat":52.2237156,"lon":21.0082698,"tags":{"addr:city":"Warszawa","addr:housenumber":"8","addr:postcode":"00-669","addr:street":"Emilii Plater","amenity":"cafe","check_date":"2024-03-25","indoor_seating":"yes","name":"El Cafetero & Roastery","opening_hours":"Mo-Fr 09:00-19:00; Sa-Su 10:00-19:00","outdoor_seating":"yes","wheelchair":"no"}},{"type":"node","id":11994885386,"lat":52.2239072,"lon":21.0078096,"tags":{"addr:housenumber":"11","addr:street":"Emilii Plater","check_date":"2024-06-20","shop":"vacant","wheelchair":"limited"}},{"type":"node","id":11994885387,"lat":52.2237585,"lon":21.0079921,"tags":{"amenity":"bicycle_parking","bicycle_parking":"stands","capacity":"6","covered":"no"}},{"type":"node","id":11994885388,"lat":52.223553,"lon":21.0079891,"tags":{"power":"substation","ref":"8615","substation":"minor_distribution"}},{"type":"node","id":11994902710,"lat":52.2234944,"lon":21.0086514,"tags":{"addr:housenumber":"66\/68","addr:street":"Wilcza","check_date":"2024-06-20","name":"Aura","shop":"florist","wheelchair":"no"}},{"type":"node","id":11994902711,"lat":52.2234792,"lon":21.0085771,"tags":{"addr:housenumber":"66\/68","addr:street":"Wilcza","check_date":"2024-06-20","name":"Brand Muse","shop":"clothes","wheelchair":"no"}},{"type":"node","id":12651987569,"lat":52.2233046,"lon":21.0081653,"tags":{"amenity":"waste_basket"}}]}