{"version":0.6,"generator":"Overpass API 0.7.62.5 1bd436f1","osm3s":{"timestamp_osm_base":"2025-03-12T13:14:00Z","copyright":"The data included in this document is from www.openstreetmap.org. The data is made available under ODbL."},"elements":[{"type":"node","id":3426529000,"lat":52.2235563,"lon":21.0175127,"tags":{"barrier":"lift_gate","bicycle":"yes","foot":"yes"}},{"type":"node","id":6551504506,"lat":52.223316,"lon":21.0169433,"tags":{"crossing":"unmarked","highway":"crossing","tactile_paving":"yes"}},{"type":"node","id":6551504516,"lat":52.2234886,"lon":21.0174521,"tags":{"crossing":"uncontrolled","highway":"crossing","tactile_paving":"yes"}},{"type":"node","id":8860102151,"lat":52.2235357,"lon":21.016769,"tags":{"addr:city":"Warszawa","addr:housenumber":"28\/34","addr:postcode":"00-547","addr:street":"Pi\u0119kna","amenity":"restaurant","check_date":"2024-03-23","contact:facebook":"marcellowarszawa","contact:instagram":"marcellowarszawa","cuisine":"italian;pizza","name":"Marcello","opening_hours":"Mo 12:00-22:00; Tu-Th 12:00-23:00; Fr-Sa 10:00-00:00; Su 10:00-22:00","outdoor_seating":"yes","phone":"+48 517 200 257","website":"http:\/\/marcellowarszawa.pl\/"}},{"type":"node","id":8901617317,"lat":52.2235351,"lon":21.0172906,"tags":{"amenity":"bicycle_parking","bicycle_parking":"stands","capacity":"6","covered":"no"}},{"type":"node","id":9461310798,"lat":52.2236148,"lon":21.0175974,"tags":{"natural":"tree"}},{"type":"node","id":9461310799,"lat":52.2234785,"lon":21.0171421,"tags":{"barrier":"bollard","bollard":"fixed"}},{"type":"node","id":9461310800,"lat":52.2234769,"lon":21.0171182,"tags":{"barrier":"bollard","bollard":"fixed"}},{"type":"node","id":9461310801,"lat":52.2234758,"lon":21.0170937,"tags":{"barrier":"bollard","bollard":"fixed"}},{"type":"node","id":9461310802,"lat":52.2235662,"lon":21.0174323,"tags":{"barrier":"bollard","bollard":"fixed"}},{"type":"node","id":9461310803,"lat":52.2235544,"lon":21.0174168,"tags":{"barrier":"bollard","bollard":"fixed"}},{"type":"node","id":9461310804,"lat":52.2235437,"lon":21.0174071,"tags":{"barrier":"bollard","bollard":"fixed"}},{"type":"node","id":9461310805,"lat":52.2235307,"lon":21.0173994,"tags":{"barrier":"bollard","bollard":"fixed"}},{"type":"node","id":9461310806,"lat":52.2235192,"lon":21.0173929,"tags":{"barrier":"bollard","bollard":"fixed"}},{"type":"node","id":9461310807,"lat":52.223505,"lon":21.0173833,"tags":{"barrier":"bollard","bollard":"fixed"}},{"type":"node","id":9461310808,"lat":52.2234955,"lon":21.0173355,"tags":{"barrier":"bollard","bollard":"fixed"}},{"type":"node","id":9461310809,"lat":52.2234939,"lon":21.017311,"tags":{"barrier":"bollard","bollard":"fixed"}},{"type":"node","id":9461310810,"lat":52.2234923,"lon":21.0172833,"tags":{"barrier":"bollard","bollard":"fixed"}},{"type":"node","id":9461310811,"lat":52.2235153,"lon":21.0176309,"tags":{"barrier":"bollard","bollard":"fixed"}},{"type":"node","id":9461310815,"lat":52.2235137,"lon":21.017609,"tags":{"barrier":"bollard","bollard":"fixed"}},{"type":"node","id":9461310816,"lat":52.2235117,"lon":21.0175832,"tags":{"barrier":"bollard","bollard":"fixed"}},{"type":"node","id":9461363617,"lat":52.2235085,"lon":21.017558,"tags":{"barrier":"bollard","bollard":"fixed"}},{"type":"node","id":9461363618,"lat":52.223507,"lon":21.0175309,"tags":{"barrier":"bollard","bollard":"fixed"}},{"type":"node","id":9461363619,"lat":52.2234829,"lon":21.0172149,"tags":{"bench":"yes","bin":"yes","bus":"yes","highway":"bus_stop","lit":"yes","name":"Plac Konstytucji 04","network":"ZTM Warszawa","network:wikidata":"Q8066998","operator":"Zarz\u0105d Transportu Miejskiego w Warszawie","public_transport":"platform","ref":"701104","shelter":"yes","tactile_paving":"no","url":"https:\/\/www.wtp.waw.pl\/rozklady-jazdy\/?wtp_md=8&wtp_st=7011&wtp_pt=04"}},{"type":"node","id":9461363623,"lat":52.2234702,"lon":21.0169093,"tags":{"natural":"tree"}},{"type":"node","id":9461363624,"lat":52.2235358,"lon":21.0172266,"tags":{"natural":"tree"}},{"type":"node","id":9461363625,"lat":52.2235567,"lon":21.0173233,"tags":{"natural":"tree"}},{"type":"node","id":10162329987,"lat":52.2237129,"lon":21.0175598,"tags":{"addr:housenumber":"28\/34","addr:street":"Pi\u0119kna","amenity":"restaurant","check_date":"2022-11-06","name":"W\u00f3\u0142 na St\u00f3\u0142","opening_hours":"Mo-Th,Su 12:00-22:00; Fr-Sa 12:00-23:00","wheelchair":"no"}},{"type":"node","id":10162329989,"lat":52.2234628,"lon":21.0168517,"tags":{"advertising":"column"}},{"type":"node","id":10162329990,"lat":52.2235975,"lon":21.0170501,"tags":{"addr:housenumber":"28\/34","addr:street":"Pi\u0119kna","amenity":"cafe","check_date":"2022-11-06","name":"Il Panificio","opening_hours":"Mo-Sa 08:00-18:30","shop":"bakery","wheelchair":"limited"}},{"type":"node","id":10162329991,"lat":52.2236308,"lon":21.0171967,"tags":{"addr:housenumber":"28\/34","addr:street":"Pi\u0119kna","brand":"\u017babka","brand:wikidata":"Q2589061","check_date":"2022-11-06","name":"\u017babka","name:pl":"\u017babka","name:uk":"\u0416\u0430\u0431\u043a\u0430","opening_hours":"Mo-Sa 06:00-23:00; Su 11:00-19:00","shop":"convenience","wheelchair":"limited"}},{"type":"node","id":10162329994,"lat":52.22366,"lon":21.0173308,"tags":{"addr:housenumber":"28\/34","addr:street":"Pi\u0119kna","check_date":"2022-11-06","name":"Na Pi\u0119knej","opening_hours":"Mo-Fr 11:00-19:00; Sa 10:00-17:00","shop":"houseware","wheelchair":"no"}},{"type":"node","id":10162329998,"lat":52.2236925,"lon":21.0174671,"tags":{"addr:housenumber":"28\/34","addr:street":"Pi\u0119kna","amenity":"fast_food","check_date":"2023-06-24","cuisine":"korean","diet:vegan":"yes","diet:vegetarian":"yes","name":"Kbar","wheelchair":"no"}},{"type":"node","id":10853116875,"lat":52.2233273,"lon":21.0175964,"tags":{"addr:housenumber":"19","addr:street":"Pi\u0119kna","amenity":"doctors","check_date":"2024-10-11","healthcare":"doctor","healthcare:speciality":"dermatology;plastic_surgery;gynaecology","name":"Bella"}},{"type":"node","id":10853116876,"lat":52.2233021,"lon":21.0172491,"tags":{"addr:housenumber":"21","addr:street":"Pi\u0119kna","amenity":"doctors","check_date":"2024-10-11","healthcare":"doctor","healthcare:speciality":"general","name":"Poradnia \"Puchatek\"","opening_hours":"Mo-Fr 08:00-18:00"}},{"type":"node","id":10853116877,"lat":52.2233403,"lon":21.0169965,"tags":{"amenity":"bicycle_parking","bicycle_parking":"stands","capacity":"2","covered":"no"}},{"type":"node","id":11100218605,"lat":52.223622,"lon":21.0171074,"tags":{"addr:postcode":"00-550","amenity":"restaurant","name":"BURGERLAB","opening_hours":"Mo-Su 12:00-23:00","website":"https:\/\/www.burgerlabs.pl\/"}},{"type":"node","id":11502750348,"lat":52.2233405,"lon":21.0170085,"tags":{"highway":"street_lamp"}},{"type":"node","id":11502750349,"lat":52.2234675,"lon":21.0169395,"tags":{"highway":"street_lamp"}},{"type":"node","id":11502750350,"lat":52.2234014,"lon":21.0171858,"tags":{"bus":"yes","name":"Plac Konstytucji 04","network":"ZTM Warszawa","network:wikidata":"Q8066998","network:wikipedia":"pl:Zarz\u0105d Transportu Miejskiego w Warszawie","operator":"Zarz\u0105d Transportu Miejskiego w Warszawie","public_transport":"stop_position","ref":"701104","stop_position:direction":"forward"}}]}