{"version":0.6,"generator":"Overpass API 0.7.62.5 1bd436f1","osm3s":{"timestamp_osm_base":"2025-03-12T13:10:00Z","copyright":"The data included in this document is from www.openstreetmap.org. The data is made available under ODbL."},"elements":[{"type":"node","id":678963591,"lat":52.222769,"lon":21.0131708,"tags":{"addr:housenumber":"54","addr:street":"Koszykowa","check_date":"2023-03-20","name":"Luva","opening_hours":"Mo-Fr 11:00-18:00; Sa 10:00-15:00","shop":"jewelry","wheelchair":"yes"}},{"type":"node","id":866933691,"lat":52.2229345,"lon":21.0129015,"tags":{"addr:housenumber":"54","addr:street":"Koszykowa","amenity":"cafe","brand":"Caff\u00e8 Nero","brand:wikidata":"Q675808","brand:wikipedia":"en:Caff\u00e8 Nero","check_date":"2023-10-10","cuisine":"coffee_shop","name":"Green Caff\u00e8 Nero","opening_hours":"Mo-Fr 07:00-21:00; Sa-Su 07:00-20:30","outdoor_seating":"yes","takeaway":"yes","wheelchair":"yes"}},{"type":"node","id":1329315919,"lat":52.22267,"lon":21.0126745,"tags":{"button_operated":"yes","crossing":"traffic_signals","crossing:island":"no","crossing:markings":"zebra","crossing_ref":"zebra","highway":"crossing","tactile_paving":"yes","traffic_signals:sound":"yes","traffic_signals:vibration":"yes"}},{"type":"node","id":1329315941,"lat":52.2230438,"lon":21.0125877,"tags":{"crossing":"uncontrolled","crossing:island":"no","crossing:markings":"zebra","crossing_ref":"zebra","highway":"crossing","tactile_paving":"yes"}},{"type":"node","id":1329316101,"lat":52.222973,"lon":21.0127135,"tags":{"crossing":"uncontrolled","crossing:island":"no","crossing:markings":"zebra","crossing_ref":"zebra","highway":"crossing","tactile_paving":"yes"}},{"type":"node","id":2025129829,"lat":52.2232937,"lon":21.0126185,"tags":{"addr:city":"Warszawa","addr:city:simc":"0918123","addr:housenumber":"1","addr:postcode":"00-680","addr:street":"Pozna\u0144ska","source:addr":"gugik.gov.pl"}},{"type":"node","id":2025599178,"lat":52.2231444,"lon":21.0125613,"tags":{"addr:city":"Warszawa","addr:city:simc":"0918123","addr:housenumber":"52","addr:postcode":"00-672","addr:street":"Pi\u0119kna","source:addr":"gugik.gov.pl"}},{"type":"node","id":2025606160,"lat":52.2228122,"lon":21.0129888,"tags":{"addr:city":"Warszawa","addr:city:simc":"0918123","addr:housenumber":"54","addr:postcode":"00-675","addr:street":"Koszykowa","source:addr":"mapa.um.warszawa.pl"}},{"type":"node","id":2334346623,"lat":52.2226723,"lon":21.0125997,"tags":{"barrier":"kerb","kerb":"lowered"}},{"type":"node","id":2762961458,"lat":52.2231455,"lon":21.0128097,"tags":{"crossing":"uncontrolled","crossing:island":"no","crossing:markings":"zebra","crossing_ref":"zebra","highway":"crossing","tactile_paving":"yes"}},{"type":"node","id":3426668317,"lat":52.222668,"lon":21.0127396,"tags":{"barrier":"kerb","kerb":"lowered"}},{"type":"node","id":3839073374,"lat":52.2232488,"lon":21.0131204,"tags":{"addr:city":"Warszawa","addr:city:simc":"0918123","addr:housenumber":"54","addr:postcode":"00-675","addr:street":"Koszykowa","check_date":"2024-04-05","country":"ZA","diplomatic":"embassy","email":"warsaw.political@dirco.gov.za","embassy":"yes","fax":"+48 22 625 62 70","name":"Ambasada RPA","name:en":"Embassy of South Africa","name:fr":"Ambassade d'Afrique du Sud","office":"diplomatic","official_name":"Ambasada Republiki Po\u0142udniowej Afryki","official_name:en":"Embassy of the Republic of South Africa","opening_hours":"Mo-Th 08:30-13:00,13:30-17:00; Fr 08:30-15:15","phone":"+48 22 622 10 31","source:addr":"mapa.um.warszawa.pl","target":"PL","website":"https:\/\/dirco1.azurewebsites.net\/warsaw\/","wikidata":"Q9149589","wikipedia":"pl:Ambasada Po\u0142udniowej Afryki w Polsce"}},{"type":"node","id":4718399095,"lat":52.2231206,"lon":21.0122107,"tags":{"addr:housenumber":"54","addr:street":"Pi\u0119kna","amenity":"restaurant","check_date":"2024-11-04","cuisine":"mexican","name":"La Sirena","outdoor_seating":"yes","wheelchair":"no"}},{"type":"node","id":5448489725,"lat":52.2226661,"lon":21.0124961,"tags":{"addr:housename":"Norway House","addr:housenumber":"19","addr:street":"Lwowska","amenity":"cafe","brand":"Starbucks","brand:website":"https:\/\/starbucks.pl","brand:wikidata":"Q37158","brand:wikipedia":"en:Starbucks","check_date":"2024-11-04","cuisine":"coffee_shop","name":"Starbucks","official_name":"Starbucks Coffee","opening_hours":"07:00-21:30","takeaway":"yes","wheelchair":"yes"}},{"type":"node","id":8930325582,"lat":52.2226479,"lon":21.0128903,"tags":{"amenity":"bicycle_parking","bicycle_parking":"stands","capacity":"4","covered":"no"}},{"type":"node","id":9076636595,"lat":52.2230726,"lon":21.0129233,"tags":{"crossing":"uncontrolled","crossing:island":"no","crossing:markings":"zebra","crossing_ref":"zebra","highway":"crossing","tactile_paving":"yes"}},{"type":"node","id":9268213346,"lat":52.2229052,"lon":21.0130281,"tags":{"addr:city":"Warszawa","addr:housenumber":"54","addr:postcode":"00-675","addr:street":"Koszykowa","amenity":"language_school","check_date":"2024-04-05","email":"warsaw@britishcouncil.pl","language:en":"yes","name":"British Council","official_name":"Centrum British Council dla Dzieci i M\u0142odzie\u017cy","opening_hours":"Mo-Fr 08:30-19:00; Sa 08:30-16:00","operator":"Fundacja British Council","operator:type":"ngo","phone":"+48 22 695 59 00","ref:regon":"147143145","ref:rspo":"122430","website":"https:\/\/www.britishcouncil.pl\/","wheelchair":"yes","wikidata":"Q45433","wikipedia":"pl:British Council"}},{"type":"node","id":9502745162,"lat":52.2227181,"lon":21.0128087,"tags":{"amenity":"vending_machine","check_date":"2022-09-16","operator":"ZDM Warszawa","ref":"G040819","vending":"parking_tickets"}},{"type":"node","id":9502756692,"lat":52.2232619,"lon":21.012702,"tags":{"amenity":"vending_machine","check_date":"2022-10-04","operator":"ZDM Warszawa","ref":"G040825","vending":"parking_tickets"}},{"type":"node","id":10029849934,"lat":52.2227574,"lon":21.0128145,"tags":{"amenity":"bicycle_parking","bicycle_parking":"wall_loops","capacity":"11","covered":"no","fee":"yes"}},{"type":"node","id":10075368417,"lat":52.2229972,"lon":21.012514,"tags":{"amenity":"bicycle_parking","bicycle_parking":"stands","capacity":"4","covered":"no"}},{"type":"node","id":10075368419,"lat":52.2232255,"lon":21.0125994,"tags":{"addr:housenumber":"1","addr:street":"Pozna\u0144ska","alt_name":"Sharley Hair Clinic","check_date":"2024-02-22","name":"Sharley Hair Clinic","opening_hours":"Mo-Fr 09:00-21:00; Sa 08:00-16:00","shop":"beauty","short_name":"Sharley","wheelchair":"limited"}},{"type":"node","id":10075368432,"lat":52.2229111,"lon":21.012611,"tags":{"amenity":"bicycle_parking","bicycle_parking":"stands","capacity":"4","covered":"no"}},{"type":"node","id":10082937126,"lat":52.2231173,"lon":21.0128966,"tags":{"direction":"200","maxspeed":"30","traffic_sign":"maxspeed"}},{"type":"node","id":10748985809,"lat":52.2226684,"lon":21.0123416,"tags":{"addr:housenumber":"19","addr:street":"Lwowska","check_date":"2024-11-04","name":"drukpolska.com","opening_hours":"Mo-Fr 09:00-17:00","shop":"copyshop","wheelchair":"no"}},{"type":"node","id":10748985814,"lat":52.222677,"lon":21.0121827,"tags":{"addr:housenumber":"58","addr:street":"Koszykowa","check_date":"2024-11-04","craft":"jeweller","name":"S\u0142awomir Sasin","opening_hours":"Mo-Fr 11:00-19:00; Sa 10:00-14:00","shop":"jewelry","wheelchair":"limited"}},{"type":"node","id":10830145332,"lat":52.2231317,"lon":21.0123798,"tags":{"addr:housenumber":"54","addr:street":"Pi\u0119kna","amenity":"restaurant","check_date":"2024-11-04","cuisine":"ramen","name":"Arigator","note":"W s\u0105siednim dumny w\u0142a\u015bciwa restauracja, tu tylko na wynos.","opening_hours":"12:00-20:00","takeaway":"only","wheelchair":"limited"}},{"type":"node","id":12040468146,"lat":52.2227616,"lon":21.013095,"tags":{"addr:city":"Warszawa","addr:housenumber":"54","addr:postcode":"00-675","addr:street":"Koszykowa","consulate":"consulate_general","country":"XK","diplomatic":"consulate","email":"consulategeneral.pl@rks-gov.net","name":"Konsulat Generalny Kosowa","name:en":"Consulate General of Kosova","office":"diplomatic","official_name":"Konsulat Generalny Republiki Kosowa","official_name:en":"Consulate General of the Republic of Kosova","opening_hours":"Mo-Fr 08:30-16:30","target":"PL","wikidata":"Q126974519","wikipedia":"pl:Konsulat Generalny Republiki Kosowa w Warszawie"}},{"type":"node","id":12498186597,"lat":52.2231604,"lon":21.0130532,"tags":{"amenity":"restaurant","diet:vegan":"only","diet:vegetarian":"yes","name":"Manna 2"}}]}