{"version":0.6,"generator":"Overpass API 0.7.62.5 1bd436f1","osm3s":{"timestamp_osm_base":"2025-03-12T13:08:56Z","copyright":"The data included in this document is from www.openstreetmap.org. The data is made available under ODbL."},"elements":[{"type":"node","id":2809319366,"lat":52.226683,"lon":21.0159253,"tags":{"crossing":"unmarked","highway":"crossing","tactile_paving":"no"}},{"type":"node","id":7440114124,"lat":52.2266833,"lon":21.0162645,"tags":{"crossing":"uncontrolled","crossing:island":"no","crossing:markings":"zebra","highway":"crossing","tactile_paving":"yes"}},{"type":"node","id":7440114135,"lat":52.2265761,"lon":21.0160904,"tags":{"crossing":"uncontrolled","crossing:island":"no","crossing:markings":"zebra","crossing_ref":"zebra","highway":"crossing","tactile_paving":"yes"}},{"type":"node","id":9315285575,"lat":52.226563,"lon":21.016034,"tags":{"barrier":"kerb","kerb":"lowered","tactile_paving":"yes"}},{"type":"node","id":9315285576,"lat":52.2265878,"lon":21.0161411,"tags":{"barrier":"kerb","kerb":"lowered","tactile_paving":"yes"}},{"type":"node","id":9502959289,"lat":52.2261099,"lon":21.016444,"tags":{"amenity":"vending_machine","check_date":"2023-06-15","operator":"ZDM Warszawa","ref":"G020329","vending":"parking_tickets"}},{"type":"node","id":9502959298,"lat":52.2265717,"lon":21.0154453,"tags":{"amenity":"vending_machine","check_date":"2023-07-19","operator":"ZDM Warszawa","ref":"G020314","vending":"parking_tickets"}},{"type":"node","id":10154587298,"lat":52.2264509,"lon":21.0161,"tags":{"direction":"340","traffic_sign":"PL:B-43[30]"}},{"type":"node","id":10568048914,"lat":52.2266478,"lon":21.0162852,"tags":{"barrier":"kerb","kerb":"lowered","tactile_paving":"yes"}},{"type":"node","id":10568048915,"lat":52.2266191,"lon":21.0160647,"tags":{"direction":"forward","highway":"give_way"}},{"type":"node","id":10979328065,"lat":52.226479,"lon":21.0159824,"tags":{"addr:housenumber":"27","addr:street":"Ho\u017ca","check_date":"2023-06-15","craft":"bookbinder","noname":"yes","opening_hours":"Mo-Fr 09:30-16:30","wheelchair":"limited"}},{"type":"node","id":10979328066,"lat":52.2265173,"lon":21.0162929,"tags":{"frequency":"50","location":"indoor","operator":"Stoen Operator","operator:wikidata":"Q11833155","power":"substation","ref":"6744","substation":"minor_distribution","voltage":"15000;400"}},{"type":"node","id":11055281440,"lat":52.2264168,"lon":21.0155083,"tags":{"addr:housenumber":"27A","addr:street":"Ho\u017ca","check_date":"2023-07-19","shop":"vacant","wheelchair":"no"}},{"type":"node","id":11055281441,"lat":52.2264353,"lon":21.0155907,"tags":{"addr:housenumber":"27","addr:street":"Ho\u017ca","check_date":"2023-07-19","name":"Wanda","opening_hours":"Mo-Fr 06:30-18:30; Sa 07:00-14:00","shop":"bakery","wheelchair":"no"}},{"type":"node","id":11055281442,"lat":52.2264465,"lon":21.015642,"tags":{"addr:housenumber":"27","addr:street":"Ho\u017ca","check_date":"2023-07-19","craft":"tailor","opening_hours":"Sep-Jun Mo-Fr 11:00-18:00;Jul-Aug Mo-Th 11:00-18:00","shop":"tailor","wheelchair":"no"}},{"type":"node","id":11055281444,"lat":52.2262818,"lon":21.0158436,"tags":{"denomination":"roman_catholic","historic":"wayside_shrine","religion":"christian"}},{"type":"node","id":11055281450,"lat":52.2264841,"lon":21.0158153,"tags":{"addr:housenumber":"27","addr:street":"Ho\u017ca","check_date":"2023-07-19","craft":"upholsterer","noname":"yes","opening_hours":"Mo-Fr 09:00-16:00","wheelchair":"no"}},{"type":"node","id":11055281464,"lat":52.226497,"lon":21.0158665,"tags":{"addr:housenumber":"27","addr:street":"Ho\u017ca","check_date":"2023-07-19","name":"Printmania","opening_hours":"Mo-Fr 09:00-17:00","shop":"copyshop","wheelchair":"no"}},{"type":"node","id":11055281466,"lat":52.2266502,"lon":21.0164589,"tags":{"addr:flats":"1-39","entrance":"staircase"}},{"type":"node","id":11055281467,"lat":52.2265183,"lon":21.0159592,"tags":{"addr:housenumber":"27","addr:street":"Ho\u017ca","amenity":"bar","check_date":"2023-07-19","name":"Aura","outdoor_seating":"yes","wheelchair":"limited"}},{"type":"node","id":11055281468,"lat":52.2265069,"lon":21.0159136,"tags":{"addr:housenumber":"27","addr:street":"Ho\u017ca","check_date":"2023-07-19","name":"Diadem","shop":"hairdresser","wheelchair":"no"}},{"type":"node","id":11055281469,"lat":52.2264584,"lon":21.015691,"tags":{"addr:housenumber":"27","addr:street":"Ho\u017ca","check_date":"2023-07-19","craft":"jeweller","name":"Batzgold","wheelchair":"no"}},{"type":"node","id":11055499346,"lat":52.2266885,"lon":21.0159497,"tags":{"barrier":"kerb","kerb":"lowered","tactile_paving":"no"}},{"type":"node","id":11055499347,"lat":52.2266781,"lon":21.0159032,"tags":{"barrier":"kerb","kerb":"lowered","tactile_paving":"no"}}]}