{"version":0.6,"generator":"Overpass API 0.7.62.5 1bd436f1","osm3s":{"timestamp_osm_base":"2025-03-12T14:03:59Z","copyright":"The data included in this document is from www.openstreetmap.org. The data is made available under ODbL."},"elements":[{"type":"node","id":2532974829,"lat":52.2255495,"lon":21.0105318,"tags":{"addr:city":"Warszawa","addr:housenumber":"62","addr:street":"Ho\u017ca","alt_name":"Youmiko Vegan Sushi","amenity":"restaurant","brand":"youmiko","check_date":"2024-06-05","contact:email":"hello@youmiko.vg","contact:facebook":"youmiko.vg","contact:phone":"+48 721 882 588","contact:website":"https:\/\/youmiko.pl","cuisine":"sushi","diet:vegan":"only","name":"Youmiko","opening_hours":"Mo-Th 12:00-22:00; Fr,Sa 12:00-23:00; Su 13:00-21:00","outdoor_seating":"yes","wheelchair":"no"}},{"type":"node","id":5544377897,"lat":52.2253714,"lon":21.0107506,"tags":{"addr:city":"Warszawa","addr:housenumber":"43\/49","addr:street":"Ho\u017ca","check_date":"2024-06-05","check_date:opening_hours":"2021-03-24","name":"Vicop","opening_hours":"Mo-Fr 08:00-20:00; Sa 09:00-15:00","phone":"+48226254957","shop":"copyshop","wheelchair":"no"}},{"type":"node","id":9211034043,"lat":52.2258309,"lon":21.0099994,"tags":{"noexit":"yes"}},{"type":"node","id":9211034050,"lat":52.2254655,"lon":21.0102808,"tags":{"access":"private","barrier":"gate"}},{"type":"node","id":9211034052,"lat":52.2256102,"lon":21.010957,"tags":{"access":"private","barrier":"gate"}},{"type":"node","id":9502756654,"lat":52.225389,"lon":21.0100282,"tags":{"amenity":"vending_machine","operator":"ZDM Warszawa","ref":"G040412","vending":"parking_tickets"}},{"type":"node","id":9555845517,"lat":52.2254178,"lon":21.0109662,"tags":{"addr:housenumber":"43\/49","addr:street":"Ho\u017ca","amenity":"fast_food","check_date":"2023-04-20","cuisine":"vietnamese","name":"Pho Ever","opening_hours":"Mo-Fr 10:00-21:00; Sa-Su 11:00-21:00","wheelchair":"no"}},{"type":"node","id":10131191139,"lat":52.2255048,"lon":21.0108321,"tags":{"direction":"both","surface":"paving_stones","traffic_calming":"hump"}},{"type":"node","id":10827610511,"lat":52.2254341,"lon":21.0100214,"tags":{"addr:housenumber":"66\/68","addr:street":"Ho\u017ca","check_date":"2024-06-05","noname":"yes","opening_hours":"Mo-Fr 06:30-18:00; Sa 07:00-14:00","shop":"convenience","wheelchair":"no"}},{"type":"node","id":10827610512,"lat":52.2255659,"lon":21.010607,"tags":{"addr:housenumber":"62","addr:street":"Ho\u017ca","check_date":"2024-06-05","craft":"jeweller","name":"Grzegorz Szeliga","opening_hours":"Mo-Fr 09:00-17:00","wheelchair":"no"}},{"type":"node","id":10827610513,"lat":52.2255328,"lon":21.010703,"tags":{"amenity":"bicycle_parking","bicycle_parking":"stands","capacity":"2","covered":"no"}},{"type":"node","id":10827610514,"lat":52.2255456,"lon":21.0107561,"tags":{"amenity":"bicycle_parking","bicycle_parking":"stands","capacity":"2","covered":"no"}},{"type":"node","id":10827610515,"lat":52.2256579,"lon":21.0107157,"tags":{"addr:housenumber":"62","addr:street":"Ho\u017ca","check_date":"2024-06-05","name":"Polski Komitet Pomocy Spo\u0142ecznej","office":"ngo","wheelchair":"no"}},{"type":"node","id":10827610516,"lat":52.2255962,"lon":21.0107489,"tags":{"addr:housenumber":"62","addr:street":"Ho\u017ca","amenity":"social_facility","check_date":"2024-06-05","name":"Polski Komitet Pomocy Spo\u0142ecznej","social_facility":"clothing_bank","wheelchair":"no"}},{"type":"node","id":10827610517,"lat":52.2256093,"lon":21.0108126,"tags":{"addr:housenumber":"62","addr:street":"Ho\u017ca","amenity":"restaurant","check_date":"2024-06-05","cuisine":"italian","name":"Culinaria Italiana","outdoor_seating":"yes","wheelchair":"no"}},{"type":"node","id":10827707121,"lat":52.2253948,"lon":21.0108528,"tags":{"addr:housenumber":"43\/49","addr:street":"Ho\u017ca","amenity":"cafe","check_date":"2023-04-20","diet:vegan":"yes","diet:vegetarian":"yes","name":"Sabich","wheelchair":"no"}},{"type":"node","id":10827707122,"lat":52.2253379,"lon":21.0105845,"tags":{"addr:housenumber":"43\/49","addr:street":"Ho\u017ca","check_date":"2024-06-05","name":"Warszawskie Centrum Numizmatyczne","opening_hours":"Mo-Fr 10:00-18:00","shop":"collector","wheelchair":"no"}}]}