{"version":0.6,"generator":"Overpass API 0.7.62.5 1bd436f1","osm3s":{"timestamp_osm_base":"2025-03-12T14:15:01Z","copyright":"The data included in this document is from www.openstreetmap.org. The data is made available under ODbL."},"elements":[{"type":"node","id":1412975527,"lat":52.2280012,"lon":21.0132502,"tags":{"button_operated":"no","crossing":"traffic_signals","crossing:island":"no","crossing:markings":"zebra","crossing_ref":"zebra","highway":"crossing","tactile_paving":"yes","traffic_signals:sound":"no","traffic_signals:vibration":"no"}},{"type":"node","id":3428474911,"lat":52.2279605,"lon":21.0132747,"tags":{"barrier":"kerb","kerb":"lowered","tactile_paving":"yes"}},{"type":"node","id":3428479523,"lat":52.2280214,"lon":21.0132381,"tags":{"barrier":"kerb","kerb":"lowered","tactile_paving":"yes"}},{"type":"node","id":3444667893,"lat":52.2280133,"lon":21.0142035,"tags":{"addr:city":"Warszawa","addr:housenumber":"82","addr:postcode":"00-517","addr:street":"Marsza\u0142kowska","amenity":"courthouse","name":"S\u0105d Rejonowy Warszawa-\u015ar\u00f3dmie\u015bcie","official_name":"S\u0105d Rejonowy dla Warszawy-\u015ar\u00f3dmie\u015bcia w Warszawie","website":"http:\/\/www.warszawa.so.gov.pl\/sad-rejonowy-dla-warszawy-srodmiescia.html","wheelchair":"yes"}},{"type":"node","id":3802763175,"lat":52.2279348,"lon":21.013578,"tags":{"addr:city":"Warszawa","addr:city:simc":"0918123","addr:housenumber":"33\/35","addr:postcode":"00-515","addr:street":"\u017burawia","source:addr":"gugik.gov.pl"}},{"type":"node","id":5571588109,"lat":52.2276218,"lon":21.0136829,"tags":{"addr:city":"Warszawa","addr:city:simc":"0918123","addr:housenumber":"82","addr:postcode":"00-517","addr:street":"Marsza\u0142kowska","source:addr":"gugik.gov.pl"}},{"type":"node","id":5642734881,"lat":52.2276443,"lon":21.0134078,"tags":{"amenity":"bench","backrest":"yes"}},{"type":"node","id":5642734893,"lat":52.2275243,"lon":21.0134679,"tags":{"amenity":"waste_basket"}},{"type":"node","id":5642734897,"lat":52.2275075,"lon":21.0134808,"tags":{"amenity":"bench","backrest":"yes"}},{"type":"node","id":8500805434,"lat":52.2278995,"lon":21.0132512,"tags":{"emergency":"fire_hydrant","fire_hydrant:diameter:signed":"no","fire_hydrant:position":"sidewalk","fire_hydrant:type":"underground","water_source":"main"}},{"type":"node","id":8917221195,"lat":52.2277728,"lon":21.0132984,"tags":{"advertising":"column","check_date":"2023-10-10"}},{"type":"node","id":8917221210,"lat":52.2276236,"lon":21.0137717,"tags":{"amenity":"courthouse","name":"S\u0105d Rejonowy dla m.st. Warszawy","official_name":"S\u0105d Rejonowy dla m.st. Warszawy w Warszawie"}},{"type":"node","id":8917515514,"lat":52.2274095,"lon":21.0142278,"tags":{"addr:city":"Warszawa","addr:city:simc":"0918123","addr:housenumber":"32\/46","addr:postcode":"00-519","addr:street":"Wsp\u00f3lna","source:addr":"gugik.gov.pl"}},{"type":"node","id":9463237651,"lat":52.2277034,"lon":21.0133697,"tags":{"amenity":"waste_basket"}},{"type":"node","id":9463237653,"lat":52.2277524,"lon":21.0133142,"tags":{"natural":"tree"}},{"type":"node","id":9463237654,"lat":52.2276891,"lon":21.0133466,"tags":{"natural":"tree"}},{"type":"node","id":9463237655,"lat":52.2276404,"lon":21.0133865,"tags":{"natural":"tree"}},{"type":"node","id":9463237656,"lat":52.2274513,"lon":21.0134947,"tags":{"leaf_type":"broadleaved","natural":"tree"}},{"type":"node","id":9463237658,"lat":52.2275707,"lon":21.0134217,"tags":{"natural":"tree"}},{"type":"node","id":9463237661,"lat":52.2274004,"lon":21.0135264,"tags":{"natural":"tree"}},{"type":"node","id":9463237676,"lat":52.2278009,"lon":21.013987,"tags":{"amenity":"parking","parking":"underground"}},{"type":"node","id":9502957693,"lat":52.2275338,"lon":21.0134031,"tags":{"amenity":"vending_machine","operator":"ZDM Warszawa","ref":"G020307","vending":"parking_tickets"}},{"type":"node","id":10933549958,"lat":52.2275124,"lon":21.0133746,"tags":{"highway":"street_lamp"}}]}