{"version":0.6,"generator":"Overpass API 0.7.62.5 1bd436f1","osm3s":{"timestamp_osm_base":"2025-03-12T13:51:45Z","copyright":"The data included in this document is from www.openstreetmap.org. The data is made available under ODbL."},"elements":[{"type":"node","id":316888364,"lat":52.2244287,"lon":21.0124438,"tags":{"addr:housenumber":"46","addr:street":"Wilcza","amenity":"restaurant","check_date":"2023-10-10","cuisine":"greek","facebook":"mezerestaurant","name":"Meze","opening_hours:signed":"no","outdoor_seating":"yes","phone":"+48 698 782 654","wheelchair":"no"}},{"type":"node","id":1329315905,"lat":52.2242115,"lon":21.0125426,"tags":{"crossing":"uncontrolled","crossing_ref":"zebra","highway":"crossing","tactile_paving":"yes"}},{"type":"node","id":1329315988,"lat":52.2241508,"lon":21.0122578,"tags":{"crossing":"uncontrolled","crossing_ref":"zebra","highway":"crossing","tactile_paving":"yes"}},{"type":"node","id":1329315990,"lat":52.2242996,"lon":21.0123116,"tags":{"crossing":"uncontrolled","crossing_ref":"zebra","highway":"crossing","tactile_paving":"yes"}},{"type":"node","id":1329316112,"lat":52.2241005,"lon":21.0124162,"tags":{"crossing":"uncontrolled","crossing_ref":"zebra","highway":"crossing","tactile_paving":"yes"}},{"type":"node","id":2119986341,"lat":52.2242639,"lon":21.0124689,"tags":{"amenity":"waste_basket"}},{"type":"node","id":4672189190,"lat":52.2240443,"lon":21.0122653,"tags":{"addr:housenumber":"7","addr:street":"Pozna\u0144ska","alt_name":"The Night Before","amenity":"cafe","check_date":"2024-04-15","contact:instagram":"tma_warsaw","name":"the morning after (the night before)","opening_hours":"Mo-Th 08:00-23:00, Fr-Sa 08:00-01:00, Su 08:00-00:00","opening_hours:signed":"no","outdoor_seating":"yes","phone":"734127777","website":"https:\/\/instagram.com\/tma_warsaw?igshid=NTc4MTIwNjQ2YQ=="}},{"type":"node","id":6351096768,"lat":52.2243712,"lon":21.0127464,"tags":{"addr:city":"Warszawa","addr:housenumber":"46","addr:street":"Wilcza","amenity":"restaurant","check_date":"2024-06-20","contact:email":"rezerwacja@nolita.pl","contact:facebook":"https:\/\/www.facebook.com\/restauracjanolita","contact:phone":"+48 222920424","contact:website":"http:\/\/www.nolita.pl","cuisine":"international","name":"Nolita","opening_hours":"Tu-Fr 12:00-15:00,18:00-22:00; Sa 17:00-22:30","opening_hours:signed":"no","wheelchair":"no"}},{"type":"node","id":6974057285,"lat":52.2240325,"lon":21.0121838,"tags":{"addr:housenumber":"51A","addr:street":"Wilcza","amenity":"bar","check_date":"2024-02-22","name":"Rep\u00fablica de San Escobar","wheelchair":"no"}},{"type":"node","id":8930325548,"lat":52.2241918,"lon":21.0121785,"tags":{"amenity":"bicycle_parking","bicycle_parking":"stands","capacity":"2","covered":"no"}},{"type":"node","id":9502756643,"lat":52.2246264,"lon":21.0122452,"tags":{"amenity":"vending_machine","check_date":"2022-09-16","operator":"ZDM Warszawa","ref":"G040602","vending":"parking_tickets"}},{"type":"node","id":9502756671,"lat":52.2242177,"lon":21.0128702,"tags":{"amenity":"vending_machine","check_date":"2022-09-16","operator":"ZDM Warszawa","ref":"G040810","vending":"parking_tickets"}},{"type":"node","id":9502756674,"lat":52.2240428,"lon":21.0127036,"tags":{"amenity":"vending_machine","check_date":"2022-09-16","operator":"ZDM Warszawa","ref":"G040809","vending":"parking_tickets"}},{"type":"node","id":10029846311,"lat":52.2245678,"lon":21.0122604,"tags":{"amenity":"bicycle_parking","bicycle_parking":"stands","capacity":"2","covered":"no"}},{"type":"node","id":10029846312,"lat":52.2244003,"lon":21.012672,"tags":{"addr:housenumber":"46","addr:street":"Wilcza","check_date":"2024-06-20","name":"Biuro Rzecznika Ma\u0142ych i \u015arednich Przedsi\u0119biorc\u00f3w","office":"government"}},{"type":"node","id":10029846314,"lat":52.2243786,"lon":21.0125496,"tags":{"addr:housenumber":"46","addr:street":"Wilcza","check_date":"2024-06-20","government":"mining","name":"Wy\u017cszy Urz\u0105d G\u00f3rniczy","office":"government"}},{"type":"node","id":10029846316,"lat":52.2243409,"lon":21.012751,"tags":{"amenity":"post_box","brand":"Poczta Polska","brand:wikidata":"Q168833","collection_times":"Mo-Fr 14:00"}},{"type":"node","id":10029849917,"lat":52.2244245,"lon":21.0129892,"tags":{"addr:housenumber":"44","addr:street":"Wilcza","alt_name":"Liberty","check_date":"2024-06-20","name":"Gots Label","opening_hours":"Mo-Sa 11:00-19:00","shop":"clothes","wheelchair":"no"}},{"type":"node","id":10029849918,"lat":52.2244674,"lon":21.0131785,"tags":{"addr:door":"1","addr:housenumber":"44","addr:street":"Wilcza","check_date":"2024-06-20","name":"Place 4 You","office":"estate_agent","wheelchair":"no"}},{"type":"node","id":10029849919,"lat":52.2244311,"lon":21.0131884,"tags":{"historic":"memorial","memorial":"plaque","name":"Kwatera G\u0142\u00f3wna Szarych Szereg\u00f3w"}},{"type":"node","id":10029849921,"lat":52.224624,"lon":21.0122783,"tags":{"fixme":"Please merge me into a nearby building","historic":"memorial","memorial":"plaque","name":"Batalion AK \"Zaremba-Piorun\""}},{"type":"node","id":10029849923,"lat":52.2241198,"lon":21.0126523,"tags":{"advertising":"column"}},{"type":"node","id":10031653022,"lat":52.2241757,"lon":21.0125622,"tags":{"barrier":"kerb","kerb":"flush","tactile_paving":"yes"}},{"type":"node","id":10075368426,"lat":52.224441,"lon":21.0121565,"tags":{"amenity":"bicycle_parking","bicycle_parking":"stands","capacity":"2","covered":"no"}},{"type":"node","id":10075368444,"lat":52.224235,"lon":21.0121511,"tags":{"fee":"no","was:amenity":"drinking_water","was:man_made":"water_tap","wheelchair":"yes"}},{"type":"node","id":10082937118,"lat":52.2242715,"lon":21.0124285,"tags":{"direction":"165","maxspeed":"30","traffic_sign":"maxspeed"}},{"type":"node","id":10082937124,"lat":52.2241982,"lon":21.0121833,"tags":{"amenity":"waste_basket","material":"concrete"}},{"type":"node","id":10082937125,"lat":52.2241856,"lon":21.0121793,"tags":{"direction":"75","maxspeed":"30","traffic_sign":"maxspeed"}},{"type":"node","id":11057416157,"lat":52.2240618,"lon":21.0128618,"tags":{"amenity":"school","check_date":"2023-10-10","email":"sekretariat@admzsg.edu.pl","isced:level":"3","name":"Technikum Gastronomiczno-Hotelarskie nr 1","note":"Parent RSPO: 26138","official_name":"Technikum Gastronomiczno-Hotelarskie nr 1","operator":"\u015ar\u00f3dmie\u015bcie","operator:type":"government","phone":"+48 226285628","ref:regon":"015827423","ref:rspo":"48975","website":"https:\/\/www.admzsg.edu.pl\/"}},{"type":"node","id":11253308472,"lat":52.2240928,"lon":21.0125656,"tags":{"amenity":"bicycle_parking","bicycle_parking":"stands","capacity":"6","covered":"no"}},{"type":"node","id":11253308473,"lat":52.2240556,"lon":21.012695,"tags":{"amenity":"bicycle_parking","bicycle_parking":"stands","capacity":"4","covered":"no"}},{"type":"node","id":11994949312,"lat":52.2243436,"lon":21.0126135,"tags":{"addr:housenumber":"46","addr:street":"Wilcza","check_date":"2024-06-20","craft":"tailor","name":"Occhiello","shop":"tailor"}},{"type":"node","id":12057829622,"lat":52.2241104,"lon":21.0125235,"tags":{"amenity":"waste_basket","waste":"trash"}},{"type":"node","id":12057853888,"lat":52.2240494,"lon":21.013142,"tags":{"noexit":"yes"}},{"type":"node","id":12602205666,"lat":52.2243617,"lon":21.0125399,"tags":{"access":"customers","defibrillator:location":"korytarz","emergency":"defibrillator","indoor":"yes","level":"3","opening_hours":"Mo-Fr 07:30-15:30; Sa-Su, PH off"}}]}