{"version":0.6,"generator":"Overpass API 0.7.62.5 1bd436f1","osm3s":{"timestamp_osm_base":"2025-03-12T13:11:58Z","copyright":"The data included in this document is from www.openstreetmap.org. The data is made available under ODbL."},"elements":[{"type":"node","id":2334260063,"lat":52.228163,"lon":21.0143609,"tags":{"crossing":"uncontrolled","crossing:island":"no","crossing:markings":"zebra","crossing_ref":"zebra","highway":"crossing","tactile_paving":"yes"}},{"type":"node","id":2334260067,"lat":52.2282427,"lon":21.0144223,"tags":{"crossing":"uncontrolled","crossing:island":"no","crossing:markings":"zebra","crossing_ref":"zebra","highway":"crossing","tactile_paving":"yes"}},{"type":"node","id":2334263168,"lat":52.2284202,"lon":21.0153748,"tags":{"crossing":"uncontrolled","crossing:island":"no","crossing:markings":"zebra","crossing_ref":"zebra","highway":"crossing","tactile_paving":"yes"}},{"type":"node","id":2334263191,"lat":52.2283813,"lon":21.0153945,"tags":{"barrier":"kerb","kerb":"lowered","tactile_paving":"yes"}},{"type":"node","id":3892888746,"lat":52.2281467,"lon":21.0145469,"tags":{"crossing":"unmarked","crossing:island":"no","crossing:markings":"no","highway":"crossing","tactile_paving":"no"}},{"type":"node","id":7133368385,"lat":52.2284003,"lon":21.0146695,"tags":{"addr:housenumber":"26","addr:street":"\u017burawia","check_date":"2023-07-14","name":"Neuhaus Chocolatier","opening_hours":"Mo-Th 10:00-18:00; Fr 10:00-19:30; Sa 09:00-13:00","shop":"confectionery","short_name":"Neuhaus","wheelchair":"limited"}},{"type":"node","id":8761629379,"lat":52.2281706,"lon":21.014403,"tags":{"barrier":"kerb","kerb":"lowered","tactile_paving":"yes"}},{"type":"node","id":9502959307,"lat":52.2282181,"lon":21.0146606,"tags":{"amenity":"vending_machine","check_date":"2023-06-15","operator":"ZDM Warszawa","ref":"G020301","vending":"parking_tickets"}},{"type":"node","id":9811346669,"lat":52.228376,"lon":21.0143899,"tags":{"addr:city":"Warszawa","addr:housenumber":"27","addr:postcode":"00-511","addr:street":"Nowogrodzka","check_date":"2024-09-18","craft":"electronics_repair","name":"iRestore","opening_hours":"Mo-Fr 10:00-19:00; Sa 12:00-15:00","phone":"+48 535 160 005","website":"https:\/\/www.irestore.pl\/","wheelchair":"limited"}},{"type":"node","id":10144832815,"lat":52.2282802,"lon":21.0144028,"tags":{"barrier":"kerb","kerb":"lowered","tactile_paving":"yes"}},{"type":"node","id":10144832816,"lat":52.2281988,"lon":21.0144464,"tags":{"barrier":"kerb","kerb":"lowered","tactile_paving":"yes"}},{"type":"node","id":10144854117,"lat":52.2284668,"lon":21.0153512,"tags":{"barrier":"kerb","kerb":"lowered","tactile_paving":"yes"}},{"type":"node","id":10154534688,"lat":52.2282123,"lon":21.0145428,"tags":{"direction":"250","maxspeed":"30","traffic_sign":"maxspeed"}},{"type":"node","id":10154534692,"lat":52.2283326,"lon":21.014927,"tags":{"direction":"both","surface":"paving_stones","traffic_calming":"table"}},{"type":"node","id":10154534694,"lat":52.2280765,"lon":21.0145342,"tags":{"advertising":"column"}},{"type":"node","id":10569436839,"lat":52.2283085,"lon":21.0144884,"tags":{"amenity":"waste_basket","material":"concrete"}},{"type":"node","id":10569436867,"lat":52.2282004,"lon":21.0146181,"tags":{"crossing":"unmarked","crossing:island":"no","crossing:markings":"no","highway":"crossing","tactile_paving":"no"}},{"type":"node","id":10569436868,"lat":52.2281761,"lon":21.0147089,"tags":{"access":"private","barrier":"lift_gate","locked":"yes"}},{"type":"node","id":10569436870,"lat":52.2282063,"lon":21.0146497,"tags":{"barrier":"kerb","kerb":"lowered","tactile_paving":"no"}},{"type":"node","id":10569436876,"lat":52.2281719,"lon":21.014534,"tags":{"barrier":"kerb","kerb":"raised","tactile_paving":"no"}},{"type":"node","id":10569436877,"lat":52.22812,"lon":21.0145605,"tags":{"barrier":"kerb","kerb":"raised","tactile_paving":"no"}},{"type":"node","id":10569436878,"lat":52.2281932,"lon":21.0145794,"tags":{"barrier":"kerb","kerb":"raised","tactile_paving":"no"}},{"type":"node","id":11047028201,"lat":52.2283881,"lon":21.0146014,"tags":{"addr:housenumber":"26","addr:street":"\u017burawia","check_date":"2023-07-14","name":"Glorioza","opening_hours":"Mo-Sa 07:15-19:00; Su 09:00-15:00","shop":"florist","wheelchair":"limited"}},{"type":"node","id":11047028202,"lat":52.2284189,"lon":21.0147574,"tags":{"addr:housenumber":"26","addr:street":"\u017burawia","amenity":"cafe","check_date":"2023-07-14","name":"Dom Chleba","shop":"bakery","wheelchair":"limited"}},{"type":"node","id":11047028203,"lat":52.2284332,"lon":21.0148243,"tags":{"addr:housenumber":"26","addr:street":"\u017burawia","check_date":"2023-07-14","name":"Studio \u017burawia","shop":"hairdresser","wheelchair":"no"}},{"type":"node","id":11047028204,"lat":52.2284501,"lon":21.0149167,"tags":{"addr:housenumber":"24A","addr:street":"\u017burawia","check_date":"2023-07-14","level":"-1","name":"Dziedzicka","opening_hours":"Mo-Fr 12:00-15:00,17:00-19:00","shop":"art","wheelchair":"no"}},{"type":"node","id":11047037005,"lat":52.2284789,"lon":21.0150588,"tags":{"addr:housenumber":"24A","addr:street":"\u017burawia","check_date":"2023-07-14","healthcare":"psychotherapist","level":"-1","name":"Okno","operator":"Fundacja Okno","wheelchair":"no"}},{"type":"node","id":11047037006,"lat":52.2285259,"lon":21.0152891,"tags":{"addr:housenumber":"24","addr:street":"\u017burawia","check_date":"2023-07-14","level":"-1","name":"Chill Out","shop":"hairdresser","wheelchair":"no"}},{"type":"node","id":11047037007,"lat":52.2285489,"lon":21.0154115,"tags":{"addr:housenumber":"24","addr:street":"\u017burawia","beauty":"nails;hair;eyelash;hair_removal;massage;cosmetics","check_date":"2023-07-14","level":"-1","name":"Effecto","shop":"beauty","wheelchair":"no"}},{"type":"node","id":11047037008,"lat":52.228518,"lon":21.0154116,"tags":{"historic":"memorial","material":"stone","memorial":"plaque","name":"\u017begota"}}]}