{"version":0.6,"generator":"Overpass API 0.7.62.5 1bd436f1","osm3s":{"timestamp_osm_base":"2025-03-12T14:18:09Z","copyright":"The data included in this document is from www.openstreetmap.org. The data is made available under ODbL."},"elements":[{"type":"node","id":333137115,"lat":52.2259842,"lon":21.0138814,"tags":{"button_operated":"yes","crossing":"traffic_signals","crossing_ref":"zebra","highway":"crossing","tactile_paving":"yes","traffic_signals:sound":"yes","traffic_signals:vibration":"no"}},{"type":"node","id":333689351,"lat":52.2259064,"lon":21.0141006,"tags":{"name":"Ho\u017ca 04","network":"ZTM Warszawa","network:wikidata":"Q8066998","operator":"Tramwaje Warszawskie","operator:wikidata":"Q9360809","public_transport":"stop_position","railway":"tram_stop","ref":"701204","shelter":"yes","tactile_paving":"yes","tactile_paving:slab_size":"40x40","tram":"yes"}},{"type":"node","id":334557657,"lat":52.2255699,"lon":21.0141293,"tags":{"bus":"yes","name":"Ho\u017ca 01","network":"ZTM Warszawa","operator":"Zarz\u0105d Transportu Miejskiego w Warszawie","public_transport":"stop_position","ref":"701201"}},{"type":"node","id":2064575916,"lat":52.2260086,"lon":21.0139926,"tags":{"button_operated":"yes","crossing":"traffic_signals","crossing:island":"no","railway":"tram_crossing","tactile_paving":"yes","traffic_signals:sound":"yes","traffic_signals:vibration":"no"}},{"type":"node","id":3448360487,"lat":52.2254146,"lon":21.0139132,"tags":{"addr:city":"Warszawa","addr:housenumber":"81\/9","addr:postcode":"00-683","addr:street":"Marsza\u0142kowska","check_date":"2024-04-11","contact:facebook":"https:\/\/www.facebook.com\/PassionErotic","email":"eroticpassion.sklep@gmail.com","lgbtq":"welcome","min_age":"18","name":"Erotic Passion","opening_hours":"Mo-Sa 10:00-23:00; Su 12:00-20:00","phone":"+48 22 468 13 56","shop":"erotic","website":"https:\/\/eroticpassion.pl\/","wheelchair":"no"}},{"type":"node","id":3461444284,"lat":52.2256881,"lon":21.0136893,"tags":{"addr:city":"Warszawa","addr:housenumber":"83","addr:street":"Marsza\u0142kowska","check_date":"2024-04-11","disused:amenity":"bank","name":"BNP Paribas","wheelchair":"yes"}},{"type":"node","id":3461444285,"lat":52.2255776,"lon":21.0137548,"tags":{"addr:housenumber":"83","addr:street":"Marsza\u0142kowska","amenity":"fast_food","check_date":"2024-04-11","cuisine":"kebab","diet:vegetarian":"no","name":"Alibaba","opening_hours:signed":"no","outdoor_seating":"yes","wheelchair":"limited"}},{"type":"node","id":3461444286,"lat":52.2257724,"lon":21.0136445,"tags":{"addr:housenumber":"83","addr:street":"Marsza\u0142kowska","check_date":"2024-04-11","name":"Sodium Outlet","opening_hours":"Mo-Fr 11:00-19:00; Sa 11:00-15:00","shop":"clothes","wheelchair":"limited"}},{"type":"node","id":3469440154,"lat":52.2258329,"lon":21.0136062,"tags":{"addr:housenumber":"83","addr:street":"Marsza\u0142kowska","alt_name":"Market Turecki","check_date":"2024-04-11","cuisine":"turkish","name":"Baklava","opening_hours":"Mo-Fr 09:00-20:00; Sa 10:00-18:00","shop":"deli","wheelchair":"limited"}},{"type":"node","id":3473103047,"lat":52.2259902,"lon":21.0135222,"tags":{"addr:city":"Warszawa","addr:housenumber":"83","addr:postcode":"00-681","addr:street":"Marsza\u0142kowska","brand":"Przystanek Piekarnia","brand:wikidata":"Q113228396","check_date":"2024-04-11","check_date:opening_hours":"2023-01-03","name":"Przystanek Piekarnia","opening_hours":"Mo-Fr 06:00-19:00; Sa 07:00-15:00; Su off","shop":"bakery","website":"https:\/\/www.przystanekpiekarnia.pl\/","wheelchair":"no"}},{"type":"node","id":3600604838,"lat":52.2254916,"lon":21.0138032,"tags":{"addr:housenumber":"83","addr:street":"Marsza\u0142kowska","check_date":"2024-04-11","name":"Modna Tania Odzie\u017c","opening_hours":"Mo-Fr 09:00-19:00; Sa 09:00-15:00","shop":"clothes","wheelchair":"yes"}},{"type":"node","id":3693208026,"lat":52.2259688,"lon":21.0138116,"tags":{"barrier":"kerb","kerb":"lowered","tactile_paving":"yes"}},{"type":"node","id":3742631271,"lat":52.225913,"lon":21.0135692,"tags":{"addr:housenumber":"83","addr:street":"Marsza\u0142kowska","check_date":"2024-04-11","healthcare":"sample_collection","name":"Alab","opening_hours":"Mo-Fr 06:00-14:30; Sa 08:00-13:00","wheelchair":"no"}},{"type":"node","id":6435244850,"lat":52.225641,"lon":21.0136299,"tags":{"addr:city:simc":"0918123","addr:door":"4","addr:housenumber":"83","addr:postcode":"00-683","addr:street":"Marsza\u0142kowska","check_date":"2022-08-19","healthcare":"psychotherapist","level":"3","name":"Tw\u00f3j Czas"}},{"type":"node","id":6974057385,"lat":52.2258586,"lon":21.0135314,"tags":{"addr:housenumber":"83","addr:street":"Marsza\u0142kowska","check_date":"2024-04-11","clothes":"leather","craft":"leather","name":"Czes\u0142aw Jamrozi\u0144ski","opening_hours":"Mo-Fr 10:00-18:00; Sa 10:00-14:00","shop":"clothes","wheelchair":"limited"}},{"type":"node","id":8688577245,"lat":52.2259794,"lon":21.0143,"tags":{"amenity":"waste_basket"}},{"type":"node","id":8688577246,"lat":52.2259403,"lon":21.0142997,"tags":{"barrier":"bollard","bollard":"fixed","material":"metal"}},{"type":"node","id":8688577247,"lat":52.2259552,"lon":21.0142914,"tags":{"barrier":"bollard","bollard":"fixed","material":"metal"}},{"type":"node","id":8688577248,"lat":52.2259939,"lon":21.0142688,"tags":{"barrier":"bollard","bollard":"fixed","material":"metal"}},{"type":"node","id":8688577249,"lat":52.2260066,"lon":21.0142603,"tags":{"barrier":"bollard","bollard":"fixed","material":"metal"}},{"type":"node","id":8927686628,"lat":52.2259403,"lon":21.0142199,"tags":{"highway":"traffic_signals","traffic_signals:direction":"forward"}},{"type":"node","id":9502756631,"lat":52.2257855,"lon":21.0138036,"tags":{"amenity":"vending_machine","check_date":"2022-08-19","operator":"ZDM Warszawa","ref":"G040704","vending":"parking_tickets"}},{"type":"node","id":9883496042,"lat":52.2255799,"lon":21.0136439,"tags":{"addr:city":"Warszawa","addr:housenumber":"83","addr:postcode":"00-683","addr:street":"Marsza\u0142kowska","addr:unit":"64","check_date":"2022-08-19","description":"Dla dzieci, m\u0142odzie\u017cy i doros\u0142ych w zdrowiu, rozwoju i edukacji","name":"Fundacja O","office":"foundation"}},{"type":"node","id":9964301586,"lat":52.225459,"lon":21.0140609,"tags":{"amenity":"bicycle_parking","bicycle_parking":"stands","capacity":"6","covered":"no"}},{"type":"node","id":10029846300,"lat":52.2259425,"lon":21.0133661,"tags":{"addr:housenumber":"35","addr:street":"Ho\u017ca","check_date":"2024-06-05","name":"Eurofryz","opening_hours":"Mo-Fr 09:00-18:00; Sa 10:00-14:00","shop":"hairdresser_supply","wheelchair":"no"}},{"type":"node","id":10029846301,"lat":52.2259283,"lon":21.0133039,"tags":{"addr:housenumber":"35","addr:street":"Ho\u017ca","check_date":"2024-06-05","craft":"watchmaker","noname":"yes","opening_hours":"Mo-Fr 11:00-19:00; Sa 11:00-14:00","wheelchair":"no"}},{"type":"node","id":10029846302,"lat":52.2259139,"lon":21.0132381,"tags":{"addr:housenumber":"35","addr:street":"Ho\u017ca","check_date":"2024-06-05","clothes":"gloves","noname":"yes","opening_hours":"Mo-Fr 11:00-18:00; Sa 11:00-14:00","shop":"clothes","wheelchair":"no"}},{"type":"node","id":10933549943,"lat":52.2258327,"lon":21.0141828,"tags":{"bench":"yes","bin":"yes","lit":"yes","name":"Ho\u017ca 04","network":"ZTM Warszawa","operator":"Tramwaje Warszawskie","public_transport":"platform","ref":"701204","shelter":"yes","tactile_paving":"yes","tram":"yes","url":"https:\/\/www.wtp.waw.pl\/rozklady-jazdy\/?wtp_md=8&wtp_st=7012&wtp_pt=04"}},{"type":"node","id":10933549982,"lat":52.2255684,"lon":21.0139938,"tags":{"bench":"yes","bin":"yes","bus":"yes","highway":"bus_stop","lit":"yes","name":"Ho\u017ca 01","network":"ZTM Warszawa","network:wikidata":"Q8066998","operator":"Zarz\u0105d Transportu Miejskiego w Warszawie","public_transport":"platform","ref":"701201","shelter":"yes","tactile_paving":"no","url":"https:\/\/www.wtp.waw.pl\/rozklady-jazdy\/?wtp_md=8&wtp_st=7012&wtp_pt=01"}},{"type":"node","id":10933549983,"lat":52.225349,"lon":21.014159,"tags":{"highway":"street_lamp"}},{"type":"node","id":10933549984,"lat":52.2256375,"lon":21.013992,"tags":{"highway":"street_lamp"}},{"type":"node","id":11047099418,"lat":52.2259221,"lon":21.0136947,"tags":{"information":"guidepost","operator":"MSI","tourism":"information"}},{"type":"node","id":11958852130,"lat":52.2259667,"lon":21.0134436,"tags":{"power":"substation","ref":"6567","substation":"minor_distribution"}}]}