{"version":0.6,"generator":"Overpass API 0.7.62.5 1bd436f1","osm3s":{"timestamp_osm_base":"2025-03-12T13:05:45Z","copyright":"The data included in this document is from www.openstreetmap.org. The data is made available under ODbL."},"elements":[{"type":"node","id":248212442,"lat":52.2267936,"lon":21.011234,"tags":{"addr:city":"Warszawa","addr:city:simc":"0918123","addr:floor":"0","addr:housenumber":"26","addr:postcode":"00-684","addr:street":"Pozna\u0144ska","amenity":"restaurant","check_date":"2024-04-20","cuisine":"mexican","level":"0","name":"Se\u00f1or Lucas","opening_hours":"Tu-Sa 13:00-21:00; Su 13:00-20:00","outdoor_seating":"yes","payment:mastercard":"yes","payment:visa":"yes","wheelchair":"limited"}},{"type":"node","id":2025259245,"lat":52.2269196,"lon":21.0111252,"tags":{"addr:city":"Warszawa","addr:city:simc":"0918123","addr:housenumber":"26","addr:postcode":"00-685","addr:street":"Pozna\u0144ska","note":"Adres nie u\u017cywany, brak tabliczki","source:addr":"gugik.gov.pl"}},{"type":"node","id":2119972546,"lat":52.2269235,"lon":21.0119749,"tags":{"addr:housenumber":"52\/54","addr:street":"Wsp\u00f3lna","amenity":"bar","check_date":"2022-09-02","name":"Drink Bar","outdoor_seating":"yes","wheelchair":"limited"}},{"type":"node","id":2642891971,"lat":52.226725,"lon":21.0110567,"tags":{"crossing":"uncontrolled","crossing_ref":"zebra","highway":"crossing","tactile_paving":"yes"}},{"type":"node","id":4040783537,"lat":52.2268366,"lon":21.0111678,"tags":{"addr:city":"Warszawa","addr:housenumber":"54A","addr:postcode":"00-685","addr:street":"Wsp\u00f3lna","alt_name":"Baryli\u0144ski i Syn","check_date":"2023-10-10","craft":"brushmaker","name":"Pracownia Szczotek i P\u0119dzli","opening_hours":"Mo-Fr 10:30-17:00; Sa 10:30-14:00","shop":"brush","wheelchair":"no"}},{"type":"node","id":5191979540,"lat":52.227125,"lon":21.011054,"tags":{"addr:housenumber":"47\/49","addr:street":"\u017burawia","amenity":"restaurant","check_date":"2023-10-10","cuisine":"turkish","name":"Nar","opening_hours:signed":"no","outdoor_seating":"yes","wheelchair":"limited"}},{"type":"node","id":7134288685,"lat":52.2269653,"lon":21.0111038,"tags":{"addr:housenumber":"54A","addr:street":"Wsp\u00f3lna","amenity":"ice_cream","check_date":"2023-10-10","email":"kontakt@vegestacja.pl","mobile":"+48 517 892 939","name":"Vegestacja","opening_hours":"14:30-18:00","outdoor_seating":"yes","seasonal":"yes","website":"http:\/\/vegestacja.pl\/","wheelchair":"no"}},{"type":"node","id":8761530988,"lat":52.2271751,"lon":21.0113426,"tags":{"addr:housenumber":"47\/49","addr:street":"\u017burawia","amenity":"conference_centre","check_date":"2023-10-10","name":"SCSK \u017burawia","phone":"+48 22 630 05 00","tourism":"hotel","website":"http:\/\/warszawa.scsk.pl\/"}},{"type":"node","id":9140805134,"lat":52.2267386,"lon":21.0111321,"tags":{"barrier":"kerb","kerb":"lowered","tactile_paving":"yes"}},{"type":"node","id":9471976354,"lat":52.2273154,"lon":21.0112327,"tags":{"amenity":"parking_entrance","parking":"underground"}},{"type":"node","id":9502756619,"lat":52.2268274,"lon":21.0117304,"tags":{"amenity":"vending_machine","check_date":"2022-09-02","operator":"ZDM Warszawa","ref":"G040313","vending":"parking_tickets"}},{"type":"node","id":9995498157,"lat":52.2268938,"lon":21.0118011,"tags":{"addr:housenumber":"52\/54","addr:street":"Wsp\u00f3lna","amenity":"cafe","check_date":"2022-09-02","name":"Coffeeholix","outdoor_seating":"no","wheelchair":"limited"}},{"type":"node","id":9995498162,"lat":52.2269334,"lon":21.0111218,"tags":{"addr:housenumber":"54A","addr:street":"Wsp\u00f3lna","check_date":"2023-10-10","disused:shop":"dry_cleaning","name":"M. W. Buczy\u0144scy","opening_hours":"Mo-Fr 10:00-18:00","wheelchair":"no"}},{"type":"node","id":9995498164,"lat":52.2269046,"lon":21.0118696,"tags":{"addr:housenumber":"52\/54","addr:street":"Wsp\u00f3lna","check_date":"2022-09-02","cuisine":"arab;turkish;indian;greek","name":"Alwady","opening_hours":"Mo-Fr 10:00-19:00; Sa 10:00-16:00","shop":"deli","wheelchair":"limited"}},{"type":"node","id":9995498165,"lat":52.2268766,"lon":21.0117059,"tags":{"addr:housenumber":"52\/54","addr:street":"Wsp\u00f3lna","check_date":"2022-09-02","clothes":"women","name":"Bialcon","opening_hours":"Mo-Fr 11:00-19:00; Sa 11:00-15:00","shop":"clothes","wheelchair":"no"}},{"type":"node","id":9995498166,"lat":52.2268668,"lon":21.0116516,"tags":{"addr:housenumber":"52\/54","addr:street":"Wsp\u00f3lna","check_date":"2022-09-02","noname":"yes","shop":"clothes","wheelchair":"limited"}},{"type":"node","id":9995498168,"lat":52.2268582,"lon":21.0116001,"tags":{"addr:housenumber":"52\/54","addr:street":"Wsp\u00f3lna","check_date":"2022-09-02","clothes":"women","name":"Pareo & Juliet","opening_hours":"Mo-Fr 11:00-18:00; Sa 11:00-14:30","shop":"boutique","wheelchair":"limited"}},{"type":"node","id":9995498169,"lat":52.2268443,"lon":21.0115206,"tags":{"addr:housenumber":"54A","addr:street":"Wsp\u00f3lna","check_date":"2022-09-02","shop":"vacant","wheelchair":"no"}},{"type":"node","id":9995498170,"lat":52.2268347,"lon":21.0114675,"tags":{"addr:housenumber":"54A","addr:street":"Wsp\u00f3lna","check_date":"2022-09-02","name":"Shisha Center","opening_hours":"Mo-Fr 11:00-19:00; Sa 11:00-16:00","shop":"shisha","wheelchair":"no"}},{"type":"node","id":9995498171,"lat":52.2268249,"lon":21.0114084,"tags":{"addr:housenumber":"54A","addr:street":"Wsp\u00f3lna","amenity":"fast_food","check_date":"2023-10-10","cuisine":"sushi","name":"Sumada","opening_hours":"Mo-Sa 12:00-21:00; Su 13:00-21:00","outdoor_seating":"no","takeaway":"only","wheelchair":"limited"}},{"type":"node","id":9995498172,"lat":52.2268075,"lon":21.0111823,"tags":{"addr:housenumber":"54A","addr:street":"Wsp\u00f3lna","check_date":"2023-10-10","name":"Sono Qui","opening_hours":"Mo-Fr 11:00-19:00; Sa 11:00-15:00","shop":"boutique","wheelchair":"limited"}},{"type":"node","id":9995498173,"lat":52.2268686,"lon":21.0111531,"tags":{"addr:housenumber":"54A","addr:street":"Wsp\u00f3lna","check_date":"2023-10-10","name":"Anna Kubiak","opening_hours":"Mo-Fr 08:00-19:00; Sa 08:00-16:00","shop":"hairdresser","wheelchair":"no"}},{"type":"node","id":9995498174,"lat":52.2268993,"lon":21.0111393,"tags":{"addr:housenumber":"54A","addr:street":"Wsp\u00f3lna","check_date":"2023-10-10","shop":"vacant","wheelchair":"no"}},{"type":"node","id":9995498176,"lat":52.2269963,"lon":21.0110903,"tags":{"addr:housenumber":"54A","addr:street":"Wsp\u00f3lna","check_date":"2023-10-10","craft":"tailor","name:signed":"no","opening_hours":"Mo,We,Fr 10:00-17:00; Tu,Th 10:00-18:00","shop":"tailor","wheelchair":"limited"}},{"type":"node","id":9995498177,"lat":52.2270267,"lon":21.0110769,"tags":{"addr:housenumber":"54A","addr:street":"Wsp\u00f3lna","check_date":"2023-10-10","craft":"sewing_machine_repair","name":"Kempisty","opening_hours":"Mo,We,Fr 10:00-17:00; Tu,Th 10:00-18:00","wheelchair":"limited"}},{"type":"node","id":9995498178,"lat":52.2270566,"lon":21.011063,"tags":{"addr:housenumber":"54A","addr:street":"Wsp\u00f3lna","check_date":"2023-10-10","name":"Men","opening_hours":"Mo-Fr 09:00-19:00; Sa 09:00-16:00","shop":"hairdresser","wheelchair":"no"}},{"type":"node","id":10004769292,"lat":52.2266933,"lon":21.0118519,"tags":{"addr:housenumber":"51","addr:street":"Wsp\u00f3lna","check_date":"2022-09-06","noname":"yes","opening_hours":"Mo-Fr 12:00-18:00; Sa 11:00-14:00","second_hand":"only","shop":"books","wheelchair":"no"}},{"type":"node","id":10005061981,"lat":52.2267272,"lon":21.0111714,"tags":{"barrier":"kerb","kerb":"lowered","tactile_paving":"yes"}},{"type":"node","id":11057342619,"lat":52.2272501,"lon":21.0113401,"tags":{"amenity":"college","check_date":"2023-10-10","email":"iod@bona24.eu","isced:level":"4","level":"4","name":"Szko\u0142a Medyczna Gowork.pl","official_name":"Szko\u0142a Medyczna Gowork.pl","operator":"Bona24 Sp\u00f3\u0142ka Z Ograniczon\u0105 Odpowiedzialno\u015bci\u0105","operator:type":"private","phone":"+48 226221309","ref:regon":"146515076","ref:rspo":"108862","website":"https:\/\/policealna.gowork.pl\/"}},{"type":"node","id":11057342620,"lat":52.2272649,"lon":21.011416,"tags":{"amenity":"college","check_date":"2023-10-10","email":"iod@bona24.pl","isced:level":"4","level":"4","name":"Szko\u0142a Policealna Gowork.pl","official_name":"Szko\u0142a Policealna Gowork.pl","operator":"Bona24 Sp\u00f3\u0142ka Z Ograniczon\u0105 Odpowiedzialno\u015bci\u0105","operator:type":"private","phone":"+48 226221309","ref:regon":"146391496","ref:rspo":"61614","website":"https:\/\/policealna.gowork.eu\/"}}]}