{"version":0.6,"generator":"Overpass API 0.7.62.5 1bd436f1","osm3s":{"timestamp_osm_base":"2025-03-12T14:22:15Z","copyright":"The data included in this document is from www.openstreetmap.org. The data is made available under ODbL."},"elements":[{"type":"node","id":248564703,"lat":52.2278542,"lon":21.012511,"tags":{"button_operated":"yes","crossing":"traffic_signals","crossing_ref":"zebra","highway":"crossing","tactile_paving":"yes","traffic_signals:sound":"yes","traffic_signals:vibration":"no"}},{"type":"node","id":333137032,"lat":52.2277491,"lon":21.0128139,"tags":{"button_operated":"yes","crossing":"traffic_signals","crossing_ref":"zebra","highway":"crossing","mapillary":"888717695320436","survey:date":"2018-02-14","tactile_paving":"yes","traffic_signals:sound":"yes","traffic_signals:vibration":"no","wheelchair":"yes"}},{"type":"node","id":333137037,"lat":52.2278105,"lon":21.0130883,"tags":{"button_operated":"yes","crossing":"traffic_signals","crossing_ref":"zebra","highway":"crossing","tactile_paving":"yes","traffic_signals:sound":"yes","traffic_signals:vibration":"no"}},{"type":"node","id":1412975523,"lat":52.2277772,"lon":21.0129395,"tags":{"button_operated":"yes","crossing":"traffic_signals","crossing:island":"no","railway":"tram_crossing","tactile_paving":"yes","traffic_signals:sound":"yes","traffic_signals:vibration":"no"}},{"type":"node","id":2334356077,"lat":52.2278685,"lon":21.0125835,"tags":{"bicycle":"yes","button_operated":"yes","crossing":"traffic_signals","highway":"crossing","tactile_paving":"yes","traffic_signals:sound":"yes","traffic_signals:vibration":"no"}},{"type":"node","id":3426826761,"lat":52.2277358,"lon":21.0127546,"tags":{"barrier":"kerb","kerb":"lowered","tactile_paving":"yes"}},{"type":"node","id":3426841668,"lat":52.2279098,"lon":21.0124768,"tags":{"barrier":"kerb","kerb":"lowered","tactile_paving":"yes"}},{"type":"node","id":3428474907,"lat":52.2278274,"lon":21.0131639,"tags":{"barrier":"kerb","kerb":"lowered","tactile_paving":"yes"}},{"type":"node","id":3445520411,"lat":52.2277126,"lon":21.012302,"tags":{"addr:housenumber":"87","addr:street":"Marsza\u0142kowska","brand":"\u017babka","brand:wikidata":"Q2589061","brand:wikipedia":"pl:\u017babka (sie\u0107 sklep\u00f3w)","check_date":"2023-10-10","name":"\u017babka","name:uk":"\u0416\u0430\u0431\u043a\u0430","opening_hours":"Mo-Sa 06:00-23:00; Su 09:00-20:00; PH 09:00-21:00","shop":"convenience","wheelchair":"yes"}},{"type":"node","id":3693449885,"lat":52.2278253,"lon":21.0125289,"tags":{"barrier":"kerb","kerb":"lowered","tactile_paving":"yes"}},{"type":"node","id":3695692650,"lat":52.2277633,"lon":21.0128773,"tags":{"barrier":"kerb","kerb":"flush","tactile_paving":"yes"}},{"type":"node","id":3695692651,"lat":52.2277727,"lon":21.0129195,"tags":{"barrier":"kerb","kerb":"flush","tactile_paving":"yes"}},{"type":"node","id":5642734890,"lat":52.2278791,"lon":21.0131509,"tags":{"amenity":"waste_basket"}},{"type":"node","id":5642734894,"lat":52.2279351,"lon":21.0132275,"tags":{"amenity":"waste_basket"}},{"type":"node","id":7133374385,"lat":52.2274768,"lon":21.0126172,"tags":{"addr:housenumber":"87","addr:street":"Marsza\u0142kowska","brand:website":"https:\/\/www.carrefour.pl\/sklep-bio","brand:wikidata":"Q55221138","check_date":"2023-05-06","name":"Bio Carrefour","name:en":"Bio Carrefour","opening_hours":"Mo-Fr 07:30-21:30; Sa 08:30-20:30","organic":"yes","shop":"deli","wheelchair":"limited"}},{"type":"node","id":8761506598,"lat":52.2277402,"lon":21.0124663,"tags":{"addr:housenumber":"87","addr:street":"Marsza\u0142kowska","beauty":"hair_removal","check_date":"2024-04-26","disused:shop":"beauty","name":"TK Laser","opening_hours":"Mo-Sa 08:00-22:00","wheelchair":"limited"}},{"type":"node","id":8761506599,"lat":52.2276654,"lon":21.0125101,"tags":{"addr:housenumber":"87","addr:street":"Marsza\u0142kowska","brand":"PZU","check_date":"2023-05-06","name":"PZU","office":"insurance","opening_hours":"Mo-Fr 08:00-18:00","wheelchair":"yes"}},{"type":"node","id":8761632704,"lat":52.2278376,"lon":21.0124272,"tags":{"highway":"traffic_signals","traffic_signals:direction":"forward"}},{"type":"node","id":8761632705,"lat":52.2277571,"lon":21.0131201,"tags":{"highway":"traffic_signals","traffic_signals:direction":"forward"}},{"type":"node","id":8761632707,"lat":52.2280379,"lon":21.0126431,"tags":{"highway":"traffic_signals","traffic_signals:direction":"forward"}},{"type":"node","id":8880730714,"lat":52.2279687,"lon":21.0123081,"tags":{"addr:city":"Warszawa","addr:housenumber":"89","addr:postcode":"00-693","addr:street":"Marsza\u0142kowska","brand":"Volvo","brand:wikidata":"Q215293","check_date":"2024-03-23","email":"warszawa@volvocars.com","name":"Volvo","opening_hours":"Mo-Fr 10:00-18:00; Sa 10:00-15:00","phone":"+48 22 777 00 77","second_hand":"no","shop":"car","website":"https:\/\/volvocarwarszawa.pl\/","wheelchair":"yes"}},{"type":"node","id":9464692464,"lat":52.228044,"lon":21.0131383,"tags":{"natural":"tree"}},{"type":"node","id":9502957705,"lat":52.2275201,"lon":21.0127825,"tags":{"amenity":"vending_machine","check_date":"2022-08-19","operator":"ZDM Warszawa","ref":"G040311","vending":"parking_tickets"}},{"type":"node","id":10569436829,"lat":52.2280077,"lon":21.013113,"tags":{"amenity":"waste_basket","material":"concrete"}},{"type":"node","id":10873287768,"lat":52.2280475,"lon":21.0122638,"tags":{"check_date":"2023-05-06","name":"Deseo","opening_hours":"Mo-Fr 10:00-21:00; Sa,Su 11:00-21:00","shop":"pastry"}},{"type":"node","id":10933549955,"lat":52.227424,"lon":21.0130977,"tags":{"amenity":"bench","backrest":"no"}},{"type":"node","id":10933549957,"lat":52.2274101,"lon":21.0129195,"tags":{"highway":"street_lamp"}},{"type":"node","id":11451787129,"lat":52.2277427,"lon":21.0125176,"tags":{"information":"board","name":"Ulica Marsza\u0142kowska","tourism":"information"}},{"type":"node","id":11819907427,"lat":52.2277862,"lon":21.0129798,"tags":{"railway":"tram_crossing"}}]}