{"version":0.6,"generator":"Overpass API 0.7.62.5 1bd436f1","osm3s":{"timestamp_osm_base":"2025-03-12T13:22:01Z","copyright":"The data included in this document is from www.openstreetmap.org. The data is made available under ODbL."},"elements":[{"type":"node","id":378178866,"lat":52.2247753,"lon":21.0157247,"tags":{"addr:housenumber":"31","addr:street":"Wilcza","amenity":"cafe","check_date":"2024-09-18","name":"Bishops Brew","opening_hours":"08:00-22:00","outdoor_seating":"yes","ref:csioz":"1085347","wheelchair":"limited"}},{"type":"node","id":378178885,"lat":52.2249359,"lon":21.0164538,"tags":{"addr:city":"Warszawa","addr:housenumber":"29","addr:postcode":"00-544","addr:street":"Wilcza","amenity":"pub","check_date":"2023-07-19","facebook":"GoraczkaZlotaWarsaw","name":"Gor\u0105czka Z\u0142ota","outdoor_seating":"yes","website":"https:\/\/goraczka-zlota.ontap.pl\/","wheelchair":"no"}},{"type":"node","id":7440114119,"lat":52.2251664,"lon":21.0157837,"tags":{"denomination":"catholic","historic":"wayside_shrine","religion":"christian"}},{"type":"node","id":7440116716,"lat":52.2253157,"lon":21.0164335,"tags":{"artwork_type":"mural","name":"Miasta dla ludzi","tourism":"artwork"}},{"type":"node","id":7440116763,"lat":52.2251041,"lon":21.0164038,"tags":{"amenity":"recycling","brand":"Jad\u0142odzielnia","description":"Szafka i lod\u00f3wka (w bramie)","fee":"no","name":"Jad\u0142odzielnia (Syrena)","opening_hours":"24\/7","recycling:food":"yes","recycling_type":"container"}},{"type":"node","id":9501395008,"lat":52.2249489,"lon":21.0162857,"tags":{"amenity":"vending_machine","check_date":"2023-07-19","operator":"ZDM Warszawa","ref":"G020501","vending":"parking_tickets"}},{"type":"node","id":9501395009,"lat":52.2249271,"lon":21.0157338,"tags":{"amenity":"vending_machine","check_date":"2023-07-19","operator":"ZDM Warszawa","ref":"G020324","vending":"parking_tickets"}},{"type":"node","id":9604114017,"lat":52.2250575,"lon":21.0161104,"tags":{"addr:housenumber":"32","addr:street":"Wilcza","amenity":"fast_food","check_date":"2023-07-19","contact:facebook":"ohmyphowilcza","cuisine":"vietnamese","name":"Oh! My Pho","opening_hours":"Mo-Su 11:00-22:00","outdoor_seating":"yes","phone":"+48 579 126 183","website":"https:\/\/ohmypho.pl","wheelchair":"no"}},{"type":"node","id":9604114018,"lat":52.2249096,"lon":21.0156733,"tags":{"amenity":"bicycle_parking","bicycle_parking":"stands","capacity":"6","covered":"no"}},{"type":"node","id":9604114117,"lat":52.2248827,"lon":21.0162131,"tags":{"addr:city":"Warszawa","addr:housenumber":"29A","addr:postcode":"00-544","addr:street":"Wilcza","amenity":"restaurant","check_date":"2023-07-19","cuisine":"polish","email":"patelniapatera@gmail.com","name":"Patelnia Patera","opening_hours":"Mo-Su 12:00-22:00","outdoor_seating":"yes","phone":"+48 797 300 984","ref:vatin":"5223194506","website":"https:\/\/www.patelniapatera.pl\/","wheelchair":"no"}},{"type":"node","id":9868019944,"lat":52.2248556,"lon":21.0160992,"tags":{"addr:city":"Warszawa","addr:housenumber":"29A","addr:postcode":"00-544","addr:street":"Wilcza","check_date":"2023-07-19","name":"Graf","opening_hours":"Mo-Fr 11:00-18:00","phone":"+48 22 621 64 77","shop":"copyshop","website":"http:\/\/www.graf.pnet.pl\/","wheelchair":"limited"}},{"type":"node","id":11055300990,"lat":52.2247405,"lon":21.0155464,"tags":{"addr:housenumber":"33","addr:street":"Wilcza","check_date":"2024-09-18","name":"Wilcza Szafa","shop":"clothes","wheelchair":"yes"}},{"type":"node","id":11055300991,"lat":52.2247988,"lon":21.0158372,"tags":{"addr:housenumber":"31","addr:street":"Wilcza","amenity":"fast_food","check_date":"2024-09-18","cuisine":"vietnamese","name":"Asia Anh","outdoor_seating":"yes","wheelchair":"limited"}},{"type":"node","id":11055300992,"lat":52.2248178,"lon":21.0159225,"tags":{"addr:housenumber":"31","addr:street":"Wilcza","beauty":"cosmetics","check_date":"2024-09-18","name":"Let's Make-Up","shop":"beauty","wheelchair":"limited"}},{"type":"node","id":11055300994,"lat":52.2248408,"lon":21.0160268,"tags":{"addr:housenumber":"29A","addr:street":"Wilcza","check_date":"2023-07-19","name":"Retrogate","opening_hours":"Mo 14:00-19:00; Tu-Fr 11:00-19:00; Sa 11:00-16:00","second_hand":"yes","shop":"clothes","wheelchair":"limited"}},{"type":"node","id":11055366005,"lat":52.2249167,"lon":21.0163631,"tags":{"addr:housenumber":"29","addr:street":"Wilcza","check_date":"2023-07-19","name":"Biuroserwis","opening_hours":"Mo-Fr 11:00-18:00","shop":"stationery","wheelchair":"no"}},{"type":"node","id":11055366009,"lat":52.225035,"lon":21.015998,"tags":{"addr:housenumber":"32","addr:street":"Wilcza","check_date":"2023-07-19","name":"Beauty Stuff","opening_hours":"Mo-Fr 11:00-19:00; Sa 12:00-16:00","shop":"cosmetics","wheelchair":"no"}},{"type":"node","id":11055366010,"lat":52.2250164,"lon":21.0159053,"tags":{"addr:housenumber":"32","addr:street":"Wilcza","beauty":"cosmetics;hair;hair_removal;nails","check_date":"2023-07-19","name":"Helena","opening_hours":"Mo-Fr 10:00-19:00; Sa 08:00-15:00","shop":"beauty","wheelchair":"no"}},{"type":"node","id":11055366011,"lat":52.2249939,"lon":21.0157994,"tags":{"addr:housenumber":"32","addr:street":"Wilcza","check_date":"2023-07-19","craft":"photographer","name":"Fox","opening_hours":"Mo-Fr 10:00-15:00","wheelchair":"limited"}},{"type":"node","id":11055366012,"lat":52.2249816,"lon":21.0157405,"tags":{"addr:housenumber":"32","addr:street":"Wilcza","amenity":"parcel_locker","brand":"InPost","brand:wikidata":"Q110970254","check_date":"2024-09-18","indoor":"yes","operator":"InPost WAW87H","operator:wikidata":"Q3182097","parcel_mail_in":"yes","parcel_pickup":"yes","wheelchair":"limited"}},{"type":"node","id":11472632125,"lat":52.2247853,"lon":21.0156459,"tags":{"information":"board","name":"Ulica Wilcza","tourism":"information"}},{"type":"node","id":11966332064,"lat":52.2246902,"lon":21.0154656,"tags":{"addr:city":"Warszawa","addr:city:simc":"0918123","addr:housenumber":"33","addr:postcode":"00-544","addr:street":"Wilcza","source:addr":"gugik.gov.pl"}}]}