{"version":0.6,"generator":"Overpass API 0.7.62.5 1bd436f1","osm3s":{"timestamp_osm_base":"2025-03-12T13:14:00Z","copyright":"The data included in this document is from www.openstreetmap.org. The data is made available under ODbL."},"elements":[{"type":"node","id":4460875188,"lat":52.2226046,"lon":21.0104189,"tags":{"amenity":"parking_entrance","capacity":"200","fee":"yes","maxheight":"2","operator":"Hala Koszyki","parking":"underground"}},{"type":"node","id":4460884032,"lat":52.2222463,"lon":21.0110327,"tags":{"addr:housenumber":"63","addr:street":"Koszykowa","amenity":"bar","check_date":"2023-06-04","level":"0","name":"Bar Koszyki","name:pl":"Bar Koszyki","wheelchair":"yes"}},{"type":"node","id":5544715626,"lat":52.2225924,"lon":21.010608,"tags":{"entrance":"yes"}},{"type":"node","id":5953395346,"lat":52.2225671,"lon":21.0099353,"tags":{"addr:door":"21","addr:housenumber":"67","addr:postcode":"00-667","addr:street":"Koszykowa","check_date":"2023-03-08","email":"biuro@zm.org.pl","name":"Zielone Mazowsze","office":"association","phone":"+48226217777","website":"https:\/\/www.zm.org.pl\/"}},{"type":"node","id":7132965591,"lat":52.2224774,"lon":21.0105279,"tags":{"addr:housenumber":"63","addr:street":"Koszykowa","amenity":"cafe","check_date":"2023-03-08","level":"0","name":"Batida","shop":"pastry","wheelchair":"yes"}},{"type":"node","id":7132965593,"lat":52.2223275,"lon":21.0106364,"tags":{"addr:housenumber":"63","addr:street":"Koszykowa","amenity":"ice_cream","check_date":"2023-03-08","level":"0","name":"Magia d\u2019Italia","wheelchair":"yes"}},{"type":"node","id":7132973199,"lat":52.222124,"lon":21.0108831,"tags":{"addr:housenumber":"63","addr:street":"Koszykowa","check_date":"2023-03-08","level":"0","name":"Smak Natury","opening_hours":"Mo-Sa 09:00-21:00; Su 09:00-20:00","shop":"supermarket","wheelchair":"yes"}},{"type":"node","id":9400386996,"lat":52.2222952,"lon":21.0108693,"tags":{"addr:housenumber":"63","addr:street":"Koszykowa","check_date":"2023-03-08","layer":"-1","level":"-1","name":"EBS","opening_hours":"Mo-Sa 08:00-22:00; Su 09:00-20:00","shop":"dry_cleaning","wheelchair":"yes"}},{"type":"node","id":9400386997,"lat":52.2222893,"lon":21.0109637,"tags":{"addr:housenumber":"63","addr:street":"Koszykowa","check_date":"2023-03-08","layer":"-1","level":"-1","name":"Kraina Ser\u00f3w","opening_hours":"Mo-Sa 08:00-22:00; Su 09:00-20:00","shop":"cheese","wheelchair":"yes"}},{"type":"node","id":9400386998,"lat":52.2223668,"lon":21.0105162,"tags":{"addr:housenumber":"63","addr:street":"Koszykowa","check_date":"2023-03-08","level":"0","name":"Salon de Th\u00e9","shop":"tea","wheelchair":"yes"}},{"type":"node","id":9400386999,"lat":52.2222154,"lon":21.0105998,"tags":{"addr:housenumber":"63","addr:street":"Koszykowa","amenity":"restaurant","check_date":"2023-03-08","cuisine":"japanese","level":"0","name":"Kago Sushi","wheelchair":"yes"}},{"type":"node","id":9400387000,"lat":52.2222041,"lon":21.0107474,"tags":{"addr:housenumber":"63","addr:street":"Koszykowa","amenity":"fast_food","check_date":"2023-06-04","diet:vegan":"yes","level":"0","name":"Mango","wheelchair":"yes"}},{"type":"node","id":9400387008,"lat":52.2222689,"lon":21.0106638,"tags":{"addr:housenumber":"63","addr:street":"Koszykowa","amenity":"fast_food","check_date":"2023-03-08","cuisine":"indian","level":"0","name":"Curry Leaves","wheelchair":"yes"}},{"type":"node","id":9400387015,"lat":52.2222528,"lon":21.0105005,"tags":{"addr:housenumber":"63","addr:street":"Koszykowa","amenity":"restaurant","check_date":"2023-03-08","cuisine":"american","level":"0","name":"Jeff's","wheelchair":"yes"}},{"type":"node","id":9400406120,"lat":52.2224384,"lon":21.0106564,"tags":{"addr:housenumber":"63","addr:street":"Koszykowa","amenity":"restaurant","check_date":"2023-03-08","cuisine":"arab","level":"0","name":"Zachodni Brzeg","wheelchair":"yes"}},{"type":"node","id":9400406121,"lat":52.2223201,"lon":21.0107486,"tags":{"addr:housenumber":"63","addr:street":"Koszykowa","amenity":"fast_food","check_date":"2023-03-08","cuisine":"polish;sausage","level":"0","name":"Kie\u0142ba w G\u0119bie","wheelchair":"yes"}},{"type":"node","id":9400406122,"lat":52.2223148,"lon":21.0108974,"tags":{"addr:housenumber":"63","addr:street":"Koszykowa","amenity":"restaurant","check_date":"2023-06-04","cuisine":"spanish","level":"0","name":"Sobremesa","wheelchair":"yes"}},{"type":"node","id":10721673497,"lat":52.2226014,"lon":21.0100341,"tags":{"addr:housenumber":"67","addr:street":"Koszykowa","disused:amenity":"fast_food"}},{"type":"node","id":10721673498,"lat":52.2225953,"lon":21.0101256,"tags":{"addr:housenumber":"67","addr:street":"Koszykowa","check_date":"2024-03-15","male":"yes","name":"Wojciech Ol\u0119dzki","opening_hours":"Mo-Fr 09:00-19:00; Sa 08:00-14:00","shop":"hairdresser","wheelchair":"limited"}},{"type":"node","id":10721673499,"lat":52.2225663,"lon":21.0107473,"tags":{"amenity":"bicycle_parking","bicycle_parking":"stands","capacity":"8","covered":"no"}},{"type":"node","id":10721673501,"lat":52.2225823,"lon":21.0108753,"tags":{"barrier":"height_restrictor","maxheight":"2.1"}},{"type":"node","id":10721693764,"lat":52.222407,"lon":21.0105229,"tags":{"addr:housenumber":"63","addr:street":"Koszykowa","amenity":"cafe","check_date":"2023-03-08","level":"0","name":"Portugalia Gourmet","shop":"wine","wheelchair":"yes"}},{"type":"node","id":10721693765,"lat":52.2221339,"lon":21.010733,"tags":{"addr:housenumber":"63","addr:street":"Koszykowa","check_date":"2023-03-08","level":"0","name":"Mag Modern Art Gallery","shop":"art","wheelchair":"yes"}},{"type":"node","id":10721693766,"lat":52.2225608,"lon":21.0105408,"tags":{"addr:housenumber":"63","addr:street":"Koszykowa","check_date":"2024-03-15","name":"Vininova","shop":"wine","wheelchair":"limited"}},{"type":"node","id":10721693768,"lat":52.2223207,"lon":21.0103981,"tags":{"amenity":"toilets","check_date":"2023-03-08","fee":"no","level":"0","opening_hours":"09:00-01:00","wheelchair":"yes"}},{"type":"node","id":10721693769,"lat":52.2223558,"lon":21.0104263,"tags":{"amenity":"atm","brand":"Euronet","brand:wikidata":"Q5412010","cash_in":"no","check_date":"2023-03-08","indoor":"yes","level":"0","opening_hours":"09:00-01:00","operator":"Euronet","operator:wikidata":"Q5412010","wheelchair":"yes"}},{"type":"node","id":10721717719,"lat":52.2222698,"lon":21.0106294,"tags":{"addr:housenumber":"63","addr:street":"Koszykowa","check_date":"2023-03-08","level":"0","name":"Bloom","shop":"florist","wheelchair":"yes"}},{"type":"node","id":10721759614,"lat":52.2221894,"lon":21.0107937,"tags":{"addr:housenumber":"63","addr:street":"Koszykowa","check_date":"2023-03-08","level":"-1","name":"Azul Holiday","shop":"travel_agency","wheelchair":"yes"}},{"type":"node","id":10721759615,"lat":52.2222607,"lon":21.0108058,"tags":{"addr:housenumber":"63","addr:street":"Koszykowa","brand":"Duka","brand:wikidata":"Q20354074","check_date":"2023-03-08","level":"-1","name":"Duka","shop":"houseware","wheelchair":"yes"}},{"type":"node","id":10721807262,"lat":52.2222824,"lon":21.0104804,"tags":{"addr:housenumber":"63","addr:street":"Koszykowa","check_date":"2023-03-08","level":"-1","name":"Hansgrohe","opening_hours":"Mo-Fr 09:00-16:00","shop":"bathroom_furnishing","wheelchair":"yes"}},{"type":"node","id":10721807263,"lat":52.2223316,"lon":21.0108769,"tags":{"addr:housenumber":"63","addr:street":"Koszykowa","check_date":"2023-03-08","level":"1","name":"Aclari","opening_hours":"Mo-Fr 10:00-19:00; Sa 10:00-15:00","shop":"jewelry","wheelchair":"yes"}},{"type":"node","id":10721807266,"lat":52.2221811,"lon":21.0106654,"tags":{"addr:housenumber":"63","addr:street":"Koszykowa","amenity":"bar","check_date":"2023-03-08","level":"1","name":"Upper Deck","wheelchair":"yes"}},{"type":"node","id":10801901273,"lat":52.2225107,"lon":21.0108863,"tags":{"natural":"tree"}},{"type":"node","id":10801901274,"lat":52.2224437,"lon":21.0108308,"tags":{"natural":"tree"}},{"type":"node","id":10801901275,"lat":52.2224573,"lon":21.010954,"tags":{"natural":"tree"}}]}