{"version":0.6,"generator":"Overpass API 0.7.62.5 1bd436f1","osm3s":{"timestamp_osm_base":"2025-03-12T14:18:09Z","copyright":"The data included in this document is from www.openstreetmap.org. The data is made available under ODbL."},"elements":[{"type":"node","id":2642891956,"lat":52.2265976,"lon":21.0111427,"tags":{"crossing":"uncontrolled","crossing_ref":"zebra","highway":"crossing","tactile_paving":"yes"}},{"type":"node","id":2642891968,"lat":52.2266698,"lon":21.0111985,"tags":{"crossing":"uncontrolled","crossing:island":"no","crossing_ref":"zebra","highway":"crossing","tactile_paving":"yes"}},{"type":"node","id":3473178693,"lat":52.2266396,"lon":21.0112128,"tags":{"barrier":"kerb","kerb":"lowered","tactile_paving":"yes"}},{"type":"node","id":9211034061,"lat":52.2262303,"lon":21.0111864,"tags":{"access":"private","barrier":"gate"}},{"type":"node","id":9211076433,"lat":52.2264425,"lon":21.0120796,"tags":{"access":"private","barrier":"lift_gate"}},{"type":"node","id":9502756656,"lat":52.2265472,"lon":21.0110881,"tags":{"amenity":"vending_machine","check_date":"2022-10-04","operator":"ZDM Warszawa","ref":"G040410","vending":"parking_tickets"}},{"type":"node","id":10004769292,"lat":52.2266933,"lon":21.0118519,"tags":{"addr:housenumber":"51","addr:street":"Wsp\u00f3lna","check_date":"2022-09-06","noname":"yes","opening_hours":"Mo-Fr 12:00-18:00; Sa 11:00-14:00","second_hand":"only","shop":"books","wheelchair":"no"}},{"type":"node","id":10004769293,"lat":52.2266688,"lon":21.011719,"tags":{"addr:housenumber":"51","addr:street":"Wsp\u00f3lna","check_date":"2022-09-06","name":"Trafart","opening_hours":"Mo-Fr 10:00-19:00; Sa 10:00-14:00","shop":"pawnbroker","wheelchair":"no"}},{"type":"node","id":10004769294,"lat":52.2265773,"lon":21.0113241,"tags":{"addr:housenumber":"24","addr:street":"Pozna\u0144ska","check_date":"2023-10-10","opening_hours":"Mo-Fr 11:00-19:00; Sa 11:00-15:00","shop":"clothes","wheelchair":"limited"}},{"type":"node","id":10004769295,"lat":52.2264911,"lon":21.0112643,"tags":{"amenity":"bicycle_parking","bicycle_parking":"stands","capacity":"2","covered":"no"}},{"type":"node","id":10004769296,"lat":52.2264803,"lon":21.0113643,"tags":{"addr:housenumber":"24","addr:street":"Pozna\u0144ska","check_date":"2023-10-10","name":"Raw","opening_hours":"Mo-Fr 11:00-19:00; Sa 11:00-16:00","shop":"cosmetics","wheelchair":"limited"}},{"type":"node","id":10004769297,"lat":52.2264272,"lon":21.0113887,"tags":{"addr:housenumber":"24","addr:street":"Pozna\u0144ska","check_date":"2023-10-10","craft":"bronzesmith","name":"Anna \u0141opie\u0144ska-Lipczyk","old_name":"\u0141opie\u0144scy","opening_hours":"Mo-Th 08:00-16:00; Fr 09:00-15:00","wheelchair":"limited"}},{"type":"node","id":10004769298,"lat":52.2263327,"lon":21.0114335,"tags":{"addr:housenumber":"24","addr:street":"Pozna\u0144ska","check_date":"2023-10-10","name":"Audio Forum","opening_hours":"Mo-Fr 10:00-19:00; Sa 11:00-15:00","shop":"hifi","wheelchair":"limited"}},{"type":"node","id":10004769299,"lat":52.2261238,"lon":21.0114513,"tags":{"amenity":"bicycle_parking","bicycle_parking":"stands","capacity":"4","covered":"no"}},{"type":"node","id":10004769300,"lat":52.2260494,"lon":21.011489,"tags":{"amenity":"bicycle_parking","bicycle_parking":"stands","capacity":"4","covered":"no"}},{"type":"node","id":10005061979,"lat":52.2265818,"lon":21.0110636,"tags":{"barrier":"kerb","kerb":"lowered","tactile_paving":"yes"}},{"type":"node","id":10005061980,"lat":52.2266079,"lon":21.0111946,"tags":{"barrier":"kerb","kerb":"lowered","tactile_paving":"yes"}},{"type":"node","id":10075368418,"lat":52.2263394,"lon":21.0110741,"tags":{"addr:housenumber":"23","addr:street":"Pozna\u0144ska","check_date":"2024-02-22","name":"Smaki Warszawy","opening_hours":"09:00-20:00","shop":"pastry","wheelchair":"no"}},{"type":"node","id":10075368422,"lat":52.2264136,"lon":21.0110363,"tags":{"addr:housenumber":"23","addr:street":"Pozna\u0144ska","check_date":"2024-02-22","name":"Olivera","opening_hours":"Mo-Fr 08:00-19:00; Sa 10:00-16:00","shop":"deli","wheelchair":"limited"}},{"type":"node","id":10075368424,"lat":52.226296,"lon":21.0110941,"tags":{"addr:housenumber":"23","addr:street":"Pozna\u0144ska","check_date":"2024-02-22","name":"Rzeczownik","opening_hours":"Mo-Fr 11:00-19:00; Sa 12:00-16:00","shop":"stationery","wheelchair":"limited"}},{"type":"node","id":10075368425,"lat":52.2262556,"lon":21.0111166,"tags":{"addr:housenumber":"23","addr:street":"Pozna\u0144ska","check_date":"2024-02-22","name":"K-Pop Joayo","shop":"music","wheelchair":"limited"}},{"type":"node","id":10249840991,"lat":52.2266163,"lon":21.0113861,"tags":{"addr:city":"Warszawa","addr:housenumber":"24\/21","addr:postcode":"00-685","addr:street":"Pozna\u0144ska","email":"biuro@jaran.com.pl","name":"JARAN Prywatny Detektyw","name:en":"JARAN Private Investigator","office":"private_investigator","opening_hours":"Mo-Fr 09:00-17:00","phone":"+48669981964","website":"https:\/\/www.jaran.com.pl\/"}},{"type":"node","id":11253275846,"lat":52.2263914,"lon":21.0114057,"tags":{"addr:housenumber":"24","addr:street":"Pozna\u0144ska","check_date":"2023-10-10","name":"Ten","shop":"hairdresser","wheelchair":"limited"}}]}