{"version":0.6,"generator":"Overpass API 0.7.62.5 1bd436f1","osm3s":{"timestamp_osm_base":"2025-03-12T14:10:01Z","copyright":"The data included in this document is from www.openstreetmap.org. The data is made available under ODbL."},"elements":[{"type":"node","id":248564701,"lat":52.2261017,"lon":21.0135692,"tags":{"button_operated":"yes","check_date:traffic_signals:vibration":"2024-12-05","crossing":"traffic_signals","crossing_ref":"zebra","highway":"crossing","tactile_paving":"yes","traffic_signals:sound":"yes","traffic_signals:vibration":"no"}},{"type":"node","id":333137120,"lat":52.2260448,"lon":21.0141577,"tags":{"button_operated":"yes","crossing":"traffic_signals","crossing_ref":"zebra","highway":"crossing","tactile_paving":"yes","traffic_signals:sound":"yes","traffic_signals:vibration":"no"}},{"type":"node","id":334559413,"lat":52.2266747,"lon":21.0137643,"tags":{"bus":"yes","name":"Ho\u017ca 02","network":"ZTM Warszawa","operator":"Zarz\u0105d Transportu Miejskiego w Warszawie","public_transport":"stop_position","ref":"701202"}},{"type":"node","id":339072743,"lat":52.2262389,"lon":21.0133859,"tags":{"addr:city":"Warszawa","addr:housenumber":"85","addr:street":"Marsza\u0142kowska","amenity":"bank","atm":"yes","brand":"Alior Bank","brand:wikidata":"Q9148395","brand:wikipedia":"pl:Alior Bank","check_date":"2024-04-11","name":"Alior Bank","opening_hours":"Mo-We,Fr 09:00-17:00; Th 11:00-17:00","wheelchair":"no"}},{"type":"node","id":1412975517,"lat":52.2262527,"lon":21.0142682,"tags":{"button_operated":"no","crossing":"traffic_signals","crossing:island":"no","crossing:markings":"zebra","crossing_ref":"zebra","highway":"crossing","tactile_paving":"yes","traffic_signals:sound":"no","traffic_signals:vibration":"no"}},{"type":"node","id":1412975518,"lat":52.2262895,"lon":21.0142473,"tags":{"barrier":"kerb","kerb":"lowered","tactile_paving":"yes"}},{"type":"node","id":2064575918,"lat":52.2261723,"lon":21.0138942,"tags":{"railway":"tram_level_crossing"}},{"type":"node","id":2334356066,"lat":52.2261146,"lon":21.0136282,"tags":{"bicycle":"yes","button_operated":"yes","crossing":"traffic_signals","highway":"crossing","tactile_paving":"yes","traffic_signals:sound":"yes","traffic_signals:vibration":"no"}},{"type":"node","id":3426757633,"lat":52.2260664,"lon":21.013591,"tags":{"barrier":"kerb","kerb":"lowered","tactile_paving":"yes"}},{"type":"node","id":3428462061,"lat":52.2262185,"lon":21.0142876,"tags":{"barrier":"kerb","kerb":"lowered","tactile_paving":"yes"}},{"type":"node","id":3461427271,"lat":52.2261384,"lon":21.0135463,"tags":{"barrier":"kerb","kerb":"lowered","tactile_paving":"yes"}},{"type":"node","id":3471761964,"lat":52.2263506,"lon":21.0133453,"tags":{"addr:city":"Warszawa","addr:city:simc":"0918123","addr:housenumber":"85","addr:postcode":"00-683","addr:street":"Marsza\u0142kowska","brand":"\u017babka","brand:wikidata":"Q2589061","brand:wikipedia":"pl:\u017babka (sie\u0107 sklep\u00f3w)","check_date":"2024-04-11","name":"\u017babka","name:pl":"\u017babka","name:uk":"\u0416\u0430\u0431\u043a\u0430","opening_hours":"Mo-Sa 06:00-23:00; Su 11:00-20:00","shop":"convenience","wheelchair":"no"}},{"type":"node","id":3693208027,"lat":52.2260302,"lon":21.0140911,"tags":{"barrier":"kerb","kerb":"flush","tactile_paving":"yes"}},{"type":"node","id":3693208028,"lat":52.2260584,"lon":21.0142197,"tags":{"barrier":"kerb","kerb":"lowered","tactile_paving":"yes"}},{"type":"node","id":4047536560,"lat":52.226081,"lon":21.0134745,"tags":{"highway":"traffic_signals","traffic_signals:direction":"forward"}},{"type":"node","id":5572191973,"lat":52.2262436,"lon":21.0136083,"tags":{"amenity":"bicycle_rental","bicycle_rental":"dropoff_point","brand":"Veturilo","brand:wikidata":"Q3847868","capacity":"15","check_date":"2023-05-06","name":"Marsza\u0142kowska - Ho\u017ca","network":"Veturilo","network:wikidata":"Q3847868","operator":"Nextbike Polska","ref":"9522"}},{"type":"node","id":5642734888,"lat":52.2261832,"lon":21.0142389,"tags":{"amenity":"waste_basket"}},{"type":"node","id":5642734892,"lat":52.2263101,"lon":21.0142809,"tags":{"amenity":"waste_basket"}},{"type":"node","id":5642734896,"lat":52.2264968,"lon":21.0140288,"tags":{"amenity":"waste_basket"}},{"type":"node","id":6844351819,"lat":52.2264519,"lon":21.0143036,"tags":{"access":"private","addr:city":"Warszawa","addr:housenumber":"76","addr:postcode":"00-517","addr:street":"Marsza\u0142kowska","amenity":"studio","check_date":"2024-03-23","contact:facebook":"ScenaDDTVN","name":"Dzie\u0144 Dobry TVN","operator":"TVN","short_name":"DD TVN","studio":"television"}},{"type":"node","id":8500805422,"lat":52.2264469,"lon":21.0141102,"tags":{"emergency":"fire_hydrant","fire_hydrant:diameter":"150","fire_hydrant:position":"sidewalk","fire_hydrant:type":"underground","water_source":"main"}},{"type":"node","id":8688543897,"lat":52.2266444,"lon":21.013948,"tags":{"barrier":"bollard","bollard":"fixed","material":"metal"}},{"type":"node","id":8688543898,"lat":52.2265616,"lon":21.0139963,"tags":{"barrier":"bollard","bollard":"fixed","material":"metal"}},{"type":"node","id":8688543899,"lat":52.2265484,"lon":21.0139964,"tags":{"barrier":"bollard","bollard":"fixed","material":"metal"}},{"type":"node","id":8688543900,"lat":52.2265337,"lon":21.0139916,"tags":{"barrier":"bollard","bollard":"fixed","material":"metal"}},{"type":"node","id":8688543901,"lat":52.2265198,"lon":21.0139948,"tags":{"barrier":"bollard","bollard":"fixed","material":"metal"}},{"type":"node","id":8688543902,"lat":52.2265057,"lon":21.0139982,"tags":{"barrier":"bollard","bollard":"fixed","material":"metal"}},{"type":"node","id":8688543903,"lat":52.2264925,"lon":21.0140012,"tags":{"barrier":"bollard","bollard":"fixed","material":"metal"}},{"type":"node","id":8688543904,"lat":52.2264777,"lon":21.0140029,"tags":{"barrier":"bollard","bollard":"fixed","material":"metal"}},{"type":"node","id":8688543905,"lat":52.2264653,"lon":21.0140066,"tags":{"barrier":"bollard","bollard":"fixed","material":"metal"}},{"type":"node","id":8688543906,"lat":52.2264494,"lon":21.0140095,"tags":{"barrier":"bollard","bollard":"fixed","material":"metal"}},{"type":"node","id":8688543907,"lat":52.2264332,"lon":21.0140132,"tags":{"barrier":"bollard","bollard":"fixed","material":"metal"}},{"type":"node","id":8688543908,"lat":52.2264157,"lon":21.0140192,"tags":{"barrier":"bollard","bollard":"fixed","material":"metal"}},{"type":"node","id":8688543909,"lat":52.2264013,"lon":21.0140276,"tags":{"barrier":"bollard","bollard":"fixed","material":"metal"}},{"type":"node","id":8688543910,"lat":52.2266479,"lon":21.0140422,"tags":{"man_made":"manhole"}},{"type":"node","id":8688577237,"lat":52.226689,"lon":21.0139216,"tags":{"barrier":"bollard","bollard":"fixed","material":"metal"}},{"type":"node","id":8688577250,"lat":52.2260195,"lon":21.014254,"tags":{"barrier":"bollard","bollard":"fixed","material":"metal"}},{"type":"node","id":8688577251,"lat":52.2261718,"lon":21.0142042,"tags":{"barrier":"bollard","bollard":"fixed","material":"metal"}},{"type":"node","id":8688577252,"lat":52.2260843,"lon":21.014215,"tags":{"barrier":"bollard","bollard":"fixed","material":"metal"}},{"type":"node","id":8688577253,"lat":52.2260708,"lon":21.014223,"tags":{"barrier":"bollard","bollard":"fixed","material":"metal"}},{"type":"node","id":8688577254,"lat":52.2260582,"lon":21.014231,"tags":{"barrier":"bollard","bollard":"fixed","material":"metal"}},{"type":"node","id":8688577255,"lat":52.2261071,"lon":21.0142013,"tags":{"barrier":"bollard","bollard":"fixed","material":"metal"}},{"type":"node","id":8688577256,"lat":52.2261186,"lon":21.0141955,"tags":{"barrier":"bollard","bollard":"fixed","material":"metal"}},{"type":"node","id":8688577257,"lat":52.2261319,"lon":21.0141929,"tags":{"barrier":"bollard","bollard":"fixed","material":"metal"}},{"type":"node","id":8688577258,"lat":52.2261465,"lon":21.0141928,"tags":{"barrier":"bollard","bollard":"fixed","material":"metal"}},{"type":"node","id":8688577259,"lat":52.2261592,"lon":21.0141965,"tags":{"barrier":"bollard","bollard":"fixed","material":"metal"}},{"type":"node","id":8688577260,"lat":52.2261844,"lon":21.0142167,"tags":{"barrier":"bollard","bollard":"fixed","material":"metal"}},{"type":"node","id":8688577261,"lat":52.226193,"lon":21.0142296,"tags":{"barrier":"bollard","bollard":"fixed","material":"metal"}},{"type":"node","id":8688577262,"lat":52.2262036,"lon":21.0142446,"tags":{"barrier":"bollard","bollard":"fixed","material":"metal"}},{"type":"node","id":8688577263,"lat":52.22621,"lon":21.0142676,"tags":{"barrier":"bollard","bollard":"fixed","material":"metal"}},{"type":"node","id":8688577264,"lat":52.2262147,"lon":21.0142875,"tags":{"barrier":"bollard","bollard":"fixed","material":"metal"}},{"type":"node","id":8688577265,"lat":52.2262993,"lon":21.0142667,"tags":{"barrier":"bollard","bollard":"fixed","material":"metal"}},{"type":"node","id":8688577268,"lat":52.2262897,"lon":21.0141976,"tags":{"barrier":"bollard","bollard":"fixed","material":"metal"}},{"type":"node","id":8688577269,"lat":52.226289,"lon":21.0141767,"tags":{"barrier":"bollard","bollard":"fixed","material":"metal"}},{"type":"node","id":8688577270,"lat":52.2262909,"lon":21.0141519,"tags":{"barrier":"bollard","bollard":"fixed","material":"metal"}},{"type":"node","id":8688577271,"lat":52.2262942,"lon":21.0141297,"tags":{"barrier":"bollard","bollard":"fixed","material":"metal"}},{"type":"node","id":8688577272,"lat":52.2263044,"lon":21.0141097,"tags":{"barrier":"bollard","bollard":"fixed","material":"metal"}},{"type":"node","id":8688577273,"lat":52.2263151,"lon":21.0140918,"tags":{"barrier":"bollard","bollard":"fixed","material":"metal"}},{"type":"node","id":8688577274,"lat":52.2263254,"lon":21.0140753,"tags":{"barrier":"bollard","bollard":"fixed","material":"metal"}},{"type":"node","id":8688577275,"lat":52.2263391,"lon":21.0140632,"tags":{"barrier":"bollard","bollard":"fixed","material":"metal"}},{"type":"node","id":8688577276,"lat":52.2263523,"lon":21.0140557,"tags":{"barrier":"bollard","bollard":"fixed","material":"metal"}},{"type":"node","id":8688577277,"lat":52.2263665,"lon":21.0140478,"tags":{"barrier":"bollard","bollard":"fixed","material":"metal"}},{"type":"node","id":8688577278,"lat":52.2263135,"lon":21.0141328,"tags":{"access":"yes","amenity":"bicycle_parking","bicycle_parking":"stands","capacity":"10","covered":"no","fee":"no"}},{"type":"node","id":8688577279,"lat":52.2263598,"lon":21.0140696,"tags":{"access":"yes","amenity":"bicycle_parking","bicycle_parking":"stands","capacity":"8","covered":"no","fee":"no"}},{"type":"node","id":8880730715,"lat":52.2264539,"lon":21.0132653,"tags":{"addr:housenumber":"85","addr:street":"Marsza\u0142kowska","brand":"Loombard","brand:wikidata":"Q113227799","check_date":"2024-04-11","name":"Loombard","opening_hours":"Mo-Sa 08:00-21:00; Su 09:00-18:00","shop":"pawnbroker","wheelchair":"no"}},{"type":"node","id":8880739218,"lat":52.2265401,"lon":21.0132518,"tags":{"amenity":"atm","brand":"Kasa Stefczyka","brand:wikidata":"Q57624461","cash_in":"yes","check_date":"2024-04-11","covered":"no","opening_hours":"24\/7","operator":"Planet Cash","wheelchair":"yes"}},{"type":"node","id":8880739222,"lat":52.2264843,"lon":21.0132523,"tags":{"addr:housenumber":"85","addr:street":"Marsza\u0142kowska","check_date":"2024-04-11","name":"Dr. Roxi","opening_hours":"Mo-Sa 10:00-19:00","shop":"cosmetics","wheelchair":"no"}},{"type":"node","id":8917221196,"lat":52.226682,"lon":21.0141277,"tags":{"addr:housenumber":"78\/80","addr:street":"Marsza\u0142kowska","check_date":"2024-09-18","name":"BO\u015a Dom Maklerski","office":"financial","opening_hours":"Mo-Fr 09:00-17:00","wheelchair":"yes"}},{"type":"node","id":8917221201,"lat":52.2264239,"lon":21.0141087,"tags":{"advertising":"column"}},{"type":"node","id":8917221205,"lat":52.2265797,"lon":21.0141893,"tags":{"addr:housenumber":"78\/80","addr:street":"Marsza\u0142kowska","brand":"Rossmann","brand:wikidata":"Q316004","brand:wikipedia":"de:Rossmann (Handelskette)","check_date":"2024-09-18","name":"Rossmann","opening_hours":"Mo-Fr 07:00-21:30; Sa 08:30-18:00","shop":"chemist","wheelchair":"yes"}},{"type":"node","id":8917221206,"lat":52.226413,"lon":21.0140676,"tags":{"access":"yes","amenity":"bicycle_parking","bicycle_parking":"stands","capacity":"10","covered":"no","fee":"no"}},{"type":"node","id":8917221215,"lat":52.2265129,"lon":21.0142367,"tags":{"amenity":"parcel_locker","brand":"Paczkomat InPost","brand:wikidata":"Q110970254","check_date":"2024-09-18","image":"https:\/\/geowidget.easypack24.net\/uploads\/pl\/images\/WAW322M.jpg","opening_hours":"24\/7","operator":"InPost","operator:wikidata":"Q3182097","operator:wikipedia":"pl:InPost","parcel_mail_in":"yes","parcel_pickup":"yes","ref":"WAW322M","website":"https:\/\/inpost.pl\/paczkomat-warszawa-waw322m-marszalkowska-paczkomaty-mazowieckie"}},{"type":"node","id":8927686627,"lat":52.2262769,"lon":21.0137118,"tags":{"highway":"traffic_signals","traffic_signals:direction":"forward"}},{"type":"node","id":8927686673,"lat":52.2260213,"lon":21.0140505,"tags":{"barrier":"kerb","kerb":"flush","tactile_paving":"yes"}},{"type":"node","id":9502756633,"lat":52.2263877,"lon":21.0134418,"tags":{"amenity":"vending_machine","check_date":"2022-08-19","operator":"ZDM Warszawa","ref":"G040702","vending":"parking_tickets"}},{"type":"node","id":9919628150,"lat":52.226486,"lon":21.0142544,"tags":{"addr:housenumber":"76","addr:street":"Marsza\u0142kowska","check_date":"2024-09-18","name":"V4B","opening_hours":"Mo-Sa 09:00-24:00","shop":"e-cigarette","wheelchair":"yes"}},{"type":"node","id":9964301585,"lat":52.2262748,"lon":21.0133897,"tags":{"amenity":"atm","brand":"Alior Bank","brand:wikidata":"Q9148395","cash_in":"yes","check_date":"2024-04-11","indoor":"yes","opening_hours":"24\/7","operator":"Euronet","operator:wikidata":"Q9148395","wheelchair":"no"}},{"type":"node","id":9964737626,"lat":52.2265818,"lon":21.013402,"tags":{"amenity":"bicycle_parking","bicycle_parking":"stands","capacity":"8","covered":"no"}},{"type":"node","id":10933549954,"lat":52.2260318,"lon":21.0142558,"tags":{"highway":"street_lamp"}},{"type":"node","id":10933549969,"lat":52.2265985,"lon":21.0139766,"tags":{"bench":"yes","bin":"yes","bus":"yes","highway":"bus_stop","lit":"yes","name":"Ho\u017ca 02","network":"ZTM Warszawa","network:wikidata":"Q8066998","operator":"Zarz\u0105d Transportu Miejskiego w Warszawie","public_transport":"platform","ref":"701202","shelter":"yes","tactile_paving":"yes","url":"https:\/\/www.wtp.waw.pl\/rozklady-jazdy\/?wtp_md=8&wtp_st=7012&wtp_pt=02"}},{"type":"node","id":10933549973,"lat":52.2263859,"lon":21.0140461,"tags":{"highway":"street_lamp"}},{"type":"node","id":10933549975,"lat":52.2266596,"lon":21.0139344,"tags":{"highway":"street_lamp"}},{"type":"node","id":11819907430,"lat":52.2261814,"lon":21.013936,"tags":{"railway":"tram_level_crossing"}},{"type":"node","id":11819907431,"lat":52.2260178,"lon":21.0140343,"tags":{"railway":"tram_crossing"}}]}