{"version":0.6,"generator":"Overpass API 0.7.62.5 1bd436f1","osm3s":{"timestamp_osm_base":"2025-03-12T13:13:00Z","copyright":"The data included in this document is from www.openstreetmap.org. The data is made available under ODbL."},"elements":[{"type":"node","id":329997049,"lat":52.2278602,"lon":21.0176001,"tags":{"button_operated":"no","crossing":"traffic_signals","crossing:island":"no","crossing:markings":"zebra","crossing_ref":"zebra","highway":"crossing","tactile_paving":"yes","traffic_signals:sound":"no","traffic_signals:vibration":"no"}},{"type":"node","id":560634872,"lat":52.2276936,"lon":21.017195,"tags":{"access":"private","barrier":"gate"}},{"type":"node","id":2809319385,"lat":52.2278154,"lon":21.0176224,"tags":{"barrier":"kerb","kerb":"lowered","tactile_paving":"yes"}},{"type":"node","id":4361941101,"lat":52.2275197,"lon":21.017532,"tags":{"addr:city":"Warszawa","addr:housenumber":"23\/31","addr:postcode":"00-525","addr:street":"Krucza","amenity":"fast_food","check_date":"2024-10-11","contact:phone":"+48 517 615 122","contact:website":"https:\/\/lokalveganbistro.pl","diet:vegan":"only","diet:vegetarian":"yes","indoor_seating":"yes","name":"Lokal Vegan Bistro","opening_hours":"Mo-Sa 12:00-21:00; Su 12:00-20:00","opening_hours:covid19":"12:00-19:00","outdoor_seating":"yes","wheelchair":"limited"}},{"type":"node","id":6552394377,"lat":52.2276002,"lon":21.0174942,"tags":{"addr:housenumber":"23\/31","addr:street":"Krucza","check_date":"2024-10-11","disused:amenity":"cafe","facebook":"https:\/\/www.facebook.com\/Amorekleryiwino\/","indoor_seating":"yes","name":"Am'or","opening_hours":"11:00-22:00","outdoor_seating":"yes","wheelchair":"limited"}},{"type":"node","id":6552394378,"lat":52.2274187,"lon":21.0175823,"tags":{"addr:housenumber":"23\/31","addr:street":"Krucza","check_date":"2024-12-05","check_date:opening_hours":"2024-12-05","name":"Smoke","opening_hours":"Mo-Fr 09:00-20:00; Sa 10:00-15:00","phone":"+48226255304","shop":"tobacco","website":"https:\/\/smoke.pl\/","wheelchair":"no"}},{"type":"node","id":6552394379,"lat":52.2276858,"lon":21.0174532,"tags":{"addr:housenumber":"23\/31","addr:street":"Krucza","check_date":"2024-10-11","clothes":"women","name":"Karibu","opening_hours":"Mo-Fr 11:00-19:00; Sa 11:00-16:00","shop":"clothes","wheelchair":"limited"}},{"type":"node","id":8175501037,"lat":52.2279297,"lon":21.0165874,"tags":{"barrier":"gate"}},{"type":"node","id":9353583507,"lat":52.2278492,"lon":21.0175376,"tags":{"highway":"traffic_signals","traffic_signals:direction":"backward"}},{"type":"node","id":9463161200,"lat":52.2274402,"lon":21.0170309,"tags":{"noexit":"yes"}},{"type":"node","id":9463237734,"lat":52.2279572,"lon":21.0166132,"tags":{"entrance":"yes"}},{"type":"node","id":9463237792,"lat":52.2279825,"lon":21.0168198,"tags":{"addr:city":"Warszawa","addr:housenumber":"30","addr:postcode":"00-930","addr:street":"Wsp\u00f3lna","check_date":"2024-03-21","government":"ministry","name":"Ministerstwo Rolnictwa i Rozwoju Wsi","name:ar":"\u0648\u0632\u0627\u0631\u0629 \u0627\u0644\u0632\u0631\u0627\u0639\u0629 \u0648\u0627\u0644\u062a\u0646\u0645\u064a\u0629 \u0627\u0644\u0631\u064a\u0641\u064a\u0629","name:be":"\u041c\u0456\u043d\u0456\u0441\u0442\u044d\u0440\u0441\u0442\u0432\u0430 \u0441\u0435\u043b\u044c\u0441\u043a\u0430\u0439 \u0433\u0430\u0441\u043f\u0430\u0434\u0430\u0440\u043a\u0456 \u0456 \u0440\u0430\u0437\u0432\u0456\u0446\u0446\u044f \u0432\u0451\u0441\u043a\u0456","name:cs":"Ministerstvo zem\u011bd\u011blstv\u00ed a rozvoje venkova","name:csb":"Minysterstwo Gb\u00f9rzeni\u00f4 i Rozwiju Ws\u00eb","name:de":"Ministerium f\u00fcr Landwirtschaft und l\u00e4ndliche Entwicklung","name:en":"Ministry of Agriculture and Rural Development","name:es":"Ministerio de Agricultura y Desarrollo Rural","name:fr":"Minist\u00e8re de l'Agriculture et du D\u00e9veloppement Rural","name:it":"Ministero dell'Agricoltura e dello Sviluppo Rurale","name:ja":"\u8fb2\u696d\u30fb\u8fb2\u6751\u958b\u767a\u7701","name:lt":"\u017dem\u0117s \u016bkio ir kaimo pl\u0117tros ministerija","name:nl":"Ministerie van Landbouw en Plattelandsontwikkeling","name:pt":"Minist\u00e9rio da Agricultura e Desenvolvimento Rural","name:ru":"\u041c\u0438\u043d\u0438\u0441\u0442\u0435\u0440\u0441\u0442\u0432\u043e \u0441\u0435\u043b\u044c\u0441\u043a\u043e\u0433\u043e \u0445\u043e\u0437\u044f\u0439\u0441\u0442\u0432\u0430 \u0438 \u0440\u0430\u0437\u0432\u0438\u0442\u0438\u044f \u0441\u0435\u043b\u0430","name:sk":"Ministerstvo p\u00f4dohospod\u00e1rstva a rozvoja vidieka","name:uk":"\u041c\u0456\u043d\u0456\u0441\u0442\u0435\u0440\u0441\u0442\u0432\u043e \u0441\u0456\u043b\u044c\u0441\u044c\u043a\u043e\u0433\u043e \u0433\u043e\u0441\u043f\u043e\u0434\u0430\u0440\u0441\u0442\u0432\u0430 \u0442\u0430 \u0440\u043e\u0437\u0432\u0438\u0442\u043a\u0443 \u0441\u0435\u043b\u0430","office":"government","phone":"+48 222 500 118","short_name":"MRiRW","website":"https:\/\/www.gov.pl\/web\/rolnictwo","wikidata":"Q4380777","wikipedia":"pl:Ministerstwo Rolnictwa i Rozwoju Wsi"}},{"type":"node","id":10144854126,"lat":52.2278872,"lon":21.0175866,"tags":{"barrier":"kerb","kerb":"lowered","tactile_paving":"yes"}},{"type":"node","id":10155579613,"lat":52.2280294,"lon":21.0176056,"tags":{"amenity":"waste_basket","material":"concrete"}},{"type":"node","id":10162264553,"lat":52.2275624,"lon":21.0175545,"tags":{"amenity":"bicycle_parking","bicycle_parking":"wall_loops","capacity":"4","covered":"no"}},{"type":"node","id":10568010699,"lat":52.2276831,"lon":21.017151,"tags":{"direction":"345","traffic_sign":"PL:D-40"}},{"type":"node","id":11047081442,"lat":52.2279551,"lon":21.0174611,"tags":{"information":"guidepost","operator":"MSI","tourism":"information"}},{"type":"node","id":11047081443,"lat":52.2275874,"lon":21.0169571,"tags":{"addr:housenumber":"25","addr:street":"Wsp\u00f3lna","check_date":"2023-07-14","name":"Grupa Inco","office":"company"}},{"type":"node","id":11047081444,"lat":52.2275725,"lon":21.016624,"tags":{"addr:housenumber":"27","addr:street":"Wsp\u00f3lna","check_date":"2023-07-14","name":"Kamienio\u0142omy.pl","opening_hours":"Mo-Fr 10:00-18:00; Sa 10:00-14:00","shop":"jewelry","wheelchair":"no"}},{"type":"node","id":11047081445,"lat":52.2275599,"lon":21.0165535,"tags":{"addr:housenumber":"27","addr:street":"Wsp\u00f3lna","check_date":"2023-07-14","name":"Bonito","opening_hours":"Mo-Fr 08:00-20:00","shop":"books","wheelchair":"no"}},{"type":"node","id":11047203656,"lat":52.2275623,"lon":21.0167764,"tags":{"name":"Civitas Christiana","office":"association","website":"https:\/\/civitaschristiana.pl\/"}},{"type":"node","id":11423027347,"lat":52.2280096,"lon":21.0175037,"tags":{"natural":"tree"}},{"type":"node","id":11423027360,"lat":52.227888,"lon":21.017534,"tags":{"highway":"street_lamp"}},{"type":"node","id":11450031212,"lat":52.2276605,"lon":21.0170085,"tags":{"information":"board","name":"Ulica Wsp\u00f3lna","tourism":"information"}}]}