{"version":0.6,"generator":"Overpass API 0.7.62.5 1bd436f1","osm3s":{"timestamp_osm_base":"2025-03-12T13:11:58Z","copyright":"The data included in this document is from www.openstreetmap.org. The data is made available under ODbL."},"elements":[{"type":"node","id":316888366,"lat":52.2285555,"lon":21.0106688,"tags":{"addr:city":"Warszawa","addr:housenumber":"40","addr:street":"Nowogrodzka","amenity":"restaurant","check_date":"2023-07-14","contact:phone":"+48 530 912 971","contact:website":"http:\/\/www.mala-gruzja.pl","cuisine":"georgian","name":"Ma\u0142a Gruzja","opening_hours:signed":"no","outdoor_seating":"no","wheelchair":"no"}},{"type":"node","id":338509216,"lat":52.2281305,"lon":21.0100034,"tags":{"addr:city":"Warszawa","addr:housenumber":"45","addr:street":"Nowogrodzka","amenity":"dentist","check_date":"2022-10-04","healthcare":"doctor","name":"LuxMed","opening_hours":"Mo-Fr 07:00-20:00"}},{"type":"node","id":866933727,"lat":52.2285002,"lon":21.0104338,"tags":{"addr:city":"Warszawa","addr:housenumber":"40","addr:street":"Nowogrodzka","amenity":"restaurant","cuisine":"grill","name":"Vis-\u00e0-vis","opening_hours":"Mo-Fr 11:00-16:00","opening_hours:signed":"no","wheelchair":"no"}},{"type":"node","id":1330252574,"lat":52.2284137,"lon":21.0101516,"tags":{"crossing":"zebra","crossing:island":"no","crossing_ref":"zebra","highway":"crossing","tactile_paving":"yes"}},{"type":"node","id":1330252655,"lat":52.2282399,"lon":21.010248,"tags":{"crossing":"zebra","crossing:island":"no","crossing_ref":"zebra","highway":"crossing","tactile_paving":"yes"}},{"type":"node","id":1330252681,"lat":52.2283553,"lon":21.0103156,"tags":{"crossing":"zebra","crossing:island":"no","crossing_ref":"zebra","highway":"crossing","tactile_paving":"yes"}},{"type":"node","id":1330252767,"lat":52.2282914,"lon":21.0100906,"tags":{"crossing":"zebra","crossing:island":"no","crossing_ref":"zebra","highway":"crossing","tactile_paving":"yes"}},{"type":"node","id":2642891998,"lat":52.2280755,"lon":21.0107602,"tags":{"entrance":"main"}},{"type":"node","id":2642892005,"lat":52.2282646,"lon":21.0101047,"tags":{"barrier":"kerb","kerb":"lowered","tactile_paving":"yes"}},{"type":"node","id":2642892018,"lat":52.2284037,"lon":21.0101031,"tags":{"barrier":"kerb","kerb":"lowered","tactile_paving":"yes"}},{"type":"node","id":2642892023,"lat":52.2284287,"lon":21.010224,"tags":{"barrier":"kerb","kerb":"lowered","tactile_paving":"yes"}},{"type":"node","id":3111180611,"lat":52.2283484,"lon":21.0100603,"tags":{"barrier":"kerb","kerb":"lowered","tactile_paving":"yes"}},{"type":"node","id":3426869691,"lat":52.2285111,"lon":21.010609,"tags":{"barrier":"gate"}},{"type":"node","id":4825052021,"lat":52.2285621,"lon":21.0103208,"tags":{"email":"motorowodniacy@motorowodniacy.org","name":"Polski Zwi\u0105zek Motorowodny i Narciarstwa Wodnego","office":"association","opening_hours":"Mo-Fr 09:00-16:00","phone":"+48 22 617 44 49; +48 22 616 16 37","short_name":"PZMWiNW","website":"http:\/\/www.motorowodniacy.org\/","wikidata":"Q11822622","wikipedia":"pl:Polski Zwi\u0105zek Motorowodny i Narciarstwa Wodnego"}},{"type":"node","id":4862311602,"lat":52.2286081,"lon":21.01097,"tags":{"addr:city":"Warszawa","addr:housenumber":"38","addr:postcode":"00-691","addr:street":"Nowogrodzka","check_date":"2023-07-14","name":"Groovy Baby","opening_hours:signed":"no","shop":"hairdresser","wheelchair":"limited"}},{"type":"node","id":4862318871,"lat":52.2285937,"lon":21.0108931,"tags":{"craft":"photographer","name:signed":"no","opening_hours":"Mo-Fr 08:00-17:00","wheelchair":"limited"}},{"type":"node","id":4878937179,"lat":52.228577,"lon":21.0108084,"tags":{"addr:housenumber":"38","addr:street":"Nowogrodzka","alt_name":"Arirang Restauracja Korea\u0144ska & Sushi Bar","amenity":"restaurant","check_date":"2023-07-14","contact:phone":"+48 22 881 78 51","cuisine":"korean;sushi","name":"Arirang","opening_hours":"Mo-Su 12:00-22:00","operator":"\"Pu-Man Co\" Sp. z o.o.","outdoor_seating":"no","wheelchair":"limited"}},{"type":"node","id":5160804553,"lat":52.2285951,"lon":21.0102419,"tags":{"addr:city":"Warszawa","addr:housenumber":"40","addr:postcode":"00-001","addr:street":"Nowogrodzka","check_date":"2023-10-10","disused:amenity":"restaurant","name":"Za\u015bcianek","wheelchair":"no"}},{"type":"node","id":7247106386,"lat":52.2286636,"lon":21.0102009,"tags":{"addr:housenumber":"40","addr:street":"Nowogrodzka","amenity":"restaurant","check_date":"2023-10-10","name":"\u017bebra i Ko\u015bci","wheelchair":"no"}},{"type":"node","id":8761605204,"lat":52.2284137,"lon":21.0099699,"tags":{"addr:housenumber":"42","addr:street":"Nowogrodzka","check_date":"2023-10-10","clothes":"women;men","craft":"tailor","name":"Buczy\u0144ski City","opening_hours":"Mo-Fr 10:00-18:00 \"on appointment\"; Sa 11:00-15:00 \"on appointment\"","shop":"tailor","wheelchair":"no"}},{"type":"node","id":9007173481,"lat":52.228318,"lon":21.0103294,"tags":{"barrier":"kerb","kerb":"lowered","tactile_paving":"yes"}},{"type":"node","id":9008659324,"lat":52.228403,"lon":21.0102979,"tags":{"barrier":"kerb","kerb":"lowered","tactile_paving":"yes"}},{"type":"node","id":9021171189,"lat":52.2282548,"lon":21.0104258,"tags":{"advertising":"column"}},{"type":"node","id":9021200125,"lat":52.2282303,"lon":21.0102019,"tags":{"barrier":"kerb","kerb":"lowered","tactile_paving":"yes"}},{"type":"node","id":9021200126,"lat":52.2282549,"lon":21.0103199,"tags":{"barrier":"kerb","kerb":"lowered","tactile_paving":"yes"}},{"type":"node","id":9051468467,"lat":52.2285143,"lon":21.0103379,"tags":{"addr:city":"Warszawa","addr:housenumber":"42","addr:street":"Nowogrodzka","check_date":"2023-10-10","disused:shop":"health_food","name":"Centrum Diabetyk\u00f3w","opening_hours":"Mo-Fr 11:30-18:00","wheelchair":"no"}},{"type":"node","id":9051468472,"lat":52.2285258,"lon":21.0107745,"tags":{"amenity":"vending_machine","operator":"ZDM Warszawa","ref":"G040303","vending":"parking_tickets"}},{"type":"node","id":9502957712,"lat":52.2285098,"lon":21.0102081,"tags":{"amenity":"vending_machine","operator":"ZDM Warszawa","ref":"G040302","vending":"parking_tickets"}},{"type":"node","id":9536904323,"lat":52.2280621,"lon":21.0108042,"tags":{"access":"customers","defibrillator:location":"Na Parterze w Holu G\u0142\u00f3wnym na pierwszym filarze z lewej strony","defibrillator:location:en":"On the ground floor in the Main Hall on the first pillar to the left","emergency":"defibrillator","indoor":"yes","opening_hours":"Mo 08:00-18:00; Tu-Fr 08:00-16:00","operator":"Urz\u0105d Dzielnicy \u015ar\u00f3dmie\u015bcie"}},{"type":"node","id":9995498161,"lat":52.2281132,"lon":21.0104757,"tags":{"advertising":"board","lit":"no"}},{"type":"node","id":10082917695,"lat":52.2281761,"lon":21.0102081,"tags":{"direction":"340","maxspeed":"30","traffic_sign":"maxspeed"}},{"type":"node","id":12040349347,"lat":52.22806,"lon":21.01079,"tags":{"amenity":"library","email":"wyp86@biblioteka.waw.pl","name":"Wypo\u017cyczalnia dla Doros\u0142ych i M\u0142odzie\u017cy Nr 86","phone":"22-417-31-09","website":"https:\/\/www.biblioteka.waw.pl\/"}}]}