{"version":0.6,"generator":"Overpass API 0.7.62.5 1bd436f1","osm3s":{"timestamp_osm_base":"2025-03-12T13:19:01Z","copyright":"The data included in this document is from www.openstreetmap.org. The data is made available under ODbL."},"elements":[{"type":"node","id":248564702,"lat":52.2270131,"lon":21.0130213,"tags":{"button_operated":"yes","crossing":"traffic_signals","crossing:island":"no","crossing:markings":"zebra","highway":"crossing","tactile_paving":"yes","traffic_signals:sound":"yes","traffic_signals:vibration":"no"}},{"type":"node","id":333137044,"lat":52.2271435,"lon":21.0131739,"tags":{"button_operated":"yes","crossing":"traffic_signals","crossing:island":"no","crossing:markings":"zebra","crossing_ref":"zebra","highway":"crossing","tactile_paving":"yes","traffic_signals:sound":"yes","traffic_signals:vibration":"no"}},{"type":"node","id":339072742,"lat":52.226877,"lon":21.0130073,"tags":{"addr:city":"Warszawa","addr:housenumber":"85","addr:street":"Marsza\u0142kowska","amenity":"cafe","check_date":"2024-04-11","name":"Liv Croissants","opening_hours":"08:00-21:00","wheelchair":"no"}},{"type":"node","id":2334356072,"lat":52.2270251,"lon":21.0130858,"tags":{"bicycle":"yes","button_operated":"yes","crossing":"traffic_signals","crossing:island":"no","crossing:markings":"dots","highway":"crossing","tactile_paving":"yes","traffic_signals:sound":"yes","traffic_signals:vibration":"no"}},{"type":"node","id":2334356078,"lat":52.227112,"lon":21.0130337,"tags":{"crossing":"uncontrolled","crossing:island":"no","crossing:markings":"zebra","highway":"crossing"}},{"type":"node","id":2901050911,"lat":52.2273176,"lon":21.0132094,"tags":{"name":"Ho\u017ca 03","network":"ZTM Warszawa","network:wikidata":"Q8066998","operator":"Tramwaje Warszawskie","operator:wikidata":"Q9360809","public_transport":"stop_position","railway":"tram_stop","ref":"701203","shelter":"yes","tactile_paving":"yes","tactile_paving:slab_size":"40x40","tram":"yes"}},{"type":"node","id":3426826758,"lat":52.2271306,"lon":21.0131172,"tags":{"barrier":"kerb","kerb":"flush","tactile_paving":"yes"}},{"type":"node","id":3448986368,"lat":52.22731,"lon":21.0127124,"tags":{"addr:housenumber":"87","addr:street":"Marsza\u0142kowska","check_date":"2023-05-06","name":"Entertainment Exchange","opening_hours":"Mo-Sa 10:00-20:00","second_hand":"yes","shop":"video_games","website":"https:\/\/pl.webuy.com\/","wheelchair":"limited"}},{"type":"node","id":3693449884,"lat":52.2270513,"lon":21.0130011,"tags":{"barrier":"kerb","kerb":"lowered","tactile_paving":"yes"}},{"type":"node","id":3694107385,"lat":52.2269757,"lon":21.0130411,"tags":{"barrier":"kerb","kerb":"lowered","tactile_paving":"yes"}},{"type":"node","id":4047534010,"lat":52.2272022,"lon":21.013139,"tags":{"highway":"traffic_signals","road_marking":"solid_stop_line"}},{"type":"node","id":5544377899,"lat":52.227147,"lon":21.0127989,"tags":{"addr:city":"Warszawa","addr:housenumber":"87","addr:street":"Marsza\u0142kowska","amenity":"cafe","check_date":"2024-04-11","name":"Etno Caf\u00e8","opening_hours":"Mo-Fr 07:00-21:00; Sa 08:00-21:00; Su 09:00-21:00","outdoor_seating":"yes","wheelchair":"yes"}},{"type":"node","id":8880739221,"lat":52.2267933,"lon":21.0130721,"tags":{"addr:housenumber":"85","addr:street":"Marsza\u0142kowska","amenity":"bank","atm":"yes","brand":"VeloBank","check_date":"2024-04-11","name":"VeloBank","opening_hours":"Mo-Fr 09:15-16:45","wheelchair":"no"}},{"type":"node","id":8880739225,"lat":52.2267172,"lon":21.013119,"tags":{"addr:housenumber":"85","addr:street":"Marsza\u0142kowska","check_date":"2024-04-11","name":"Pascal","office":"educational_institution","opening_hours":"Mo-Fr 09:00-17:00; Sa 09:00-15:00","wheelchair":"no"}},{"type":"node","id":8927686622,"lat":52.2269979,"lon":21.0129401,"tags":{"highway":"traffic_signals","traffic_signals:direction":"backward"}},{"type":"node","id":9211076435,"lat":52.2267075,"lon":21.0126073,"tags":{"access":"private","amenity":"parking_entrance","parking":"underground"}},{"type":"node","id":9211076436,"lat":52.2267786,"lon":21.0126275,"tags":{"access":"private","barrier":"lift_gate"}},{"type":"node","id":9211076453,"lat":52.2268191,"lon":21.0126893,"tags":{"access":"private","barrier":"gate"}},{"type":"node","id":9502756637,"lat":52.2267548,"lon":21.0132196,"tags":{"amenity":"vending_machine","check_date":"2022-08-19","operator":"ZDM Warszawa","ref":"G040701","vending":"parking_tickets"}},{"type":"node","id":9502756664,"lat":52.2269798,"lon":21.0125619,"tags":{"amenity":"vending_machine","check_date":"2022-09-02","operator":"ZDM Warszawa","ref":"G040312","vending":"parking_tickets"}},{"type":"node","id":9964301573,"lat":52.2268675,"lon":21.0131404,"tags":{"advertising":"column"}},{"type":"node","id":9964301580,"lat":52.2271982,"lon":21.0130536,"tags":{"amenity":"bicycle_parking","bicycle_parking":"stands","capacity":"6","covered":"no"}},{"type":"node","id":9964301581,"lat":52.2268026,"lon":21.0130659,"tags":{"amenity":"atm","brand":"Getin Bank","brand:wikidata":"Q9267646","cash_in":"yes","check_date":"2024-04-11","indoor":"yes","opening_hours":"24\/7","operator":"Planet Cash","operator:wikidata":"Q9267646","wheelchair":"no"}},{"type":"node","id":9964301582,"lat":52.2267826,"lon":21.0130788,"tags":{"addr:housenumber":"85","addr:street":"Marsza\u0142kowska","amenity":"atm","brand":"Getin Bank","brand:wikidata":"Q9267646","cash_in":"yes","check_date":"2024-04-11","indoor":"yes","opening_hours":"24\/7","operator":"Planet Cash","operator:wikidata":"Q9267646","wheelchair":"no"}},{"type":"node","id":9995498158,"lat":52.2270638,"lon":21.0127502,"tags":{"addr:housenumber":"87","addr:street":"Marsza\u0142kowska","amenity":"bureau_de_change","check_date":"2022-09-02","name":"MG\u0141","opening_hours":"Mo-Fr 10:00-18:00; Sa 10:00-14:00","wheelchair":"yes"}},{"type":"node","id":9995498159,"lat":52.2270521,"lon":21.0126766,"tags":{"addr:housenumber":"87","addr:street":"Marsza\u0142kowska","check_date":"2022-09-02","name":"Z. Robak","opening_hours":"Mo-Fr 11:00-19:00; Sa 10:00-14:00","shop":"optician","wheelchair":"limited"}},{"type":"node","id":9995498163,"lat":52.2269536,"lon":21.0121495,"tags":{"addr:housenumber":"52\/54","addr:street":"Wsp\u00f3lna","amenity":"restaurant","brand":"Po Prostu","check_date":"2022-09-02","facebook":"61560385840397","name":"Po Prostu Wsp\u00f3lna","opening_hours":"Mo-Fr 10:00-18:00","outdoor_seating":"yes","phone":"+48 503 195 767","website":"https:\/\/po-prostu.pl\/","wheelchair":"limited"}},{"type":"node","id":9995498167,"lat":52.2269735,"lon":21.0122604,"tags":{"addr:housenumber":"50","addr:street":"Wsp\u00f3lna","check_date":"2022-09-02","name":"Warszawska Mennica Inwestycyjna","office":"financial","opening_hours":"Mo-Fr 09:00-17:00","wheelchair":"yes"}},{"type":"node","id":9995498175,"lat":52.2270355,"lon":21.0125818,"tags":{"addr:housenumber":"87","addr:street":"Marsza\u0142kowska","check_date":"2022-09-02","craft":"jeweller","name":"Ofir","opening_hours":"Mo-Th 11:00-18:00; Fr 11:00-17:00","wheelchair":"yes"}},{"type":"node","id":9995498185,"lat":52.2270078,"lon":21.0124416,"tags":{"addr:housenumber":"50","addr:street":"Wsp\u00f3lna","check_date":"2022-09-02","name":"Fifty Fifty Concept","opening_hours":"Mo-Fr 10:00-21:00; Sa 09:00-17:00","shop":"hairdresser","wheelchair":"no"}},{"type":"node","id":9995498186,"lat":52.226928,"lon":21.0121391,"tags":{"description":"polegli \u017co\u0142nierze Uderzeniowego Batalionu Szturmowego AK","historic":"memorial","memorial":"plaque"}},{"type":"node","id":10004769290,"lat":52.2267302,"lon":21.0122819,"tags":{"amenity":"bicycle_parking","bicycle_parking":"stands","capacity":"20","covered":"no"}},{"type":"node","id":10933549956,"lat":52.2271339,"lon":21.0130876,"tags":{"highway":"street_lamp"}},{"type":"node","id":10933549959,"lat":52.2273519,"lon":21.0131387,"tags":{"bench":"yes","bin":"yes","lit":"yes","name":"Ho\u017ca 03","network":"ZTM Warszawa","operator":"Tramwaje Warszawskie","passenger_information_display":"no","public_transport":"platform","ref":"701203","shelter":"yes","tactile_paving":"yes","tram":"yes","url":"https:\/\/www.wtp.waw.pl\/rozklady-jazdy\/?wtp_md=8&wtp_st=7012&wtp_pt=03"}},{"type":"node","id":11809383950,"lat":52.2268399,"lon":21.0130302,"tags":{"addr:housenumber":"85","addr:street":"Marsza\u0142kowska","amenity":"bureau_de_change","check_date":"2024-04-11","name":"Kurs","wheelchair":"no"}}]}