{"version":0.6,"generator":"Overpass API 0.7.62.5 1bd436f1","osm3s":{"timestamp_osm_base":"2025-03-12T13:10:00Z","copyright":"The data included in this document is from www.openstreetmap.org. The data is made available under ODbL."},"elements":[{"type":"node","id":179870588,"lat":52.2228629,"lon":21.0161042,"tags":{"name":"Plac Konstytucji 06","network":"ZTM Warszawa","network:wikidata":"Q8066998","operator":"Tramwaje Warszawskie","operator:wikidata":"Q9360809","public_transport":"stop_position","railway":"tram_stop","ref":"701106","shelter":"yes","tactile_paving":"yes","tactile_paving:slab_size":"40x40","tram":"yes"}},{"type":"node","id":301612675,"lat":52.2230593,"lon":21.0161552,"tags":{"button_operated":"yes","crossing":"traffic_signals","crossing_ref":"zebra","highway":"crossing","tactile_paving":"yes","traffic_signals:sound":"no","traffic_signals:vibration":"no"}},{"type":"node","id":301612682,"lat":52.2229215,"lon":21.0155427,"tags":{"button_operated":"yes","crossing":"traffic_signals","crossing_ref":"zebra","highway":"crossing","tactile_paving":"yes","traffic_signals:sound":"yes","traffic_signals:vibration":"yes"}},{"type":"node","id":301612683,"lat":52.2230256,"lon":21.0160041,"tags":{"crossing:barrier":"no","railway":"tram_level_crossing"}},{"type":"node","id":316886542,"lat":52.2232549,"lon":21.0162865,"tags":{"button_operated":"yes","crossing":"traffic_signals","crossing:island":"no","crossing_ref":"zebra","highway":"crossing","tactile_paving":"yes","traffic_signals:sound":"yes","traffic_signals:vibration":"yes"}},{"type":"node","id":334558239,"lat":52.2227126,"lon":21.0156682,"tags":{"bus":"yes","name":"Plac Konstytucji 09","network":"ZTM Warszawa","operator":"Zarz\u0105d Transportu Miejskiego w Warszawie","public_transport":"stop_position","ref":"701109"}},{"type":"node","id":334559702,"lat":52.2227326,"lon":21.0163467,"tags":{"bus":"yes","name":"Plac Konstytucji 08","network":"ZTM Warszawa","operator":"Zarz\u0105d Transportu Miejskiego w Warszawie","public_transport":"stop_position","ref":"701108"}},{"type":"node","id":344563242,"lat":52.2227536,"lon":21.0154495,"tags":{"amenity":"grit_bin","seasonal":"winter"}},{"type":"node","id":344563243,"lat":52.2226666,"lon":21.0154968,"tags":{"amenity":"grit_bin","check_date":"2021-05-13","seasonal":"winter"}},{"type":"node","id":1412975489,"lat":52.2230154,"lon":21.0159631,"tags":{"railway":"tram_level_crossing"}},{"type":"node","id":1412975502,"lat":52.2232849,"lon":21.0157899,"tags":{"highway":"give_way"}},{"type":"node","id":2334278067,"lat":52.223081,"lon":21.0162524,"tags":{"barrier":"kerb","kerb":"lowered","tactile_paving":"yes"}},{"type":"node","id":2334278069,"lat":52.223206,"lon":21.0163144,"tags":{"barrier":"kerb","kerb":"lowered","tactile_paving":"yes"}},{"type":"node","id":2334293077,"lat":52.2226338,"lon":21.0154651,"tags":{"leaf_type":"broadleaved","natural":"tree"}},{"type":"node","id":2334323720,"lat":52.2229658,"lon":21.0164865,"tags":{"natural":"tree"}},{"type":"node","id":2334323723,"lat":52.2230053,"lon":21.0163739,"tags":{"natural":"tree"}},{"type":"node","id":2334323728,"lat":52.2229477,"lon":21.0164195,"tags":{"leaf_type":"broadleaved","natural":"tree"}},{"type":"node","id":2334323739,"lat":52.2230808,"lon":21.0163444,"tags":{"leaf_type":"broadleaved","natural":"tree"}},{"type":"node","id":2334323754,"lat":52.2230249,"lon":21.0164544,"tags":{"natural":"tree"}},{"type":"node","id":2334323764,"lat":52.2228048,"lon":21.0165026,"tags":{"leaf_type":"broadleaved","natural":"tree"}},{"type":"node","id":2334356084,"lat":52.2229455,"lon":21.0156462,"tags":{"barrier":"kerb","kerb":"lowered","tactile_paving":"yes"}},{"type":"node","id":2334356091,"lat":52.2230101,"lon":21.0159417,"tags":{"barrier":"kerb","kerb":"flush","tactile_paving":"yes"}},{"type":"node","id":3426522953,"lat":52.2230383,"lon":21.0160614,"tags":{"barrier":"kerb","kerb":"lowered","tactile_paving":"yes"}},{"type":"node","id":3426522954,"lat":52.2230296,"lon":21.0160205,"tags":{"barrier":"kerb","kerb":"flush","tactile_paving":"yes"}},{"type":"node","id":3471234411,"lat":52.2229079,"lon":21.0158285,"tags":{"amenity":"bicycle_rental","bicycle_rental":"dropoff_point","brand":"Veturilo","brand:wikidata":"Q3847868","capacity":"30","check_date":"2023-05-06","name":"Plac Konstytucji","network":"Veturilo","network:wikidata":"Q3847868","not:brand:wikidata":"Q97373105","operator":"Nextbike Polska","ref":"9543"}},{"type":"node","id":3856725886,"lat":52.2229454,"lon":21.0162201,"tags":{"highway":"traffic_signals"}},{"type":"node","id":5236032586,"lat":52.2228062,"lon":21.0164624,"tags":{"bench":"yes","bin":"yes","bus":"yes","highway":"bus_stop","lit":"yes","name":"Plac Konstytucji 08","name:be":"\u041f\u043b\u044f\u0446 \u041a\u0430\u043d\u0441\u0442\u044b\u0442\u0443\u0446\u044b\u0456 02","name:de":"Platz der Verfassung 08","name:pl":"Plac Konstytucji 08","network":"ZTM Warszawa","network:wikidata":"Q8066998","network:wikipedia":"pl:Zarz\u0105d Transportu Miejskiego w Warszawie","operator":"Zarz\u0105d Transportu Miejskiego w Warszawie","public_transport":"platform","ref":"701108","shelter":"yes","tactile_paving":"no","url":"https:\/\/www.wtp.waw.pl\/rozklady-jazdy\/?wtp_md=8&wtp_st=7011&wtp_pt=08"}},{"type":"node","id":5236032588,"lat":52.2226475,"lon":21.0154907,"tags":{"bench":"yes","bin":"yes","bus":"yes","highway":"bus_stop","lit":"yes","name":"Plac Konstytucji 09","network":"ZTM Warszawa","network:wikidata":"Q8066998","network:wikipedia":"pl:Zarz\u0105d Transportu Miejskiego w Warszawie","operator":"Zarz\u0105d Transportu Miejskiego w Warszawie","public_transport":"platform","ref":"701109","shelter":"yes","tactile_paving":"yes","url":"https:\/\/www.wtp.waw.pl\/rozklady-jazdy\/?wtp_md=8&wtp_st=7011&wtp_pt=09"}},{"type":"node","id":8500805419,"lat":52.2231763,"lon":21.0165315,"tags":{"couplings":"2","emergency":"fire_hydrant","fire_hydrant:diameter":"80","fire_hydrant:position":"sidewalk","fire_hydrant:type":"pillar","water_source":"main"}},{"type":"node","id":8929471492,"lat":52.2231261,"lon":21.0157644,"tags":{"highway":"traffic_signals","traffic_signals":"signal","traffic_signals:direction":"backward"}},{"type":"node","id":8929471495,"lat":52.2232753,"lon":21.0163795,"tags":{"highway":"traffic_signals","traffic_signals:direction":"forward"}},{"type":"node","id":10135756877,"lat":52.2231088,"lon":21.0156874,"tags":{"highway":"traffic_signals","traffic_signals":"signal","traffic_signals:direction":"forward"}},{"type":"node","id":10135756878,"lat":52.2230342,"lon":21.0158793,"tags":{"amenity":"waste_basket","material":"concrete"}},{"type":"node","id":10135756883,"lat":52.2231232,"lon":21.016253,"tags":{"amenity":"waste_basket","material":"concrete"}},{"type":"node","id":10135756884,"lat":52.2228707,"lon":21.0158261,"tags":{"advertising":"column"}},{"type":"node","id":10931366584,"lat":52.2226864,"lon":21.01549,"tags":{"highway":"street_lamp"}},{"type":"node","id":10931461219,"lat":52.2231505,"lon":21.0162506,"tags":{"highway":"street_lamp"}},{"type":"node","id":10931461220,"lat":52.2228884,"lon":21.0163834,"tags":{"highway":"street_lamp"}},{"type":"node","id":10931461221,"lat":52.2226618,"lon":21.0165183,"tags":{"highway":"street_lamp"}},{"type":"node","id":10931504168,"lat":52.2227741,"lon":21.0161998,"tags":{"bench":"yes","bin":"yes","lit":"yes","name":"Plac Konstytucji 06","network":"ZTM Warszawa","operator":"Tramwaje Warszawskie","passenger_information_display":"yes","public_transport":"platform","ref":"701106","shelter":"yes","tactile_paving":"yes","tram":"yes","url":"https:\/\/www.wtp.waw.pl\/rozklady-jazdy\/?wtp_md=8&wtp_st=7011&wtp_pt=06"}},{"type":"node","id":10931504173,"lat":52.2226671,"lon":21.0162737,"tags":{"amenity":"bench","backrest":"yes"}},{"type":"node","id":10931504174,"lat":52.2226998,"lon":21.0162541,"tags":{"amenity":"bench","backrest":"yes"}}]}