{"version":0.6,"generator":"Overpass API 0.7.62.5 1bd436f1","osm3s":{"timestamp_osm_base":"2025-03-12T14:13:02Z","copyright":"The data included in this document is from www.openstreetmap.org. The data is made available under ODbL."},"elements":[{"type":"node","id":1770257173,"lat":52.2263125,"lon":21.0150039,"tags":{"addr:housenumber":"29\/31","addr:street":"Ho\u017ca","brand":"Carrefour Express","brand:wikidata":"Q2940190","brand:wikipedia":"fr:Carrefour Express","check_date":"2023-07-19","name":"Carrefour Express","opening_hours":"Mo-Sa 07:00-22:00; Su 10:00-18:00","shop":"convenience","wheelchair":"no"}},{"type":"node","id":2532970589,"lat":52.2262871,"lon":21.0148905,"tags":{"addr:city":"Warszawa","addr:housenumber":"29\/31","addr:postcode":"00-521","addr:street":"Ho\u017ca","amenity":"fast_food","brand":"Krowarzywa","brand:website":"https:\/\/krowarzywa.pl\/","brand:wikidata":"Q107299031","check_date":"2023-07-19","contact:phone":"+48 516 894 767","cuisine":"burger","delivery":"yes","diet:vegan":"only","email":"lokalhoza@krowarzywa.pl","internet_access":"wlan","name":"Krowarzywa","opening_hours":"Su-Th 10:00-21:00; Fr-Sa 10:00-22:00","outdoor_seating":"yes","takeaway":"yes","website":"http:\/\/krowarzywa.pl","wheelchair":"no"}},{"type":"node","id":3448355421,"lat":52.2261475,"lon":21.014445,"tags":{"addr:city":"Warszawa","addr:housenumber":"74","addr:street":"Marsza\u0142kowska","amenity":"cafe","brand":"Vincent","brand:wikidata":"Q113308366","check_date":"2024-09-18","name":"Vincent","outdoor_seating":"no","shop":"bakery","wheelchair":"no"}},{"type":"node","id":4913331572,"lat":52.2265772,"lon":21.015028,"tags":{"noexit":"yes"}},{"type":"node","id":7134282485,"lat":52.2264616,"lon":21.0147097,"tags":{"addr:housenumber":"42","addr:street":"Ho\u017ca","amenity":"cafe","brand":"Aromat","brand:website":"https:\/\/aromatpiekarnia.pl","check_date":"2023-07-19","name":"Aromat","opening_hours":"Mo-Fr 07:00-20:00; Sa 08:00-18:00; Su 09:00-17:00","outdoor_seating":"yes","shop":"bakery","wheelchair":"yes"}},{"type":"node","id":8917359785,"lat":52.2260467,"lon":21.0144962,"tags":{"addr:housenumber":"74","addr:street":"Marsza\u0142kowska","check_date":"2024-09-18","check_date:opening_hours":"2023-07-17","name":"7Mil","opening_hours:signed":"no","shop":"shoes","wheelchair":"yes"}},{"type":"node","id":8917359794,"lat":52.2260697,"lon":21.0144217,"tags":{"historic":"memorial","memorial":"plaque","name":"Batalion AK \"Iwo\""}},{"type":"node","id":9462988592,"lat":52.2260319,"lon":21.0147937,"tags":{"noexit":"yes"}},{"type":"node","id":9463130549,"lat":52.2264546,"lon":21.0148042,"tags":{"historic":"memorial","material":"stone","memorial":"plaque","name":"Antoni Grabowski"}},{"type":"node","id":9502959295,"lat":52.2264036,"lon":21.0151861,"tags":{"amenity":"vending_machine","operator":"ZDM Warszawa","ref":"G020318","vending":"parking_tickets"}},{"type":"node","id":10568048945,"lat":52.2262791,"lon":21.0145976,"tags":{"access":"yes","amenity":"bicycle_parking","bicycle_parking":"stands","capacity":"2","covered":"no","fee":"no"}},{"type":"node","id":10579076041,"lat":52.2262617,"lon":21.0147725,"tags":{"addr:housenumber":"29\/31","addr:street":"Ho\u017ca","check_date":"2023-07-19","name":"Piccola Italia & Mediterraneo","opening_hours":"Mo-Fr 08:30-20:30; Sa 09:00-17:00","shop":"deli","wheelchair":"limited"}},{"type":"node","id":11055281437,"lat":52.2263465,"lon":21.015157,"tags":{"addr:housenumber":"29\/31","addr:street":"Ho\u017ca","brand":"Galeria Wypiek\u00f3w Lubaszka","brand:wikidata":"Q108586693","check_date":"2023-07-19","name":"Galeria Wypiek\u00f3w Lubaszka","opening_hours":"Mo-Fr 06:30-19:00; Sa 06:30-15:00","shop":"bakery","wheelchair":"no"}},{"type":"node","id":11055281438,"lat":52.2263657,"lon":21.0152906,"tags":{"addr:housenumber":"27A","addr:street":"Ho\u017ca","amenity":"restaurant","check_date":"2023-07-19","cuisine":"vietnamese","name":"Made in Vietnam","opening_hours":"Mo-Th 11:00-22:00; Fr-Sa 11:00-23:00; Su 12:00-22:00","outdoor_seating":"yes","wheelchair":"limited"}},{"type":"node","id":11055281439,"lat":52.226398,"lon":21.0154318,"tags":{"addr:housenumber":"27A","addr:street":"Ho\u017ca","check_date":"2023-07-19","name":"Antykwarnia","opening_hours":"'on appointment'","second_hand":"only","shop":"books","wheelchair":"no"}},{"type":"node","id":11055281446,"lat":52.2265041,"lon":21.0148971,"tags":{"addr:housenumber":"42","addr:street":"Ho\u017ca","check_date":"2023-07-19","name":"1909","shop":"hairdresser","wheelchair":"yes"}},{"type":"node","id":11449183226,"lat":52.2262685,"lon":21.014692,"tags":{"information":"board","name":"Ulica Ho\u017ca","tourism":"information"}}]}