{"version":0.6,"generator":"Overpass API 0.7.62.5 1bd436f1","osm3s":{"timestamp_osm_base":"2025-03-12T13:19:01Z","copyright":"The data included in this document is from www.openstreetmap.org. The data is made available under ODbL."},"elements":[{"type":"node","id":398523580,"lat":52.2253984,"lon":21.0148759,"tags":{"addr:city":"Warszawa","addr:housenumber":"68\/70","addr:postcode":"00-545","addr:street":"Marsza\u0142kowska","check_date":"2024-09-18","disused:amenity":"restaurant","disused:cuisine":"polish","name":"Parana","source:addr":"mapa.um.warszawa.pl","wheelchair":"limited"}},{"type":"node","id":2480567915,"lat":52.2254822,"lon":21.0146662,"tags":{"emergency":"fire_hydrant","fire_hydrant:diameter":"150","fire_hydrant:position":"sidewalk","fire_hydrant:type":"underground","ref":"35032","source":"GPS(APK:StrazakOSM)"}},{"type":"node","id":3761906103,"lat":52.2258272,"lon":21.0151819,"tags":{"addr:city":"Warszawa","addr:housenumber":"72","addr:postcode":"00-545","addr:street":"Marsza\u0142kowska","addr:unit":"8","check_date":"2023-06-15","name":"Residence 1898","tourism":"hotel","website":"https:\/\/1898.pl\/"}},{"type":"node","id":4720108357,"lat":52.225838,"lon":21.0146255,"tags":{"addr:city":"Warszawa","addr:housenumber":"72","addr:postcode":"00-545","addr:street":"Marsza\u0142kowska","check_date":"2024-09-18","name":"Montiko","opening_hours":"Mo-Fr 11:00-19:00; Sa 10:00-18:00","shop":"outdoor","wheelchair":"limited"}},{"type":"node","id":8688577238,"lat":52.2259439,"lon":21.0143957,"tags":{"advertising":"column"}},{"type":"node","id":8688577239,"lat":52.2258129,"lon":21.0143755,"tags":{"barrier":"bollard","bollard":"fixed","material":"metal"}},{"type":"node","id":8688577240,"lat":52.2257994,"lon":21.0143829,"tags":{"barrier":"bollard","bollard":"fixed","material":"metal"}},{"type":"node","id":8688577241,"lat":52.2258428,"lon":21.0143578,"tags":{"barrier":"bollard","bollard":"fixed","material":"metal"}},{"type":"node","id":8688577242,"lat":52.2258571,"lon":21.0143488,"tags":{"barrier":"bollard","bollard":"fixed","material":"metal"}},{"type":"node","id":8688577243,"lat":52.2258692,"lon":21.0143422,"tags":{"barrier":"bollard","bollard":"fixed","material":"metal"}},{"type":"node","id":8688577244,"lat":52.2258812,"lon":21.0143345,"tags":{"barrier":"bollard","bollard":"fixed","material":"metal"}},{"type":"node","id":8917359792,"lat":52.2254413,"lon":21.0146956,"tags":{"advertising":"column"}},{"type":"node","id":8917359801,"lat":52.2259468,"lon":21.0145602,"tags":{"addr:housenumber":"74","addr:street":"Marsza\u0142kowska","beauty":"nails;cosmetics","check_date":"2024-09-18","name":"Sansh\u00e8","shop":"beauty","wheelchair":"limited"}},{"type":"node","id":8927686666,"lat":52.2255431,"lon":21.0148883,"tags":{"noexit":"yes"}},{"type":"node","id":9462988593,"lat":52.2257601,"lon":21.0146404,"tags":{"addr:city":"Warszawa","addr:city:simc":"0918123","addr:housenumber":"72","addr:postcode":"00-545","addr:street":"Marsza\u0142kowska","source:addr":"gugik.gov.pl"}},{"type":"node","id":9462988723,"lat":52.2260129,"lon":21.0152093,"tags":{"access":"private","barrier":"gate"}},{"type":"node","id":9502959288,"lat":52.2258898,"lon":21.014368,"tags":{"amenity":"vending_machine","operator":"ZDM Warszawa","ref":"G020328","vending":"parking_tickets"}},{"type":"node","id":9502959290,"lat":52.2255271,"lon":21.0150195,"tags":{"amenity":"vending_machine","check_date":"2023-06-15","operator":"ZDM Warszawa","ref":"G020326","vending":"parking_tickets"}},{"type":"node","id":9919680833,"lat":52.2255038,"lon":21.0153269,"tags":{"addr:housenumber":"2","addr:street":"Ksi\u0119dza Ignacego Skorupki","amenity":"cafe","check_date":"2024-09-18","name":"Yolo","opening_hours":"9:00-21:00","outdoor_seating":"yes","wheelchair":"limited"}},{"type":"node","id":9919680834,"lat":52.2255176,"lon":21.0152546,"tags":{"historic":"memorial","memorial":"plaque","name":"Andrzej Mi\u0119dzyrzecki"}},{"type":"node","id":9919680835,"lat":52.2255157,"lon":21.015255,"tags":{"fixme":"Please merge me into a nearby building","historic":"memorial","memorial":"plaque","name":"Julia Hartwig"}},{"type":"node","id":9919680836,"lat":52.2254864,"lon":21.0152443,"tags":{"addr:housenumber":"2","addr:street":"Ksi\u0119dza Ignacego Skorupki","check_date":"2024-09-18","name":"U Ch\u0142opak\u00f3w","opening_hours":"Mo-Fr 10:00-20:00","shop":"hairdresser","wheelchair":"limited"}},{"type":"node","id":10933549952,"lat":52.2254527,"lon":21.0146017,"tags":{"highway":"street_lamp"}},{"type":"node","id":10933549953,"lat":52.2257275,"lon":21.0144394,"tags":{"highway":"street_lamp"}},{"type":"node","id":10979328072,"lat":52.2259658,"lon":21.0151141,"tags":{"frequency":"50","location":"indoor","operator":"Stoen Operator","operator:wikidata":"Q11833155","power":"substation","ref":"2774","substation":"minor_distribution","voltage":"15000;400"}},{"type":"node","id":11405148502,"lat":52.225471,"lon":21.0150426,"tags":{"information":"board","name":"Ignacy Skorupka","tourism":"information"}},{"type":"node","id":11773291307,"lat":52.2257966,"lon":21.0145901,"tags":{"information":"board","name":"Kamienica Matiasa Taubenhausa","tourism":"information"}},{"type":"node","id":12184500673,"lat":52.2256472,"lon":21.0147392,"tags":{"addr:housename":"Kamienica Taubenhausa","addr:housenumber":"72","addr:street":"Marsza\u0142kowska","check_date":"2024-09-18","shop":"vacant","wheelchair":"limited"}}]}