{"version":0.6,"generator":"Overpass API 0.7.62.5 1bd436f1","osm3s":{"timestamp_osm_base":"2025-03-12T13:11:00Z","copyright":"The data included in this document is from www.openstreetmap.org. The data is made available under ODbL."},"elements":[{"type":"node","id":1330269498,"lat":52.2247908,"lon":21.0075956,"tags":{"crossing":"uncontrolled","crossing:island":"no","crossing:markings":"zebra","crossing_ref":"zebra","highway":"crossing","tactile_paving":"yes"}},{"type":"node","id":1330269546,"lat":52.2246965,"lon":21.0075113,"tags":{"crossing":"uncontrolled","crossing:island":"no","crossing:markings":"zebra","crossing_ref":"zebra","highway":"crossing","tactile_paving":"yes"}},{"type":"node","id":1330269575,"lat":52.2248412,"lon":21.0074393,"tags":{"crossing":"uncontrolled","crossing:island":"no","crossing:markings":"zebra","crossing_ref":"zebra","highway":"crossing","tactile_paving":"yes"}},{"type":"node","id":2762790062,"lat":52.2247579,"lon":21.0076148,"tags":{"barrier":"kerb","kerb":"lowered","tactile_paving":"yes"}},{"type":"node","id":2762961485,"lat":52.2247374,"lon":21.0073644,"tags":{"crossing":"uncontrolled","crossing:island":"no","crossing:markings":"zebra","crossing_ref":"zebra","highway":"crossing","tactile_paving":"yes"}},{"type":"node","id":5309841598,"lat":52.2251312,"lon":21.0066617,"tags":{"barrier":"bollard","bollard":"fixed","motor_vehicle":"no"}},{"type":"node","id":6445628688,"lat":52.2246659,"lon":21.0077205,"tags":{"addr:city":"Warszawa","addr:floor":"G","addr:housenumber":"61","addr:postcode":"00-681","addr:street":"Ho\u017ca","amenity":"bar","check_date":"2024-06-05","diet:vegetarian":"yes","email":"info@pacyfik.bar","indoor_seating":"yes","level":"0","name":"Pacyfik","opening_hours":"Mo 17:00-01:00; Tu-Su 12:00-01:00","outdoor_seating":"yes","payment:american_express":"yes","payment:apple_pay":"yes","payment:blik":"yes","payment:diners_club":"yes","payment:discover_card":"yes","payment:google_pay":"yes","payment:jcb":"yes","payment:maestro":"yes","payment:mastercard":"yes","payment:mastercard_contactless":"yes","payment:unionpay":"yes","payment:visa":"yes","payment:visa_contactless":"yes","payment:visa_electron":"yes","reservation":"no","website":"http:\/\/pacyfik.bar\/","wheelchair":"no"}},{"type":"node","id":9210994387,"lat":52.224934,"lon":21.0069594,"tags":{"addr:city":"Warszawa","addr:housenumber":"21","addr:postcode":"00-688","addr:street":"Emilii Plater"}},{"type":"node","id":9211207153,"lat":52.224711,"lon":21.007581,"tags":{"barrier":"kerb","kerb":"lowered","tactile_paving":"yes"}},{"type":"node","id":9423075118,"lat":52.2249296,"lon":21.0074731,"tags":{"access":"yes","amenity":"bicycle_parking","bicycle_parking":"stands","capacity":"4","check_date:capacity":"2024-12-05","colour":"silver","covered":"no","fee":"no"}},{"type":"node","id":9502756650,"lat":52.2248586,"lon":21.0076526,"tags":{"amenity":"vending_machine","check_date":"2023-04-20","operator":"ZDM Warszawa","ref":"G040416","vending":"parking_tickets"}},{"type":"node","id":9502756661,"lat":52.2253166,"lon":21.0072641,"tags":{"amenity":"vending_machine","check_date":"2023-04-11","operator":"ZDM Warszawa","ref":"G040401","vending":"parking_tickets"}},{"type":"node","id":10131177321,"lat":52.224683,"lon":21.0073681,"tags":{"amenity":"waste_basket","material":"concrete"}},{"type":"node","id":10131177322,"lat":52.2246863,"lon":21.0074626,"tags":{"barrier":"kerb","kerb":"lowered","tactile_paving":"yes"}},{"type":"node","id":10131177326,"lat":52.224771,"lon":21.0077,"tags":{"direction":"250","maxspeed":"30","traffic_sign":"maxspeed"}},{"type":"node","id":10131177327,"lat":52.224772,"lon":21.0073448,"tags":{"barrier":"kerb","kerb":"lowered","tactile_paving":"yes"}},{"type":"node","id":10131177328,"lat":52.2247035,"lon":21.0073843,"tags":{"barrier":"kerb","kerb":"lowered","tactile_paving":"yes"}},{"type":"node","id":10131177332,"lat":52.2248296,"lon":21.0073867,"tags":{"barrier":"kerb","kerb":"lowered","tactile_paving":"yes"}},{"type":"node","id":10131177333,"lat":52.2248541,"lon":21.0074982,"tags":{"barrier":"kerb","kerb":"lowered","tactile_paving":"yes"}},{"type":"node","id":10131177334,"lat":52.2248272,"lon":21.0075749,"tags":{"barrier":"kerb","kerb":"lowered","tactile_paving":"yes"}},{"type":"node","id":10131205647,"lat":52.2246856,"lon":21.0067753,"tags":{"amenity":"vending_machine","check_date":"2023-04-11","payment:cash":"yes","payment:credit_cards":"yes","payment:debit_cards":"yes","payment:mastercard":"yes","payment:visa":"yes","vending":"parking_tickets","wikimedia_commons":"File:Parkomat przy parkingu p\u0142atnym prywatnym.jpg"}},{"type":"node","id":10131205648,"lat":52.2246827,"lon":21.0067636,"tags":{"man_made":"street_cabinet","street_cabinet":"power"}},{"type":"node","id":10727968134,"lat":52.2252816,"lon":21.0068782,"tags":{"addr:housenumber":"25","addr:street":"Emilii Plater","amenity":"kindergarten","email":"p34@eduwarszawa.pl","name":"Przedszkole nr 34","official_name":"Przedszkole nr 34","operator":"\u015ar\u00f3dmie\u015bcie","operator:type":"government","phone":"+48 226296521","ref:regon":"013004870","ref:rspo":"34659","ref:vatin":"PL5261936430","website":"https:\/\/www.przedszkole34.waw.pl\/"}},{"type":"node","id":10802082218,"lat":52.2253176,"lon":21.0069902,"tags":{"addr:housenumber":"25","addr:street":"Emilii Plater","check_date":"2023-04-11","name":"Boske","opening_hours":"Mo-Th 11:00-19:00; Fr 11:00-20:00; Sa 12:00-18:00","shop":"craft","wheelchair":"limited"}},{"type":"node","id":10802082219,"lat":52.2252864,"lon":21.0070081,"tags":{"addr:housenumber":"25","addr:street":"Emilii Plater","check_date":"2023-04-11","collector":"coins;stamps;medals;notes","name":"Annum","opening_hours":"Mo-Fr 09:00-17:00; Sa 10:00-14:00","shop":"collector","wheelchair":"limited"}},{"type":"node","id":10802082220,"lat":52.2252593,"lon":21.0070236,"tags":{"addr:housenumber":"25","addr:street":"Emilii Plater","check_date":"2023-04-11","male":"yes","name":"Barberian","opening_hours":"Mo-Fr 07:00-22:00; Sa 09:00-15:00","shop":"hairdresser","wheelchair":"limited"}},{"type":"node","id":10802082221,"lat":52.2248725,"lon":21.0069898,"tags":{"addr:housenumber":"21","addr:street":"Emilii Plater","amenity":"clinic","check_date":"2023-04-11","healthcare":"clinic","name":"Uniwersyteckie Centrum Kliniczne WUM","opening_hours":"Mo-Fr 07:00-19:00","operator":"Szpital Kliniczny Dzieci\u0105tka Jezus","operator:type":"government","wheelchair":"no"}},{"type":"node","id":10802082222,"lat":52.2249941,"lon":21.0069156,"tags":{"addr:housenumber":"21","addr:street":"Emilii Plater","amenity":"dentist","check_date":"2023-04-11","healthcare":"dentist","name":"Centrum Medyczne WUM","operator":"Szpital Kliniczny Dzieci\u0105tka Jezus","wheelchair":"no"}},{"type":"node","id":10827526203,"lat":52.225197,"lon":21.0072215,"tags":{"direction":"both","surface":"paving_stones","traffic_calming":"hump"}},{"type":"node","id":10827526204,"lat":52.2250245,"lon":21.0074669,"tags":{"historic":"memorial","material":"stone","memorial":"plaque","name":"Tadeusz Jordan-Rozwadowski"}},{"type":"node","id":10827610505,"lat":52.2249219,"lon":21.0075262,"tags":{"historic":"memorial","material":"stone","memorial":"plaque","name":"Wojciech Korfanty"}},{"type":"node","id":11958852131,"lat":52.2250944,"lon":21.0074629,"tags":{"power":"substation","ref":"12062","substation":"minor_distribution"}}]}