{"version":0.6,"generator":"Overpass API 0.7.62.5 1bd436f1","osm3s":{"timestamp_osm_base":"2025-03-11T16:22:14Z","copyright":"The data included in this document is from www.openstreetmap.org. The data is made available under ODbL."},"elements":[{"type":"way","id":4612859,"nodes":[29218288,3900136262,471376392,8078047383,268469157,799000371,2931438229,3880652816,4606652418,442649846],"tags":{"cycleway:bicycle":"designated","cycleway:left":"no","cycleway:right":"lane","cycleway:right:lane":"exclusive","dual_carriageway":"yes","foot":"use_sidepath","highway":"secondary","lanes":"2","lit":"yes","maxspeed":"30","name":"Skalitzer Stra\u00dfe","name:etymology:wikidata":"Q670005","oneway":"yes","opening_date":"2024-08-30","parking:both":"no","parking:right:restriction":"no_stopping","postal_code":"10999","sidewalk":"right","sidewalk:right:surface":"paving_stones","surface":"asphalt"}},{"type":"way","id":4892701,"nodes":[815343324,9755765806,8078047384,8078047455,3880652817,7606199831],"tags":{"cycleway:bicycle":"designated","cycleway:left":"no","cycleway:right":"lane","cycleway:right:lane":"advisory","cycleway:right:separation:left":"dashed_line","dual_carriageway":"yes","foot":"use_sidepath","highway":"secondary","lane_markings":"no","lanes":"2","lit":"yes","maxspeed":"30","name":"Skalitzer Stra\u00dfe","name:etymology:wikidata":"Q670005","oneway":"yes","parking:both":"no","parking:right:restriction":"no_stopping","postal_code":"10999","sidewalk:left":"no","sidewalk:right":"separate","smoothness":"good","surface":"asphalt"}},{"type":"way","id":37853282,"nodes":[443953063,443953064,443953062,443953060,5260957200,5260957199,5260957198,443953063],"tags":{"addr:city":"Berlin","addr:country":"DE","addr:housenumber":"140","addr:postcode":"10999","addr:street":"Skalitzer Stra\u00dfe","addr:suburb":"Kreuzberg","building":"residential","building:levels":"5","roof:levels":"1"}},{"type":"way","id":37853284,"nodes":[443952954,443952952,7606199829,443953054,443953057,7606199828,443952954],"tags":{"addr:city":"Berlin","addr:country":"DE","addr:housenumber":"142","addr:postcode":"10999","addr:street":"Skalitzer Stra\u00dfe","addr:suburb":"Kreuzberg","building":"residential"}},{"type":"way","id":37853305,"nodes":[443953068,5260957193,872318155,443953064,443953063,5260957197,5260957196,5260957195,5260957194,443953066,443953068],"tags":{"addr:city":"Berlin","addr:country":"DE","addr:housenumber":"139","addr:postcode":"10999","addr:street":"Skalitzer Stra\u00dfe","addr:suburb":"Kreuzberg","building":"residential","building:levels":"5","roof:levels":"1"}},{"type":"way","id":37853306,"nodes":[443953066,1286990195,443953221,443953225,5260957188,5260957189,5260957190,443953219,443953068,443953066],"tags":{"addr:city":"Berlin","addr:country":"DE","addr:housenumber":"138","addr:postcode":"10999","addr:street":"Skalitzer Stra\u00dfe","addr:suburb":"Kreuzberg","building":"residential","building:levels":"11","name":"Inter Gida - \u0130stanbul Supermarkt","opening_hours":"Mo-Sa 09:00-20:00","shop":"supermarket","wheelchair":"yes"}},{"type":"way","id":65425822,"nodes":[799000281,799000033,871829824,798999995,799000128,5761792167,5761792166,5761792165,5761792164,799000157,799000274,5761792170,5761792168,5761792169,5761792171,799000300,5761792025,5761792023,5761792024,5761792026,799000050,5761792027,5761792028,5761792029,5761792030,5761792031,5761792032,5761792172,5761792173,5761792174,799000281],"tags":{"addr:city":"Berlin","addr:country":"DE","addr:housenumber":"1-2","addr:postcode":"10999","addr:street":"Admiralstra\u00dfe","addr:suburb":"Kreuzberg","air_conditioning":"no","amenity":"cafe","bar":"yes","building":"retail","building:levels":"1","check_date":"2023-10-03","contact:phone":"+49 30 60941853","contact:website":"http:\/\/www.suedblock.org","cuisine":"salad;german;burger","culture":"kleinkunst","diet:vegan":"yes","diet:vegetarian":"yes","fax":"+49 30 60941855","indoor_seating":"yes","lgbtq":"primary","name":"S\u00fcdblock","opening_hours":"17:00-23:00","outdoor_seating":"terrace","payment:credit_cards":"yes","payment:debit_cards":"yes","phone":"+49 30 60941853","reservation":"yes","smoking":"isolated","toilets":"yes","toilets:unisex":"yes","toilets:wheelchair":"yes","website":"https:\/\/www.suedblock.org\/","wheelchair":"yes","wheelchair:description":"Toilette vorhanden"}},{"type":"way","id":65425828,"nodes":[799000219,8078047430,799000342,799000062,8078047429,8078047428,8078047427,8078047426,8078047425,871829820,799000103,799000279,799000232,8078047423,8078047422,8078047424,799000118,799000071,8078047421,8078047420,8078047419,8078047418,799000270,12484239159,799000312,799000047,799000123,799000361,799000138,799000110,799000380,5261833479,5261833478,799000366,799000289,799000189,799000056,799000164,799000053,5261833477,5261833476,5261833475,5261833474,799000332,1440648214,8078047416,8078047415,799000309,799000357,1440648224,8078047414,8078047413,799000266,799000385,8078047412,8078047411,8078047410,799000271,8078047409,8078047408,799000388,8078047406,8078047407,799000185,2931438236,799000296,799000292,799000035,2931438235,799000286,8078037452,799000051,8078047403,8078047404,8078047405,799000352,939103598,799000065,2931438231,799000225,799000200,2931438230,799000219],"tags":{"addr:city":"Berlin","addr:housenumber":"37","addr:postcode":"10999","addr:street":"Admiralstra\u00dfe","building":"apartments","building:levels":"11","layer":"1"}},{"type":"way","id":68084763,"nodes":[442649846,3900136282,815343357,9755765801,9755765805,2677616770,29788946,9755765804,3359226554,2677616762,815343319,8895430535,29217340],"tags":{"cycleway:bicycle":"designated","cycleway:left":"no","cycleway:right":"lane","cycleway:right:lane":"advisory","cycleway:right:surface:colour":"red","dual_carriageway":"yes","foot":"use_sidepath","highway":"secondary","lane_markings":"yes","lanes":"2","lit":"yes","maxspeed":"30","name":"Skalitzer Stra\u00dfe","name:etymology:wikidata":"Q670005","oneway":"yes","parking:both":"no","parking:right:restriction":"no_stopping","postal_code":"10999","sidewalk:left":"no","sidewalk:right":"separate","surface":"asphalt","turn:lanes":"through|through;right","width:lanes":"3.6|3.6"}},{"type":"way","id":80501198,"nodes":[799000200,1440648483,939103681,8078047431,939103548,939103783,939103628,939103728,1440648467,799000225,799000200],"tags":{"addr:city":"Berlin","addr:country":"DE","addr:housenumber":"5","addr:postcode":"10999","addr:street":"Skalitzer Stra\u00dfe","addr:suburb":"Kreuzberg","building":"yes"}},{"type":"way","id":113525636,"nodes":[443953060,1286990201,5260957172,5260957171,1286990216,1286990213,1286990224,1286990135,1286990149,443953216,443953213,443953054,443953057,443953062,443953060],"tags":{"building":"residential","building:levels":"1","roof:levels":"0"}},{"type":"way","id":130893919,"nodes":[1440648467,1440648483],"tags":{"highway":"footway","tunnel":"yes"}},{"type":"way","id":130893924,"nodes":[1440648483,8895430745],"tags":{"highway":"footway"}},{"type":"way","id":130893925,"nodes":[1440648382,1440648458,1440648467],"tags":{"highway":"footway"}},{"type":"way","id":155667522,"nodes":[3876481575,3854467725,2512591855,3854467717,3854467715,3854467716,29787640,3854467731,268470426,3854467730,3854468178,5213956486,3854468167,3854468165,3854468164,268469153,5213956476,268469148,3900136268,444840713],"tags":{"bridge":"viaduct","electrified":"rail","electrified:rail":"top","frequency":"0","gauge":"1435","height":"6","layer":"2","level":"1","loading_gauge":"Kleinprofil","name":"U1","operator":"Berliner Verkehrsbetriebe","railway":"subway","tunnel":"no","voltage":"750"}},{"type":"way","id":155667526,"nodes":[1232860274,3900136265,1232860257,3854468162,3854468163,1232860289,3854468160,3854468159,3854468158,5213956482,1232860217,5213956483,5213956484,2097818462,3881590698,1232860265,3854467710,3854467708,3854467709,3854467707,1232860246,1232860296,3854467712,3854467711,1232860280,3854467713,3854467714,2512591854,3854467724,3876481572],"tags":{"bridge":"viaduct","electrified":"rail","electrified:rail":"top","frequency":"0","gauge":"1435","height":"6","layer":"2","level":"1","loading_gauge":"Kleinprofil","name":"U1","operator":"Berliner Verkehrsbetriebe","railway":"subway","tunnel":"no","voltage":"750"}},{"type":"way","id":168255894,"nodes":[8895430691,4714615143,8806813459],"tags":{"footway":"traffic_island","highway":"footway","lit":"yes","surface":"paving_stones"}},{"type":"way","id":255928564,"nodes":[443953219,5260957190,5260957189,5260957188,443953225,1286990136,443953142,443953139,443953135,8078047494,443953129,8078047495,443953123,443953079,8078047481,443953076,443953085,443953087,443953229,11010181879,443953093,11010181878,10674953939,11010181877,443953095,11010181873,10674953941,443953101,11010181872,443953103,5260957213,443953033,11010181869,443953023,443953017,443952996,10674953943,443952992,443952988,443953108,10882843034,443952979,10882843033,443952974,10882843028,443952967,10882843027,443952960,10882843024,443952956,10882843023,443952954,7606199828,443953057,443953062,443953064,872318155,5260957193,443953068,443953219],"tags":{"landuse":"residential"}},{"type":"way","id":289597982,"nodes":[2931438229,8895430746,8895430743,2931438230],"tags":{"highway":"service","service":"driveway"}},{"type":"way","id":289597984,"nodes":[799000225,2931438241,8078047402],"tags":{"barrier":"fence"}},{"type":"way","id":289597985,"nodes":[2931438230,2931438231],"tags":{"access":"private","highway":"service","service":"driveway","tunnel":"building_passage"}},{"type":"way","id":289597986,"nodes":[2931438231,8078037457,2931438233,8078037458,2931438235],"tags":{"access":"private","highway":"service","service":"driveway"}},{"type":"way","id":384710558,"nodes":[8895430742,433728002,3880659195],"tags":{"bench":"no","bin":"yes","bus":"yes","highway":"platform","lit":"no","name":"U Kottbusser Tor","public_transport":"platform","shelter":"no","tactile_paving":"no","wheelchair":"no"}},{"type":"way","id":384710562,"nodes":[8895430695,1224377707,3880659197],"tags":{"bench":"no","bin":"no","bus":"yes","highway":"platform","lit":"yes","name":"U Kottbusser Tor","public_transport":"platform","shelter":"no","tactile_paving":"no","wheelchair":"no"}},{"type":"way","id":465740588,"nodes":[1555356707,11350559192,11350559191,8895430745,8895430743,8895430741,8895430744,4606652420,4606652417,8895430656,8895430753,8895430810,4606652411,8895430752,1539749675,4606652471,7444541666],"tags":{"footway":"sidewalk","highway":"footway","lit":"yes","surface":"paving_stones"}},{"type":"way","id":465740591,"nodes":[815343286,2677616765,4606652422,8895430693,4606652419,8895430694,10882843025,10882843037,10882843026,1555356796],"tags":{"footway":"sidewalk","highway":"footway","lit":"yes","surface":"paving_stones"}},{"type":"way","id":478218202,"nodes":[4714615144,4714615446],"tags":{"handrail":"yes","highway":"steps","incline":"up","level":"0;0.3","lit":"yes","ramp":"no","step_count":"15","surface":"concrete","width":"2.2"}},{"type":"way","id":478218251,"nodes":[4714615143,4714615144],"tags":{"highway":"footway","level":"0","lit":"yes","surface":"paving_stones"}},{"type":"way","id":478218252,"nodes":[4714615449,4714615446,4714615450,4714615448,4714615144,4714615447,4714615449],"tags":{"level":"0;0.3","stairwell":"flight_of_stairs"}},{"type":"way","id":544234151,"nodes":[1286990216,5260957170,5260957169,5260957168,5260957171,1286990216],"tags":{"building":"yes"}},{"type":"way","id":544234152,"nodes":[5260957199,5260957173,5260957172,5260957171,5260957168,5260957198,5260957199],"tags":{"building":"yes"}},{"type":"way","id":731164214,"nodes":[6848429384,6848448485,6848448486,6848448487,6848429384],"tags":{"access":"yes","amenity":"bicycle_parking","bicycle_parking":"stands","capacity":"16","covered":"yes","fee":"no"}},{"type":"way","id":814265987,"nodes":[7606199831,268469156,8078047458,3900136271,471376509,29218287],"tags":{"cycleway:bicycle":"designated","cycleway:left":"no","cycleway:right":"lane","cycleway:right:lane":"exclusive","cycleway:right:separation:left":"solid_line","cycleway:right:traffic_sign":"DE:237","dual_carriageway":"yes","foot":"use_sidepath","highway":"secondary","lane_markings":"no","lanes":"2","lit":"yes","maxspeed":"30","name":"Skalitzer Stra\u00dfe","name:etymology:wikidata":"Q670005","oneway":"yes","parking:both":"no","parking:right:restriction":"no_stopping","postal_code":"10999","sidewalk:left":"no","sidewalk:right":"separate","smoothness":"good","surface":"asphalt"}},{"type":"way","id":814265988,"nodes":[7606199829,7606199830],"tags":{"access":"private","highway":"service","service":"driveway"}},{"type":"way","id":814265989,"nodes":[7606199828,7606199829],"tags":{"access":"private","highway":"service","service":"driveway","tunnel":"building_passage"}},{"type":"way","id":814265990,"nodes":[7606199831,8895430696,10882843025,7606199828],"tags":{"highway":"service","lit":"yes","service":"driveway","surface":"sett"}},{"type":"way","id":861202290,"nodes":[8026452866,8026452868,8895430764,8026452867],"tags":{"barrier":"fence"}},{"type":"way","id":861202291,"nodes":[8026452869,8895430767,8026452871,8026452870],"tags":{"barrier":"fence"}},{"type":"way","id":861202292,"nodes":[8026452872,8026452873],"tags":{"barrier":"fence","fence_type":"railing"}},{"type":"way","id":866658778,"nodes":[8078047384,442649846],"tags":{"cycleway:both":"no","foot":"use_sidepath","highway":"secondary_link","lane_markings":"no","lit":"yes","maxheight":"3.8","maxspeed":"30","name":"Skalitzer Stra\u00dfe","name:etymology:wikidata":"Q670005","parking:both":"no","postal_code":"10999","sidewalk:left":"separate","sidewalk:right":"no","surface":"asphalt"}},{"type":"way","id":866658779,"nodes":[8078047455,8078047456,8078047454,8078047452,8078047453,8078047457,8078047458],"tags":{"highway":"service","maxheight":"2.7","oneway":"yes","parking:both":"street_side","parking:both:capacity":"15","parking:both:fee":"no","parking:both:orientation":"parallel","surface":"asphalt"}},{"type":"way","id":951466716,"nodes":[8895430520,815343324,8895430691],"tags":{"crossing":"traffic_signals","crossing:markings":"dashes","footway":"crossing","highway":"footway","lit":"yes","surface":"asphalt","tactile_paving":"yes"}},{"type":"way","id":951466718,"nodes":[8806813459,815343357,8895430763],"tags":{"crossing":"traffic_signals","crossing:markings":"dashes","footway":"crossing","highway":"footway","lit":"yes","surface":"asphalt"}},{"type":"way","id":961646376,"nodes":[8895430717,8895430653,8895430652,8895430651,8895430650,8895430649,8895430648,8895430647,8895430646,8895430645,8895430637,8895430519,9755771322,8895430644,8895430643,8895430642,8895430641,8895430640,8895430639,8895430522,1286990136,1286990150,1286990162,1286990155,1286990175,1286990195,443953066,443953068,5260957193,8895430726,9755765808,8895430520,8895430725,8895430704,8895430722,8895430724,8895430721,8895430723,8895430709,8895430720,8895430719,8895430718,8895430716,8895430654,8895430717],"tags":{"landuse":"retail"}},{"type":"way","id":961646388,"nodes":[29217332,3900136301,8895430532,815343355,2677616763,4606652428,2677599473,9755765810,2677616769,815343324],"tags":{"bicycle":"use_sidepath","cycleway:left":"no","cycleway:right":"separate","dual_carriageway":"yes","foot":"use_sidepath","highway":"secondary","lane_markings":"yes","lanes":"2","lit":"yes","maxspeed":"30","name":"Skalitzer Stra\u00dfe","name:etymology:wikidata":"Q670005","oneway":"yes","parking:both":"no","parking:right:restriction":"no_stopping","postal_code":"10999","sidewalk:left":"no","sidewalk:right":"separate","smoothness":"good","surface":"asphalt"}},{"type":"way","id":961646423,"nodes":[11010225111,11010225112,11010225113,11010225114,11010225115,11010225116,11010225117,11010225118,11010190398,11010190399,11010190400,11010190401,11010190402,11010190403,11010190404,11010205105,11010205106,11010190397,11010205107,11010205108,11010205110,11010190393,11010205111,11010205112,11010205113,11010205114,11010205115,11010205116,11010205117,11010205120,11010205119,11010205121,11010205122,11056960995,11010205118,11010205123,11010205124,11010205125,11010205126,11010205127,8895430701,8895430700,8895430699,8895430698,8895430697,8895430696,8895430726,9755765808,8895430520,8895430725,8895430704,8895430722,8895430724,8895430721,8895430723,8895430709,8895430720,8895430719,8895430718,8895430716,8895430654,8895430717,8895430653,8895430652,8895430651,8895430650,8895430649,8895430648,8895430647,8895430646,8895430645,8895430637,8895430519,9755771322,8895430644,8895430643,8895430642,8895430641,8895430640,8895430639],"tags":{"barrier":"kerb"}},{"type":"way","id":961646426,"nodes":[8895430688,8895430691,9755765807,8895430687,8895430686,8895430685,8895430684,8895430682,8895430683,8895430681,8895430680,8895430679,8895430678,9755765814,8806813459,9755765802,3900136286,8895430677,9755771317,8895430659,8895430658,8895430676,8895430675,8895430674,8895430673,8895430672,8895430671,8895430670,8895430669,8895430668,8895430667,8895430666,8895430665,8895430664,8895430663,8895430662,8895430655,8895430630,9755771319,8895430661,9755765811,8895430688],"tags":{"barrier":"kerb"}},{"type":"way","id":961646429,"nodes":[8895430694,1224377707],"tags":{"footway":"link","highway":"footway","lit":"yes"}},{"type":"way","id":961646430,"nodes":[8895430706,8895430708,8895430707,8895430702,8895430703,9755765809,815343324],"tags":{"buffer:left":"1.2","highway":"cycleway","is_sidepath":"yes","is_sidepath:of":"secondary","is_sidepath:of:name":"Skalitzer Stra\u00dfe","lit":"yes","oneway":"yes","separation:left":"kerb","separation:right":"railing","surface":"asphalt","traffic_sign":"DE:237","width":"1.5"}},{"type":"way","id":961646436,"nodes":[433728002,8895430741],"tags":{"footway":"link","highway":"footway","lit":"yes"}},{"type":"way","id":961646439,"nodes":[8895430756,8895430811,8895430789,8895430790,5352673335,5352673337,8895430657,8895430760,8895430757,8895430758,8895430759,8895430773,8895430761,5352673336,8895430774,8895430762,5352673338,9755765803,8895430763,8895430766,9755765813,8895430765,5352673339,984238771,8895430751,8895430746,8895430747,8895430748,8895430749,8895430750],"tags":{"barrier":"kerb"}},{"type":"way","id":1061889503,"nodes":[8895430725,9755765809,8895430715],"tags":{"barrier":"kerb","kerb":"flush"}},{"type":"way","id":1061889504,"nodes":[9755765811,8895430688,8895430691,9755765807,9755765806,9755765808,8895430520,8895430725,9755765809,8895430715,8895430705,9755765812,9755765810,9755765811],"tags":{"area:highway":"secondary","crossing":"traffic_signals"}},{"type":"way","id":1061889505,"nodes":[8895430678,3900136282,9755765799,9755765800,8895430766,8895430763,9755765803,9755765801,9755765802,8806813459,9755765814,8895430678],"tags":{"area:highway":"secondary","crossing":"traffic_signals"}},{"type":"way","id":1183394832,"nodes":[4606652419,8895430520],"tags":{"footway":"sidewalk","highway":"footway","lit":"yes","surface":"paving_stones"}},{"type":"way","id":1183394833,"nodes":[8895430763,4606652420],"tags":{"footway":"sidewalk","highway":"footway","lit":"yes","surface":"paving_stones"}},{"type":"way","id":1304243623,"nodes":[799000128,5761792167,5761792166,5761792165,5761792164,799000157,799000274,5761792170,5761792168,5761792169,5761792171,799000300,5761792025,5761792023,5761792024,5761792026,799000050,5761792027,5761792028,12078295036,12078295038,12078295039,12078295035,12078295034,12078295033,799000128],"tags":{"leisure":"outdoor_seating","operator":"S\u00fcdblock","smoking":"yes"}},{"type":"way","id":1349533760,"nodes":[12484239167,939103770,939103618,939103777,12484239166,8078047443,8078047442,12484239165,12484239164,8078047430,799000342,12484239163,12484239162,12484239161,12484239160,799000270,12484239159,12484239158,799000040,667482262,12484239157,4256046869,4256046868,667482282,11800112292,667482283,4256046871,12484239156,12484239155,12484239154,12484239153,667482281,667482277,8171822470,5830763364,5830763366,667482250,667482248,667482253,8171822477,667482251,667482240,667482238,667482226,667482227,667482228,667482224,1227712475,8078037467,1227712496,1227712506,1227712489,3997710469,1227712473,1227712480,1227712494,5830763135,5830763136,1227712478,5830763329,1227712503,12484239152,12484239151,12484239150,12484239149,12484239148,12484239147,8078047339,939103781,8078047345,871735574,8078047343,939103638,12484239167],"tags":{"landuse":"residential"}},{"type":"node","id":667482224,"lat":52.4966552,"lon":13.4189509},{"type":"node","id":667482226,"lat":52.4967586,"lon":13.4192319},{"type":"node","id":667482227,"lat":52.4965901,"lon":13.4193265},{"type":"node","id":667482228,"lat":52.4965642,"lon":13.4192808},{"type":"node","id":667482238,"lat":52.4971333,"lon":13.4190231},{"type":"node","id":667482240,"lat":52.4972614,"lon":13.4189517},{"type":"node","id":667482251,"lat":52.4974751,"lon":13.418831},{"type":"node","id":939103781,"lat":52.4975577,"lon":13.4155429},{"type":"node","id":1227712473,"lat":52.4970212,"lon":13.4175719},{"type":"node","id":1227712475,"lat":52.4966987,"lon":13.4187901},{"type":"node","id":1227712478,"lat":52.497211,"lon":13.4168476},{"type":"node","id":1227712480,"lat":52.4970847,"lon":13.41733},{"type":"node","id":1227712489,"lat":52.4969797,"lon":13.4177289},{"type":"node","id":1227712494,"lat":52.4971204,"lon":13.417193},{"type":"node","id":1227712496,"lat":52.4968507,"lon":13.4182177},{"type":"node","id":1227712503,"lat":52.4972316,"lon":13.416772},{"type":"node","id":1227712506,"lat":52.4969319,"lon":13.4179131},{"type":"node","id":3997710469,"lat":52.4969887,"lon":13.4176971},{"type":"node","id":5830763135,"lat":52.4971575,"lon":13.4170537},{"type":"node","id":5830763136,"lat":52.4971773,"lon":13.4169797},{"type":"node","id":5830763329,"lat":52.4972232,"lon":13.416803},{"type":"node","id":8078037467,"lat":52.4968455,"lon":13.4182374},{"type":"node","id":8078047339,"lat":52.4975433,"lon":13.4155977},{"type":"node","id":8171822477,"lat":52.4975406,"lon":13.4187948},{"type":"node","id":12484239147,"lat":52.4973625,"lon":13.4162825},{"type":"node","id":12484239148,"lat":52.4973858,"lon":13.4163765},{"type":"node","id":12484239151,"lat":52.4973174,"lon":13.4166312},{"type":"node","id":12484239152,"lat":52.4972586,"lon":13.4166688},{"type":"node","id":29218287,"lat":52.4985921,"lon":13.4141085},{"type":"node","id":29218288,"lat":52.4984373,"lon":13.4140768},{"type":"node","id":268469148,"lat":52.4985563,"lon":13.4145429},{"type":"node","id":268469156,"lat":52.4986283,"lon":13.4145311},{"type":"node","id":268469157,"lat":52.4985128,"lon":13.4147445},{"type":"node","id":443952974,"lat":52.4987945,"lon":13.4150779},{"type":"node","id":443952979,"lat":52.4987746,"lon":13.4149137},{"type":"node","id":443952988,"lat":52.4987565,"lon":13.4146584},{"type":"node","id":443952992,"lat":52.4989711,"lon":13.4145805},{"type":"node","id":443952996,"lat":52.4991103,"lon":13.4145293},{"type":"node","id":443953017,"lat":52.4992145,"lon":13.4144925},{"type":"node","id":443953023,"lat":52.4993272,"lon":13.4144521},{"type":"node","id":443953033,"lat":52.4994337,"lon":13.4144109},{"type":"node","id":443953076,"lat":52.4998786,"lon":13.415206},{"type":"node","id":443953085,"lat":52.4999348,"lon":13.4150178},{"type":"node","id":443953087,"lat":52.5000138,"lon":13.4147532},{"type":"node","id":443953093,"lat":52.499869,"lon":13.4146112},{"type":"node","id":443953095,"lat":52.4997112,"lon":13.4144933},{"type":"node","id":443953101,"lat":52.4996174,"lon":13.4144274},{"type":"node","id":443953103,"lat":52.4995443,"lon":13.4143741},{"type":"node","id":443953108,"lat":52.4987488,"lon":13.4146863},{"type":"node","id":443953229,"lat":52.500008,"lon":13.4147134},{"type":"node","id":444840713,"lat":52.4985231,"lon":13.4140562},{"type":"node","id":471376392,"lat":52.4984491,"lon":13.4143308},{"type":"node","id":471376509,"lat":52.4986027,"lon":13.4143155},{"type":"node","id":871735574,"lat":52.4976547,"lon":13.4151779},{"type":"node","id":939103618,"lat":52.4981037,"lon":13.4141644},{"type":"node","id":939103638,"lat":52.4977517,"lon":13.4148133},{"type":"node","id":939103770,"lat":52.4979596,"lon":13.4140623},{"type":"node","id":939103777,"lat":52.4981982,"lon":13.4142324},{"type":"node","id":1232860257,"lat":52.4985337,"lon":13.4145507},{"type":"node","id":1232860274,"lat":52.4984966,"lon":13.4140527},{"type":"node","id":1440648382,"lat":52.4980872,"lon":13.4150062},{"type":"node","id":1555356707,"lat":52.4983703,"lon":13.4143325},{"type":"node","id":1555356796,"lat":52.4986731,"lon":13.4143072},{"type":"node","id":3900136262,"lat":52.4984421,"lon":13.4142767},{"type":"node","id":3900136265,"lat":52.4985059,"lon":13.4142928},{"type":"node","id":3900136268,"lat":52.4985335,"lon":13.4142961},{"type":"node","id":3900136271,"lat":52.4986076,"lon":13.4143825},{"type":"node","id":5260957213,"lat":52.4995165,"lon":13.4143784},{"type":"node","id":8078047343,"lat":52.4977367,"lon":13.4148723},{"type":"node","id":8078047383,"lat":52.4984611,"lon":13.4144091},{"type":"node","id":8078047442,"lat":52.4983126,"lon":13.4144897},{"type":"node","id":8078047443,"lat":52.4982845,"lon":13.4143625},{"type":"node","id":8078047453,"lat":52.4986187,"lon":13.4149807},{"type":"node","id":8078047457,"lat":52.4985518,"lon":13.4145492},{"type":"node","id":8078047458,"lat":52.4986192,"lon":13.4144657},{"type":"node","id":8895430699,"lat":52.4986643,"lon":13.4145303},{"type":"node","id":8895430700,"lat":52.498648,"lon":13.4143913},{"type":"node","id":8895430701,"lat":52.4986424,"lon":13.4143111},{"type":"node","id":8895430749,"lat":52.4984784,"lon":13.4148224},{"type":"node","id":8895430750,"lat":52.4984501,"lon":13.4146497},{"type":"node","id":10674953939,"lat":52.499789,"lon":13.4145514},{"type":"node","id":10674953941,"lat":52.4996298,"lon":13.4144361},{"type":"node","id":10674953943,"lat":52.4990402,"lon":13.4145551},{"type":"node","id":10882843026,"lat":52.4986853,"lon":13.4144456},{"type":"node","id":10882843033,"lat":52.4987783,"lon":13.4149442},{"type":"node","id":10882843034,"lat":52.498765,"lon":13.4148291},{"type":"node","id":10882843037,"lat":52.498709,"lon":13.4146421},{"type":"node","id":11010181869,"lat":52.4994064,"lon":13.4144215},{"type":"node","id":11010181872,"lat":52.4995896,"lon":13.4144071},{"type":"node","id":11010181873,"lat":52.4996458,"lon":13.4144473},{"type":"node","id":11010181877,"lat":52.499778,"lon":13.4145432},{"type":"node","id":11010181878,"lat":52.4998,"lon":13.4145596},{"type":"node","id":11010181879,"lat":52.4999087,"lon":13.4146404},{"type":"node","id":11010190393,"lat":52.4992521,"lon":13.4144027},{"type":"node","id":11010190397,"lat":52.499334,"lon":13.4143009},{"type":"node","id":11010190398,"lat":52.4996681,"lon":13.4142908},{"type":"node","id":11010190399,"lat":52.499436,"lon":13.4141277},{"type":"node","id":11010190400,"lat":52.4994268,"lon":13.4141231},{"type":"node","id":11010190401,"lat":52.4994152,"lon":13.4141243},{"type":"node","id":11010190402,"lat":52.4994054,"lon":13.4141318},{"type":"node","id":11010190403,"lat":52.4993966,"lon":13.414146},{"type":"node","id":11010190404,"lat":52.4993896,"lon":13.4141673},{"type":"node","id":11010205105,"lat":52.4993777,"lon":13.4142039},{"type":"node","id":11010205106,"lat":52.4993576,"lon":13.4142544},{"type":"node","id":11010205107,"lat":52.4993139,"lon":13.4143332},{"type":"node","id":11010205108,"lat":52.4992973,"lon":13.4143576},{"type":"node","id":11010205110,"lat":52.4992777,"lon":13.4143793},{"type":"node","id":11010205111,"lat":52.4992251,"lon":13.4144238},{"type":"node","id":11010205112,"lat":52.4991895,"lon":13.4144426},{"type":"node","id":11010205113,"lat":52.4991515,"lon":13.4144548},{"type":"node","id":11010205114,"lat":52.499117,"lon":13.4144574},{"type":"node","id":11010205115,"lat":52.4990767,"lon":13.4144558},{"type":"node","id":11010205116,"lat":52.4990506,"lon":13.4144505},{"type":"node","id":11010205117,"lat":52.499026,"lon":13.4144412},{"type":"node","id":11010205118,"lat":52.4986699,"lon":13.4142155},{"type":"node","id":11010205119,"lat":52.4989817,"lon":13.4144175},{"type":"node","id":11010205120,"lat":52.4990029,"lon":13.4144304},{"type":"node","id":11010205121,"lat":52.4986994,"lon":13.4142176},{"type":"node","id":11010205122,"lat":52.4986883,"lon":13.4142148},{"type":"node","id":11010205123,"lat":52.4986641,"lon":13.4142189},{"type":"node","id":11010205124,"lat":52.4986554,"lon":13.4142285},{"type":"node","id":11010205125,"lat":52.4986483,"lon":13.4142406},{"type":"node","id":11010205126,"lat":52.4986422,"lon":13.4142568},{"type":"node","id":11010205127,"lat":52.4986408,"lon":13.4142777},{"type":"node","id":11010225111,"lat":52.5000896,"lon":13.4146641},{"type":"node","id":11010225112,"lat":52.5000916,"lon":13.4146481},{"type":"node","id":11010225113,"lat":52.5000915,"lon":13.4146331},{"type":"node","id":11010225114,"lat":52.5000895,"lon":13.4146182},{"type":"node","id":11010225115,"lat":52.5000852,"lon":13.4146024},{"type":"node","id":11010225116,"lat":52.5000793,"lon":13.4145883},{"type":"node","id":11010225117,"lat":52.5000713,"lon":13.414577},{"type":"node","id":11010225118,"lat":52.5000613,"lon":13.4145683},{"type":"node","id":11056960995,"lat":52.4986793,"lon":13.414214},{"type":"node","id":11350559192,"lat":52.4983957,"lon":13.4144602},{"type":"node","id":12484239164,"lat":52.4983932,"lon":13.4146353},{"type":"node","id":12484239165,"lat":52.4983467,"lon":13.4146492},{"type":"node","id":12484239166,"lat":52.498266,"lon":13.4142792},{"type":"node","id":12484239167,"lat":52.4979543,"lon":13.414058},{"type":"node","id":29217332,"lat":52.4991511,"lon":13.4178148},{"type":"node","id":29217340,"lat":52.4988153,"lon":13.4180092},{"type":"node","id":29788946,"lat":52.498842,"lon":13.4173773},{"type":"node","id":268469153,"lat":52.4989182,"lon":13.4170759},{"type":"node","id":268470426,"lat":52.4990978,"lon":13.4195807},{"type":"node","id":433728002,"lat":52.4987216,"lon":13.4165502},{"type":"node","id":442649846,"lat":52.4988229,"lon":13.4169747},{"type":"node","id":443952952,"lat":52.4990003,"lon":13.4158879},{"type":"node","id":443952954,"lat":52.4989007,"lon":13.4159218},{"type":"node","id":443952956,"lat":52.498873,"lon":13.4157039},{"type":"node","id":443952960,"lat":52.4988472,"lon":13.4154948},{"type":"node","id":443952967,"lat":52.4988217,"lon":13.4152876},{"type":"node","id":443953054,"lat":52.4990345,"lon":13.4161552},{"type":"node","id":443953057,"lat":52.4989348,"lon":13.4161894},{"type":"node","id":443953060,"lat":52.4991023,"lon":13.4165372},{"type":"node","id":443953062,"lat":52.4989819,"lon":13.4165769},{"type":"node","id":443953063,"lat":52.4991318,"lon":13.4167388},{"type":"node","id":443953064,"lat":52.4990062,"lon":13.4167631},{"type":"node","id":443953066,"lat":52.4991854,"lon":13.4169336},{"type":"node","id":443953068,"lat":52.4990592,"lon":13.4169716},{"type":"node","id":443953079,"lat":52.499762,"lon":13.4155933},{"type":"node","id":443953123,"lat":52.499705,"lon":13.4157865},{"type":"node","id":443953129,"lat":52.499649,"lon":13.4159801},{"type":"node","id":443953135,"lat":52.4995958,"lon":13.4161631},{"type":"node","id":443953139,"lat":52.499542,"lon":13.4163442},{"type":"node","id":443953142,"lat":52.4994871,"lon":13.4165293},{"type":"node","id":443953213,"lat":52.4992402,"lon":13.4160858},{"type":"node","id":443953216,"lat":52.4992242,"lon":13.4163059},{"type":"node","id":443953219,"lat":52.4990838,"lon":13.4171918},{"type":"node","id":443953221,"lat":52.4993228,"lon":13.4168922},{"type":"node","id":443953225,"lat":52.4993385,"lon":13.4170325},{"type":"node","id":667482248,"lat":52.4978136,"lon":13.4186442},{"type":"node","id":667482250,"lat":52.4979619,"lon":13.4185608},{"type":"node","id":667482253,"lat":52.4976646,"lon":13.4187262},{"type":"node","id":667482262,"lat":52.4983463,"lon":13.4173531},{"type":"node","id":667482277,"lat":52.4982604,"lon":13.4183943},{"type":"node","id":667482281,"lat":52.4983311,"lon":13.4183333},{"type":"node","id":667482282,"lat":52.4985975,"lon":13.4177348},{"type":"node","id":667482283,"lat":52.4985994,"lon":13.4179376},{"type":"node","id":798999995,"lat":52.4984389,"lon":13.4167445},{"type":"node","id":799000033,"lat":52.4985354,"lon":13.4167279},{"type":"node","id":799000035,"lat":52.4981934,"lon":13.4163897},{"type":"node","id":799000040,"lat":52.4982352,"lon":13.4172765},{"type":"node","id":799000047,"lat":52.4981846,"lon":13.4170928},{"type":"node","id":799000050,"lat":52.4986588,"lon":13.4169352},{"type":"node","id":799000051,"lat":52.498341,"lon":13.4164958},{"type":"node","id":799000053,"lat":52.4979171,"lon":13.4178193},{"type":"node","id":799000056,"lat":52.4979616,"lon":13.4176842},{"type":"node","id":799000062,"lat":52.4987013,"lon":13.4167365},{"type":"node","id":799000065,"lat":52.4985443,"lon":13.4163838},{"type":"node","id":799000071,"lat":52.4982745,"lon":13.4169202},{"type":"node","id":799000103,"lat":52.4985138,"lon":13.4166307},{"type":"node","id":799000110,"lat":52.4981227,"lon":13.4174694},{"type":"node","id":799000118,"lat":52.4983243,"lon":13.4167262},{"type":"node","id":799000123,"lat":52.498137,"lon":13.417273},{"type":"node","id":799000128,"lat":52.4984283,"lon":13.4168},{"type":"node","id":799000138,"lat":52.4981477,"lon":13.4173709},{"type":"node","id":799000157,"lat":52.498458,"lon":13.4169131},{"type":"node","id":799000164,"lat":52.4979621,"lon":13.4178191},{"type":"node","id":799000185,"lat":52.4982242,"lon":13.4166155},{"type":"node","id":799000189,"lat":52.4979828,"lon":13.4176831},{"type":"node","id":799000200,"lat":52.4985885,"lon":13.4162913},{"type":"node","id":799000219,"lat":52.4986093,"lon":13.4164631},{"type":"node","id":799000225,"lat":52.4985355,"lon":13.4163077},{"type":"node","id":799000232,"lat":52.4983632,"lon":13.4167352},{"type":"node","id":799000266,"lat":52.4980061,"lon":13.4173101},{"type":"node","id":799000270,"lat":52.498277,"lon":13.4170064},{"type":"node","id":799000271,"lat":52.4980685,"lon":13.417198},{"type":"node","id":799000274,"lat":52.4984838,"lon":13.4169319},{"type":"node","id":799000279,"lat":52.4983588,"lon":13.4166966},{"type":"node","id":799000281,"lat":52.4986606,"lon":13.4168077},{"type":"node","id":799000286,"lat":52.4982751,"lon":13.4164499},{"type":"node","id":799000289,"lat":52.498022,"lon":13.4175413},{"type":"node","id":799000292,"lat":52.4981856,"lon":13.4164184},{"type":"node","id":799000296,"lat":52.4981474,"lon":13.4165597},{"type":"node","id":799000300,"lat":52.4985552,"lon":13.4168492},{"type":"node","id":799000309,"lat":52.4978399,"lon":13.417438},{"type":"node","id":799000312,"lat":52.498218,"lon":13.4169648},{"type":"node","id":799000332,"lat":52.4979057,"lon":13.4174733},{"type":"node","id":799000342,"lat":52.4986648,"lon":13.416446},{"type":"node","id":799000352,"lat":52.4984929,"lon":13.4164547},{"type":"node","id":799000357,"lat":52.4978915,"lon":13.4172412},{"type":"node","id":799000361,"lat":52.4981632,"lon":13.4173125},{"type":"node","id":799000366,"lat":52.4980687,"lon":13.4175711},{"type":"node","id":799000371,"lat":52.4986799,"lon":13.4158502},{"type":"node","id":799000380,"lat":52.4980901,"lon":13.4174471},{"type":"node","id":799000385,"lat":52.4980418,"lon":13.4171758},{"type":"node","id":799000388,"lat":52.498101,"lon":13.4170339},{"type":"node","id":815343286,"lat":52.4991454,"lon":13.41757},{"type":"node","id":815343319,"lat":52.4988378,"lon":13.4177333},{"type":"node","id":815343324,"lat":52.4989727,"lon":13.4170877},{"type":"node","id":815343355,"lat":52.4990602,"lon":13.4176254},{"type":"node","id":815343357,"lat":52.4988319,"lon":13.417116},{"type":"node","id":871829820,"lat":52.4985765,"lon":13.4166843},{"type":"node","id":871829824,"lat":52.4984858,"lon":13.4167266},{"type":"node","id":872318155,"lat":52.4990237,"lon":13.416896},{"type":"node","id":939103548,"lat":52.4985196,"lon":13.4159307},{"type":"node","id":939103598,"lat":52.4985249,"lon":13.4164502},{"type":"node","id":939103628,"lat":52.4984654,"lon":13.4161645},{"type":"node","id":939103681,"lat":52.4985438,"lon":13.4159323},{"type":"node","id":939103728,"lat":52.4985153,"lon":13.4161453},{"type":"node","id":939103783,"lat":52.498439,"lon":13.4159573},{"type":"node","id":984238771,"lat":52.4987671,"lon":13.4168723},{"type":"node","id":1224377707,"lat":52.4989249,"lon":13.4163575},{"type":"node","id":1232860217,"lat":52.4989193,"lon":13.4181308},{"type":"node","id":1232860246,"lat":52.4990508,"lon":13.4200108},{"type":"node","id":1232860265,"lat":52.4990341,"lon":13.4195722},{"type":"node","id":1232860289,"lat":52.4988819,"lon":13.4170705},{"type":"node","id":1232860296,"lat":52.4990632,"lon":13.4204986},{"type":"node","id":1286990135,"lat":52.4993224,"lon":13.4164499},{"type":"node","id":1286990136,"lat":52.4994567,"lon":13.4166306},{"type":"node","id":1286990149,"lat":52.4992336,"lon":13.4163733},{"type":"node","id":1286990150,"lat":52.4994036,"lon":13.416588},{"type":"node","id":1286990155,"lat":52.4992805,"lon":13.4167782},{"type":"node","id":1286990162,"lat":52.4993352,"lon":13.4165969},{"type":"node","id":1286990175,"lat":52.4993025,"lon":13.4167955},{"type":"node","id":1286990195,"lat":52.4992688,"lon":13.4169085},{"type":"node","id":1286990201,"lat":52.4992053,"lon":13.416502},{"type":"node","id":1286990213,"lat":52.4991933,"lon":13.4167884},{"type":"node","id":1286990216,"lat":52.499187,"lon":13.4167311},{"type":"node","id":1286990224,"lat":52.4992182,"lon":13.4167861},{"type":"node","id":1440648214,"lat":52.4978639,"lon":13.4174437},{"type":"node","id":1440648224,"lat":52.4979129,"lon":13.4172559},{"type":"node","id":1440648458,"lat":52.4982093,"lon":13.4160224},{"type":"node","id":1440648467,"lat":52.4985317,"lon":13.4162749},{"type":"node","id":1440648483,"lat":52.4985839,"lon":13.4162575},{"type":"node","id":1539749675,"lat":52.4986716,"lon":13.4182489},{"type":"node","id":2097818462,"lat":52.4989749,"lon":13.4189795},{"type":"node","id":2677599473,"lat":52.4990176,"lon":13.4174445},{"type":"node","id":2677616762,"lat":52.4988403,"lon":13.4176805},{"type":"node","id":2677616763,"lat":52.4990448,"lon":13.417584},{"type":"node","id":2677616765,"lat":52.4991178,"lon":13.4175387},{"type":"node","id":2677616769,"lat":52.4989921,"lon":13.4172311},{"type":"node","id":2677616770,"lat":52.4988404,"lon":13.4172843},{"type":"node","id":2931438229,"lat":52.4987352,"lon":13.4162863},{"type":"node","id":2931438230,"lat":52.4985932,"lon":13.416329},{"type":"node","id":2931438231,"lat":52.4985404,"lon":13.4163493},{"type":"node","id":2931438233,"lat":52.4983485,"lon":13.4164065},{"type":"node","id":2931438235,"lat":52.4982206,"lon":13.4164097},{"type":"node","id":2931438236,"lat":52.4981759,"lon":13.4165804},{"type":"node","id":2931438241,"lat":52.4982249,"lon":13.4160705},{"type":"node","id":3359226554,"lat":52.4988412,"lon":13.4176404},{"type":"node","id":3854467707,"lat":52.499044,"lon":13.4197537},{"type":"node","id":3854467708,"lat":52.4990403,"lon":13.4196525},{"type":"node","id":3854467709,"lat":52.4990423,"lon":13.4196967},{"type":"node","id":3854467710,"lat":52.4990366,"lon":13.4196053},{"type":"node","id":3854467711,"lat":52.4990672,"lon":13.4208854},{"type":"node","id":3854467712,"lat":52.499065,"lon":13.4205916},{"type":"node","id":3854467730,"lat":52.4990869,"lon":13.4192667},{"type":"node","id":3854467731,"lat":52.4991162,"lon":13.4204256},{"type":"node","id":3854468158,"lat":52.4989094,"lon":13.4175193},{"type":"node","id":3854468159,"lat":52.4988958,"lon":13.4172449},{"type":"node","id":3854468160,"lat":52.4988901,"lon":13.4171571},{"type":"node","id":3854468162,"lat":52.498828,"lon":13.4165898},{"type":"node","id":3854468163,"lat":52.4988591,"lon":13.416852},{"type":"node","id":3854468164,"lat":52.4989719,"lon":13.4174993},{"type":"node","id":3854468165,"lat":52.4990137,"lon":13.4178906},{"type":"node","id":3854468167,"lat":52.4990392,"lon":13.4181784},{"type":"node","id":3854468178,"lat":52.4990755,"lon":13.4188046},{"type":"node","id":3880652816,"lat":52.4987784,"lon":13.4165933},{"type":"node","id":3880652817,"lat":52.498886,"lon":13.4163988},{"type":"node","id":3880659195,"lat":52.4987108,"lon":13.4164598},{"type":"node","id":3880659197,"lat":52.4989411,"lon":13.4164871},{"type":"node","id":3881590698,"lat":52.4990083,"lon":13.419278},{"type":"node","id":3900136282,"lat":52.4988284,"lon":13.4170539},{"type":"node","id":3900136286,"lat":52.4988718,"lon":13.4172611},{"type":"node","id":3900136301,"lat":52.4990889,"lon":13.4176958},{"type":"node","id":4256046868,"lat":52.4985982,"lon":13.4176682},{"type":"node","id":4256046869,"lat":52.4983532,"lon":13.4175986},{"type":"node","id":4256046871,"lat":52.498601,"lon":13.4180116},{"type":"node","id":4606652411,"lat":52.4986873,"lon":13.4181287},{"type":"node","id":4606652417,"lat":52.4987367,"lon":13.4173824},{"type":"node","id":4606652418,"lat":52.4988016,"lon":13.4167807},{"type":"node","id":4606652419,"lat":52.4990265,"lon":13.4170723},{"type":"node","id":4606652420,"lat":52.49876,"lon":13.4171329},{"type":"node","id":4606652422,"lat":52.4990919,"lon":13.4175014},{"type":"node","id":4606652428,"lat":52.4990285,"lon":13.4175127},{"type":"node","id":4606652471,"lat":52.4986708,"lon":13.4183497},{"type":"node","id":4714615143,"lat":52.4989112,"lon":13.4171054},{"type":"node","id":4714615144,"lat":52.498914,"lon":13.417143},{"type":"node","id":4714615446,"lat":52.498919,"lon":13.4172109},{"type":"node","id":4714615447,"lat":52.4989228,"lon":13.4171412},{"type":"node","id":4714615448,"lat":52.498905,"lon":13.4171448},{"type":"node","id":4714615449,"lat":52.4989279,"lon":13.4172091},{"type":"node","id":4714615450,"lat":52.4989101,"lon":13.4172127},{"type":"node","id":5213956476,"lat":52.4988512,"lon":13.4165691},{"type":"node","id":5213956482,"lat":52.4989108,"lon":13.417852},{"type":"node","id":5213956483,"lat":52.4989331,"lon":13.4184452},{"type":"node","id":5213956484,"lat":52.4989542,"lon":13.4187411},{"type":"node","id":5213956486,"lat":52.4990631,"lon":13.418556},{"type":"node","id":5260957168,"lat":52.4991576,"lon":13.416733},{"type":"node","id":5260957169,"lat":52.499159,"lon":13.4167669},{"type":"node","id":5260957170,"lat":52.499187,"lon":13.4167622},{"type":"node","id":5260957171,"lat":52.4991874,"lon":13.4167264},{"type":"node","id":5260957172,"lat":52.4991951,"lon":13.4166304},{"type":"node","id":5260957173,"lat":52.4991365,"lon":13.4166435},{"type":"node","id":5260957188,"lat":52.4993445,"lon":13.4170864},{"type":"node","id":5260957189,"lat":52.4993074,"lon":13.4170976},{"type":"node","id":5260957190,"lat":52.4993103,"lon":13.4171237},{"type":"node","id":5260957193,"lat":52.4990348,"lon":13.416982},{"type":"node","id":5260957194,"lat":52.4991813,"lon":13.4169027},{"type":"node","id":5260957195,"lat":52.4991889,"lon":13.4168562},{"type":"node","id":5260957196,"lat":52.4991522,"lon":13.4168626},{"type":"node","id":5260957197,"lat":52.4991425,"lon":13.4168474},{"type":"node","id":5260957198,"lat":52.4991401,"lon":13.4167369},{"type":"node","id":5260957199,"lat":52.4991317,"lon":13.4166559},{"type":"node","id":5260957200,"lat":52.4991164,"lon":13.4166567},{"type":"node","id":5261833474,"lat":52.4979058,"lon":13.417506},{"type":"node","id":5261833475,"lat":52.4978986,"lon":13.4175062},{"type":"node","id":5261833476,"lat":52.4978989,"lon":13.4176743},{"type":"node","id":5261833477,"lat":52.4979162,"lon":13.417674},{"type":"node","id":5261833478,"lat":52.4980821,"lon":13.4175225},{"type":"node","id":5261833479,"lat":52.4980768,"lon":13.4174952},{"type":"node","id":5352673335,"lat":52.4987787,"lon":13.4178873},{"type":"node","id":5352673336,"lat":52.4987867,"lon":13.4175467},{"type":"node","id":5352673337,"lat":52.4987839,"lon":13.4178281},{"type":"node","id":5352673338,"lat":52.4987883,"lon":13.4172513},{"type":"node","id":5352673339,"lat":52.4987776,"lon":13.4169682},{"type":"node","id":5761792023,"lat":52.4985888,"lon":13.4168694},{"type":"node","id":5761792024,"lat":52.498605,"lon":13.4168808},{"type":"node","id":5761792025,"lat":52.4985877,"lon":13.4168747},{"type":"node","id":5761792026,"lat":52.4986051,"lon":13.4168917},{"type":"node","id":5761792027,"lat":52.498663,"lon":13.4169358},{"type":"node","id":5761792028,"lat":52.4986661,"lon":13.4169332},{"type":"node","id":5761792029,"lat":52.4986674,"lon":13.4169279},{"type":"node","id":5761792030,"lat":52.4986658,"lon":13.4169167},{"type":"node","id":5761792031,"lat":52.4986685,"lon":13.4169139},{"type":"node","id":5761792032,"lat":52.4986669,"lon":13.4168848},{"type":"node","id":5761792164,"lat":52.4984608,"lon":13.4169037},{"type":"node","id":5761792165,"lat":52.4984445,"lon":13.4168945},{"type":"node","id":5761792166,"lat":52.4984444,"lon":13.4168992},{"type":"node","id":5761792167,"lat":52.4984381,"lon":13.4168959},{"type":"node","id":5761792168,"lat":52.4985072,"lon":13.4168727},{"type":"node","id":5761792169,"lat":52.4985076,"lon":13.416876},{"type":"node","id":5761792170,"lat":52.4984978,"lon":13.4168742},{"type":"node","id":5761792171,"lat":52.4985225,"lon":13.41687},{"type":"node","id":5761792172,"lat":52.4986639,"lon":13.4168853},{"type":"node","id":5761792173,"lat":52.4986594,"lon":13.4168392},{"type":"node","id":5761792174,"lat":52.4986627,"lon":13.4168391},{"type":"node","id":5830763364,"lat":52.4982121,"lon":13.418422},{"type":"node","id":5830763366,"lat":52.4981315,"lon":13.4184654},{"type":"node","id":6848429384,"lat":52.498926,"lon":13.4171192},{"type":"node","id":6848448485,"lat":52.498942,"lon":13.4171142},{"type":"node","id":6848448486,"lat":52.4989539,"lon":13.4172169},{"type":"node","id":6848448487,"lat":52.4989378,"lon":13.4172219},{"type":"node","id":7444541666,"lat":52.4986765,"lon":13.418411},{"type":"node","id":7606199828,"lat":52.4989266,"lon":13.4161247},{"type":"node","id":7606199829,"lat":52.4990262,"lon":13.4160905},{"type":"node","id":7606199830,"lat":52.499102,"lon":13.4160645},{"type":"node","id":7606199831,"lat":52.4988517,"lon":13.4161505},{"type":"node","id":8026452866,"lat":52.4987783,"lon":13.4172917},{"type":"node","id":8026452867,"lat":52.4987808,"lon":13.4171714},{"type":"node","id":8026452868,"lat":52.4987822,"lon":13.4172613},{"type":"node","id":8026452869,"lat":52.4987794,"lon":13.417087},{"type":"node","id":8026452870,"lat":52.4987653,"lon":13.416911},{"type":"node","id":8026452871,"lat":52.4987729,"lon":13.4169665},{"type":"node","id":8026452872,"lat":52.4989726,"lon":13.4167501},{"type":"node","id":8026452873,"lat":52.4990048,"lon":13.4170096},{"type":"node","id":8078037452,"lat":52.4982913,"lon":13.4164605},{"type":"node","id":8078037457,"lat":52.4984944,"lon":13.416363},{"type":"node","id":8078037458,"lat":52.4982902,"lon":13.4163654},{"type":"node","id":8078047345,"lat":52.4976392,"lon":13.4152372},{"type":"node","id":8078047384,"lat":52.4989542,"lon":13.4169404},{"type":"node","id":8078047402,"lat":52.4981401,"lon":13.4163846},{"type":"node","id":8078047403,"lat":52.498385,"lon":13.4164854},{"type":"node","id":8078047404,"lat":52.4983834,"lon":13.416465},{"type":"node","id":8078047405,"lat":52.4984864,"lon":13.4164382},{"type":"node","id":8078047406,"lat":52.4981588,"lon":13.4168136},{"type":"node","id":8078047407,"lat":52.4981714,"lon":13.4168223},{"type":"node","id":8078047408,"lat":52.4980649,"lon":13.4171705},{"type":"node","id":8078047409,"lat":52.4980742,"lon":13.4171772},{"type":"node","id":8078047410,"lat":52.4980542,"lon":13.4171871},{"type":"node","id":8078047411,"lat":52.498056,"lon":13.4171809},{"type":"node","id":8078047412,"lat":52.4980483,"lon":13.4171751},{"type":"node","id":8078047413,"lat":52.4979768,"lon":13.4172905},{"type":"node","id":8078047414,"lat":52.4979679,"lon":13.4172933},{"type":"node","id":8078047415,"lat":52.4978467,"lon":13.4174428},{"type":"node","id":8078047416,"lat":52.4978496,"lon":13.4174336},{"type":"node","id":8078047418,"lat":52.4982831,"lon":13.4170056},{"type":"node","id":8078047419,"lat":52.4982883,"lon":13.416996},{"type":"node","id":8078047420,"lat":52.4982894,"lon":13.4169843},{"type":"node","id":8078047421,"lat":52.4982821,"lon":13.4169255},{"type":"node","id":8078047422,"lat":52.4983585,"lon":13.4167474},{"type":"node","id":8078047423,"lat":52.4983621,"lon":13.4167436},{"type":"node","id":8078047424,"lat":52.498353,"lon":13.4167456},{"type":"node","id":8078047425,"lat":52.4985818,"lon":13.4166869},{"type":"node","id":8078047426,"lat":52.4985868,"lon":13.4166838},{"type":"node","id":8078047427,"lat":52.4985885,"lon":13.4166742},{"type":"node","id":8078047428,"lat":52.4985875,"lon":13.4166607},{"type":"node","id":8078047429,"lat":52.4986958,"lon":13.4167445},{"type":"node","id":8078047430,"lat":52.498619,"lon":13.4164597},{"type":"node","id":8078047431,"lat":52.4985206,"lon":13.4159404},{"type":"node","id":8078047452,"lat":52.4986926,"lon":13.4154674},{"type":"node","id":8078047454,"lat":52.4987562,"lon":13.4159044},{"type":"node","id":8078047455,"lat":52.4989221,"lon":13.4166857},{"type":"node","id":8078047456,"lat":52.4988493,"lon":13.4166203},{"type":"node","id":8078047481,"lat":52.4997709,"lon":13.4155638},{"type":"node","id":8078047494,"lat":52.4996019,"lon":13.4161419},{"type":"node","id":8078047495,"lat":52.499698,"lon":13.4158107},{"type":"node","id":8171822470,"lat":52.4982422,"lon":13.4184047},{"type":"node","id":8806813459,"lat":52.498867,"lon":13.4171077},{"type":"node","id":8895430519,"lat":52.4992521,"lon":13.4176303},{"type":"node","id":8895430520,"lat":52.4990082,"lon":13.4170775},{"type":"node","id":8895430522,"lat":52.4994945,"lon":13.4166614},{"type":"node","id":8895430532,"lat":52.49908,"lon":13.417674},{"type":"node","id":8895430535,"lat":52.4988266,"lon":13.4178859},{"type":"node","id":8895430630,"lat":52.4990108,"lon":13.4176051},{"type":"node","id":8895430637,"lat":52.4992386,"lon":13.4176753},{"type":"node","id":8895430639,"lat":52.4994735,"lon":13.4167328},{"type":"node","id":8895430640,"lat":52.4994937,"lon":13.4167497},{"type":"node","id":8895430641,"lat":52.4994988,"lon":13.4167579},{"type":"node","id":8895430642,"lat":52.4995018,"lon":13.4167659},{"type":"node","id":8895430643,"lat":52.499503,"lon":13.4167807},{"type":"node","id":8895430644,"lat":52.4995008,"lon":13.4167962},{"type":"node","id":8895430645,"lat":52.4992324,"lon":13.4176963},{"type":"node","id":8895430646,"lat":52.4992291,"lon":13.4177056},{"type":"node","id":8895430647,"lat":52.4992251,"lon":13.4177103},{"type":"node","id":8895430648,"lat":52.4992213,"lon":13.4177124},{"type":"node","id":8895430649,"lat":52.4992164,"lon":13.4177127},{"type":"node","id":8895430650,"lat":52.4992124,"lon":13.4177105},{"type":"node","id":8895430651,"lat":52.4991495,"lon":13.417627},{"type":"node","id":8895430652,"lat":52.4991431,"lon":13.4176234},{"type":"node","id":8895430653,"lat":52.4991373,"lon":13.4176241},{"type":"node","id":8895430654,"lat":52.4991133,"lon":13.4175909},{"type":"node","id":8895430655,"lat":52.4990162,"lon":13.4176543},{"type":"node","id":8895430656,"lat":52.4987169,"lon":13.41772},{"type":"node","id":8895430657,"lat":52.4987874,"lon":13.4177282},{"type":"node","id":8895430658,"lat":52.49887,"lon":13.4177369},{"type":"node","id":8895430659,"lat":52.4988718,"lon":13.4176829},{"type":"node","id":8895430661,"lat":52.4989922,"lon":13.4174429},{"type":"node","id":8895430662,"lat":52.499019,"lon":13.4176784},{"type":"node","id":8895430663,"lat":52.4990189,"lon":13.4176959},{"type":"node","id":8895430664,"lat":52.4990176,"lon":13.4177054},{"type":"node","id":8895430665,"lat":52.4990087,"lon":13.4177184},{"type":"node","id":8895430666,"lat":52.4989862,"lon":13.4177289},{"type":"node","id":8895430667,"lat":52.4989654,"lon":13.4177393},{"type":"node","id":8895430668,"lat":52.4989482,"lon":13.417749},{"type":"node","id":8895430669,"lat":52.4989237,"lon":13.4177664},{"type":"node","id":8895430670,"lat":52.4988982,"lon":13.4177882},{"type":"node","id":8895430671,"lat":52.4988814,"lon":13.4178029},{"type":"node","id":8895430672,"lat":52.4988764,"lon":13.4178035},{"type":"node","id":8895430673,"lat":52.4988726,"lon":13.4178021},{"type":"node","id":8895430674,"lat":52.4988697,"lon":13.4177974},{"type":"node","id":8895430675,"lat":52.4988683,"lon":13.4177903},{"type":"node","id":8895430676,"lat":52.4988686,"lon":13.4177822},{"type":"node","id":8895430677,"lat":52.4988739,"lon":13.417476},{"type":"node","id":8895430678,"lat":52.4988635,"lon":13.4170466},{"type":"node","id":8895430679,"lat":52.4988625,"lon":13.4170334},{"type":"node","id":8895430680,"lat":52.4988631,"lon":13.4170268},{"type":"node","id":8895430681,"lat":52.4988661,"lon":13.4170202},{"type":"node","id":8895430682,"lat":52.4988952,"lon":13.4170123},{"type":"node","id":8895430683,"lat":52.4988698,"lon":13.4170187},{"type":"node","id":8895430684,"lat":52.4989225,"lon":13.4170038},{"type":"node","id":8895430685,"lat":52.498928,"lon":13.4170058},{"type":"node","id":8895430686,"lat":52.4989316,"lon":13.4170104},{"type":"node","id":8895430687,"lat":52.4989336,"lon":13.4170179},{"type":"node","id":8895430688,"lat":52.4989671,"lon":13.4172373},{"type":"node","id":8895430691,"lat":52.4989455,"lon":13.417096},{"type":"node","id":8895430693,"lat":52.4990565,"lon":13.4172308},{"type":"node","id":8895430694,"lat":52.4989379,"lon":13.4163539},{"type":"node","id":8895430695,"lat":52.498907,"lon":13.4162146},{"type":"node","id":8895430696,"lat":52.4988921,"lon":13.4161366},{"type":"node","id":8895430697,"lat":52.4988159,"lon":13.4155176},{"type":"node","id":8895430698,"lat":52.4987926,"lon":13.4153659},{"type":"node","id":8895430702,"lat":52.4990297,"lon":13.4172102},{"type":"node","id":8895430703,"lat":52.4990209,"lon":13.4171899},{"type":"node","id":8895430704,"lat":52.4990225,"lon":13.4171746},{"type":"node","id":8895430705,"lat":52.4990171,"lon":13.4172243},{"type":"node","id":8895430706,"lat":52.4990711,"lon":13.417493},{"type":"node","id":8895430707,"lat":52.499037,"lon":13.4172333},{"type":"node","id":8895430708,"lat":52.4990617,"lon":13.4174257},{"type":"node","id":8895430709,"lat":52.4990683,"lon":13.4174234},{"type":"node","id":8895430715,"lat":52.4990122,"lon":13.417184},{"type":"node","id":8895430716,"lat":52.4990999,"lon":13.417565},{"type":"node","id":8895430717,"lat":52.4991321,"lon":13.417627},{"type":"node","id":8895430718,"lat":52.4990943,"lon":13.4175533},{"type":"node","id":8895430719,"lat":52.4990852,"lon":13.417524},{"type":"node","id":8895430720,"lat":52.4990776,"lon":13.4174899},{"type":"node","id":8895430721,"lat":52.4990407,"lon":13.4172171},{"type":"node","id":8895430722,"lat":52.4990263,"lon":13.4171835},{"type":"node","id":8895430723,"lat":52.4990436,"lon":13.417231},{"type":"node","id":8895430724,"lat":52.4990352,"lon":13.4172038},{"type":"node","id":8895430725,"lat":52.4990186,"lon":13.4171596},{"type":"node","id":8895430726,"lat":52.4989974,"lon":13.4169927},{"type":"node","id":8895430741,"lat":52.4987058,"lon":13.4165549},{"type":"node","id":8895430742,"lat":52.498737,"lon":13.4166798},{"type":"node","id":8895430743,"lat":52.4986764,"lon":13.416304},{"type":"node","id":8895430744,"lat":52.4987555,"lon":13.4169805},{"type":"node","id":8895430745,"lat":52.4986667,"lon":13.4162211},{"type":"node","id":8895430746,"lat":52.4986983,"lon":13.4162974},{"type":"node","id":8895430747,"lat":52.4986476,"lon":13.4158818},{"type":"node","id":8895430748,"lat":52.4985793,"lon":13.4154287},{"type":"node","id":8895430751,"lat":52.4987454,"lon":13.4166827},{"type":"node","id":8895430752,"lat":52.4986764,"lon":13.4182123},{"type":"node","id":8895430753,"lat":52.4987134,"lon":13.4177743},{"type":"node","id":8895430756,"lat":52.4987488,"lon":13.4180144},{"type":"node","id":8895430757,"lat":52.4987816,"lon":13.4176781},{"type":"node","id":8895430758,"lat":52.498777,"lon":13.4176689},{"type":"node","id":8895430759,"lat":52.4987759,"lon":13.417655},{"type":"node","id":8895430760,"lat":52.498789,"lon":13.4176817},{"type":"node","id":8895430761,"lat":52.4987796,"lon":13.41758},{"type":"node","id":8895430762,"lat":52.4987902,"lon":13.4173798},{"type":"node","id":8895430763,"lat":52.4987849,"lon":13.417127},{"type":"node","id":8895430764,"lat":52.4987827,"lon":13.4172338},{"type":"node","id":8895430765,"lat":52.4987815,"lon":13.4170153},{"type":"node","id":8895430766,"lat":52.4987839,"lon":13.41709},{"type":"node","id":8895430767,"lat":52.4987775,"lon":13.4170165},{"type":"node","id":8895430773,"lat":52.4987771,"lon":13.4175958},{"type":"node","id":8895430774,"lat":52.4987923,"lon":13.4175241},{"type":"node","id":8895430789,"lat":52.498763,"lon":13.4179677},{"type":"node","id":8895430790,"lat":52.4987725,"lon":13.4179273},{"type":"node","id":8895430810,"lat":52.498675,"lon":13.417889},{"type":"node","id":8895430811,"lat":52.498755,"lon":13.4179961},{"type":"node","id":9755765799,"lat":52.4987964,"lon":13.4170606},{"type":"node","id":9755765800,"lat":52.4987978,"lon":13.4170868},{"type":"node","id":9755765801,"lat":52.4988339,"lon":13.4171528},{"type":"node","id":9755765802,"lat":52.4988682,"lon":13.4171447},{"type":"node","id":9755765803,"lat":52.4987859,"lon":13.4171641},{"type":"node","id":9755765804,"lat":52.4988426,"lon":13.4174945},{"type":"node","id":9755765805,"lat":52.498836,"lon":13.4171893},{"type":"node","id":9755765806,"lat":52.498968,"lon":13.4170504},{"type":"node","id":9755765807,"lat":52.4989399,"lon":13.4170593},{"type":"node","id":9755765808,"lat":52.4990033,"lon":13.4170394},{"type":"node","id":9755765809,"lat":52.4990143,"lon":13.4171759},{"type":"node","id":9755765810,"lat":52.4989953,"lon":13.4172576},{"type":"node","id":9755765811,"lat":52.4989706,"lon":13.4172661},{"type":"node","id":9755765812,"lat":52.4990201,"lon":13.4172491},{"type":"node","id":9755765813,"lat":52.4987831,"lon":13.4170634},{"type":"node","id":9755765814,"lat":52.4988659,"lon":13.417081},{"type":"node","id":9755771317,"lat":52.4988722,"lon":13.4176414},{"type":"node","id":9755771319,"lat":52.4990016,"lon":13.4175249},{"type":"node","id":9755771322,"lat":52.4992542,"lon":13.4176233},{"type":"node","id":10882843023,"lat":52.4988766,"lon":13.4157323},{"type":"node","id":10882843024,"lat":52.4988702,"lon":13.4156815},{"type":"node","id":10882843025,"lat":52.4989093,"lon":13.4161307},{"type":"node","id":10882843027,"lat":52.4988249,"lon":13.4153136},{"type":"node","id":10882843028,"lat":52.4988182,"lon":13.4152603},{"type":"node","id":11350559191,"lat":52.4985325,"lon":13.4152921},{"type":"node","id":11800112292,"lat":52.4985984,"lon":13.4178347},{"type":"node","id":12078295033,"lat":52.4983585,"lon":13.417058},{"type":"node","id":12078295034,"lat":52.4984471,"lon":13.4171105},{"type":"node","id":12078295035,"lat":52.4985361,"lon":13.4171632},{"type":"node","id":12078295036,"lat":52.4986893,"lon":13.4169515},{"type":"node","id":12078295038,"lat":52.4986477,"lon":13.417102},{"type":"node","id":12078295039,"lat":52.4986133,"lon":13.417161},{"type":"node","id":12484239149,"lat":52.4981233,"lon":13.4168972},{"type":"node","id":12484239150,"lat":52.498055,"lon":13.4171512},{"type":"node","id":12484239153,"lat":52.4983277,"lon":13.4183058},{"type":"node","id":12484239154,"lat":52.4983892,"lon":13.418285},{"type":"node","id":12484239155,"lat":52.4984939,"lon":13.4181957},{"type":"node","id":12484239156,"lat":52.498476,"lon":13.4180476},{"type":"node","id":12484239157,"lat":52.4983028,"lon":13.4175838},{"type":"node","id":12484239158,"lat":52.4981656,"lon":13.4172289},{"type":"node","id":12484239159,"lat":52.4982332,"lon":13.4169756},{"type":"node","id":12484239160,"lat":52.4986319,"lon":13.417258},{"type":"node","id":12484239161,"lat":52.4987151,"lon":13.4172296},{"type":"node","id":12484239162,"lat":52.4986487,"lon":13.4167044},{"type":"node","id":12484239163,"lat":52.4987041,"lon":13.4167429},{"type":"node","id":29787640,"lat":52.4991367,"lon":13.4221138},{"type":"node","id":1232860280,"lat":52.4990801,"lon":13.4220129},{"type":"node","id":2512591854,"lat":52.4991017,"lon":13.4227543},{"type":"node","id":2512591855,"lat":52.4991313,"lon":13.4227346},{"type":"node","id":3854467713,"lat":52.499088,"lon":13.4223637},{"type":"node","id":3854467714,"lat":52.4990966,"lon":13.4225609},{"type":"node","id":3854467715,"lat":52.4991346,"lon":13.4224185},{"type":"node","id":3854467716,"lat":52.499137,"lon":13.4222669},{"type":"node","id":3854467717,"lat":52.4991319,"lon":13.4225761},{"type":"node","id":3854467724,"lat":52.4991342,"lon":13.4253111},{"type":"node","id":3854467725,"lat":52.4991614,"lon":13.4252656},{"type":"node","id":3876481572,"lat":52.4991979,"lon":13.4271718},{"type":"node","id":3876481575,"lat":52.4992257,"lon":13.4271612}]}