{"version":0.6,"generator":"Overpass API 0.7.62.5 1bd436f1","osm3s":{"timestamp_osm_base":"2025-03-12T11:55:30Z","copyright":"The data included in this document is from www.openstreetmap.org. The data is made available under ODbL."},"elements":[{"type":"way","id":4041159,"nodes":[21392372,4204911715,6249629006,1014970614,310650876,312743308,273113471,1154584302,273113456,5179337124,273113454],"tags":{"bicycle":"yes","highway":"pedestrian","lit":"yes","maxspeed":"20 mph","name":"New Street","postal_code":"B2","source:maxspeed":"TRO","surface":"paving_stones","wikidata":"Q7011971","wikipedia":"en:New Street, Birmingham"}},{"type":"way","id":28288642,"nodes":[310650879,7259218436,310650878],"tags":{"highway":"footway","lit":"yes","surface":"paving_stones"}},{"type":"way","id":97241746,"nodes":[1126441381,1126441383,1126441379,733120822,1126441381],"tags":{"addr:city":"Birmingham","addr:housename":"Unit 9 Caxton Gate","addr:housenumber":"23","addr:postcode":"B2 4LP","addr:street":"Corporation Street","brand":"Cancer Research UK","brand:wikidata":"Q326079","brand:wikipedia":"en:Cancer Research UK","building":"yes","height":"24","name":"Cancer Research UK","note":"Vacant shop","opening_hours":"Mo-Sa 09:00-17:30; Su 11:00-17:00","shop":"charity","source":"cities_revealed_aerial_imagery","source:height":"emuanalytics","wheelchair":"yes"}},{"type":"way","id":99870973,"nodes":[1154582904,1154582833,1154582893,1154582819,8754355066,696842434,1154582904],"tags":{"addr:city":"Birmingham","addr:housenumber":"32A","addr:postcode":"B2 4RQ","addr:street":"New Street","building":"retail","building:levels":"6","source":"visual survey;estimate;OS_OpenData_StreetView"}},{"type":"way","id":99870975,"nodes":[1154582870,1154582854,1154582895,1154582872,1154582836,1154582870],"tags":{"addr:city":"Birmingham","addr:housenumber":"8","addr:postcode":"B2 4RN","addr:street":"Corporation Street","building":"retail","building:levels":"6","source":"visual survey;estimate;OS_OpenData_StreetView"}},{"type":"way","id":99870976,"nodes":[1154582820,1154582892,1154582900,1154582889,1154582875,1154582820],"tags":{"addr:city":"Birmingham","addr:housenumber":"12","addr:postcode":"B2 4RN","addr:street":"Corporation Street","building":"retail","building:levels":"6","fhrs:id":"602192","name":"News Express","shop":"newsagent","source":"visual survey;estimate;OS_OpenData_StreetView"}},{"type":"way","id":99870977,"nodes":[1154582897,1154582849,696842440,864881508,1154582868,3989019914,3989019915,3989019913,3989019916,1154582897],"tags":{"addr:city":"Birmingham","addr:housenumber":"16-28","addr:street":"Corporation Street","building":"yes","building:levels":"5","leisure":"fitness_centre","name":"EasyGym","source":"visual survey;estimate;OS_OpenData_StreetView"}},{"type":"way","id":99870978,"nodes":[696842436,1154582852,696842437,1154582880,1154582889,1154582900,696842436],"tags":{"addr:city":"Birmingham","addr:housenumber":"16-28","addr:postcode":"B2 4RN","addr:street":"Corporation Street","building":"retail","building:levels":"9","shop":"vacant","source":"visual survey;estimate;OS_OpenData_StreetView"}},{"type":"way","id":99870980,"nodes":[1154582847,1154582858,1154582894,1154582846,1204463290,1154582888,1154582832,1154582853,1154582847],"tags":{"addr:city":"Birmingham","addr:housename":"Unit 11 Caxton Gate","addr:housenumber":"7","addr:postcode":"B2 5EP","addr:street":"Cannon Street","amenity":"venue","building":"yes","height":"24","name":"The Studio Business Centre","source":"visual survey;cities_revealed_aerial_imagery;estimate","source:height":"emuanalytics","url":"http:\/\/www.studiovenues.co.uk\/conference-venues\/birmingham\/","wheelchair":"yes"}},{"type":"way","id":99870989,"nodes":[1154582836,1154582872,1154582885,1154582843,1154582893,1154582833,1154582904,1154582870,1154582836],"tags":{"addr:city":"Birmingham","addr:housenumber":"6","addr:postcode":"B2 4RN","addr:street":"Corporation Street","building":"retail","building:levels":"6","name":"Princes Chambers","source":"visual survey;estimate;OS_OpenData_StreetView"}},{"type":"way","id":99870993,"nodes":[1154582849,1154582897,1154582852,696842436,1154582849],"tags":{"building":"retail","building:levels":"9","disused:shop":"clothes","old_name":"New Look","source":"visual survey;estimate;OS_OpenData_StreetView"}},{"type":"way","id":99870995,"nodes":[1154582854,1154582820,1154582875,1154582895,1154582854],"tags":{"addr:city":"Birmingham","addr:housenumber":"10","addr:postcode":"B2 4RN","addr:street":"Corporation Street","amenity":"cafe","building":"retail","building:levels":"6","contact:facebook":"https:\/\/www.facebook.com\/oricha.uk\/","cuisine":"bubble_tea","name":"Orica","old_name":"Phone Village","source":"visual survey;estimate;OS_OpenData_StreetView"}},{"type":"way","id":104396933,"nodes":[1154582846,1154582894,1126441383,1126441379,1204471659,1154582846],"tags":{"addr:city":"Birmingham","addr:housename":"Unit 8 Caxton Gate","addr:postcode":"B2 4LP","addr:street":"Corporation Street","building":"yes","height":"24","source":"cities_revealed_aerial_imagery","source:addr:postcode":"code-point_open","source:height":"emuanalytics"}},{"type":"way","id":104396934,"nodes":[1204463290,1154582888,1154582832,1154582866,733120789,1204471657,1204463290],"tags":{"addr:city":"Birmingham","addr:housename":"Unit 6 Caxton Gate","addr:postcode":"B2 4RN","addr:street":"Corporation Street","amenity":"bank","atm":"yes","brand":"Santander","brand:wikidata":"Q7420065","brand:wikipedia":"en:Santander UK","building":"retail","building:levels":"4","height":"24","heritage":"2","heritage:operator":"Historic England","listed_status":"Grade II","name":"Santander","opening_hours":"Mo-Fr 09:30-15:00; Sa 09:30-12:30","opening_hours:covid19":"Mo-Fr 10:00-14:00","operator":"Santander","source":"streetlevel imagery;local knowledge","source:height":"emuanalytics"}},{"type":"way","id":104396937,"nodes":[1154582834,1154582866,733120789,733120771,1204570822,1154582834],"tags":{"addr:city":"Birmingham","addr:housename":"Units 4-5 Caxton Gate","addr:housenumber":"5-7","addr:postcode":"B2 4LP","addr:street":"Corporation Street","brand":"Urban Outfitters","brand:wikidata":"Q3552193","brand:wikipedia":"en:Urban Outfitters","building":"retail","building:levels":"4","height":"24","heritage":"2","heritage:operator":"Historic England","listed_status":"Grade II","name":"Urban Outfitters","opening_hours":"Mo-Sa 10:00-19:00; Su 11:00-17:00","shop":"clothes","source":"cities_revealed_aerial_imagery;Birmingham_City_Council","source:height":"emuanalytics"}},{"type":"way","id":104396940,"nodes":[1204471659,1204471657,1204463290,1154582846,1204471659],"tags":{"addr:city":"Birmingham","addr:housename":"Unit 7 Caxton Gate","addr:postcode":"B2 4LP","addr:street":"Corporation Street","building":"yes","height":"24","source":"cities_revealed_aerial_imagery","source:height":"emuanalytics"}},{"type":"way","id":104402450,"nodes":[1204570825,1204570821,1204570822,733120771,733120807,865055141,2152012829,1204570825],"tags":{"HE_ref":"1392542","addr:city":"Birmingham","addr:housenumber":"1-3","addr:postcode":"B2 4LP","addr:street":"Corporation Street","amenity":"bank","brand":"Lloyds Bank","brand:wikidata":"Q1152847","brand:wikipedia":"en:Lloyds Bank","building":"retail","building:levels":"4","contact:website":"https:\/\/branches.lloydsbank.com\/birmingham\/units-2-3-caxton-gate","height":"24","heritage":"2","heritage:operator":"Historic England","listed_status":"Grade II","name":"Lloyds Bank","source":"cities_revealed_aerial_imagery","source:height":"emuanalytics","website":"https:\/\/branches.lloydsbank.com\/birmingham\/caxton-gate"}},{"type":"way","id":135907298,"nodes":[1154582872,1154582895,1154582875,1154582889,1154582880,696842437,1154582831,2523807525,1154582902,1154582869,2523807524,1154582819,1154582893,1154582843,1154582885,1154582872],"tags":{"addr:city":"Birmingham","addr:housename":"Britannia Hotel","addr:housenumber":"21-25","addr:postcode":"B2 4RX","addr:street":"New Street","building":"yes","building:levels":"10","fhrs:id":"598806","heritage":"6","heritage:operator":"Birmingham City Council","listed_status":"local_grade_B","name":"Britannia Hotel","source":"visual survey;estimate;OS_OpenData_StreetView","tourism":"hotel","wheelchair":"limited"}},{"type":"way","id":205687121,"nodes":[21392372,1965413652,1126441376,8322267571],"tags":{"access":"delivery","bicycle":"no","delivery":"yes","emergency":"yes","fixme":"Should this be highway=pedestrian or is service road correct? No access except for delivery (and trams but they're mapped separately). Only exit is via Upper Bull Street which is mapped as highway=pedestrian.","foot":"yes","gritting":"priority_3","highway":"service","lanes":"1","lit":"yes","maintenance":"gritting","motor_vehicle":"destination","name":"Corporation Street","oneway":"yes","oneway:emergency":"no","oneway:tram":"no","postal_code":"B2","surface":"concrete"}},{"type":"way","id":247958209,"nodes":[313192402,7259218434,7259218432,310650879,2107829826,21392372],"tags":{"bicycle":"yes","highway":"pedestrian","lit":"yes","name":"New Street","postal_code":"B2","surface":"paving_stones"}},{"type":"way","id":378433438,"nodes":[3754517409,6957345569,3754517408,4204911711,4204911708,4204911706,4204911700,3464500421,3754517401,3754517402,6249629008,3464500420,11251425332,3464500419,4204911715,3464500418,3464500417,9938770795,3464500416,4204911719,7135760394,10608386988,3464500415,4204911725,3464500414,4204911726,3464500413,3464500412,8100471905,6863876844,4204911728,3881605977,4207929470,3464499729,7135760395,12004434594,3818484225,3883350329,3818484228,6863876843],"tags":{"electrified":"contact_line","frequency":"0","gauge":"1435","railway":"tram","voltage":"750","website":"https:\/\/nxbus.co.uk\/the-metro"}},{"type":"way","id":384805841,"nodes":[3946422786,2107829847,2107829845,2107829833,2107829820,2107829839,12345889456,12345889441,2306317478,3778386674,6863876840,2107829836,12345889440,2107829832,3778386672,4502789023,2107829834,2107829827,3883350334,6863876842,3818484229,2107829835,12004434595,12004434596,3883350328,2107829819,2107829828,4207929471,2107829840,4204911729,7135760390,8100471906,4710048694,2107829842,4204911727,2107829831,2107829848,4204911724,10608386990,2107829837,7471288343,2107829829,4204911721,6863876841,4204911718,4204911717,4216185185,2107829823,2107829825,4204911716,2107829826,2107829846,2107829841,2107829843,2107829817,7135760391,4204911699,2107829838,3754517400,2107829830,12428728033,8004015902,3616332640,12428728032,7135760392,4204911710,2107829821,3754517407,7135760393,3785138752],"tags":{"electrified":"contact_line","frequency":"0","gauge":"1435","railway":"tram","voltage":"750","website":"https:\/\/nxbus.co.uk\/the-metro"}},{"type":"way","id":396099330,"nodes":[696842440,864881508,1154582868,3989019914,3989019915,3989019913,3989019916,1154582897,1154582852,696842437,1154582880,1154582889,1154582900,696842436,1154582849,696842440],"tags":{"building":"former","name_former":"Beatties Department Store"}},{"type":"way","id":400071570,"nodes":[733109955,7259218429,696852223,696852224,7259218435,7259218432,7259218433,696842434,8754355066,1154582819,2523807524,1154582869,7261672797,1273105176,1273105174,1273105175,2523807523,4027013158,956041319,864881530,10762333878,313224746,956033699,733109939,1126429964,1126420338,733109955],"tags":{"area":"yes","bicycle":"designated","highway":"pedestrian","lit":"yes","smoothness":"excellent","surface":"paving_stones"}},{"type":"way","id":420542648,"nodes":[4204868690,4204868689],"tags":{"public_transport":"platform","railway":"platform","source":"survey"}},{"type":"way","id":667468130,"nodes":[4204911702,11251425333,21392375,21392372],"tags":{"access":"delivery","bicycle":"no","delivery":"yes","emergency":"yes","fixme":"Should this be highway=pedestrian or is service road correct? No access except for delivery (and trams but they're mapped separately). Only exit is via Upper Bull Street which is mapped as highway=pedestrian.","foot":"no","gritting":"priority_3","highway":"service","lanes":"1","lit":"yes","maintenance":"gritting","maxspeed":"20 mph","motor_vehicle":"destination","name":"Stephenson Place","oneway":"yes","oneway:emergency":"no","oneway:tram":"no","surface":"asphalt"}},{"type":"way","id":777838121,"nodes":[310650879,7259218433,7259218434],"tags":{"highway":"footway","lit":"yes","surface":"paving_stones","width":"1"}},{"type":"way","id":777838122,"nodes":[7259218436,7259218435,7259218434],"tags":{"highway":"footway","lit":"yes","surface":"paving_stones","width":"1"}},{"type":"node","id":3754517407,"lat":52.4787195,"lon":-1.9005699},{"type":"node","id":3754517409,"lat":52.4787964,"lon":-1.9011902},{"type":"node","id":3785138752,"lat":52.4787652,"lon":-1.901199},{"type":"node","id":6957345569,"lat":52.4787893,"lon":-1.9010992},{"type":"node","id":7135760393,"lat":52.478764,"lon":-1.9011825},{"type":"node","id":21392372,"lat":52.4790582,"lon":-1.8979309},{"type":"node","id":21392375,"lat":52.4789742,"lon":-1.8980445},{"type":"node","id":273113454,"lat":52.4792049,"lon":-1.8994527},{"type":"node","id":273113456,"lat":52.4791565,"lon":-1.8989349},{"type":"node","id":273113471,"lat":52.4791209,"lon":-1.8985497},{"type":"node","id":310650876,"lat":52.4790826,"lon":-1.8981744},{"type":"node","id":310650878,"lat":52.4789426,"lon":-1.8978463},{"type":"node","id":310650879,"lat":52.4790302,"lon":-1.8977466},{"type":"node","id":312743308,"lat":52.4791091,"lon":-1.8984216},{"type":"node","id":313192402,"lat":52.4789313,"lon":-1.8972513},{"type":"node","id":313224746,"lat":52.4784724,"lon":-1.8954012},{"type":"node","id":696842434,"lat":52.4791125,"lon":-1.8975612},{"type":"node","id":696842436,"lat":52.4795081,"lon":-1.8971837},{"type":"node","id":696842437,"lat":52.4791961,"lon":-1.8967283},{"type":"node","id":696842440,"lat":52.479721,"lon":-1.8969664},{"type":"node","id":696852223,"lat":52.4788646,"lon":-1.8973502},{"type":"node","id":696852224,"lat":52.4789541,"lon":-1.8977995},{"type":"node","id":733109939,"lat":52.4785274,"lon":-1.895666},{"type":"node","id":733109955,"lat":52.4788424,"lon":-1.8972234},{"type":"node","id":733120771,"lat":52.4792483,"lon":-1.8978833},{"type":"node","id":733120789,"lat":52.479353,"lon":-1.8977936},{"type":"node","id":733120807,"lat":52.4791464,"lon":-1.8979366},{"type":"node","id":733120822,"lat":52.4796724,"lon":-1.8974701},{"type":"node","id":864881508,"lat":52.4797263,"lon":-1.8969166},{"type":"node","id":864881530,"lat":52.4786921,"lon":-1.8953351},{"type":"node","id":865055141,"lat":52.4791383,"lon":-1.8980051},{"type":"node","id":956033699,"lat":52.4784837,"lon":-1.8954608},{"type":"node","id":956041319,"lat":52.4787508,"lon":-1.8956992},{"type":"node","id":1014970614,"lat":52.4790754,"lon":-1.8981046},{"type":"node","id":1126420338,"lat":52.4786902,"lon":-1.8964673},{"type":"node","id":1126429964,"lat":52.4786587,"lon":-1.8963374},{"type":"node","id":1126441376,"lat":52.4793974,"lon":-1.8976208},{"type":"node","id":1126441379,"lat":52.4796024,"lon":-1.8975526},{"type":"node","id":1126441381,"lat":52.4797942,"lon":-1.8977554},{"type":"node","id":1126441383,"lat":52.47972,"lon":-1.8978453},{"type":"node","id":1154582819,"lat":52.479082,"lon":-1.8974099},{"type":"node","id":1154582820,"lat":52.4793145,"lon":-1.8974006},{"type":"node","id":1154582831,"lat":52.4790593,"lon":-1.8968061},{"type":"node","id":1154582832,"lat":52.4795628,"lon":-1.8980832},{"type":"node","id":1154582833,"lat":52.4791471,"lon":-1.8974276},{"type":"node","id":1154582834,"lat":52.4794121,"lon":-1.8982312},{"type":"node","id":1154582836,"lat":52.479186,"lon":-1.8974071},{"type":"node","id":1154582843,"lat":52.4791063,"lon":-1.8973558},{"type":"node","id":1154582846,"lat":52.4796193,"lon":-1.8978008},{"type":"node","id":1154582847,"lat":52.4796734,"lon":-1.8981031},{"type":"node","id":1154582849,"lat":52.4796307,"lon":-1.8970633},{"type":"node","id":1154582852,"lat":52.479353,"lon":-1.8966145},{"type":"node","id":1154582853,"lat":52.4796228,"lon":-1.8979999},{"type":"node","id":1154582854,"lat":52.4792617,"lon":-1.8974383},{"type":"node","id":1154582858,"lat":52.4797248,"lon":-1.8980343},{"type":"node","id":1154582866,"lat":52.4794934,"lon":-1.8981656},{"type":"node","id":1154582868,"lat":52.4796702,"lon":-1.8967514},{"type":"node","id":1154582869,"lat":52.4789593,"lon":-1.8967926},{"type":"node","id":1154582870,"lat":52.4792042,"lon":-1.8974827},{"type":"node","id":1154582872,"lat":52.4792441,"lon":-1.8973642},{"type":"node","id":1154582875,"lat":52.4792983,"lon":-1.8973341},{"type":"node","id":1154582880,"lat":52.4792864,"lon":-1.8971124},{"type":"node","id":1154582885,"lat":52.4792267,"lon":-1.8972799},{"type":"node","id":1154582888,"lat":52.4795046,"lon":-1.8979517},{"type":"node","id":1154582889,"lat":52.4793422,"lon":-1.8973055},{"type":"node","id":1154582892,"lat":52.4793565,"lon":-1.8973694},{"type":"node","id":1154582893,"lat":52.4791173,"lon":-1.8973862},{"type":"node","id":1154582894,"lat":52.4796681,"lon":-1.8979081},{"type":"node","id":1154582895,"lat":52.4792463,"lon":-1.8973679},{"type":"node","id":1154582897,"lat":52.4794605,"lon":-1.8964865},{"type":"node","id":1154582900,"lat":52.4793505,"lon":-1.8973398},{"type":"node","id":1154582902,"lat":52.4790489,"lon":-1.896747},{"type":"node","id":1154582904,"lat":52.4791663,"lon":-1.8975205},{"type":"node","id":1154584302,"lat":52.4791357,"lon":-1.8987047},{"type":"node","id":1204463290,"lat":52.4795498,"lon":-1.8978872},{"type":"node","id":1204471657,"lat":52.479474,"lon":-1.8976951},{"type":"node","id":1204471659,"lat":52.4795494,"lon":-1.8976164},{"type":"node","id":1204570821,"lat":52.4791664,"lon":-1.8981922},{"type":"node","id":1204570822,"lat":52.479346,"lon":-1.8980993},{"type":"node","id":1204570825,"lat":52.4791418,"lon":-1.8980468},{"type":"node","id":1273105174,"lat":52.4788704,"lon":-1.8963832},{"type":"node","id":1273105175,"lat":52.4788396,"lon":-1.8962191},{"type":"node","id":1273105176,"lat":52.4788954,"lon":-1.8965401},{"type":"node","id":1965413652,"lat":52.4791872,"lon":-1.8977863},{"type":"node","id":2107829817,"lat":52.4785997,"lon":-1.8982439},{"type":"node","id":2107829819,"lat":52.4823034,"lon":-1.8967761},{"type":"node","id":2107829820,"lat":52.4836313,"lon":-1.8988098},{"type":"node","id":2107829821,"lat":52.4786806,"lon":-1.9000687},{"type":"node","id":2107829823,"lat":52.4793894,"lon":-1.8975988},{"type":"node","id":2107829825,"lat":52.4791804,"lon":-1.8977584},{"type":"node","id":2107829826,"lat":52.4790536,"lon":-1.897905},{"type":"node","id":2107829827,"lat":52.4827083,"lon":-1.8970855},{"type":"node","id":2107829828,"lat":52.4821934,"lon":-1.8966641},{"type":"node","id":2107829829,"lat":52.4809433,"lon":-1.8957951},{"type":"node","id":2107829830,"lat":52.4785179,"lon":-1.898521},{"type":"node","id":2107829831,"lat":52.4812285,"lon":-1.895632},{"type":"node","id":2107829832,"lat":52.4830779,"lon":-1.8976397},{"type":"node","id":2107829833,"lat":52.4842831,"lon":-1.8996207},{"type":"node","id":2107829834,"lat":52.4830307,"lon":-1.8974898},{"type":"node","id":2107829835,"lat":52.482438,"lon":-1.8968417},{"type":"node","id":2107829836,"lat":52.4831159,"lon":-1.8978907},{"type":"node","id":2107829837,"lat":52.4810541,"lon":-1.8956757},{"type":"node","id":2107829838,"lat":52.4785458,"lon":-1.8983275},{"type":"node","id":2107829839,"lat":52.4834676,"lon":-1.898601},{"type":"node","id":2107829840,"lat":52.4819303,"lon":-1.8963398},{"type":"node","id":2107829841,"lat":52.478845,"lon":-1.8981017},{"type":"node","id":2107829842,"lat":52.4813281,"lon":-1.8956548},{"type":"node","id":2107829843,"lat":52.4787118,"lon":-1.8981809},{"type":"node","id":2107829845,"lat":52.4843974,"lon":-1.8997588},{"type":"node","id":2107829846,"lat":52.4789713,"lon":-1.8980152},{"type":"node","id":2107829847,"lat":52.4844922,"lon":-1.8998822},{"type":"node","id":2107829848,"lat":52.4811532,"lon":-1.8956326},{"type":"node","id":2152012829,"lat":52.4791394,"lon":-1.8980195},{"type":"node","id":2306317478,"lat":52.4831802,"lon":-1.8981903},{"type":"node","id":2523807523,"lat":52.4788318,"lon":-1.8961725},{"type":"node","id":2523807524,"lat":52.4789687,"lon":-1.896834},{"type":"node","id":2523807525,"lat":52.4790591,"lon":-1.8967891},{"type":"node","id":3464499729,"lat":52.482245,"lon":-1.8968015},{"type":"node","id":3464500412,"lat":52.4813377,"lon":-1.895713},{"type":"node","id":3464500413,"lat":52.4812736,"lon":-1.8956835},{"type":"node","id":3464500414,"lat":52.4811527,"lon":-1.8956781},{"type":"node","id":3464500415,"lat":52.4810511,"lon":-1.8957405},{"type":"node","id":3464500416,"lat":52.48005,"lon":-1.8969},{"type":"node","id":3464500417,"lat":52.4794036,"lon":-1.8976434},{"type":"node","id":3464500418,"lat":52.4791928,"lon":-1.8978085},{"type":"node","id":3464500419,"lat":52.478985,"lon":-1.8980733},{"type":"node","id":3464500420,"lat":52.4786141,"lon":-1.8982986},{"type":"node","id":3464500421,"lat":52.4785473,"lon":-1.8985134},{"type":"node","id":3616332640,"lat":52.4785939,"lon":-1.899246},{"type":"node","id":3754517400,"lat":52.4785249,"lon":-1.8984028},{"type":"node","id":3754517401,"lat":52.4785543,"lon":-1.8984534},{"type":"node","id":3754517402,"lat":52.4785694,"lon":-1.8984038},{"type":"node","id":3754517408,"lat":52.4787234,"lon":-1.9003193},{"type":"node","id":3778386672,"lat":52.4830694,"lon":-1.8975881},{"type":"node","id":3778386674,"lat":52.4831613,"lon":-1.8981255},{"type":"node","id":3818484225,"lat":52.482389,"lon":-1.8968753},{"type":"node","id":3818484228,"lat":52.4825538,"lon":-1.8970005},{"type":"node","id":3818484229,"lat":52.4825693,"lon":-1.8969578},{"type":"node","id":3881605977,"lat":52.4819149,"lon":-1.8963826},{"type":"node","id":3883350328,"lat":52.4823316,"lon":-1.8967999},{"type":"node","id":3883350329,"lat":52.482427,"lon":-1.8968922},{"type":"node","id":3883350334,"lat":52.4826415,"lon":-1.8970367},{"type":"node","id":3989019913,"lat":52.479529,"lon":-1.8964504},{"type":"node","id":3989019914,"lat":52.4795764,"lon":-1.8965079},{"type":"node","id":3989019915,"lat":52.4795555,"lon":-1.8964705},{"type":"node","id":3989019916,"lat":52.4795015,"lon":-1.8964485},{"type":"node","id":4027013158,"lat":52.4788253,"lon":-1.8961388},{"type":"node","id":4204868689,"lat":52.4795281,"lon":-1.8973604},{"type":"node","id":4204868690,"lat":52.4797789,"lon":-1.8970707},{"type":"node","id":4204911699,"lat":52.4785657,"lon":-1.8982881},{"type":"node","id":4204911700,"lat":52.4785905,"lon":-1.8989044},{"type":"node","id":4204911702,"lat":52.4786031,"lon":-1.898271},{"type":"node","id":4204911706,"lat":52.4786257,"lon":-1.8992366},{"type":"node","id":4204911708,"lat":52.4786697,"lon":-1.8996371},{"type":"node","id":4204911710,"lat":52.4786723,"lon":-1.8999947},{"type":"node","id":4204911711,"lat":52.4787021,"lon":-1.8999934},{"type":"node","id":4204911715,"lat":52.4790611,"lon":-1.8979656},{"type":"node","id":4204911716,"lat":52.479104,"lon":-1.8978449},{"type":"node","id":4204911717,"lat":52.4798113,"lon":-1.8970825},{"type":"node","id":4204911718,"lat":52.4801307,"lon":-1.896719},{"type":"node","id":4204911719,"lat":52.4802091,"lon":-1.8967177},{"type":"node","id":4204911721,"lat":52.4806579,"lon":-1.8961363},{"type":"node","id":4204911724,"lat":52.4811006,"lon":-1.8956529},{"type":"node","id":4204911725,"lat":52.4811035,"lon":-1.8956938},{"type":"node","id":4204911726,"lat":52.4812292,"lon":-1.8956757},{"type":"node","id":4204911727,"lat":52.4812827,"lon":-1.8956462},{"type":"node","id":4204911728,"lat":52.4817467,"lon":-1.8961779},{"type":"node","id":4204911729,"lat":52.4817605,"lon":-1.8961363},{"type":"node","id":4207929470,"lat":52.4820063,"lon":-1.8964933},{"type":"node","id":4207929471,"lat":52.4820227,"lon":-1.8964537},{"type":"node","id":4216185185,"lat":52.4796964,"lon":-1.8972181},{"type":"node","id":4502789023,"lat":52.483057,"lon":-1.8975418},{"type":"node","id":4710048694,"lat":52.481346,"lon":-1.8956662},{"type":"node","id":5179337124,"lat":52.4792029,"lon":-1.8994184},{"type":"node","id":6249629006,"lat":52.479072,"lon":-1.898071},{"type":"node","id":6249629008,"lat":52.4786072,"lon":-1.8983149},{"type":"node","id":6863876840,"lat":52.4831435,"lon":-1.8980466},{"type":"node","id":6863876841,"lat":52.4801844,"lon":-1.8966596},{"type":"node","id":6863876842,"lat":52.4826302,"lon":-1.8970243},{"type":"node","id":6863876843,"lat":52.4826291,"lon":-1.8970655},{"type":"node","id":6863876844,"lat":52.4816731,"lon":-1.8960943},{"type":"node","id":7135760390,"lat":52.4816889,"lon":-1.8960565},{"type":"node","id":7135760391,"lat":52.4785876,"lon":-1.8982596},{"type":"node","id":7135760392,"lat":52.478657,"lon":-1.8998525},{"type":"node","id":7135760394,"lat":52.4808433,"lon":-1.8959826},{"type":"node","id":7135760395,"lat":52.4823122,"lon":-1.8968543},{"type":"node","id":7259218429,"lat":52.4788546,"lon":-1.8972932},{"type":"node","id":7259218432,"lat":52.4790201,"lon":-1.8976959},{"type":"node","id":7259218433,"lat":52.4790776,"lon":-1.8976055},{"type":"node","id":7259218434,"lat":52.4789999,"lon":-1.8975947},{"type":"node","id":7259218435,"lat":52.4789724,"lon":-1.8977708},{"type":"node","id":7259218436,"lat":52.4789776,"lon":-1.8978064},{"type":"node","id":7261672797,"lat":52.4789277,"lon":-1.8967024},{"type":"node","id":7471288343,"lat":52.4810307,"lon":-1.8957009},{"type":"node","id":8004015902,"lat":52.4785927,"lon":-1.8992344},{"type":"node","id":8100471905,"lat":52.481352,"lon":-1.8957293},{"type":"node","id":8100471906,"lat":52.4813717,"lon":-1.8957033},{"type":"node","id":8322267571,"lat":52.4796609,"lon":-1.897314},{"type":"node","id":8754355066,"lat":52.4790947,"lon":-1.8974692},{"type":"node","id":9938770795,"lat":52.4796735,"lon":-1.897333},{"type":"node","id":10608386988,"lat":52.4810034,"lon":-1.895797},{"type":"node","id":10608386990,"lat":52.4810815,"lon":-1.8956622},{"type":"node","id":10762333878,"lat":52.4785855,"lon":-1.8953687},{"type":"node","id":11251425332,"lat":52.4787996,"lon":-1.898186},{"type":"node","id":11251425333,"lat":52.4788623,"lon":-1.8981128},{"type":"node","id":12004434594,"lat":52.4823514,"lon":-1.8968676},{"type":"node","id":12004434595,"lat":52.48242,"lon":-1.8968341},{"type":"node","id":12004434596,"lat":52.482371,"lon":-1.896822},{"type":"node","id":12345889440,"lat":52.4830922,"lon":-1.897742},{"type":"node","id":12345889441,"lat":52.4832088,"lon":-1.8982594},{"type":"node","id":12345889456,"lat":52.4832657,"lon":-1.8983494},{"type":"node","id":12428728032,"lat":52.4786356,"lon":-1.8996464},{"type":"node","id":12428728033,"lat":52.4785591,"lon":-1.8989141},{"type":"node","id":3946422786,"lat":52.484557,"lon":-1.8999947}]}