{"version":0.6,"generator":"Overpass API 0.7.62.5 1bd436f1","osm3s":{"timestamp_osm_base":"2025-03-12T11:56:32Z","copyright":"The data included in this document is from www.openstreetmap.org. The data is made available under ODbL."},"elements":[{"type":"way","id":28167903,"nodes":[312285155,694193240,1109050805,312285152,12537015575,309391496],"tags":{"highway":"unclassified","lit":"yes","maxspeed":"20 mph","name":"Barwick Street","oneway":"yes","postal_code":"B3","sidewalk":"both","source":"survey;OS_OpenData_StreetView","surface":"asphalt"}},{"type":"way","id":28167904,"nodes":[21695046,4490388063,12537015558,309391506,4490388061,232184],"tags":{"highway":"unclassified","lit":"yes","maxspeed":"20 mph","name":"Cornwall Street","oneway":"yes","postal_code":"B3","surface":"asphalt"}},{"type":"way","id":28424504,"nodes":[309391503,312285155,2947659985,2947779220,4490388064,12537015566,309189903],"tags":{"gritting":"priority_3","highway":"unclassified","lit":"yes","maintenance":"gritting","maxspeed":"20 mph","name":"Edmund Street","oneway":"no","postal_code":"B3","source":"survey;OS_OpenData_StreetView","surface":"asphalt","wikidata":"Q5339842","wikipedia":"en:Edmund Street"}},{"type":"way","id":31247243,"nodes":[1109050847,1109050872,1041098115,1109050749,1109050847],"tags":{"addr:city":"Birmingham","addr:country":"GB","addr:housename":"Opus","addr:housenumber":"54","addr:postcode":"B3 2DE","addr:street":"Cornwall Street","amenity":"restaurant","building":"yes","fhrs:id":"598518","name":"Opus","source":"eyeball survey & estimate"}},{"type":"way","id":87356456,"nodes":[1015860787,1015860778,1041098119,347403826,347403824,1015860787],"tags":{"addr:city":"Birmingham","addr:housenumber":"106-110","addr:postcode":"B3 2ES","addr:street":"Edmund Street","amenity":"pub","architect":"Frank Barlow Osborn","building":"yes","building:levels":"4","fhrs:id":"1126930","heritage":"2","heritage:operator":"Historic England","listed_status":"Grade II","name":"The Florence","source":"visual survey;cities_revealed_aerial_imagery;Birmingham_City_Council","start_date":"1895","wikidata":"Q26565732"}},{"type":"way","id":89816890,"nodes":[9006946798,347403823,1015860787,347403824,1109050808,1109050758,1109050878,1109050857,9006946798],"tags":{"addr:city":"Birmingham","addr:housenumber":"35","addr:postcode":"B3 3PU","addr:street":"Church Street","building":"yes","source":"eyeball survey & estimate"}},{"type":"way","id":89816892,"nodes":[347403826,347403827,1109050749,1041098115,618397506,9006946798,1109050857,1109050808,347403824,347403826],"tags":{"addr:city":"Birmingham","addr:housenumber":"120","addr:postcode":"B3 2QZ","addr:street":"Edmund Street","building":"commercial","building:levels":"8","source":"eyeball survey & estimate"}},{"type":"way","id":89816901,"nodes":[866021719,866021690,866021613,866021672,1041098139,866021635,866021698,866021625,866021652,866021720,1109050822,866021719],"tags":{"addr:city":"Birmingham","addr:housenumber":"61-71","addr:postcode":"B3 2EE","addr:street":"Cornwall Street","building":"commercial","building:levels":"6","name":"Vodafone","source":"cities_revealed_aerial_imagery"}},{"type":"way","id":95656397,"nodes":[1109050847,1109050790,1109050874,1109050872,1109050847],"tags":{"building":"yes","source":"eyeball survey & estimate"}},{"type":"way","id":95656400,"nodes":[706933261,1015860844,1015860809,3463987078,706933329,706933306,1109050817,1109050845,1109050772,706933261],"tags":{"source":"OS_OpenData_StreetView;cities_revealed_aerial_imagery"}},{"type":"way","id":95656404,"nodes":[1109050749,347403827,347403828,1109050736,1109050847,1109050749],"tags":{"addr:city":"Birmingham","addr:housenumber":"134","addr:postcode":"B3 2ES","addr:street":"Edmund Street","building":"commercial","heritage":"2","heritage:operator":"Historic England","listed_status":"Grade II","name":"West Midlands Trains","source":"visual survey;bing;Birmingham_City_Council"}},{"type":"way","id":95656412,"nodes":[1109050790,1109050847,1109050736,1109050720,1109050790],"tags":{"addr:city":"Birmingham","addr:housenumber":"136;138","addr:postcode":"B3 2ES","addr:street":"Edmund Street","building":"commercial","building:levels":"8","heritage":"2","heritage:operator":"Historic England","listed_status":"Grade II","source":"visual survey;bing;Birmingham_City_Council"}},{"type":"way","id":95656420,"nodes":[347403830,1109050839,1109050751,1109050876,1109050732,1109050719,347403822,1109050874,1109050790,1109050720,347403829,347403830],"tags":{"addr:city":"Birmingham","addr:housenumber":"140-146","addr:postcode":"B3 2ES","addr:street":"Edmund Street","building":"commercial","building:levels":"8","source":"eyeball survey & estimate"}},{"type":"node","id":232184,"lat":52.4818518,"lon":-1.9027607},{"type":"node","id":21695046,"lat":52.4828576,"lon":-1.9012839},{"type":"node","id":309391503,"lat":52.481473,"lon":-1.9020137},{"type":"node","id":309391506,"lat":52.4824828,"lon":-1.9018167},{"type":"node","id":312285152,"lat":52.4816212,"lon":-1.9007438},{"type":"node","id":312285155,"lat":52.4818858,"lon":-1.9013038},{"type":"node","id":347403822,"lat":52.4825459,"lon":-1.9015409},{"type":"node","id":347403823,"lat":52.4818635,"lon":-1.9025908},{"type":"node","id":347403824,"lat":52.481834,"lon":-1.9019971},{"type":"node","id":347403826,"lat":52.4817399,"lon":-1.9018489},{"type":"node","id":347403827,"lat":52.48205,"lon":-1.9013388},{"type":"node","id":347403828,"lat":52.4820136,"lon":-1.9012824},{"type":"node","id":347403829,"lat":52.4822618,"lon":-1.900857},{"type":"node","id":347403830,"lat":52.4822985,"lon":-1.9009141},{"type":"node","id":618397506,"lat":52.48219,"lon":-1.9020886},{"type":"node","id":694193240,"lat":52.4816301,"lon":-1.9008716},{"type":"node","id":706933261,"lat":52.4815505,"lon":-1.9013516},{"type":"node","id":706933306,"lat":52.4815659,"lon":-1.9008767},{"type":"node","id":706933329,"lat":52.4818148,"lon":-1.9012975},{"type":"node","id":866021613,"lat":52.4822212,"lon":-1.9024096},{"type":"node","id":866021625,"lat":52.4824229,"lon":-1.9027545},{"type":"node","id":866021635,"lat":52.4821931,"lon":-1.9025564},{"type":"node","id":866021652,"lat":52.482407,"lon":-1.9027258},{"type":"node","id":866021672,"lat":52.4822064,"lon":-1.9023827},{"type":"node","id":866021690,"lat":52.4824966,"lon":-1.901998},{"type":"node","id":866021698,"lat":52.4823573,"lon":-1.9028526},{"type":"node","id":866021719,"lat":52.482703,"lon":-1.9023791},{"type":"node","id":866021720,"lat":52.4826154,"lon":-1.9024144},{"type":"node","id":1015860778,"lat":52.481566,"lon":-1.9020817},{"type":"node","id":1015860787,"lat":52.4816805,"lon":-1.9022668},{"type":"node","id":1015860809,"lat":52.4816727,"lon":-1.9015517},{"type":"node","id":1015860844,"lat":52.4815793,"lon":-1.9014027},{"type":"node","id":1041098115,"lat":52.4823668,"lon":-1.9018288},{"type":"node","id":1041098119,"lat":52.4817183,"lon":-1.9018133},{"type":"node","id":1041098139,"lat":52.4821464,"lon":-1.9024722},{"type":"node","id":1109050719,"lat":52.4826171,"lon":-1.9014345},{"type":"node","id":1109050720,"lat":52.4821341,"lon":-1.9010723},{"type":"node","id":1109050732,"lat":52.4825795,"lon":-1.9013663},{"type":"node","id":1109050736,"lat":52.4820697,"lon":-1.9011845},{"type":"node","id":1109050749,"lat":52.4822173,"lon":-1.9015975},{"type":"node","id":1109050751,"lat":52.4823263,"lon":-1.9011746},{"type":"node","id":1109050758,"lat":52.4818462,"lon":-1.9022207},{"type":"node","id":1109050772,"lat":52.4815624,"lon":-1.9013242},{"type":"node","id":1109050790,"lat":52.4823397,"lon":-1.9013923},{"type":"node","id":1109050805,"lat":52.4816038,"lon":-1.9007998},{"type":"node","id":1109050808,"lat":52.481909,"lon":-1.902114},{"type":"node","id":1109050817,"lat":52.4814348,"lon":-1.901099},{"type":"node","id":1109050822,"lat":52.4826442,"lon":-1.9024595},{"type":"node","id":1109050839,"lat":52.4823856,"lon":-1.9010739},{"type":"node","id":1109050845,"lat":52.4814769,"lon":-1.901168},{"type":"node","id":1109050847,"lat":52.4822735,"lon":-1.9014996},{"type":"node","id":1109050857,"lat":52.4819712,"lon":-1.9022212},{"type":"node","id":1109050872,"lat":52.482423,"lon":-1.9017308},{"type":"node","id":1109050874,"lat":52.4824937,"lon":-1.9016264},{"type":"node","id":1109050876,"lat":52.4825202,"lon":-1.901467},{"type":"node","id":1109050878,"lat":52.481901,"lon":-1.9023271},{"type":"node","id":2947659985,"lat":52.4821043,"lon":-1.9009495},{"type":"node","id":2947779220,"lat":52.4823315,"lon":-1.9005799},{"type":"node","id":3463987078,"lat":52.4817707,"lon":-1.9013763},{"type":"node","id":4490388061,"lat":52.481892,"lon":-1.9026974},{"type":"node","id":4490388063,"lat":52.4828321,"lon":-1.9013241},{"type":"node","id":4490388064,"lat":52.4823396,"lon":-1.9005663},{"type":"node","id":9006946798,"lat":52.4820379,"lon":-1.9023225},{"type":"node","id":12537015558,"lat":52.4828056,"lon":-1.9013614},{"type":"node","id":12537015566,"lat":52.4823452,"lon":-1.9005574},{"type":"node","id":309189903,"lat":52.4823826,"lon":-1.9004976},{"type":"node","id":309391496,"lat":52.4819958,"lon":-1.899956},{"type":"node","id":12537015575,"lat":52.4819587,"lon":-1.9000341}]}