{"version":0.6,"generator":"Overpass API 0.7.62.5 1bd436f1","osm3s":{"timestamp_osm_base":"2025-03-12T11:53:30Z","copyright":"The data included in this document is from www.openstreetmap.org. The data is made available under ODbL."},"elements":[{"type":"node","id":310681440,"lat":52.4802536,"lon":-1.900623,"tags":{"amenity":"post_box","brand":"Royal Mail","brand:wikidata":"Q638098","brand:wikipedia":"en:Royal Mail","collection_times":"Mo-Fr 18:30; Sa 12:00","operator":"Royal Mail","operator:wikidata":"Q638098","post_box:type":"pillar","ref":"B2 51","royal_cypher":"EIIR","royal_cypher:wikidata":"Q33102113","source":"survey"}},{"type":"node","id":975847498,"lat":52.4799005,"lon":-1.9001993,"tags":{"addr:city":"Birmingham","addr:housenumber":"25","addr:postcode":"B2 5RE","addr:street":"Bennett's Hill","amenity":"pub","brand":"Wetherspoon","brand:wikidata":"Q6109362","fhrs:id":"598444","name":"The Briar Rose","operator":"JD Wetherspoon","real_ale":"yes","ref:vatin":"GB396331433","source":"visual survey;estimate","website":"https:\/\/www.jdwetherspoon.com\/pubs\/all-pubs\/england\/west-midlands\/the-briar-rose-birmingham"}},{"type":"node","id":975847499,"lat":52.4799639,"lon":-1.9002165,"tags":{"note":"former bank","source":"visual survey; estimate"}},{"type":"node","id":984747104,"lat":52.4801425,"lon":-1.9005131,"tags":{"PMSA_ref":"WMbiBIxx163","artist_name":"Samuel Ferris Lynn","artwork_position":"above entrance door","artwork_type":"carved relief","built_date":"1869","heritage":"2","heritage:operator":"Historic England","listed_status":"Grade II*","name":"Industry & Manufacturers","source":"visual survey;PMSA","tourism":"artwork"}},{"type":"node","id":1039774939,"lat":52.4797227,"lon":-1.9004167,"tags":{"historic":"memorial","memorial":"plaque","name":"Sir Edward Burne Jones, artist","openplaques:id":"1548","source":"survey"}},{"type":"node","id":1039774959,"lat":52.4796827,"lon":-1.9002049,"tags":{"addr:city":"Birmingham","addr:housenumber":"21","addr:street":"Bennett's Hill","entrance":"main","foot":"yes","source":"visual survey; estimate"}},{"type":"node","id":1039775007,"lat":52.4797186,"lon":-1.9004676,"tags":{"addr:city":"Birmingham","addr:housenumber":"12","addr:postcode":"B2 5RS","addr:street":"Bennett's Hill","amenity":"restaurant","cuisine":"mexican","fhrs:id":"604050","name":"Bodega","phone":"+44 121 448 4267","source":"survey"}},{"type":"node","id":1039775009,"lat":52.479827,"lon":-1.9002344,"tags":{"entrance":"main","foot":"yes","source":"visual survey; estimate"}},{"type":"node","id":1039883847,"lat":52.4798889,"lon":-1.9004479,"tags":{"PMSA_ref":"WMbiBIxx050","artist_name":"William Bloye","artwork:location":"first floor wall","artwork:material":"stone;gilt","artwork_type":"Panel","name":"Sun Emblem & Lettering","source":"visual survey; estimate; PMSA","start_date":"1927-8","tourism":"artwork"}},{"type":"node","id":2526028783,"lat":52.4798867,"lon":-1.9010853,"tags":{"name":"Pakistan International Airlines","shop":"travel_agency"}},{"type":"node","id":2526028791,"lat":52.4798421,"lon":-1.9011644,"tags":{"name":"Smart Recruitment","office":"employment_agency"}},{"type":"node","id":2526028799,"lat":52.4799868,"lon":-1.9005036,"tags":{"amenity":"training","name":"The Education Network"}},{"type":"node","id":4490388059,"lat":52.4802642,"lon":-1.9004899,"tags":{"highway":"give_way","source":"bing"}},{"type":"node","id":4617826421,"lat":52.4802259,"lon":-1.9004827,"tags":{"emergency":"fire_hydrant","fire_hydrant:diameter":"4\"","fire_hydrant:position":"sidewalk","fire_hydrant:type":"underground","operator":"WMFS","source":"survey"}},{"type":"node","id":4617826422,"lat":52.4802989,"lon":-1.9005202,"tags":{"emergency":"fire_hydrant","fire_hydrant:diameter:signed":"no","fire_hydrant:position":"sidewalk","fire_hydrant:type":"underground","operator":"WMFS","source":"survey"}},{"type":"node","id":6990033239,"lat":52.479974,"lon":-1.9003646,"tags":{"barrier":"lift_gate"}},{"type":"node","id":7142730585,"lat":52.4798966,"lon":-1.9005029,"tags":{"addr:city":"Birmingham","addr:postcode":"B2 5RS","addr:street":"Bennett's Hill","amenity":"restaurant","cuisine":"italian_pizza","email":"birmingham@rudyspizza.co.uk","name":"Rudy's Neapolitan Pizza","opening_hours":"Su-Th 12:00-22:00; Fr-Sa 12:00-23:00","phone":"+44 121 314 5880","website":"https:\/\/www.rudyspizza.co.uk\/"}},{"type":"node","id":8841915594,"lat":52.4802279,"lon":-1.9010384,"tags":{"name":"BASW","office":"trade_union"}},{"type":"node","id":8841915595,"lat":52.4802409,"lon":-1.9009607,"tags":{"name":"Social Workers Union","office":"trade_union"}},{"type":"node","id":8841921040,"lat":52.4799812,"lon":-1.9011149,"tags":{"name":"The Barber House","opening_hours":"Mo-Fr 10:00-19:00; Sa 09:00-17:00","shop":"hairdresser"}},{"type":"node","id":12183217204,"lat":52.4797806,"lon":-1.9004824,"tags":{"addr:city":"Birmingham","addr:housenumber":"11","addr:postcode":"B2 5RS","addr:street":"Bennett's Hill","amenity":"restaurant","cuisine":"burger","name":"Fat Hippo","website":"https:\/\/fathippo.co.uk\/"}},{"type":"node","id":12262559964,"lat":52.4802409,"lon":-1.900561,"tags":{"barrier":"bollard","bicycle":"yes","bollard":"rising","colour":"stainless steel","foot":"yes","horse":"yes","material":"stainless_steel","motor_vehicle":"designated"}},{"type":"node","id":12493973865,"lat":52.480218,"lon":-1.9007699,"tags":{"amenity":"bicycle_parking","capacity":"12","covered":"no"}},{"type":"node","id":12536974760,"lat":52.4802274,"lon":-1.9004108,"tags":{"crossing":"unmarked","crossing:island":"no","crossing:markings":"no","highway":"crossing","tactile_paving":"no"}},{"type":"node","id":12536974762,"lat":52.4803067,"lon":-1.9003581,"tags":{"crossing":"unmarked","crossing:island":"no","crossing:markings":"no","highway":"crossing","tactile_paving":"no"}},{"type":"node","id":12536974764,"lat":52.4802492,"lon":-1.9005355,"tags":{"crossing":"unmarked","crossing:island":"no","crossing:markings":"no","highway":"crossing","tactile_paving":"no"}}]}