{"version":0.6,"generator":"Overpass API 0.7.62.5 1bd436f1","osm3s":{"timestamp_osm_base":"2025-03-12T11:53:30Z","copyright":"The data included in this document is from www.openstreetmap.org. The data is made available under ODbL."},"elements":[{"type":"node","id":955784518,"lat":52.4822145,"lon":-1.8975322,"tags":{"addr:city":"Birmingham","addr:postcode":"B2 5HU","addr:street":"Great Western Arcade","amenity":"fast_food","cuisine":"sandwich","fhrs:id":"706044","name":"Baguette.com","source":"visual survey; estimate","url":"http:\/\/www.chachachatealounge.com\/"}},{"type":"node","id":956026772,"lat":52.4817799,"lon":-1.8977539,"tags":{"addr:city":"Birmingham","addr:postcode":"B3 2SL","addr:street":"St Philip's Place","name":"Hays Recruiting","office":"employment_agency","source":"visual survey; estimate"}},{"type":"node","id":956026775,"lat":52.4822195,"lon":-1.8977257,"tags":{"addr:city":"Birmingham","addr:housenumber":"16A","addr:postcode":"B3 2QD","addr:street":"Colmore Row","amenity":"cafe","fhrs:id":"1716286","name":"Kuula Pok\u00e9","source":"visual survey; estimate","source:addr":"FHRS Open Data"}},{"type":"node","id":965974687,"lat":52.4822536,"lon":-1.8975807,"tags":{"addr:city":"Birmingham","addr:postcode":"B2 5HU","addr:street":"Great Western Arcade","fhrs:id":"601545","name":"Bread Collection","shop":"bakery"}},{"type":"node","id":1098125966,"lat":52.4821421,"lon":-1.8968989,"tags":{"previous_name":"www.tso.co.uk","shop":"vacant","source":"survey"}},{"type":"node","id":1098125972,"lat":52.4821826,"lon":-1.8969594,"tags":{"shop":"vacant","source":"visual survey & estimate"}},{"type":"node","id":1098125981,"lat":52.4822408,"lon":-1.8970386,"tags":{"addr:city":"Birmingham","addr:housenumber":"7","addr:postcode":"B4 6AD","addr:street":"Bull Street","shop":"vacant","source":"visual survey & estimate"}},{"type":"node","id":1579302102,"lat":52.482273,"lon":-1.897699,"tags":{"entrance":"yes"}},{"type":"node","id":2060013225,"lat":52.4821065,"lon":-1.8975461,"tags":{"addr:city":"Birmingham","addr:postcode":"B2 5HU","addr:street":"Great Western Arcade","amenity":"fast_food","brand":"Greggs","brand:wikidata":"Q3403981","brand:wikipedia":"en:Greggs","contact:website":"https:\/\/www.greggs.co.uk\/shop-finder?shop-code=1359","cuisine":"sandwich;bakery","fhrs:id":"601901","name":"Greggs","source":"Visual survey;estimate","takeaway":"yes"}},{"type":"node","id":2448319429,"lat":52.4817056,"lon":-1.8969017,"tags":{"addr:city":"Birmingham","addr:postcode":"B2 5HU","addr:street":"Great Western Arcade","name":"Project21","shop":"clothes"}},{"type":"node","id":2448319430,"lat":52.4820579,"lon":-1.8973382,"tags":{"addr:city":"Birmingham","addr:postcode":"B2 5HU","addr:street":"Great Western Arcade","fhrs:id":"604236","name":"Anderson & Hill","shop":"deli"}},{"type":"node","id":2448319431,"lat":52.4819404,"lon":-1.8971927,"tags":{"addr:city":"Birmingham","addr:postcode":"B2 5HU","addr:street":"Great Western Arcade","name":"At One","shop":"beauty"}},{"type":"node","id":2448319432,"lat":52.4817562,"lon":-1.8971354,"tags":{"addr:city":"Birmingham","addr:postcode":"B2 5HU","addr:street":"Great Western Arcade","name":"Benjamin Ryan","shop":"hairdresser"}},{"type":"node","id":2448319433,"lat":52.4819796,"lon":-1.8972412,"tags":{"addr:city":"Birmingham","addr:postcode":"B2 5HU","addr:street":"Great Western Arcade","name":"Bolongaro Trevor","shop":"clothes"}},{"type":"node","id":2448319434,"lat":52.4821941,"lon":-1.8976487,"tags":{"addr:city":"Birmingham","addr:postcode":"B2 5HU","addr:street":"Great Western Arcade","fhrs:id":"777639","name":"ChouChoute","shop":"confectionery"}},{"type":"node","id":2448319435,"lat":52.4819013,"lon":-1.8971442,"tags":{"addr:city":"Birmingham","addr:postcode":"B2 5HU","addr:street":"Great Western Arcade","name":"Daniel Footwear","shop":"shoes"}},{"type":"node","id":2448319436,"lat":52.4817447,"lon":-1.8969502,"tags":{"addr:city":"Birmingham","addr:postcode":"B2 5HU","addr:street":"Great Western Arcade","name":"Ethos","shop":"jewelry"}},{"type":"node","id":2448319438,"lat":52.4821362,"lon":-1.8974352,"tags":{"addr:city":"Birmingham","addr:postcode":"B2 5HU","addr:street":"Great Western Arcade","name":"Ikon","shop":"hairdresser"}},{"type":"node","id":2448319440,"lat":52.4817124,"lon":-1.897084,"tags":{"addr:city":"Birmingham","addr:postcode":"B2 5HU","addr:street":"Great Western Arcade","name":"John Hollingsworth","shop":"tobacco"}},{"type":"node","id":2448319441,"lat":52.4818,"lon":-1.8971867,"tags":{"addr:city":"Birmingham","addr:postcode":"B2 5HU","addr:street":"Great Western Arcade","name":"Liquor Store","shop":"clothes"}},{"type":"node","id":2448319442,"lat":52.4820627,"lon":-1.8974947,"tags":{"addr:city":"Birmingham","addr:housename":"Great Western Arcade","addr:housenumber":"36","addr:postcode":"B2 5HU","addr:street":"Great Western Arcade","fhrs:id":"604438","name":"Loki","shop":"wine","source:addr":"FHRS Open Data"}},{"type":"node","id":2448319445,"lat":52.4821753,"lon":-1.8974837,"tags":{"addr:city":"Birmingham","addr:postcode":"B2 5HU","addr:street":"Great Western Arcade","clothes":"secondhand","name":"More Than Vintage","shop":"clothes"}},{"type":"node","id":2448319446,"lat":52.4819751,"lon":-1.8973921,"tags":{"addr:city":"Birmingham","addr:postcode":"B2 5HU","addr:street":"Great Western Arcade","brand":"Mr Simms Olde Sweet Shoppe","brand:wikidata":"Q24960010","name":"Mr Simms Olde Sweet Shoppe","shop":"confectionery","website":"https:\/\/mrsimmsoldesweetshoppe.co.uk\/"}},{"type":"node","id":2448319448,"lat":52.4818876,"lon":-1.8972894,"tags":{"addr:city":"Birmingham","addr:postcode":"B2 5HU","addr:street":"Great Western Arcade","name":"Sims","shop":"confectionery"}},{"type":"node","id":2448319449,"lat":52.4819314,"lon":-1.8973407,"tags":{"addr:city":"Birmingham","addr:postcode":"B2 5HU","addr:street":"Great Western Arcade","name":"Higgins 1948","shop":"clothes"}},{"type":"node","id":2448319450,"lat":52.4821503,"lon":-1.8975974,"tags":{"addr:city":"Birmingham","addr:postcode":"B2 5HU","addr:street":"Great Western Arcade","brand":"Supercuts","brand:wikidata":"Q7643239","brand:wikipedia":"en:Supercuts","name":"Supercuts","shop":"hairdresser"}},{"type":"node","id":2448319451,"lat":52.481823,"lon":-1.8970472,"tags":{"addr:city":"Birmingham","addr:postcode":"B2 5HU","addr:street":"Great Western Arcade","name":"The Pen Shop","shop":"stationery"}},{"type":"node","id":2448319452,"lat":52.4817839,"lon":-1.8969987,"tags":{"addr:city":"Birmingham","addr:postcode":"B2 5HU","addr:street":"Great Western Arcade","amenity":"cafe","fhrs:id":"598860","name":"The Victorian Restaurant"}},{"type":"node","id":2448319453,"lat":52.4820189,"lon":-1.8974434,"tags":{"addr:city":"Birmingham","addr:postcode":"B2 5HU","addr:street":"Great Western Arcade","name":"The Whisky Shop","shop":"whisky"}},{"type":"node","id":2448319454,"lat":52.4820187,"lon":-1.8972897,"tags":{"addr:city":"Birmingham","addr:postcode":"B2 5HU","addr:street":"Great Western Arcade","name":"Time Square","shop":"jewelry"}},{"type":"node","id":2448319456,"lat":52.482097,"lon":-1.8973867,"tags":{"addr:city":"Birmingham","addr:postcode":"B2 5HU","addr:street":"Great Western Arcade","name":"Western News","shop":"newsagent"}},{"type":"node","id":2448319460,"lat":52.4818438,"lon":-1.897238,"tags":{"addr:city":"Birmingham","addr:housename":"Great Western Arcade","addr:housenumber":"28-29","addr:postcode":"B2 5HU","addr:street":"Great Western Arcade","amenity":"restaurant","cuisine":"sushi","fhrs:id":"941954","name":"Sushi Passion","source:addr":"FHRS Open Data"}},{"type":"node","id":3883350322,"lat":52.4822778,"lon":-1.8969282,"tags":{"man_made":"street_cabinet","ref":"TAVY\/AIHN\/dco\/GRN 412543","source":"survey","street_cabinet":"metro"}},{"type":"node","id":3883350324,"lat":52.4822909,"lon":-1.8969474,"tags":{"man_made":"street_cabinet","ref":"HCC-28.1","source":"survey","street_cabinet":"metro"}},{"type":"node","id":3883350326,"lat":52.4823018,"lon":-1.8969581,"tags":{"man_made":"street_cabinet","ref":"TDS-R28.1","source":"survey","street_cabinet":"metro"}},{"type":"node","id":4720106652,"lat":52.4821854,"lon":-1.8979515,"tags":{"age":"semi-mature","constituency":"City Centre","height":"12","height:range":"11 to 11.99m","leaf_cycle":"deciduous","leaf_type":"broadleaved","natural":"tree","plot_number":"100006","ref:usrn":"2701508","site_name":"COLMORE ROW","source":"bcc_dec_2016","species":"Carpinus betulus","species:wikidata":"Q158776","taxon":"Carpinus betulus fastigiata","tree_form":"natural","ward":"Ladywood"}},{"type":"node","id":4720106653,"lat":52.4822254,"lon":-1.8978835,"tags":{"age":"semi-mature","constituency":"City Centre","height":"10","height:range":"9 to 9.99m","leaf_cycle":"deciduous","leaf_type":"broadleaved","natural":"tree","plot_number":"100005","ref:usrn":"2701508","site_name":"COLMORE ROW","source":"bcc_dec_2016","species":"Carpinus betulus","species:wikidata":"Q158776","taxon":"Carpinus betulus fastigiata","tree_form":"natural","ward":"Ladywood"}},{"type":"node","id":4720106663,"lat":52.4822644,"lon":-1.8978115,"tags":{"age":"semi-mature","constituency":"City Centre","height":"12","height:range":"11 to 11.99m","leaf_cycle":"deciduous","leaf_type":"broadleaved","natural":"tree","plot_number":"100004","ref:usrn":"2701508","site_name":"COLMORE ROW","source":"bcc_dec_2016","species":"Carpinus betulus","species:wikidata":"Q158776","taxon":"Carpinus betulus fastigiata","tree_form":"natural","ward":"Ladywood"}},{"type":"node","id":5703077222,"lat":52.4823322,"lon":-1.8976298,"tags":{"emergency":"fire_hydrant","fire_hydrant:diameter":"150","fire_hydrant:type":"underground","operator":"WMFS","source":"survey"}},{"type":"node","id":5703077223,"lat":52.4823214,"lon":-1.8976476,"tags":{"emergency":"fire_hydrant","fire_hydrant:diameter":"150","fire_hydrant:type":"underground","operator":"WMFS","source":"survey"}},{"type":"node","id":5812232029,"lat":52.4816813,"lon":-1.8976116,"tags":{"addr:city":"Birmingham","addr:housenumber":"5","addr:postcode":"B3 2PW","addr:street":"St Philip's Place","alt_name":"Public Health England West Midlands","government":"healthcare","name":"PHE West Midlands","office":"government"}},{"type":"node","id":7033800790,"lat":52.4818671,"lon":-1.8972599,"tags":{"addr:city":"Birmingham","addr:housenumber":"32-33","addr:postcode":"B2 5HU","addr:street":"Great Western Arcade","amenity":"pub","brewery":"yes;various","description":"The Good Intent is situated inside Great Western Arcade.","name":"The Good Intent","opening_hours":"Mo-Sa 12:00-23:00; Su 12:00-20:00","phone":"+44 121 572 5788","smoking":"no","website":"http:\/\/www.craddocksbrewery.co.uk"}},{"type":"node","id":7135760395,"lat":52.4823122,"lon":-1.8968543,"tags":{"railway":"tram_level_crossing"}},{"type":"node","id":7826499705,"lat":52.4818834,"lon":-1.8977755,"tags":{"addr:city":"Birmingham","addr:postcode":"B3 2PP","addr:street":"St Philip's Place"}},{"type":"node","id":9334262788,"lat":52.4822388,"lon":-1.8979353,"tags":{"amenity":"bicycle_parking","capacity":"8","covered":"no","source":"survey"}}]}