{"version":0.6,"generator":"Overpass API 0.7.62.5 1bd436f1","osm3s":{"timestamp_osm_base":"2025-03-11T16:19:11Z","copyright":"The data included in this document is from www.openstreetmap.org. The data is made available under ODbL."},"elements":[{"type":"way","id":24699014,"nodes":[268466879,8895952728,455231384,4606652432,2677599470,4606652433,3880652814,2677599477,3198377498,8171822469,9755765790],"tags":{"bicycle":"use_sidepath","cycleway:left":"no","cycleway:right":"separate","destination":"Neuk\u00f6lln","dual_carriageway":"yes","foot":"use_sidepath","highway":"secondary","lane_markings":"yes","lanes":"2","lit":"yes","maxspeed":"50","name":"Kottbusser Stra\u00dfe","name:etymology:wikidata":"Q3214","name:etymology:wikipedia":"de:Cottbus","oneway":"yes","parking:both":"no","parking:left:reason":"dual_carriage","parking:right:restriction":"no_stopping","postal_code":"10999","sidewalk:left":"no","sidewalk:right":"separate","smoothness":"excellent","surface":"asphalt","turn:lanes":"none|merge_to_left"}},{"type":"way","id":52525453,"nodes":[667482236,5261833482,667482280,667482277,8171822470,5830763364,5830763363,667482254,667482236],"tags":{"addr:city":"Berlin","addr:country":"DE","addr:housenumber":"4","addr:postcode":"10999","addr:street":"Kottbusser Stra\u00dfe","addr:suburb":"Kreuzberg","building":"apartments","building:levels":"7","roof:levels":"0"}},{"type":"way","id":52525485,"nodes":[667482248,667482250,667482235,5830763168,5830763164,5830763163,5830763162,5830763165,5830763167,5830763166,667482249,667482248],"tags":{"addr:city":"Berlin","addr:country":"DE","addr:housenumber":"6","addr:postcode":"10999","addr:street":"Kottbusser Stra\u00dfe","addr:suburb":"Kreuzberg","building":"apartments","building:levels":"5"}},{"type":"way","id":52525486,"nodes":[667482254,667482236,5830763378,5830763375,5830763373,5830763374,5830763376,5830763377,5830763178,5830763368,5830763367,5830763369,5830763370,5830763371,5830763172,5830763171,5830763170,5830763169,5830763372,5830763173,5830763174,5830763175,5830763176,5830763177,5830763183,5830763182,5830763180,5830763179,5830763381,5830763380,5830763379,5830763382,5830763181,667482235,667482250,5830763366,5830763365,667482254],"tags":{"addr:city":"Berlin","addr:country":"DE","addr:housenumber":"5","addr:postcode":"10999","addr:street":"Kottbusser Stra\u00dfe","addr:suburb":"Kreuzberg","building":"apartments","building:levels":"6","roof:levels":"1"}},{"type":"way","id":52525491,"nodes":[667482276,12484239153,667482281,667482277,667482280,667482278,667482279,667482268,667482272,667482271,667482267,667482265,667482266,5261833483,667482276],"tags":{"addr:city":"Berlin","addr:country":"DE","addr:housenumber":"3","addr:postcode":"10999","addr:street":"Kottbusser Stra\u00dfe","addr:suburb":"Kreuzberg","building":"apartments","building:levels":"7","roof:levels":"0","wikidata":"Q105045288","wikimedia_commons":"Category:Kottbusser Stra\u00dfe 1\u20133 (Berlin)"}},{"type":"way","id":85511251,"nodes":[1246211721,1246211565,991634046,991633958,5139893748,5747766495,5747766496,991634087,991634027,1246211721],"tags":{"addr:city":"Berlin","addr:country":"DE","addr:housenumber":"24","addr:postcode":"10999","addr:street":"Kottbusser Stra\u00dfe","addr:suburb":"Kreuzberg","building":"apartments","building:levels":"7"}},{"type":"way","id":85511253,"nodes":[991625392,5830630099,5830630085,5830628883,5830628884,5830630086,5830630100,5830630101,5830630089,5830630087,5830630088,5830630090,5830630102,5830627433,5830629894,5830630091,5830630092,5830629895,5830627434,5830627435,5830629898,5830629896,5830629897,5830629899,5830627436,5830627437,5830629902,5830629900,5830629901,5830629903,5830627438,5830627439,5830628269,5830628267,5830628268,5830628270,5830627440,5830627441,5830628273,5830628271,5830628272,5830628274,5830627442,5830628277,5830628275,5830628276,5830630093,5830630094,5830628278,5830628279,5830630095,5830630096,5830630097,5830630098,5830628280,5747766501,991634046,991633958,1246211673,1246211600,5747762218,1246211578,5747762214,5747762215,5139893746,5747762216,5747762217,1246211663,1246211488,5747762213,1246211539,1246211502,5747762212,5747762211,5139893744,5747762210,5747762209,1246211651,1246211690,1246211708,5747765475,1246211724,5747765473,5747765474,5139893743,5747765472,5747765471,1246211546,1246211614,1246211545,5747765470,1246211660,5747765466,5747766498,5747766497,5747765467,5747765468,5747765469,991633927,991625392],"tags":{"building":"apartments","building:levels":"7","roof:levels":"1","roof:shape":"double_saltbox"}},{"type":"way","id":108680570,"nodes":[1246211565,5248934946,5248934945,991634000,991634071,991634051,991634099,991633919,991633971,991634109,991633948,991634015,5248934947,5248934948,991633988,991634054,5747766492,5248934949,5248934950,5747766494,991634112,5747766493,991633925,991633939,991634090,991633964,991634030,991634100,5248934951,991633897,991633871,991633944,5248934952,991634034,991634094,991633900,5248934953,991633966,5248934954,991634062,991634103,991634096,991633891,991633968,991634107,991633913,5248934955,5248934956,991633869,991634033,991633990,991634043,5248934957,991633906,991633985,991633967,991634069,991633998,991634050,991633915,991634012,991634080,991633886,5248934942,991633947,991633924,991633987,5248934943,991634083,991634111,991633960,5248934944,991634097,991638875,991633893,991633864,991633936,5139893750,1246211721,1246211565],"tags":{"building":"apartments","building:levels":"10"}},{"type":"way","id":313803586,"nodes":[3198377499,3198377498],"tags":{"check_date:surface":"2022-07-28","highway":"service","lit":"yes","postal_code":"10999","sidewalk":"no","smoothness":"excellent","surface":"asphalt"}},{"type":"way","id":313803587,"nodes":[3198377499,4606652429,3198377500,4606652431,4606652430,3880652815,2677599468,815343327,8895952717,11806567841],"tags":{"bicycle":"use_sidepath","cycleway:left":"no","cycleway:right":"separate","dual_carriageway":"yes","foot":"use_sidepath","highway":"secondary","lane_markings":"yes","lanes":"2","lit":"yes","maxspeed":"50","name":"Kottbusser Stra\u00dfe","name:etymology:wikidata":"Q3214","name:etymology:wikipedia":"de:Cottbus","oneway":"yes","parking:both":"no","parking:left:reason":"dual_carriage","parking:right:restriction":"no_stopping","postal_code":"10999","sidewalk:left":"no","sidewalk:right":"separate","smoothness":"good","surface":"asphalt","turn:lanes":"through|through;right"}},{"type":"way","id":381209264,"nodes":[3844501293,4340070636,5217808568,4340070638,5217808569,5217808570,5217808572,5217808571,4340070644,5217808573,4340070649,4606652444,4606652443,4340070652,5217808574,4606652441,4340070654,4606652438,4340070658,4340070662,5217808575,4606652435,5217808576,5217808577,5217808578,5217808579,4340070667,5217808580,4340070690,4340070693,4606652447,4340070702,4606652448,4606652450,4340070706,4606652452,5217808581,4714615146,4340070710,4714615147,4714615149,5217808582,5217808584,5217808583,5217808585,5217808603,4340070712,4340070717,5217808604,4340070718,5217808605,5217808606,4340070720,5217808607,5217808608,4340070722,4340070723,5217808609,4340070724,5217808610,4340070726,5217808612,5217808611,4340070727,5137136200,4340070728,5217808613,4340070730,5217808614,4340070732,5217808615,3844466810,5137137639,3844466963,3844467014,4340070736],"tags":{"electrified":"rail","electrified:rail":"bottom","frequency":"0","gauge":"1435","layer":"-2","level":"-2","loading_gauge":"Gro\u00dfprofil","name":"U8","operator":"Berliner Verkehrsbetriebe","railway":"subway","tunnel":"yes","voltage":"750"}},{"type":"way","id":381214594,"nodes":[3844466809,5217808588,129940802,5217808590,5217808589,940422479,5137136389,940422478,5217808591,940422491,5217808592,129940801,5217808593,5217808594,940422483,940422494,5217808596,5217808595,940422492,5217808598,5217808597,940422480,940422493,5217808599,5217808600,5217808601,5217808602,4714615148,5217808586,5217808587,4714615145,268469152,4606652453,4606652451,4606652446,4606652445,5217808551,5217808550,4077774874,5217808552,5217808553,5217808555,5217808554,5217808556,4340070666,4606652434,1237188086,4606652436,4340070657,4606652439,5217808557,318549158,4606652440,5217808558,318549157,5217808559,4606652442,5217808560,318549156,5217808561,5217808562,268468779,5217808563,5217808564,1237188095,3844501297],"tags":{"electrified":"rail","electrified:rail":"bottom","frequency":"0","gauge":"1435","layer":"-2","level":"-2","loading_gauge":"Gro\u00dfprofil","name":"U8","operator":"Berliner Verkehrsbetriebe","railway":"subway","tunnel":"yes","voltage":"750"}},{"type":"way","id":384710557,"nodes":[3880659191,3880659192],"tags":{"bench":"no","bin":"no","disused:bus":"yes","disused:public_transport":"platform","name":"U Kottbusser Tor","shelter":"no","tactile_paving":"no"}},{"type":"way","id":386659491,"nodes":[10933904840,3900135155,3900136258,4606652457,5600476898,7450233042,3198377498],"tags":{"emergency":"yes","highway":"footway","surface":"paving_stones"}},{"type":"way","id":405607384,"nodes":[1539734163,4077774877,4077774876,4606652455],"tags":{"bicycle":"no","highway":"footway","lit":"yes","motor_vehicle":"emergency","surface":"paving_stones"}},{"type":"way","id":436121630,"nodes":[4340070686,4077774874],"tags":{"electrified":"rail","frequency":"0","gauge":"1435","layer":"-1","level":"-2","loading_gauge":"Gro\u00dfprofil","operator":"Berliner Verkehrsbetriebe","railway":"subway","service":"siding","tunnel":"yes","voltage":"750"}},{"type":"way","id":436121653,"nodes":[4340070669,4340070686,4340070690],"tags":{"electrified":"rail","frequency":"0","gauge":"1435","layer":"-1","level":"-2","loading_gauge":"Gro\u00dfprofil","operator":"Berliner Verkehrsbetriebe","railway":"subway","service":"siding","tunnel":"yes","voltage":"750"}},{"type":"way","id":465740597,"nodes":[4606652455,4606652454,8895951913,8895951912,8895951890,4606652467,4606652468],"tags":{"footway":"sidewalk","highway":"footway","lit":"yes","smoothness":"good","surface":"paving_stones"}},{"type":"way","id":465740599,"nodes":[4606652470,3880659191],"tags":{"footway":"link","highway":"footway","lit":"yes","surface":"paving_stones"}},{"type":"way","id":465740607,"nodes":[8895430752,4606652470,4606652457,11350559193,11350559195,11350559197,11350559194,9349373821],"tags":{"footway":"sidewalk","highway":"footway","lit":"yes","surface":"paving_stones"}},{"type":"way","id":478218281,"nodes":[4714615506,4714615505,4714615469,4714615167,4714615431,4714615435,4714615472,4714615440,4714615524,4714615466,4714615705,4714615426,4714615438,4714615473,4714615434,4714615160,4714615430,4714615166,4714615468,4714615506],"tags":{"bench":"yes","bin":"yes","description":"U8","level":"-2","lit":"yes","name":"Kottbusser Tor","name:ja":"\u30b3\u30c3\u30c8\u30d6\u30c3\u30b5\u30fc\u30c8\u30fc\u30a2","public_transport":"platform","railway":"platform","subway":"yes","tactile_paving":"yes","tunnel":"yes"}},{"type":"way","id":529028379,"nodes":[5139893746,5139893747],"tags":{"highway":"footway","surface":"paving_stones"}},{"type":"way","id":529028380,"nodes":[5139893748,5139893749],"tags":{"highway":"footway","surface":"paving_stones"}},{"type":"way","id":529028381,"nodes":[5139893118,5139893750],"tags":{"highway":"footway","surface":"paving_stones"}},{"type":"way","id":554658063,"nodes":[5352673464,9257518074,9074891954,5352673442,5352673434,5352673433,5352673432,5352673431,5352673445,5352673430,5352673429,5352673428,5352673427,5352673426,5352673425,8843003374,5352673424,5352672162,8895430831,5352672161,8171822473,8171822474,7450233045,7450233043,5352672160,5352672159,7450233044,5352672158,5352672157,9755771369,7444532589,8895951899,9755771367,5352673330,5352673329,8895952725,5352673328,5352673326,5352673327,5352673492,8895951894,5352673325,5352673487,5352673449,8895952724,5352673490,9141744285,5352673323,9141744281,5352673322,5352672133,5352672134,10592351013,10592351012,5352672136,7981586039,7981586037,7981586036,7981586038,5352672135,5352672143,5352672141,7981586035,5352672142,5352672140,7981586034,5352672139,5352672138,5352672137,5352672150,5352672149,5352672151,5352672123,7981586033,5352672124,5352672125,7981586020,7981586018,7981586017,7981586015,7981586016,7981586019,7981586014,7981586012,7981586011,7981586010,7981586009,7981586013,10592334890,5352671916,7981586032,7981586031,5352671915,5352671913,7981586030,5352671912,5352671914,7981586008,7981586006,7981586005,7981586003,7981586004,7981586007,5352671904,7981586029,5352671901,5352671902,7981586028,5352671903,9010353775,5352672127,5352672126,9074891948,5352673464],"tags":{"landuse":"residential"}},{"type":"way","id":795915225,"nodes":[12596456969,7444541672,7450233050,8171822475,7444541674,7444541677],"tags":{"bicycle":"designated","buffer:left":"1","cycleway":"lane","highway":"cycleway","is_sidepath":"yes","is_sidepath:of":"secondary","is_sidepath:of:name":"Kottbusser Stra\u00dfe","lit":"yes","oneway":"yes","separation:left":"barred_area;parking_lane","separation:right":"kerb;tree_row","smoothness":"good","surface":"asphalt","traffic_sign":"DE:237","width":"2"}},{"type":"way","id":796623676,"nodes":[11350559195,7450233050,10979475368,7450233047,10979475367],"tags":{"crossing":"unmarked","crossing:markings":"no","footway":"crossing","highway":"footway","lit":"yes","surface":"asphalt"}},{"type":"way","id":796623682,"nodes":[12596456968,7450233049,12596456970],"tags":{"bicycle":"designated","buffer:left":"1","cycleway":"lane","highway":"cycleway","is_sidepath":"yes","is_sidepath:of":"secondary","is_sidepath:of:name":"Kottbusser Stra\u00dfe","lit":"yes","oneway":"yes","separation:left":"barred_area;parking_lane","separation:right":"kerb;tree_row","surface":"asphalt","traffic_sign":"DE:237","width":"2"}},{"type":"way","id":860486222,"nodes":[8019555264,8019555265,8019555266,8019555267,8019555268,8019555271,8019555269,8019555270,8019657264,8019555264],"tags":{"landuse":"grass"}},{"type":"way","id":860486223,"nodes":[8019555283,8019555284,8019657185,8019657188,8019657187,8019657189,8019657186,8019555283],"tags":{"landuse":"grass"}},{"type":"way","id":860486224,"nodes":[8019657195,8895430730,8019657196,8895430729,8019657197,8895430728,9755771370,8019657198,8019657199,8019657208,8895430737,8019657200,8895430736,8019657201,8895430731,8019657202,8895430735,8019657207,8019657203,8895430732,8895430734,8895430733,8019657205,8019657204,8019657206,8019657195],"tags":{"landuse":"grass"}},{"type":"way","id":878404618,"nodes":[8171822470,11350559193,8895992255,7444541672,8171822469],"tags":{"highway":"service","service":"driveway","surface":"sett"}},{"type":"way","id":878404619,"nodes":[8171822472,8171822471],"tags":{"barrier":"kerb","kerb":"lowered"}},{"type":"way","id":878404620,"nodes":[8171822474,8171822473],"tags":{"barrier":"kerb","kerb":"lowered"}},{"type":"way","id":887310123,"nodes":[8249951486,4077774875,3198377499],"tags":{"bicycle":"use_sidepath","cycleway:left":"no","cycleway:right":"separate","dual_carriageway":"yes","foot":"use_sidepath","highway":"secondary","lane_markings":"yes","lanes":"2","lit":"yes","maxspeed":"50","name":"Kottbusser Stra\u00dfe","name:etymology:wikidata":"Q3214","name:etymology:wikipedia":"de:Cottbus","oneway":"yes","parking:both":"no","parking:left:reason":"dual_carriage","parking:right:restriction":"no_stopping","postal_code":"10999","sidewalk:left":"no","sidewalk:right":"separate","smoothness":"good","surface":"asphalt","turn:lanes":"through|through;right"}},{"type":"way","id":959902754,"nodes":[7450233043,7444532587,7444532588,7444532589],"tags":{"bicycle":"designated","buffer:left":"1","description:covid19":"Pop-up-Radweg","highway":"cycleway","is_sidepath":"yes","is_sidepath:of":"secondary","is_sidepath:of:name":"Kottbusser Stra\u00dfe","lit":"yes","oneway":"yes","separation:left":"kerb","separation:right":"surface","smoothness":"intermediate","surface":"sett","traffic_sign":"DE:237","width":"1.5"}},{"type":"way","id":961646377,"nodes":[8895430728,9755771370,8019657198,8019657199,8019657208,8895430737,8019657200,8895430736,8019657201,8895430731,8019657202,8895430735,8019657207,8019657203,8895430732,8895430734,8895430733,8019657205,8019657204,8019657206,8019657195,8895430730,8019657196,8895430729,8019657197,8895430728],"tags":{"barrier":"kerb"}},{"type":"way","id":961646437,"nodes":[8171822471,8895992255,5600476898,8895430825,5352672166,8895399416,8895430820,8895430754,7450233028,9755771363,8895430821,7444541666,8895430822,5352673332,5352673333,8895430823,8895430755],"tags":{"barrier":"kerb"}},{"type":"way","id":961646442,"nodes":[8171822473,5352672161,8895430831,5352672162,5352673424,8843003374,5352673425,5352673426,5352673427,5352673428,5352673429,5352673430,5352673445,5352673431,5352673432,5352673433,5352673434,5352673442,9074891954,9257518074,5352673464,9074891948,5352672126,5352672127],"tags":{"barrier":"kerb"}},{"type":"way","id":961712019,"nodes":[7450233045,8171822474],"tags":{"barrier":"kerb"}},{"type":"way","id":961712020,"nodes":[5352672160,7450233043,7450233045],"tags":{"barrier":"kerb","kerb":"sloped"}},{"type":"way","id":961712021,"nodes":[5352672157,5352672158,7450233044,5352672159,5352672160],"tags":{"barrier":"kerb"}},{"type":"way","id":961717520,"nodes":[1833319002,9074891995,5352672164,5352672163,8895430827,5352672165,8895992254,8895430826,8171822472],"tags":{"barrier":"kerb"}},{"type":"way","id":1061889499,"nodes":[9755765790,7450233047,8171822476,9755765789],"tags":{"bicycle":"use_sidepath","cycleway:left":"no","cycleway:right":"separate","destination":"Neuk\u00f6lln","dual_carriageway":"yes","foot":"use_sidepath","highway":"secondary","lanes":"1","lit":"yes","maxspeed":"50","name":"Kottbusser Stra\u00dfe","name:etymology:wikidata":"Q3214","name:etymology:wikipedia":"de:Cottbus","oneway":"yes","parking:left":"no","parking:left:reason":"dual_carriage","parking:right":"lane","parking:right:orientation":"parallel","parking:right:restriction":"loading_only","placement":"right_of:1","postal_code":"10999","sidewalk:left":"no","sidewalk:right":"separate","smoothness":"good","surface":"asphalt","width":"6"}},{"type":"way","id":1061889515,"nodes":[9755771362,7450233048,8249951486],"tags":{"bicycle":"use_sidepath","cycleway:left":"no","cycleway:right":"separate","dual_carriageway":"yes","foot":"use_sidepath","highway":"secondary","lanes":"1","lit":"yes","maxspeed":"50","name":"Kottbusser Stra\u00dfe","name:etymology:wikidata":"Q3214","name:etymology:wikipedia":"de:Cottbus","oneway":"yes","parking:left":"no","parking:left:reason":"dual_carriage","parking:right":"lane","parking:right:orientation":"parallel","parking:right:restriction":"loading_only","placement":"right_of:1","postal_code":"10999","sidewalk:left":"no","sidewalk:right":"separate","smoothness":"good","surface":"asphalt","width":"6"}},{"type":"way","id":1182335332,"nodes":[10979475366,7450233048,7450233049,11350559196],"tags":{"crossing":"unmarked","crossing:markings":"no","footway":"crossing","highway":"footway","lit":"yes","surface":"asphalt"}},{"type":"way","id":1182335333,"nodes":[10979475367,10979475366],"tags":{"footway":"traffic_island","highway":"footway","lit":"yes","surface":"paving_stones"}},{"type":"way","id":1208723550,"nodes":[4606652455,11350559196,11199426816],"tags":{"footway":"sidewalk","highway":"footway","lit":"yes","smoothness":"intermediate","surface":"paving_stones"}},{"type":"way","id":1349533760,"nodes":[12484239167,939103770,939103618,939103777,12484239166,8078047443,8078047442,12484239165,12484239164,8078047430,799000342,12484239163,12484239162,12484239161,12484239160,799000270,12484239159,12484239158,799000040,667482262,12484239157,4256046869,4256046868,667482282,11800112292,667482283,4256046871,12484239156,12484239155,12484239154,12484239153,667482281,667482277,8171822470,5830763364,5830763366,667482250,667482248,667482253,8171822477,667482251,667482240,667482238,667482226,667482227,667482228,667482224,1227712475,8078037467,1227712496,1227712506,1227712489,3997710469,1227712473,1227712480,1227712494,5830763135,5830763136,1227712478,5830763329,1227712503,12484239152,12484239151,12484239150,12484239149,12484239148,12484239147,8078047339,939103781,8078047345,871735574,8078047343,939103638,12484239167],"tags":{"landuse":"residential"}},{"type":"way","id":1360712640,"nodes":[7444541669,7444541670,7444541671,7450233042,12596456969],"tags":{"bicycle":"designated","buffer:left":"1","cycleway":"lane","highway":"cycleway","is_sidepath":"yes","is_sidepath:of":"secondary","is_sidepath:of:name":"Kottbusser Stra\u00dfe","lane":"exclusive","lit":"yes","oneway":"yes","separation:left":"barred_area","separation:right":"kerb;tree_row","smoothness":"good","surface":"asphalt","traffic_sign":"DE:237","width":"2"}},{"type":"way","id":1360712641,"nodes":[12596456970,7450233043],"tags":{"bicycle":"designated","buffer:left":"1","cycleway":"lane","highway":"cycleway","is_sidepath":"yes","is_sidepath:of":"secondary","is_sidepath:of:name":"Kottbusser Stra\u00dfe","lane":"exclusive","lit":"yes","oneway":"yes","separation:left":"barred_area","separation:right":"kerb;tree_row","surface":"asphalt","traffic_sign":"DE:237","width":"2"}},{"type":"node","id":268468779,"lat":52.4954203,"lon":13.4207052},{"type":"node","id":318549156,"lat":52.4957235,"lon":13.4206427},{"type":"node","id":318549157,"lat":52.4959645,"lon":13.4205134},{"type":"node","id":318549158,"lat":52.4961575,"lon":13.4203483},{"type":"node","id":667482224,"lat":52.4966552,"lon":13.4189509},{"type":"node","id":667482226,"lat":52.4967586,"lon":13.4192319},{"type":"node","id":667482227,"lat":52.4965901,"lon":13.4193265},{"type":"node","id":667482228,"lat":52.4965642,"lon":13.4192808},{"type":"node","id":667482238,"lat":52.4971333,"lon":13.4190231},{"type":"node","id":667482240,"lat":52.4972614,"lon":13.4189517},{"type":"node","id":667482251,"lat":52.4974751,"lon":13.418831},{"type":"node","id":939103781,"lat":52.4975577,"lon":13.4155429},{"type":"node","id":991625392,"lat":52.497458,"lon":13.4194556},{"type":"node","id":991633927,"lat":52.4974989,"lon":13.4196446},{"type":"node","id":1227712473,"lat":52.4970212,"lon":13.4175719},{"type":"node","id":1227712475,"lat":52.4966987,"lon":13.4187901},{"type":"node","id":1227712478,"lat":52.497211,"lon":13.4168476},{"type":"node","id":1227712480,"lat":52.4970847,"lon":13.41733},{"type":"node","id":1227712489,"lat":52.4969797,"lon":13.4177289},{"type":"node","id":1227712494,"lat":52.4971204,"lon":13.417193},{"type":"node","id":1227712496,"lat":52.4968507,"lon":13.4182177},{"type":"node","id":1227712503,"lat":52.4972316,"lon":13.416772},{"type":"node","id":1227712506,"lat":52.4969319,"lon":13.4179131},{"type":"node","id":1237188086,"lat":52.4967569,"lon":13.419546},{"type":"node","id":1237188095,"lat":52.4949445,"lon":13.4208447},{"type":"node","id":1246211545,"lat":52.4976027,"lon":13.4196538},{"type":"node","id":1246211660,"lat":52.4975727,"lon":13.4195878},{"type":"node","id":1833319002,"lat":52.4964921,"lon":13.4195654},{"type":"node","id":3844501293,"lat":52.4938898,"lon":13.4216074},{"type":"node","id":3844501297,"lat":52.4943057,"lon":13.4211868},{"type":"node","id":3997710469,"lat":52.4969887,"lon":13.4176971},{"type":"node","id":4340070636,"lat":52.4943273,"lon":13.4213365},{"type":"node","id":4340070638,"lat":52.4950316,"lon":13.4208985},{"type":"node","id":4340070644,"lat":52.4954929,"lon":13.4207594},{"type":"node","id":4340070649,"lat":52.4956878,"lon":13.4207252},{"type":"node","id":4340070652,"lat":52.4959283,"lon":13.4206165},{"type":"node","id":4340070654,"lat":52.496182,"lon":13.4204062},{"type":"node","id":4340070657,"lat":52.4963192,"lon":13.4201569},{"type":"node","id":4340070658,"lat":52.4963392,"lon":13.4202137},{"type":"node","id":4340070662,"lat":52.4967541,"lon":13.4196982},{"type":"node","id":4340070666,"lat":52.4969369,"lon":13.4193576},{"type":"node","id":4340070667,"lat":52.4971768,"lon":13.4193341},{"type":"node","id":4340070669,"lat":52.4972412,"lon":13.4192285},{"type":"node","id":4606652434,"lat":52.4968444,"lon":13.4194478},{"type":"node","id":4606652435,"lat":52.4968337,"lon":13.4196043},{"type":"node","id":4606652436,"lat":52.4966857,"lon":13.4196365},{"type":"node","id":4606652438,"lat":52.4962401,"lon":13.4203422},{"type":"node","id":4606652439,"lat":52.4962774,"lon":13.4202125},{"type":"node","id":4606652440,"lat":52.4960959,"lon":13.4204078},{"type":"node","id":4606652441,"lat":52.49609,"lon":13.4204949},{"type":"node","id":4606652442,"lat":52.4958467,"lon":13.4205867},{"type":"node","id":4606652443,"lat":52.4958429,"lon":13.4206636},{"type":"node","id":4606652444,"lat":52.4957754,"lon":13.4206943},{"type":"node","id":5217808554,"lat":52.4971641,"lon":13.4191925},{"type":"node","id":5217808555,"lat":52.4972673,"lon":13.4191399},{"type":"node","id":5217808556,"lat":52.4970486,"lon":13.4192656},{"type":"node","id":5217808557,"lat":52.4962184,"lon":13.420284},{"type":"node","id":5217808558,"lat":52.4960306,"lon":13.4204644},{"type":"node","id":5217808559,"lat":52.4958974,"lon":13.4205575},{"type":"node","id":5217808560,"lat":52.4957947,"lon":13.420613},{"type":"node","id":5217808561,"lat":52.4956528,"lon":13.4206657},{"type":"node","id":5217808562,"lat":52.495563,"lon":13.4206871},{"type":"node","id":5217808563,"lat":52.4952425,"lon":13.4207465},{"type":"node","id":5217808564,"lat":52.4950662,"lon":13.4208003},{"type":"node","id":5217808568,"lat":52.4949294,"lon":13.4209584},{"type":"node","id":5217808569,"lat":52.4951178,"lon":13.420856},{"type":"node","id":5217808570,"lat":52.495224,"lon":13.4208143},{"type":"node","id":5217808571,"lat":52.4954201,"lon":13.4207652},{"type":"node","id":5217808572,"lat":52.4953312,"lon":13.4207823},{"type":"node","id":5217808573,"lat":52.4956001,"lon":13.4207468},{"type":"node","id":5217808574,"lat":52.4959939,"lon":13.4205721},{"type":"node","id":5217808575,"lat":52.4967965,"lon":13.4196501},{"type":"node","id":5217808576,"lat":52.4968946,"lon":13.4195415},{"type":"node","id":5217808577,"lat":52.4969581,"lon":13.4194829},{"type":"node","id":5217808578,"lat":52.4970406,"lon":13.4194178},{"type":"node","id":5217808579,"lat":52.4970909,"lon":13.4193842},{"type":"node","id":5352671901,"lat":52.4967892,"lon":13.4203177},{"type":"node","id":5352671902,"lat":52.4967749,"lon":13.4203067},{"type":"node","id":5352671903,"lat":52.4967776,"lon":13.4202747},{"type":"node","id":5352671904,"lat":52.4968021,"lon":13.4202958},{"type":"node","id":5352671912,"lat":52.4972173,"lon":13.4206576},{"type":"node","id":5352671913,"lat":52.4972188,"lon":13.4206733},{"type":"node","id":5352671914,"lat":52.4972218,"lon":13.4206431},{"type":"node","id":5352671915,"lat":52.4973198,"lon":13.4207567},{"type":"node","id":5352671916,"lat":52.4973336,"lon":13.4207361},{"type":"node","id":5352672126,"lat":52.4965796,"lon":13.4201337},{"type":"node","id":5352672127,"lat":52.4965853,"lon":13.4201159},{"type":"node","id":5352672161,"lat":52.4967255,"lon":13.4197396},{"type":"node","id":5352672162,"lat":52.496553,"lon":13.4198489},{"type":"node","id":5352672163,"lat":52.4967125,"lon":13.4194014},{"type":"node","id":5352672164,"lat":52.4966048,"lon":13.4194791},{"type":"node","id":5352672165,"lat":52.4968996,"lon":13.4192804},{"type":"node","id":5352673424,"lat":52.4965625,"lon":13.4198886},{"type":"node","id":5352673425,"lat":52.4964848,"lon":13.4199342},{"type":"node","id":5352673426,"lat":52.4964774,"lon":13.419942},{"type":"node","id":5352673427,"lat":52.4964732,"lon":13.4199538},{"type":"node","id":5352673428,"lat":52.4964706,"lon":13.4199653},{"type":"node","id":5352673429,"lat":52.4964688,"lon":13.4199784},{"type":"node","id":5352673430,"lat":52.496468,"lon":13.4199981},{"type":"node","id":5352673431,"lat":52.4964704,"lon":13.4200206},{"type":"node","id":5352673432,"lat":52.4964729,"lon":13.4200328},{"type":"node","id":5352673433,"lat":52.4964769,"lon":13.4200446},{"type":"node","id":5352673434,"lat":52.4964805,"lon":13.4200539},{"type":"node","id":5352673442,"lat":52.4964917,"lon":13.4200712},{"type":"node","id":5352673445,"lat":52.4964688,"lon":13.4200099},{"type":"node","id":5352673464,"lat":52.4965715,"lon":13.4201376},{"type":"node","id":5747765466,"lat":52.4975621,"lon":13.4195938},{"type":"node","id":5747765467,"lat":52.4975442,"lon":13.4196045},{"type":"node","id":5747765468,"lat":52.4975248,"lon":13.4196158},{"type":"node","id":5747765469,"lat":52.497521,"lon":13.4196316},{"type":"node","id":5747765470,"lat":52.4975842,"lon":13.4196411},{"type":"node","id":5747766497,"lat":52.497546,"lon":13.4196116},{"type":"node","id":5747766498,"lat":52.4975638,"lon":13.4196004},{"type":"node","id":5830627433,"lat":52.4976121,"lon":13.4193688},{"type":"node","id":5830628883,"lat":52.4974851,"lon":13.4194195},{"type":"node","id":5830628884,"lat":52.4975002,"lon":13.4194099},{"type":"node","id":5830629894,"lat":52.4976103,"lon":13.4193594},{"type":"node","id":5830630085,"lat":52.4974834,"lon":13.4194312},{"type":"node","id":5830630086,"lat":52.4975085,"lon":13.4194163},{"type":"node","id":5830630087,"lat":52.4975378,"lon":13.4193889},{"type":"node","id":5830630088,"lat":52.4975516,"lon":13.4193801},{"type":"node","id":5830630089,"lat":52.4975351,"lon":13.4194027},{"type":"node","id":5830630090,"lat":52.4975597,"lon":13.4193874},{"type":"node","id":5830630091,"lat":52.4976124,"lon":13.4193479},{"type":"node","id":5830630099,"lat":52.4974852,"lon":13.4194401},{"type":"node","id":5830630100,"lat":52.4975107,"lon":13.4194263},{"type":"node","id":5830630101,"lat":52.4975368,"lon":13.4194114},{"type":"node","id":5830630102,"lat":52.4975616,"lon":13.4193967},{"type":"node","id":5830763135,"lat":52.4971575,"lon":13.4170537},{"type":"node","id":5830763136,"lat":52.4971773,"lon":13.4169797},{"type":"node","id":5830763329,"lat":52.4972232,"lon":13.416803},{"type":"node","id":7444541674,"lat":52.4973812,"lon":13.4190242},{"type":"node","id":7444541677,"lat":52.4970911,"lon":13.4191869},{"type":"node","id":7981586003,"lat":52.4969944,"lon":13.4204879},{"type":"node","id":7981586004,"lat":52.4969924,"lon":13.4204757},{"type":"node","id":7981586005,"lat":52.4970079,"lon":13.4204991},{"type":"node","id":7981586006,"lat":52.4970168,"lon":13.4204953},{"type":"node","id":7981586007,"lat":52.4969979,"lon":13.4204579},{"type":"node","id":7981586008,"lat":52.4970221,"lon":13.4204779},{"type":"node","id":7981586009,"lat":52.4975661,"lon":13.4209497},{"type":"node","id":7981586010,"lat":52.4975691,"lon":13.4209632},{"type":"node","id":7981586011,"lat":52.4975813,"lon":13.4209733},{"type":"node","id":7981586012,"lat":52.4975903,"lon":13.4209707},{"type":"node","id":7981586013,"lat":52.4975714,"lon":13.4209327},{"type":"node","id":7981586014,"lat":52.4975958,"lon":13.4209529},{"type":"node","id":7981586028,"lat":52.4967723,"lon":13.4202925},{"type":"node","id":7981586029,"lat":52.4967969,"lon":13.4203133},{"type":"node","id":7981586030,"lat":52.4972164,"lon":13.4206657},{"type":"node","id":7981586031,"lat":52.4973249,"lon":13.420757},{"type":"node","id":7981586032,"lat":52.4973282,"lon":13.4207535},{"type":"node","id":8019555264,"lat":52.496719,"lon":13.4196012},{"type":"node","id":8019555267,"lat":52.4968833,"lon":13.4194376},{"type":"node","id":8019555268,"lat":52.4967087,"lon":13.4195476},{"type":"node","id":8019555269,"lat":52.4967018,"lon":13.4195783},{"type":"node","id":8019555270,"lat":52.4967068,"lon":13.4195932},{"type":"node","id":8019555271,"lat":52.4966997,"lon":13.419561},{"type":"node","id":8019657264,"lat":52.4967116,"lon":13.4195986},{"type":"node","id":8078037467,"lat":52.4968455,"lon":13.4182374},{"type":"node","id":8078047339,"lat":52.4975433,"lon":13.4155977},{"type":"node","id":8171822475,"lat":52.4975662,"lon":13.4189204},{"type":"node","id":8171822476,"lat":52.4975804,"lon":13.4189894},{"type":"node","id":8171822477,"lat":52.4975406,"lon":13.4187948},{"type":"node","id":8843003374,"lat":52.496535,"lon":13.4199046},{"type":"node","id":8895430826,"lat":52.4975633,"lon":13.4189064},{"type":"node","id":8895430827,"lat":52.49681,"lon":13.4193365},{"type":"node","id":8895430831,"lat":52.4966267,"lon":13.4198007},{"type":"node","id":8895992254,"lat":52.4970375,"lon":13.4192013},{"type":"node","id":9010353775,"lat":52.496694,"lon":13.4202057},{"type":"node","id":9074891948,"lat":52.4965752,"lon":13.4201374},{"type":"node","id":9074891954,"lat":52.4965338,"lon":13.4201062},{"type":"node","id":9074891995,"lat":52.496532,"lon":13.4195349},{"type":"node","id":9257518074,"lat":52.4965518,"lon":13.4201212},{"type":"node","id":9349373821,"lat":52.4967196,"lon":13.4193139},{"type":"node","id":9755765789,"lat":52.4972012,"lon":13.419201},{"type":"node","id":9755771362,"lat":52.4969975,"lon":13.419493},{"type":"node","id":10592334890,"lat":52.4973807,"lon":13.420775},{"type":"node","id":11199426816,"lat":52.4965397,"lon":13.4199284},{"type":"node","id":11350559194,"lat":52.4970176,"lon":13.4191236},{"type":"node","id":11350559197,"lat":52.4975476,"lon":13.4188294},{"type":"node","id":12484239147,"lat":52.4973625,"lon":13.4162825},{"type":"node","id":12484239148,"lat":52.4973858,"lon":13.4163765},{"type":"node","id":12484239151,"lat":52.4973174,"lon":13.4166312},{"type":"node","id":12484239152,"lat":52.4972586,"lon":13.4166688},{"type":"node","id":12596456968,"lat":52.496885,"lon":13.4196351},{"type":"node","id":129940801,"lat":52.5019698,"lon":13.4097151},{"type":"node","id":129940802,"lat":52.5025926,"lon":13.4098287},{"type":"node","id":871735574,"lat":52.4976547,"lon":13.4151779},{"type":"node","id":939103618,"lat":52.4981037,"lon":13.4141644},{"type":"node","id":939103638,"lat":52.4977517,"lon":13.4148133},{"type":"node","id":939103770,"lat":52.4979596,"lon":13.4140623},{"type":"node","id":939103777,"lat":52.4981982,"lon":13.4142324},{"type":"node","id":940422478,"lat":52.5022691,"lon":13.4096865},{"type":"node","id":940422479,"lat":52.5023922,"lon":13.4097176},{"type":"node","id":940422480,"lat":52.5013944,"lon":13.4103071},{"type":"node","id":940422483,"lat":52.5017836,"lon":13.4098129},{"type":"node","id":940422491,"lat":52.5021097,"lon":13.4096831},{"type":"node","id":940422492,"lat":52.5015427,"lon":13.4100563},{"type":"node","id":940422493,"lat":52.5013534,"lon":13.4104003},{"type":"node","id":940422494,"lat":52.5017202,"lon":13.4098626},{"type":"node","id":3844466809,"lat":52.5029665,"lon":13.4101179},{"type":"node","id":3844466810,"lat":52.5030935,"lon":13.4103277},{"type":"node","id":3844466963,"lat":52.5036106,"lon":13.4107871},{"type":"node","id":3844467014,"lat":52.5041448,"lon":13.4111584},{"type":"node","id":4340070712,"lat":52.5010197,"lon":13.4117813},{"type":"node","id":4340070717,"lat":52.5013741,"lon":13.4104882},{"type":"node","id":4340070718,"lat":52.5014471,"lon":13.4103185},{"type":"node","id":4340070720,"lat":52.5016036,"lon":13.4100663},{"type":"node","id":4340070722,"lat":52.5017746,"lon":13.4098953},{"type":"node","id":4340070723,"lat":52.5018417,"lon":13.4098485},{"type":"node","id":4340070724,"lat":52.5019632,"lon":13.4097869},{"type":"node","id":4340070726,"lat":52.5020895,"lon":13.4097533},{"type":"node","id":4340070727,"lat":52.502308,"lon":13.4097617},{"type":"node","id":4340070728,"lat":52.5024493,"lon":13.4098124},{"type":"node","id":4340070730,"lat":52.5025691,"lon":13.4098869},{"type":"node","id":4340070732,"lat":52.5028443,"lon":13.4101076},{"type":"node","id":5137136200,"lat":52.5023785,"lon":13.4097825},{"type":"node","id":5137136389,"lat":52.5023213,"lon":13.4096968},{"type":"node","id":5137137639,"lat":52.5034034,"lon":13.4106168},{"type":"node","id":5217808588,"lat":52.5028369,"lon":13.4100174},{"type":"node","id":5217808589,"lat":52.5024772,"lon":13.4097559},{"type":"node","id":5217808590,"lat":52.5025283,"lon":13.409784},{"type":"node","id":5217808591,"lat":52.5021986,"lon":13.4096798},{"type":"node","id":5217808592,"lat":52.5020384,"lon":13.4096959},{"type":"node","id":5217808593,"lat":52.5019005,"lon":13.409744},{"type":"node","id":5217808594,"lat":52.5018501,"lon":13.4097713},{"type":"node","id":5217808595,"lat":52.501598,"lon":13.4099854},{"type":"node","id":5217808596,"lat":52.5016579,"lon":13.4099208},{"type":"node","id":5217808597,"lat":52.5014402,"lon":13.410218},{"type":"node","id":5217808598,"lat":52.5014903,"lon":13.4101331},{"type":"node","id":5217808599,"lat":52.5013308,"lon":13.4104613},{"type":"node","id":5217808600,"lat":52.5009761,"lon":13.411783},{"type":"node","id":5217808601,"lat":52.5005453,"lon":13.4132742},{"type":"node","id":5217808602,"lat":52.5000734,"lon":13.4148723},{"type":"node","id":5217808604,"lat":52.5014038,"lon":13.4104128},{"type":"node","id":5217808605,"lat":52.5014948,"lon":13.4102278},{"type":"node","id":5217808606,"lat":52.5015469,"lon":13.4101442},{"type":"node","id":5217808607,"lat":52.5016474,"lon":13.4100149},{"type":"node","id":5217808608,"lat":52.50171,"lon":13.4099506},{"type":"node","id":5217808609,"lat":52.5019105,"lon":13.4098103},{"type":"node","id":5217808610,"lat":52.5020344,"lon":13.4097644},{"type":"node","id":5217808611,"lat":52.5022342,"lon":13.4097489},{"type":"node","id":5217808612,"lat":52.5021626,"lon":13.4097462},{"type":"node","id":5217808613,"lat":52.5025187,"lon":13.4098518},{"type":"node","id":5217808614,"lat":52.5026989,"lon":13.4099895},{"type":"node","id":5217808615,"lat":52.5029547,"lon":13.4102073},{"type":"node","id":8078047343,"lat":52.4977367,"lon":13.4148723},{"type":"node","id":8078047442,"lat":52.4983126,"lon":13.4144897},{"type":"node","id":8078047443,"lat":52.4982845,"lon":13.4143625},{"type":"node","id":12484239164,"lat":52.4983932,"lon":13.4146353},{"type":"node","id":12484239165,"lat":52.4983467,"lon":13.4146492},{"type":"node","id":12484239166,"lat":52.498266,"lon":13.4142792},{"type":"node","id":12484239167,"lat":52.4979543,"lon":13.414058},{"type":"node","id":268466879,"lat":52.4987854,"lon":13.4183808},{"type":"node","id":268469152,"lat":52.4991859,"lon":13.4173776},{"type":"node","id":455231384,"lat":52.4986945,"lon":13.4184832},{"type":"node","id":667482235,"lat":52.497918,"lon":13.418348},{"type":"node","id":667482236,"lat":52.4981452,"lon":13.4182039},{"type":"node","id":667482248,"lat":52.4978136,"lon":13.4186442},{"type":"node","id":667482249,"lat":52.4977741,"lon":13.4184516},{"type":"node","id":667482250,"lat":52.4979619,"lon":13.4185608},{"type":"node","id":667482253,"lat":52.4976646,"lon":13.4187262},{"type":"node","id":667482254,"lat":52.4981971,"lon":13.4184411},{"type":"node","id":667482262,"lat":52.4983463,"lon":13.4173531},{"type":"node","id":667482265,"lat":52.498204,"lon":13.4178406},{"type":"node","id":667482266,"lat":52.498277,"lon":13.4178376},{"type":"node","id":667482267,"lat":52.4982042,"lon":13.4178715},{"type":"node","id":667482268,"lat":52.4982101,"lon":13.4179393},{"type":"node","id":667482271,"lat":52.4981821,"lon":13.4178754},{"type":"node","id":667482272,"lat":52.4981858,"lon":13.4179412},{"type":"node","id":667482276,"lat":52.498298,"lon":13.4180632},{"type":"node","id":667482277,"lat":52.4982604,"lon":13.4183943},{"type":"node","id":667482278,"lat":52.4981951,"lon":13.418079},{"type":"node","id":667482279,"lat":52.4982241,"lon":13.4180589},{"type":"node","id":667482280,"lat":52.4982043,"lon":13.418125},{"type":"node","id":667482281,"lat":52.4983311,"lon":13.4183333},{"type":"node","id":667482282,"lat":52.4985975,"lon":13.4177348},{"type":"node","id":667482283,"lat":52.4985994,"lon":13.4179376},{"type":"node","id":799000040,"lat":52.4982352,"lon":13.4172765},{"type":"node","id":799000270,"lat":52.498277,"lon":13.4170064},{"type":"node","id":799000342,"lat":52.4986648,"lon":13.416446},{"type":"node","id":815343327,"lat":52.4987307,"lon":13.4186289},{"type":"node","id":991633864,"lat":52.498303,"lon":13.4192125},{"type":"node","id":991633869,"lat":52.4985602,"lon":13.4194313},{"type":"node","id":991633871,"lat":52.4985458,"lon":13.4192077},{"type":"node","id":991633886,"lat":52.4984041,"lon":13.419436},{"type":"node","id":991633891,"lat":52.498606,"lon":13.4193164},{"type":"node","id":991633893,"lat":52.4983405,"lon":13.4192348},{"type":"node","id":991633897,"lat":52.4985384,"lon":13.4192012},{"type":"node","id":991633900,"lat":52.4985656,"lon":13.4192885},{"type":"node","id":991633906,"lat":52.4985292,"lon":13.4196097},{"type":"node","id":991633913,"lat":52.4985834,"lon":13.4193886},{"type":"node","id":991633915,"lat":52.4984644,"lon":13.4194809},{"type":"node","id":991633919,"lat":52.4983323,"lon":13.4189709},{"type":"node","id":991633924,"lat":52.4983923,"lon":13.4194124},{"type":"node","id":991633925,"lat":52.4984329,"lon":13.4190529},{"type":"node","id":991633936,"lat":52.4982957,"lon":13.4191702},{"type":"node","id":991633939,"lat":52.498412,"lon":13.4191158},{"type":"node","id":991633944,"lat":52.498548,"lon":13.4192207},{"type":"node","id":991633947,"lat":52.4983942,"lon":13.4194288},{"type":"node","id":991633948,"lat":52.498355,"lon":13.4189564},{"type":"node","id":991633958,"lat":52.4981015,"lon":13.4192921},{"type":"node","id":991633960,"lat":52.4983618,"lon":13.419335},{"type":"node","id":991633964,"lat":52.4984856,"lon":13.4192693},{"type":"node","id":991633966,"lat":52.4985938,"lon":13.4192784},{"type":"node","id":991633967,"lat":52.4984486,"lon":13.4195345},{"type":"node","id":991633968,"lat":52.4986128,"lon":13.4193232},{"type":"node","id":991633971,"lat":52.4983317,"lon":13.4189514},{"type":"node","id":991633985,"lat":52.4984491,"lon":13.4195469},{"type":"node","id":991633987,"lat":52.4983903,"lon":13.419402},{"type":"node","id":991633988,"lat":52.498399,"lon":13.4190377},{"type":"node","id":991633990,"lat":52.4985755,"lon":13.4194837},{"type":"node","id":991633998,"lat":52.498485,"lon":13.4194959},{"type":"node","id":991634000,"lat":52.4982653,"lon":13.4190126},{"type":"node","id":991634012,"lat":52.4984557,"lon":13.4194531},{"type":"node","id":991634015,"lat":52.4983866,"lon":13.4189392},{"type":"node","id":991634027,"lat":52.4981892,"lon":13.4192293},{"type":"node","id":991634030,"lat":52.4985014,"lon":13.4192158},{"type":"node","id":991634033,"lat":52.4985505,"lon":13.4194642},{"type":"node","id":991634034,"lat":52.4985402,"lon":13.4192514},{"type":"node","id":991634043,"lat":52.49855,"lon":13.419571},{"type":"node","id":991634046,"lat":52.4980687,"lon":13.4191348},{"type":"node","id":991634050,"lat":52.4984749,"lon":13.4194721},{"type":"node","id":991634051,"lat":52.4982844,"lon":13.4189768},{"type":"node","id":991634054,"lat":52.4984211,"lon":13.4190265},{"type":"node","id":991634062,"lat":52.4986077,"lon":13.4192738},{"type":"node","id":991634069,"lat":52.4984507,"lon":13.4195266},{"type":"node","id":991634071,"lat":52.4982686,"lon":13.4189852},{"type":"node","id":991634080,"lat":52.498412,"lon":13.4194191},{"type":"node","id":991634083,"lat":52.4983465,"lon":13.4193542},{"type":"node","id":991634087,"lat":52.4981932,"lon":13.4192475},{"type":"node","id":991634090,"lat":52.4984404,"lon":13.4192349},{"type":"node","id":991634094,"lat":52.4985365,"lon":13.4192637},{"type":"node","id":991634096,"lat":52.4986135,"lon":13.4192923},{"type":"node","id":991634097,"lat":52.4983328,"lon":13.4192857},{"type":"node","id":991634099,"lat":52.4982922,"lon":13.4189893},{"type":"node","id":991634100,"lat":52.4985228,"lon":13.4192084},{"type":"node","id":991634103,"lat":52.4986132,"lon":13.4192778},{"type":"node","id":991634107,"lat":52.4985925,"lon":13.4193929},{"type":"node","id":991634109,"lat":52.498348,"lon":13.4189429},{"type":"node","id":991634111,"lat":52.498349,"lon":13.4193461},{"type":"node","id":991634112,"lat":52.4984337,"lon":13.4190421},{"type":"node","id":991638875,"lat":52.4983294,"lon":13.4192779},{"type":"node","id":1246211488,"lat":52.4980161,"lon":13.4194218},{"type":"node","id":1246211502,"lat":52.4979026,"lon":13.4194037},{"type":"node","id":1246211539,"lat":52.4979138,"lon":13.4194588},{"type":"node","id":1246211546,"lat":52.4976774,"lon":13.4195319},{"type":"node","id":1246211565,"lat":52.4982049,"lon":13.4190592},{"type":"node","id":1246211578,"lat":52.4980479,"lon":13.4193032},{"type":"node","id":1246211600,"lat":52.498078,"lon":13.41937},{"type":"node","id":1246211614,"lat":52.4976926,"lon":13.4196029},{"type":"node","id":1246211651,"lat":52.497856,"lon":13.4194321},{"type":"node","id":1246211663,"lat":52.4980004,"lon":13.4193491},{"type":"node","id":1246211673,"lat":52.4981125,"lon":13.4193507},{"type":"node","id":1246211690,"lat":52.4978712,"lon":13.4195033},{"type":"node","id":1246211708,"lat":52.4977572,"lon":13.4195668},{"type":"node","id":1246211721,"lat":52.4982352,"lon":13.4192061},{"type":"node","id":1246211724,"lat":52.4977248,"lon":13.419503},{"type":"node","id":1539734163,"lat":52.4986763,"lon":13.4192101},{"type":"node","id":2677599468,"lat":52.4986913,"lon":13.4186269},{"type":"node","id":2677599470,"lat":52.4986355,"lon":13.4185134},{"type":"node","id":2677599477,"lat":52.4984377,"lon":13.4185198},{"type":"node","id":3198377498,"lat":52.4984037,"lon":13.4185352},{"type":"node","id":3198377499,"lat":52.4984381,"lon":13.4186955},{"type":"node","id":3198377500,"lat":52.4985122,"lon":13.4186584},{"type":"node","id":3880652814,"lat":52.4984766,"lon":13.4185135},{"type":"node","id":3880652815,"lat":52.498669,"lon":13.4186279},{"type":"node","id":3880659191,"lat":52.4984594,"lon":13.4183975},{"type":"node","id":3880659192,"lat":52.4985188,"lon":13.4183928},{"type":"node","id":3900135155,"lat":52.4983023,"lon":13.4178267},{"type":"node","id":3900136258,"lat":52.4983489,"lon":13.4182252},{"type":"node","id":4077774874,"lat":52.4982791,"lon":13.4186172},{"type":"node","id":4077774875,"lat":52.498404,"lon":13.4187155},{"type":"node","id":4077774876,"lat":52.4985044,"lon":13.4191447},{"type":"node","id":4077774877,"lat":52.4985677,"lon":13.4192288},{"type":"node","id":4256046868,"lat":52.4985982,"lon":13.4176682},{"type":"node","id":4256046869,"lat":52.4983532,"lon":13.4175986},{"type":"node","id":4256046871,"lat":52.498601,"lon":13.4180116},{"type":"node","id":4340070686,"lat":52.4981171,"lon":13.4188264},{"type":"node","id":4340070690,"lat":52.4983702,"lon":13.4187817},{"type":"node","id":4340070693,"lat":52.4984681,"lon":13.4187167},{"type":"node","id":4340070702,"lat":52.4986458,"lon":13.4185391},{"type":"node","id":4340070706,"lat":52.4990051,"lon":13.4180328},{"type":"node","id":4340070710,"lat":52.4993579,"lon":13.4174241},{"type":"node","id":4606652429,"lat":52.4984724,"lon":13.4186774},{"type":"node","id":4606652430,"lat":52.4986111,"lon":13.4186327},{"type":"node","id":4606652431,"lat":52.4985487,"lon":13.4186461},{"type":"node","id":4606652432,"lat":52.4986741,"lon":13.4184976},{"type":"node","id":4606652433,"lat":52.4986107,"lon":13.4185167},{"type":"node","id":4606652445,"lat":52.4984708,"lon":13.4184441},{"type":"node","id":4606652446,"lat":52.4986793,"lon":13.4181542},{"type":"node","id":4606652447,"lat":52.49855,"lon":13.4186493},{"type":"node","id":4606652448,"lat":52.4988199,"lon":13.4183056},{"type":"node","id":4606652450,"lat":52.4988617,"lon":13.4182435},{"type":"node","id":4606652451,"lat":52.4987938,"lon":13.4179881},{"type":"node","id":4606652452,"lat":52.4990605,"lon":13.4179486},{"type":"node","id":4606652453,"lat":52.4990054,"lon":13.4176657},{"type":"node","id":4606652454,"lat":52.4984765,"lon":13.4188478},{"type":"node","id":4606652455,"lat":52.4984365,"lon":13.4188684},{"type":"node","id":4606652457,"lat":52.4983768,"lon":13.4183829},{"type":"node","id":4606652467,"lat":52.4987092,"lon":13.418751},{"type":"node","id":4606652468,"lat":52.4987589,"lon":13.4187423},{"type":"node","id":4606652470,"lat":52.4984523,"lon":13.4183462},{"type":"node","id":4714615145,"lat":52.4993044,"lon":13.4171808},{"type":"node","id":4714615146,"lat":52.499262,"lon":13.4176023},{"type":"node","id":4714615147,"lat":52.4994087,"lon":13.4173231},{"type":"node","id":4714615148,"lat":52.4996097,"lon":13.4164366},{"type":"node","id":4714615149,"lat":52.4994622,"lon":13.4171829},{"type":"node","id":4714615160,"lat":52.4989961,"lon":13.4180163},{"type":"node","id":4714615166,"lat":52.4988109,"lon":13.4182892},{"type":"node","id":4714615167,"lat":52.4987267,"lon":13.4181156},{"type":"node","id":4714615426,"lat":52.4993478,"lon":13.4174094},{"type":"node","id":4714615430,"lat":52.4988527,"lon":13.418227},{"type":"node","id":4714615431,"lat":52.4988027,"lon":13.4180047},{"type":"node","id":4714615434,"lat":52.4990671,"lon":13.4179047},{"type":"node","id":4714615435,"lat":52.4989787,"lon":13.4177365},{"type":"node","id":4714615438,"lat":52.4992519,"lon":13.4175876},{"type":"node","id":4714615440,"lat":52.4991953,"lon":13.4173935},{"type":"node","id":4714615466,"lat":52.4993803,"lon":13.4172818},{"type":"node","id":4714615468,"lat":52.498638,"lon":13.4185209},{"type":"node","id":4714615469,"lat":52.4986882,"lon":13.4181708},{"type":"node","id":4714615472,"lat":52.4990146,"lon":13.4176819},{"type":"node","id":4714615473,"lat":52.4991557,"lon":13.4177587},{"type":"node","id":4714615505,"lat":52.4984795,"lon":13.418461},{"type":"node","id":4714615506,"lat":52.4985422,"lon":13.4186312},{"type":"node","id":4714615524,"lat":52.499314,"lon":13.4171964},{"type":"node","id":4714615705,"lat":52.4993983,"lon":13.417309},{"type":"node","id":5139893118,"lat":52.4983054,"lon":13.4194778},{"type":"node","id":5139893743,"lat":52.4977088,"lon":13.4195207},{"type":"node","id":5139893744,"lat":52.4978845,"lon":13.419423},{"type":"node","id":5139893746,"lat":52.4980349,"lon":13.419339},{"type":"node","id":5139893747,"lat":52.4980845,"lon":13.4196018},{"type":"node","id":5139893748,"lat":52.4981242,"lon":13.419277},{"type":"node","id":5139893749,"lat":52.4981773,"lon":13.4195498},{"type":"node","id":5139893750,"lat":52.4982512,"lon":13.4191978},{"type":"node","id":5217808550,"lat":52.4983466,"lon":13.4185678},{"type":"node","id":5217808551,"lat":52.4983935,"lon":13.4185255},{"type":"node","id":5217808552,"lat":52.4979732,"lon":13.4187903},{"type":"node","id":5217808553,"lat":52.4977674,"lon":13.418899},{"type":"node","id":5217808580,"lat":52.4979388,"lon":13.418989},{"type":"node","id":5217808581,"lat":52.4991653,"lon":13.4177743},{"type":"node","id":5217808582,"lat":52.4994965,"lon":13.4170818},{"type":"node","id":5217808583,"lat":52.4995627,"lon":13.4168422},{"type":"node","id":5217808584,"lat":52.4995276,"lon":13.4169775},{"type":"node","id":5217808585,"lat":52.4996188,"lon":13.4165941},{"type":"node","id":5217808586,"lat":52.4995766,"lon":13.4165405},{"type":"node","id":5217808587,"lat":52.4994539,"lon":13.4168708},{"type":"node","id":5217808603,"lat":52.4996601,"lon":13.4164298},{"type":"node","id":5248934942,"lat":52.498398,"lon":13.4194354},{"type":"node","id":5248934943,"lat":52.4983469,"lon":13.4193586},{"type":"node","id":5248934944,"lat":52.4983496,"lon":13.4192778},{"type":"node","id":5248934945,"lat":52.4982345,"lon":13.4190301},{"type":"node","id":5248934946,"lat":52.4982364,"lon":13.4190406},{"type":"node","id":5248934947,"lat":52.4983903,"lon":13.4189568},{"type":"node","id":5248934948,"lat":52.4983823,"lon":13.4189614},{"type":"node","id":5248934949,"lat":52.4984276,"lon":13.4190269},{"type":"node","id":5248934950,"lat":52.498432,"lon":13.4190318},{"type":"node","id":5248934951,"lat":52.4985308,"lon":13.4192018},{"type":"node","id":5248934952,"lat":52.4985456,"lon":13.4192307},{"type":"node","id":5248934953,"lat":52.4985759,"lon":13.4192881},{"type":"node","id":5248934954,"lat":52.4986011,"lon":13.4192727},{"type":"node","id":5248934955,"lat":52.4985698,"lon":13.4194311},{"type":"node","id":5248934956,"lat":52.4985649,"lon":13.4194346},{"type":"node","id":5248934957,"lat":52.4985422,"lon":13.4195657},{"type":"node","id":5261833482,"lat":52.4981366,"lon":13.4181622},{"type":"node","id":5261833483,"lat":52.4982774,"lon":13.4179169},{"type":"node","id":5352672123,"lat":52.4980139,"lon":13.4213322},{"type":"node","id":5352672124,"lat":52.4980086,"lon":13.421316},{"type":"node","id":5352672125,"lat":52.4980137,"lon":13.4212985},{"type":"node","id":5352672133,"lat":52.4987056,"lon":13.4194287},{"type":"node","id":5352672134,"lat":52.4986906,"lon":13.4194179},{"type":"node","id":5352672135,"lat":52.4983746,"lon":13.4204996},{"type":"node","id":5352672136,"lat":52.4984036,"lon":13.4203984},{"type":"node","id":5352672137,"lat":52.4981008,"lon":13.4213721},{"type":"node","id":5352672138,"lat":52.4981218,"lon":13.4213617},{"type":"node","id":5352672139,"lat":52.4981389,"lon":13.4213468},{"type":"node","id":5352672140,"lat":52.4981629,"lon":13.4213043},{"type":"node","id":5352672141,"lat":52.4981898,"lon":13.4211949},{"type":"node","id":5352672142,"lat":52.4981919,"lon":13.4212086},{"type":"node","id":5352672143,"lat":52.4981747,"lon":13.4211828},{"type":"node","id":5352672149,"lat":52.4980492,"lon":13.4213606},{"type":"node","id":5352672150,"lat":52.498071,"lon":13.4213723},{"type":"node","id":5352672151,"lat":52.4980258,"lon":13.4213421},{"type":"node","id":5352672157,"lat":52.4987042,"lon":13.4186783},{"type":"node","id":5352672158,"lat":52.4986267,"lon":13.4186801},{"type":"node","id":5352672159,"lat":52.4984854,"lon":13.4187199},{"type":"node","id":5352672160,"lat":52.4984363,"lon":13.4187454},{"type":"node","id":5352672166,"lat":52.4984313,"lon":13.41843},{"type":"node","id":5352673322,"lat":52.4987139,"lon":13.4194238},{"type":"node","id":5352673323,"lat":52.4987492,"lon":13.4193044},{"type":"node","id":5352673325,"lat":52.4988386,"lon":13.4188076},{"type":"node","id":5352673326,"lat":52.4987977,"lon":13.4187354},{"type":"node","id":5352673327,"lat":52.498811,"lon":13.4187513},{"type":"node","id":5352673328,"lat":52.4987813,"lon":13.4187231},{"type":"node","id":5352673329,"lat":52.4987521,"lon":13.4187151},{"type":"node","id":5352673330,"lat":52.4987406,"lon":13.4187159},{"type":"node","id":5352673332,"lat":52.4986997,"lon":13.4183773},{"type":"node","id":5352673333,"lat":52.4987019,"lon":13.4183611},{"type":"node","id":5352673449,"lat":52.4988563,"lon":13.4189179},{"type":"node","id":5352673487,"lat":52.4988449,"lon":13.418831},{"type":"node","id":5352673490,"lat":52.4988539,"lon":13.4189377},{"type":"node","id":5352673492,"lat":52.498823,"lon":13.4187713},{"type":"node","id":5600476898,"lat":52.4983881,"lon":13.4184472},{"type":"node","id":5747762209,"lat":52.4978733,"lon":13.4194221},{"type":"node","id":5747762210,"lat":52.4978748,"lon":13.4194286},{"type":"node","id":5747762211,"lat":52.4978928,"lon":13.4194185},{"type":"node","id":5747762212,"lat":52.4978914,"lon":13.4194098},{"type":"node","id":5747762213,"lat":52.4979322,"lon":13.4194692},{"type":"node","id":5747762214,"lat":52.498039,"lon":13.4193077},{"type":"node","id":5747762215,"lat":52.4980435,"lon":13.4193332},{"type":"node","id":5747762216,"lat":52.498026,"lon":13.419344},{"type":"node","id":5747762217,"lat":52.4980248,"lon":13.4193375},{"type":"node","id":5747762218,"lat":52.4980586,"lon":13.4193561},{"type":"node","id":5747765471,"lat":52.4976976,"lon":13.4195202},{"type":"node","id":5747765472,"lat":52.4976986,"lon":13.4195262},{"type":"node","id":5747765473,"lat":52.4977157,"lon":13.4195083},{"type":"node","id":5747765474,"lat":52.4977174,"lon":13.4195153},{"type":"node","id":5747765475,"lat":52.4977362,"lon":13.419556},{"type":"node","id":5747766492,"lat":52.4984247,"lon":13.4190261},{"type":"node","id":5747766493,"lat":52.4984339,"lon":13.419048},{"type":"node","id":5747766494,"lat":52.4984334,"lon":13.4190368},{"type":"node","id":5747766495,"lat":52.4981508,"lon":13.4192618},{"type":"node","id":5747766496,"lat":52.4981526,"lon":13.4192708},{"type":"node","id":5747766501,"lat":52.4980639,"lon":13.4191151},{"type":"node","id":5830627434,"lat":52.4976381,"lon":13.4193533},{"type":"node","id":5830627435,"lat":52.4976861,"lon":13.419326},{"type":"node","id":5830627436,"lat":52.4977125,"lon":13.4193111},{"type":"node","id":5830627437,"lat":52.4977666,"lon":13.4192804},{"type":"node","id":5830627438,"lat":52.4977905,"lon":13.4192668},{"type":"node","id":5830627439,"lat":52.497816,"lon":13.4192523},{"type":"node","id":5830627440,"lat":52.4978416,"lon":13.4192377},{"type":"node","id":5830627441,"lat":52.4978673,"lon":13.4192231},{"type":"node","id":5830627442,"lat":52.4978925,"lon":13.4192089},{"type":"node","id":5830628267,"lat":52.4978168,"lon":13.4192328},{"type":"node","id":5830628268,"lat":52.4978337,"lon":13.4192233},{"type":"node","id":5830628269,"lat":52.4978145,"lon":13.419244},{"type":"node","id":5830628270,"lat":52.4978401,"lon":13.4192299},{"type":"node","id":5830628271,"lat":52.497869,"lon":13.4192028},{"type":"node","id":5830628272,"lat":52.4978833,"lon":13.4191946},{"type":"node","id":5830628273,"lat":52.4978663,"lon":13.4192152},{"type":"node","id":5830628274,"lat":52.4978909,"lon":13.419201},{"type":"node","id":5830628275,"lat":52.4979428,"lon":13.4191706},{"type":"node","id":5830628276,"lat":52.4979451,"lon":13.4191599},{"type":"node","id":5830628277,"lat":52.4979443,"lon":13.4191794},{"type":"node","id":5830628278,"lat":52.4979662,"lon":13.4191676},{"type":"node","id":5830628279,"lat":52.4980125,"lon":13.4191432},{"type":"node","id":5830628280,"lat":52.4980391,"lon":13.419129},{"type":"node","id":5830629895,"lat":52.4976358,"lon":13.4193437},{"type":"node","id":5830629896,"lat":52.4976872,"lon":13.4193045},{"type":"node","id":5830629897,"lat":52.4977032,"lon":13.4192948},{"type":"node","id":5830629898,"lat":52.4976844,"lon":13.419317},{"type":"node","id":5830629899,"lat":52.4977101,"lon":13.4193008},{"type":"node","id":5830629900,"lat":52.4977675,"lon":13.4192614},{"type":"node","id":5830629901,"lat":52.4977824,"lon":13.4192517},{"type":"node","id":5830629902,"lat":52.4977653,"lon":13.4192728},{"type":"node","id":5830629903,"lat":52.4977889,"lon":13.4192578},{"type":"node","id":5830630092,"lat":52.4976283,"lon":13.419338},{"type":"node","id":5830630093,"lat":52.4979586,"lon":13.4191529},{"type":"node","id":5830630094,"lat":52.4979644,"lon":13.4191591},{"type":"node","id":5830630095,"lat":52.4980113,"lon":13.4191342},{"type":"node","id":5830630096,"lat":52.4980138,"lon":13.4191213},{"type":"node","id":5830630097,"lat":52.4980305,"lon":13.4191135},{"type":"node","id":5830630098,"lat":52.4980369,"lon":13.4191193},{"type":"node","id":5830763162,"lat":52.4978975,"lon":13.4183311},{"type":"node","id":5830763163,"lat":52.4979021,"lon":13.418328},{"type":"node","id":5830763164,"lat":52.4979071,"lon":13.4183479},{"type":"node","id":5830763165,"lat":52.497902,"lon":13.4183503},{"type":"node","id":5830763166,"lat":52.497878,"lon":13.4183955},{"type":"node","id":5830763167,"lat":52.4978718,"lon":13.4183676},{"type":"node","id":5830763168,"lat":52.4979167,"lon":13.4183421},{"type":"node","id":5830763169,"lat":52.4979978,"lon":13.4181966},{"type":"node","id":5830763170,"lat":52.4980078,"lon":13.4181886},{"type":"node","id":5830763171,"lat":52.4980031,"lon":13.4181742},{"type":"node","id":5830763172,"lat":52.4980133,"lon":13.4181417},{"type":"node","id":5830763173,"lat":52.4980105,"lon":13.4181954},{"type":"node","id":5830763174,"lat":52.4980237,"lon":13.4182062},{"type":"node","id":5830763175,"lat":52.4980213,"lon":13.4182135},{"type":"node","id":5830763176,"lat":52.4980396,"lon":13.4182308},{"type":"node","id":5830763177,"lat":52.4980312,"lon":13.4182616},{"type":"node","id":5830763178,"lat":52.4980819,"lon":13.4181216},{"type":"node","id":5830763179,"lat":52.497966,"lon":13.4182343},{"type":"node","id":5830763180,"lat":52.498013,"lon":13.4182773},{"type":"node","id":5830763181,"lat":52.4979382,"lon":13.4183341},{"type":"node","id":5830763182,"lat":52.4980174,"lon":13.4182926},{"type":"node","id":5830763183,"lat":52.4980356,"lon":13.4182818},{"type":"node","id":5830763363,"lat":52.4982138,"lon":13.4184318},{"type":"node","id":5830763364,"lat":52.4982121,"lon":13.418422},{"type":"node","id":5830763365,"lat":52.4981344,"lon":13.4184774},{"type":"node","id":5830763366,"lat":52.4981315,"lon":13.4184654},{"type":"node","id":5830763367,"lat":52.4980714,"lon":13.4180436},{"type":"node","id":5830763368,"lat":52.4980844,"lon":13.4181018},{"type":"node","id":5830763369,"lat":52.4980325,"lon":13.418045},{"type":"node","id":5830763370,"lat":52.4980212,"lon":13.4180517},{"type":"node","id":5830763371,"lat":52.4979994,"lon":13.4181307},{"type":"node","id":5830763372,"lat":52.4980004,"lon":13.4182038},{"type":"node","id":5830763373,"lat":52.4981122,"lon":13.4182025},{"type":"node","id":5830763374,"lat":52.498108,"lon":13.4181817},{"type":"node","id":5830763375,"lat":52.4981097,"lon":13.4182123},{"type":"node","id":5830763376,"lat":52.4981014,"lon":13.4181749},{"type":"node","id":5830763377,"lat":52.498091,"lon":13.4181294},{"type":"node","id":5830763378,"lat":52.498112,"lon":13.4182243},{"type":"node","id":5830763379,"lat":52.4979268,"lon":13.4182858},{"type":"node","id":5830763380,"lat":52.4979477,"lon":13.4182115},{"type":"node","id":5830763381,"lat":52.497968,"lon":13.4182257},{"type":"node","id":5830763382,"lat":52.4979455,"lon":13.4182991},{"type":"node","id":7444532587,"lat":52.4985533,"lon":13.4187162},{"type":"node","id":7444532588,"lat":52.4986063,"lon":13.4187207},{"type":"node","id":7444532589,"lat":52.4987127,"lon":13.4187125},{"type":"node","id":7444541666,"lat":52.4986765,"lon":13.418411},{"type":"node","id":7444541669,"lat":52.4985269,"lon":13.4184449},{"type":"node","id":7444541670,"lat":52.4984313,"lon":13.4184447},{"type":"node","id":7444541671,"lat":52.4984174,"lon":13.4184478},{"type":"node","id":7444541672,"lat":52.4982671,"lon":13.4185314},{"type":"node","id":7450233028,"lat":52.4986401,"lon":13.418427},{"type":"node","id":7450233042,"lat":52.4983906,"lon":13.4184614},{"type":"node","id":7450233043,"lat":52.498435,"lon":13.4187717},{"type":"node","id":7450233044,"lat":52.4985583,"lon":13.4186935},{"type":"node","id":7450233045,"lat":52.4984343,"lon":13.4187876},{"type":"node","id":7450233047,"lat":52.497892,"lon":13.4188174},{"type":"node","id":7450233048,"lat":52.497924,"lon":13.4189808},{"type":"node","id":7450233049,"lat":52.4979371,"lon":13.4190485},{"type":"node","id":7450233050,"lat":52.4978789,"lon":13.4187507},{"type":"node","id":7981586015,"lat":52.4977881,"lon":13.4211447},{"type":"node","id":7981586016,"lat":52.4977867,"lon":13.4211316},{"type":"node","id":7981586017,"lat":52.4978022,"lon":13.4211564},{"type":"node","id":7981586018,"lat":52.4978115,"lon":13.4211511},{"type":"node","id":7981586019,"lat":52.4977918,"lon":13.4211151},{"type":"node","id":7981586020,"lat":52.4978164,"lon":13.4211354},{"type":"node","id":7981586033,"lat":52.4980099,"lon":13.421326},{"type":"node","id":7981586034,"lat":52.498152,"lon":13.4213275},{"type":"node","id":7981586035,"lat":52.4981919,"lon":13.4212016},{"type":"node","id":7981586036,"lat":52.4983965,"lon":13.4205094},{"type":"node","id":7981586037,"lat":52.4984219,"lon":13.4204207},{"type":"node","id":7981586038,"lat":52.4983891,"lon":13.4205099},{"type":"node","id":7981586039,"lat":52.4984186,"lon":13.420409},{"type":"node","id":8019555265,"lat":52.497887,"lon":13.4189429},{"type":"node","id":8019555266,"lat":52.4978761,"lon":13.4188817},{"type":"node","id":8019555283,"lat":52.497938,"lon":13.4189146},{"type":"node","id":8019555284,"lat":52.497927,"lon":13.4188537},{"type":"node","id":8019657185,"lat":52.498373,"lon":13.418606},{"type":"node","id":8019657186,"lat":52.4983859,"lon":13.4186645},{"type":"node","id":8019657187,"lat":52.4983896,"lon":13.4186283},{"type":"node","id":8019657188,"lat":52.4983829,"lon":13.4186124},{"type":"node","id":8019657189,"lat":52.4983909,"lon":13.4186486},{"type":"node","id":8019657195,"lat":52.4984661,"lon":13.4186321},{"type":"node","id":8019657196,"lat":52.4985438,"lon":13.4185956},{"type":"node","id":8019657197,"lat":52.4986154,"lon":13.418579},{"type":"node","id":8019657198,"lat":52.4986936,"lon":13.4185739},{"type":"node","id":8019657199,"lat":52.4986841,"lon":13.418537},{"type":"node","id":8019657200,"lat":52.4986355,"lon":13.4185641},{"type":"node","id":8019657201,"lat":52.4985574,"lon":13.4185645},{"type":"node","id":8019657202,"lat":52.4984881,"lon":13.4185639},{"type":"node","id":8019657203,"lat":52.4984526,"lon":13.4185695},{"type":"node","id":8019657204,"lat":52.4984583,"lon":13.4186303},{"type":"node","id":8019657205,"lat":52.4984563,"lon":13.418626},{"type":"node","id":8019657206,"lat":52.498462,"lon":13.4186323},{"type":"node","id":8019657207,"lat":52.4984566,"lon":13.4185674},{"type":"node","id":8019657208,"lat":52.4986609,"lon":13.4185543},{"type":"node","id":8078047345,"lat":52.4976392,"lon":13.4152372},{"type":"node","id":8078047430,"lat":52.498619,"lon":13.4164597},{"type":"node","id":8171822469,"lat":52.498281,"lon":13.4186021},{"type":"node","id":8171822470,"lat":52.4982422,"lon":13.4184047},{"type":"node","id":8171822471,"lat":52.4978937,"lon":13.4187267},{"type":"node","id":8171822472,"lat":52.4978352,"lon":13.4187593},{"type":"node","id":8171822473,"lat":52.4979086,"lon":13.4190798},{"type":"node","id":8171822474,"lat":52.497963,"lon":13.4190497},{"type":"node","id":8249951486,"lat":52.4981138,"lon":13.4188752},{"type":"node","id":8895399416,"lat":52.4985359,"lon":13.4184302},{"type":"node","id":8895430728,"lat":52.4986513,"lon":13.4185749},{"type":"node","id":8895430729,"lat":52.4985746,"lon":13.4185878},{"type":"node","id":8895430730,"lat":52.4985185,"lon":13.4186061},{"type":"node","id":8895430731,"lat":52.4985211,"lon":13.4185628},{"type":"node","id":8895430732,"lat":52.4984489,"lon":13.4185741},{"type":"node","id":8895430733,"lat":52.4984478,"lon":13.4185854},{"type":"node","id":8895430734,"lat":52.4984479,"lon":13.4185792},{"type":"node","id":8895430735,"lat":52.49847,"lon":13.4185652},{"type":"node","id":8895430736,"lat":52.4986207,"lon":13.4185664},{"type":"node","id":8895430737,"lat":52.4986474,"lon":13.4185605},{"type":"node","id":8895430752,"lat":52.4986764,"lon":13.4182123},{"type":"node","id":8895430754,"lat":52.4986286,"lon":13.4184289},{"type":"node","id":8895430755,"lat":52.4986983,"lon":13.4182714},{"type":"node","id":8895430820,"lat":52.4985849,"lon":13.4184297},{"type":"node","id":8895430821,"lat":52.4986665,"lon":13.4184177},{"type":"node","id":8895430822,"lat":52.4986943,"lon":13.4183895},{"type":"node","id":8895430823,"lat":52.4986989,"lon":13.4182972},{"type":"node","id":8895430825,"lat":52.4984147,"lon":13.4184336},{"type":"node","id":8895951890,"lat":52.4986757,"lon":13.4187589},{"type":"node","id":8895951894,"lat":52.4988329,"lon":13.4187942},{"type":"node","id":8895951899,"lat":52.4987152,"lon":13.4187227},{"type":"node","id":8895951912,"lat":52.4986378,"lon":13.4187679},{"type":"node","id":8895951913,"lat":52.4985867,"lon":13.4187906},{"type":"node","id":8895952717,"lat":52.4987755,"lon":13.4186161},{"type":"node","id":8895952724,"lat":52.4988557,"lon":13.4189294},{"type":"node","id":8895952725,"lat":52.4987665,"lon":13.4187179},{"type":"node","id":8895952728,"lat":52.4987237,"lon":13.4184534},{"type":"node","id":8895992255,"lat":52.4982643,"lon":13.4185173},{"type":"node","id":9141744281,"lat":52.4987384,"lon":13.419341},{"type":"node","id":9141744285,"lat":52.4987672,"lon":13.4192416},{"type":"node","id":9755765790,"lat":52.4981629,"lon":13.4186665},{"type":"node","id":9755771363,"lat":52.4986551,"lon":13.4184225},{"type":"node","id":9755771367,"lat":52.4987306,"lon":13.4187179},{"type":"node","id":9755771369,"lat":52.4987101,"lon":13.4187019},{"type":"node","id":9755771370,"lat":52.4986782,"lon":13.4185743},{"type":"node","id":10592351012,"lat":52.4984996,"lon":13.4200703},{"type":"node","id":10592351013,"lat":52.4985436,"lon":13.4199202},{"type":"node","id":10933904840,"lat":52.4983191,"lon":13.4176737},{"type":"node","id":10979475366,"lat":52.4979149,"lon":13.4189343},{"type":"node","id":10979475367,"lat":52.4979011,"lon":13.4188639},{"type":"node","id":10979475368,"lat":52.4978854,"lon":13.4187848},{"type":"node","id":11350559193,"lat":52.4982491,"lon":13.4184399},{"type":"node","id":11350559195,"lat":52.4978597,"lon":13.4186561},{"type":"node","id":11350559196,"lat":52.4979557,"lon":13.4191371},{"type":"node","id":11800112292,"lat":52.4985984,"lon":13.4178347},{"type":"node","id":11806567841,"lat":52.4988581,"lon":13.4185785},{"type":"node","id":12484239149,"lat":52.4981233,"lon":13.4168972},{"type":"node","id":12484239150,"lat":52.498055,"lon":13.4171512},{"type":"node","id":12484239153,"lat":52.4983277,"lon":13.4183058},{"type":"node","id":12484239154,"lat":52.4983892,"lon":13.418285},{"type":"node","id":12484239155,"lat":52.4984939,"lon":13.4181957},{"type":"node","id":12484239156,"lat":52.498476,"lon":13.4180476},{"type":"node","id":12484239157,"lat":52.4983028,"lon":13.4175838},{"type":"node","id":12484239158,"lat":52.4981656,"lon":13.4172289},{"type":"node","id":12484239159,"lat":52.4982332,"lon":13.4169756},{"type":"node","id":12484239160,"lat":52.4986319,"lon":13.417258},{"type":"node","id":12484239161,"lat":52.4987151,"lon":13.4172296},{"type":"node","id":12484239162,"lat":52.4986487,"lon":13.4167044},{"type":"node","id":12484239163,"lat":52.4987041,"lon":13.4167429},{"type":"node","id":12596456969,"lat":52.4983229,"lon":13.4184997},{"type":"node","id":12596456970,"lat":52.4982082,"lon":13.4188978},{"type":"node","id":4340070736,"lat":52.5044411,"lon":13.411394}]}