{"version":0.6,"generator":"Overpass API 0.7.62.5 1bd436f1","osm3s":{"timestamp_osm_base":"2025-03-11T16:19:11Z","copyright":"The data included in this document is from www.openstreetmap.org. The data is made available under ODbL."},"elements":[{"type":"node","id":799000074,"lat":52.4982696,"lon":13.416639,"tags":{"addr:city":"Berlin","addr:country":"DE","addr:housenumber":"2","addr:postcode":"10999","addr:street":"Admiralstra\u00dfe","addr:suburb":"Kreuzberg"}},{"type":"node","id":799000210,"lat":52.4982128,"lon":13.4168722,"tags":{"addr:city":"Berlin","addr:country":"DE","addr:housenumber":"1","addr:postcode":"10999","addr:street":"Admiralstra\u00dfe","addr:suburb":"Kreuzberg"}},{"type":"node","id":1440648313,"lat":52.4980035,"lon":13.4168101,"tags":{"access":"private","barrier":"lift_gate","bicycle":"yes","foot":"yes","motorcar":"yes","motorcycle":"yes"}},{"type":"node","id":1440648376,"lat":52.4980784,"lon":13.41651,"tags":{"barrier":"gate","bicycle":"yes","foot":"yes"}},{"type":"node","id":8078037456,"lat":52.4981024,"lon":13.4168608,"tags":{"barrier":"swing_gate"}},{"type":"node","id":8078037463,"lat":52.4982977,"lon":13.4164358,"tags":{"access":"private","amenity":"parking_entrance","parking":"underground"}},{"type":"node","id":8817928096,"lat":52.4983029,"lon":13.41706,"tags":{"barrier":"bollard","bollard":"fixed"}},{"type":"node","id":8817928097,"lat":52.4983086,"lon":13.417035,"tags":{"barrier":"bollard","bollard":"fixed"}},{"type":"node","id":8817928098,"lat":52.4983567,"lon":13.4170987,"tags":{"barrier":"bollard","bollard":"fixed"}},{"type":"node","id":8817928099,"lat":52.4983594,"lon":13.4170717,"tags":{"barrier":"bollard","bollard":"fixed"}},{"type":"node","id":11214229674,"lat":52.4980592,"lon":13.4168488,"tags":{"addr:housenumber":"2","addr:street":"Admiralstrasse","amenity":"parcel_locker","brand":"Myflexbox","brand:wikidata":"Q117313525","capacity":"77","check_date":"2024-08-22","colour":"white","description":"GLS;UPS;FedEx","opening_hours":"24\/7","parcel_locker:type":"cabinet","parcel_mail_in":"yes","parcel_pickup":"yes","ref":"50"}},{"type":"node","id":11249087234,"lat":52.4984875,"lon":13.4167198,"tags":{"artwork_type":"mural","image":"https:\/\/photos.app.goo.gl\/WnHKJ9VHwkzf3JZU9","tourism":"artwork"}},{"type":"node","id":11249087235,"lat":52.4984291,"lon":13.4167837,"tags":{"artwork_type":"mural","image":"https:\/\/photos.app.goo.gl\/MiQoYdMBtVQLve2e6","tourism":"artwork"}},{"type":"node","id":11249087236,"lat":52.4984491,"lon":13.4166055,"tags":{"artwork_type":"graffiti","covered":"yes","image":"https:\/\/photos.app.goo.gl\/pgBSowbUUYt3f6NN6","tourism":"artwork"}},{"type":"node","id":11249094037,"lat":52.4984212,"lon":13.4166104,"tags":{"artwork_type":"graffiti","covered":"yes","image":"https:\/\/photos.app.goo.gl\/8p2cpqjzsmaFNsfN9","tourism":"artwork"}},{"type":"node","id":11249094038,"lat":52.4981827,"lon":13.4169468,"tags":{"artwork_type":"graffiti","covered":"https:\/\/photos.app.goo.gl\/BJSAJRcwUwMhgQsV8https:\/\/photos.app.goo.gl\/pMZF33g9SCqVV1cV8","tourism":"artwork"}},{"type":"node","id":12078295034,"lat":52.4984471,"lon":13.4171105,"tags":{"leaf_cycle":"evergreen","leaf_type":"needleleaved","natural":"tree"}},{"type":"node","id":12107006176,"lat":52.4979355,"lon":13.4168203,"tags":{"highway":"street_lamp"}},{"type":"node","id":12107006177,"lat":52.4980505,"lon":13.4170989,"tags":{"highway":"street_lamp"}},{"type":"node","id":12125936108,"lat":52.4980591,"lon":13.4171177,"tags":{"addr:floor":"0","emergency":"fire_hydrant","fire_hydrant:position":"sidewalk","fire_hydrant:type":"underground","level":"0","source":"survey","water_source":"main"}},{"type":"node","id":12584592819,"lat":52.4978729,"lon":13.4169845,"tags":{"amenity":"vending_machine","currency:EUR":"yes","payment:coins":"yes","payment:handyparken":"yes","vending":"parking_tickets"}}]}