{"version":0.6,"generator":"Overpass API 0.7.62.5 1bd436f1","osm3s":{"timestamp_osm_base":"2025-03-12T11:55:30Z","copyright":"The data included in this document is from www.openstreetmap.org. The data is made available under ODbL."},"elements":[{"type":"way","id":10364525,"nodes":[268603476,1455180571,268601643,1744420739,908592240,1744420734,1744420726,908592241,159540357,178916275,7117546478,21392706],"tags":{"electrified":"no","gauge":"1435","layer":"-2","maxspeed":"20 mph","name":"Snow Hill Tunnel","passenger_lines":"2","railway":"rail","ref":"DCL","source":"OS-OpenData_StreetView","tunnel":"yes","tunnel:name":"Snow Hill Tunnel","usage":"main"}},{"type":"way","id":10496357,"nodes":[90235396,90235397,90235398,90235399,10762333873,26590997],"tags":{"highway":"pedestrian","lit":"yes","name":"Martineau Way","surface":"paving_stones"}},{"type":"way","id":10496359,"nodes":[90235402,12530516721,1261722743],"tags":{"highway":"footway","lit":"yes","surface":"paving_stones"}},{"type":"way","id":28425212,"nodes":[1744420714,10762333875],"tags":{"highway":"footway","name":"Martineau Place","note":"Arcade","source":"estimate","tunnel":"building_passage"}},{"type":"way","id":72765516,"nodes":[312628814,312628813,2453125708,863884563,312628817,2453125701,312628811,2520425399,2453125698,2453125696,312628815,4978801701,863884535,2453125689,2453125691,863884359,2453125692,863884664,2520425398,863884515,863884315,863884758,863884483,863884637,863884374,11602191684,2453125719,863884590,312628814],"tags":{"architect":"Sir Frederick Gibberd","building":"retail","name":"The Square","source":"Bing;cities_revealed_aerial_imagery","start_date":"1963"}},{"type":"way","id":72875371,"nodes":[1744420713,1744420714,1744420717,1744420718,1744420721,1744420710,10762333876,4027013162,4027013139,1744420707,1744420708,1744420706,1153420766,1153420778,1744420709,1744420712,1744420713],"tags":{"addr:city":"Birmingham","addr:street":"Martineau Way","building":"retail","source":"cities_revealed_aerial_imagery"}},{"type":"way","id":94957877,"nodes":[1102124891,8378711598,1102124953,1102124922,1102124872,1261691730],"tags":{"highway":"footway","level":"-1","lit":"yes","source":"Bing; local knowledge","surface":"paving_stones"}},{"type":"way","id":110489707,"nodes":[1261689286,864881711,4027013155,1261689279,1261689273,1261689286],"tags":{"addr:city":"Birmingham","addr:postcode":"B2 4UU","addr:street":"Martineau Place","building":"retail","name":"My Hair My Beauty","old_name":"Bonmarch\u00e9","shop":"beauty","source":"Visual survey;estimate"}},{"type":"way","id":110489708,"nodes":[1261689269,864881398,864882195,864881951,864881880,864881547,864882000,1261689268,1261689276,1744420730,1261689269],"tags":{"addr:city":"Birmingham","addr:housenumber":"76","addr:postcode":"B2 4UQ","addr:street":"Corporation Street","brand":"Pep&Co","brand:wikidata":"Q24908166","building":"retail","fhrs:id":"604509","name":"Pep&Co","shop":"clothes","source":"visual survey;estimate","wheelchair":"yes"}},{"type":"way","id":110489711,"nodes":[1261689276,1261689268,1261689286,1261689273,1261689276],"tags":{"addr:city":"Birmingham","addr:housename":"Unit 26","addr:housenumber":"90","addr:street":"Bull Street","branch":"Birmingham","brand":"CeX","brand:wikidata":"Q5055676","brand:wikipedia":"en:CeX (company)","building":"retail","contact:website":"https:\/\/uk.webuy.com\/site\/storeDetail\/?branchId=11","description":"Gaming, computing, phones, electronics and DVDs.","name":"CeX","shop":"electronics"}},{"type":"way","id":110489761,"nodes":[2520425398,2453125701,312628817,863884563,2453125708],"tags":{"covered":"yes","highway":"footway","lit":"yes","name":"Dalton Way","source":"Bing; visual survey; estimate","surface":"paving_stones"}},{"type":"way","id":110491693,"nodes":[1261722719,1261722733,1261722748,1261722704,1261722710,2519321017,4027013165,1261722734,1261722713,4027013185,1261722722,4027013169,1261722717,1261722746,8333476965,1261722712,1261722719],"tags":{"addr:city":"Birmingham","addr:street":"Martineau Way","building":"retail","source":"bing"}},{"type":"way","id":110491694,"nodes":[1261722731,1261722712,8333476965,8333476966,1261722731],"tags":{"addr:city":"Birmingham","addr:housenumber":"100B","addr:postcode":"B4 7AA","addr:street":"Bull Street","amenity":"fast_food","branch":"Birmingham Bull Street","brand":"Chopstix","brand:wikidata":"Q115327253","building":"retail","cuisine":"noodle","drive_through":"no","fhrs:id":"1468408","name":"Chopstix","opening_hours":"Mo-Sa 11:00-21:00; Su 11:00-18:00","phone":"+44 121 389 1512","source":"visual survey;bing","takeaway":"yes","website":"https:\/\/www.chopstixnoodles.co.uk\/stores\/birmingham-bull-street"}},{"type":"way","id":110491697,"nodes":[1261722743,90235396],"tags":{"handrail":"yes","highway":"steps","incline":"up","lit":"yes","ramp":"no","step_count":"20","surface":"paving_stones"}},{"type":"way","id":110491698,"nodes":[1261722717,1261722755,1261722751,1261722746,1261722717],"tags":{"addr:city":"Birmingham","addr:housenumber":"23","addr:postcode":"B4 7AA","addr:street":"Martineau Place","alt_name":"Kentucky Fried Chicken","amenity":"fast_food","brand":"KFC","brand:wikidata":"Q524757","brand:wikipedia":"en:KFC","building":"retail","contact:website":"https:\/\/www.kfc.co.uk\/kfc-near-me\/birmingham-martineau-place","cuisine":"chicken","drive_through":"no","fhrs:id":"1732382","name":"KFC","source":"visual survey;bing","source:addr":"FHRS Open Data","takeaway":"yes"}},{"type":"way","id":110491700,"nodes":[1261722712,1261722731,1261722720,1261722719,1261722712],"tags":{"addr:city":"Birmingham","addr:housenumber":"100B","addr:postcode":"B4 7AA","addr:street":"Bull Street","addr:suburb":"Ladywood","amenity":"fast_food","building":"yes","fhrs:id":"1720292","name":"Al Arabi Grill House","old_name":"Iskender Kebab","source":"visual survey;bing","source:addr":"FHRS Open Data"}},{"type":"way","id":132239456,"nodes":[1455177634,7117546477,1455180572,7117546480,1455180570,1827309440,1455180568,7117546479,1827309442,1827309427,1455180573,1455180569],"tags":{"electrified":"no","gauge":"1435","layer":"-2","maxspeed":"20 mph","name":"Snow Hill Tunnel","passenger_lines":"2","railway":"rail","ref":"DCL","source":"OS-OpenData_StreetView","tunnel":"yes","tunnel:name":"Snow Hill Tunnel","usage":"main"}},{"type":"way","id":162580318,"nodes":[1744420732,1261689269,1744420730,1744420728,1744420732],"tags":{"addr:city":"Birmingham","addr:housenumber":"74","addr:postcode":"B2 4UQ","addr:street":"Corporation Street","amenity":"cafe","brand":"Caff\u00e8 Nero","brand:wikidata":"Q675808","brand:wikipedia":"en:Caff\u00e8 Nero","building":"retail","check_date":"2024-08-22","check_date:opening_hours":"2024-08-22","cuisine":"coffee_shop","fhrs:id":"601725","name":"Caff\u00e8 Nero","opening_hours":"Mo-Fr 06:30-18:00; Sa 07:30-18:00; Su 09:30-17:00","source":"cities_revealed_aerial_imagery","takeaway":"yes","website":"https:\/\/www.caffenero.com\/uk\/stores\/birmingham-corporation-st\/"}},{"type":"way","id":162580326,"nodes":[1744420722,1744420713,1744420712,1744420719,1744420722],"tags":{"addr:city":"Birmingham","addr:housenumber":"64","addr:street":"Corporation Street","building":"retail","source":"cities_revealed_aerial_imagery"}},{"type":"way","id":162580329,"nodes":[1744420723,1744420727,1744420718,1744420717,1744420723],"tags":{"addr:city":"Birmingham","addr:housenumber":"66","addr:street":"Corporation Street","building":"retail","shop":"vacant","source":"cities_revealed_aerial_imagery"}},{"type":"way","id":162580331,"nodes":[1744420721,1744420718,1744420727,1744420729,1744420721],"tags":{"addr:city":"Birmingham","addr:housenumber":"68","addr:street":"Corporation Street","building":"retail","shop":"vacant","source":"cities_revealed_aerial_imagery"}},{"type":"way","id":162580334,"nodes":[1744420721,1744420729,1744420731,1744420724,1744420721],"tags":{"addr:city":"Birmingham","addr:housenumber":"70","addr:street":"Corporation Street","building":"retail","shop":"vacant","source":"cities_revealed_aerial_imagery"}},{"type":"way","id":162580338,"nodes":[1744420728,1744420724,1744420731,1744420732,1744420728],"tags":{"addr:city":"Birmingham","addr:housenumber":"72","addr:postcode":"B2 4RN","addr:street":"Corporation Street","building":"retail","source":"cities_revealed_aerial_imagery"}},{"type":"way","id":162580346,"nodes":[1744420717,1744420714,1744420713,1744420722,10762333875,1744420723,1744420717],"tags":{"addr:city":"Birmingham","addr:street":"Corporation Street","building":"yes","source":"cities_revealed_aerial_imagery"}},{"type":"way","id":162580347,"nodes":[1744420724,1744420728,1744420730,1261689276,1261689273,1261689279,1744420710,1744420721,1744420724],"tags":{"building":"retail","source":"cities_revealed_aerial_imagery"}},{"type":"way","id":228842276,"nodes":[21392400,90235404,90235403,90235402,1102124881,1261689278,1261689272,12530516720,2306317475,2339547166],"tags":{"access":"no","bicycle":"yes","bus":"yes","check_date":"2023-04-19","cycleway":"opposite","cycleway:right":"lane","emergency":"yes","foot":"yes","gritting":"priority_3","highway":"service","lane_markings":"no","lit":"yes","maintenance":"gritting","maxspeed":"20 mph","name":"Bull Street","oneway":"no","source":"survey","surface":"asphalt"}},{"type":"way","id":237155757,"nodes":[1261691730,2451000877,2451000878,8378711597,1102124891],"tags":{"highway":"footway","lit":"yes","surface":"paving_stones"}},{"type":"way","id":384805841,"nodes":[3946422786,2107829847,2107829845,2107829833,2107829820,2107829839,12345889456,12345889441,2306317478,3778386674,6863876840,2107829836,12345889440,2107829832,3778386672,4502789023,2107829834,2107829827,3883350334,6863876842,3818484229,2107829835,12004434595,12004434596,3883350328,2107829819,2107829828,4207929471,2107829840,4204911729,7135760390,8100471906,4710048694,2107829842,4204911727,2107829831,2107829848,4204911724,10608386990,2107829837,7471288343,2107829829,4204911721,6863876841,4204911718,4204911717,4216185185,2107829823,2107829825,4204911716,2107829826,2107829846,2107829841,2107829843,2107829817,7135760391,4204911699,2107829838,3754517400,2107829830,12428728033,8004015902,3616332640,12428728032,7135760392,4204911710,2107829821,3754517407,7135760393,3785138752],"tags":{"electrified":"contact_line","frequency":"0","gauge":"1435","railway":"tram","voltage":"750","website":"https:\/\/nxbus.co.uk\/the-metro"}},{"type":"way","id":400071572,"nodes":[4027013155,90235396,4027013169,1261722722,4027013185,1261722713,10762333873,864881645,1744420707,4027013139,4027013162,10762333876,1744420710,1261689279,4027013155],"tags":{"area":"yes","highway":"pedestrian","surface":"paving_stones"}},{"type":"way","id":420542649,"nodes":[21420270,6863876841,4204868692,4204911720,4204868694,8100471908,12530516718,2339547166],"tags":{"bicycle":"designated","foot":"designated","highway":"path","lit":"yes","segregated":"no","source":"survey","surface":"asphalt"}},{"type":"way","id":649320218,"nodes":[6094063083,6094063081,6094064494,6094063080,6094064485,6094064487,6094064491,6094064486,6094064496,6094064492,6094063083],"tags":{"building":"yes","height":"38"}},{"type":"way","id":798860820,"nodes":[4710048694,12530516725,12530516724,12530516723,10608386986,12530516722,10608386987],"tags":{"check_date":"2025-01-25","construction":"tram","construction:railway":"tram","electrified":"contact_line","frequency":"0","gauge":"1435","name":"Birmingham Eastside Extension","note":"Track now in situ (see source), line not yet in operation","railway":"tram","source:track_in_situ":"https:\/\/metroalliance.co.uk\/wp-content\/uploads\/2025\/01\/Eastside-Edition-22-Jan-2025-compressed.pdf?fbclid=IwY2xjawIBC4VleHRuA2FlbQIxMAABHYRIJHtEdMeHHZPZ6EoVQ3GwE9eIpyqqklAi-1_EDIiUgof1_Vmt46TZIQ_aem_ZU3QyHQBpUS8OkBS0kw8mA","voltage":"750"}},{"type":"way","id":896476291,"nodes":[8333476965,8333476966,1261722751,1261722746,8333476965],"tags":{"addr:city":"Birmingham","addr:housenumber":"99A","addr:postcode":"B4 7AA","addr:street":"Bull Street","amenity":"fast_food","building":"yes","cuisine":"chips;dutch","fhrs:id":"1570122","name":"Awesome Chips","operator":"Awesome Chips","source:addr":"FHRS Open Data"}},{"type":"way","id":1138075054,"nodes":[4710048697,12530516721,4710048696,4710048695,7471288333,7471343030,10608386989,4204868694,7471288343],"tags":{"check_date":"2025-01-25","construction":"tram","construction:railway":"tram","electrified":"contact_line","frequency":"0","gauge":"1435","name":"Birmingham Eastside Extension","note":"Track now in situ (see source), line not yet in operation","railway":"tram","source:track_in_situ":"https:\/\/metroalliance.co.uk\/wp-content\/uploads\/2025\/01\/Eastside-Edition-22-Jan-2025-compressed.pdf?fbclid=IwY2xjawIBC4VleHRuA2FlbQIxMAABHYRIJHtEdMeHHZPZ6EoVQ3GwE9eIpyqqklAi-1_EDIiUgof1_Vmt46TZIQ_aem_ZU3QyHQBpUS8OkBS0kw8mA","voltage":"750"}},{"type":"way","id":1157304455,"nodes":[90235398,10762333876,1744420714],"tags":{"highway":"footway","name":"Martineau Place","note":"Arcade","source":"estimate","surface":"paving_stones"}},{"type":"way","id":1248118906,"nodes":[1261689278,12530516722,1261691730,2520425398],"tags":{"covered":"arcade","highway":"footway","lit":"yes","name":"Dalton Way","source":"Bing; visual survey; estimate","surface":"paving_stones"}},{"type":"way","id":1354066186,"nodes":[10608386987,11479673688,12530516733,12493400065,12530516732,11479673687,12530516731,12493400084,12530516730,12214861261,12530516729,310651602,12530516728,12493400072,12530516727,12530516726,11479673682],"tags":{"check_date":"2025-01-25","construction":"tram","construction:railway":"tram","electrified":"contact_line","frequency":"0","gauge":"1435","name":"Birmingham Eastside Extension","note":"Track now in situ (see source), line not yet in operation","railway":"tram","source:track_in_situ":"https:\/\/metroalliance.co.uk\/wp-content\/uploads\/2025\/01\/Eastside-Edition-22-Jan-2025-compressed.pdf?fbclid=IwY2xjawIBC4VleHRuA2FlbQIxMAABHYRIJHtEdMeHHZPZ6EoVQ3GwE9eIpyqqklAi-1_EDIiUgof1_Vmt46TZIQ_aem_ZU3QyHQBpUS8OkBS0kw8mA","voltage":"750"}},{"type":"way","id":1354066187,"nodes":[12530516717,12530516734,864416037,12493400085,12530516735,12530516736,12493400087,12214861264,12530516737,7471343031,7471288360,12530516738,12530516739,7471288322,7471343036,4710048697],"tags":{"Indicative":"137","Mode":"Metro","Phase_1":"Development","Phase_2":"Development","check_date":"2025-01-25","construction:electrified":"contact_line","construction:frequency":"0","construction:voltage":"750","funded_secured":"yes","name":"Birmingham Eastside Extension","note":"Track now in situ (see source), line not yet in operation","proposed":"tram","proposed:railway":"tram","railway":"tram","source":"WMCA","source:track_in_situ":"https:\/\/metroalliance.co.uk\/wp-content\/uploads\/2025\/01\/Eastside-Edition-22-Jan-2025-compressed.pdf?fbclid=IwY2xjawIBC4VleHRuA2FlbQIxMAABHYRIJHtEdMeHHZPZ6EoVQ3GwE9eIpyqqklAi-1_EDIiUgof1_Vmt46TZIQ_aem_ZU3QyHQBpUS8OkBS0kw8mA"}},{"type":"node","id":3754517407,"lat":52.4787195,"lon":-1.9005699},{"type":"node","id":3785138752,"lat":52.4787652,"lon":-1.901199},{"type":"node","id":7135760393,"lat":52.478764,"lon":-1.9011825},{"type":"node","id":21392400,"lat":52.4803211,"lon":-1.8943506},{"type":"node","id":21420270,"lat":52.4801968,"lon":-1.8966929},{"type":"node","id":26590997,"lat":52.4798246,"lon":-1.8959696},{"type":"node","id":90235396,"lat":52.4804531,"lon":-1.8951358},{"type":"node","id":90235397,"lat":52.4804108,"lon":-1.8952109},{"type":"node","id":90235398,"lat":52.480299,"lon":-1.8953626},{"type":"node","id":90235399,"lat":52.4801008,"lon":-1.8956221},{"type":"node","id":90235402,"lat":52.4805911,"lon":-1.8948223},{"type":"node","id":90235403,"lat":52.4804689,"lon":-1.8946659},{"type":"node","id":90235404,"lat":52.4804037,"lon":-1.8945585},{"type":"node","id":159540357,"lat":52.4799352,"lon":-1.8943678},{"type":"node","id":268601643,"lat":52.4823736,"lon":-1.8978072},{"type":"node","id":268603476,"lat":52.4828867,"lon":-1.8984597},{"type":"node","id":312628811,"lat":52.481041,"lon":-1.894493},{"type":"node","id":312628813,"lat":52.4812689,"lon":-1.8942862},{"type":"node","id":312628815,"lat":52.4807259,"lon":-1.8941333},{"type":"node","id":312628817,"lat":52.481227,"lon":-1.8945999},{"type":"node","id":863884315,"lat":52.4818396,"lon":-1.8945909},{"type":"node","id":863884359,"lat":52.4805281,"lon":-1.8944849},{"type":"node","id":863884483,"lat":52.4818302,"lon":-1.8940928},{"type":"node","id":863884515,"lat":52.4812027,"lon":-1.8953119},{"type":"node","id":863884535,"lat":52.480483,"lon":-1.8944156},{"type":"node","id":863884563,"lat":52.4812014,"lon":-1.8944104},{"type":"node","id":863884664,"lat":52.4808427,"lon":-1.8949251},{"type":"node","id":863884758,"lat":52.4817471,"lon":-1.8941661},{"type":"node","id":864881398,"lat":52.4809531,"lon":-1.8956175},{"type":"node","id":864881547,"lat":52.4809439,"lon":-1.895464},{"type":"node","id":864881645,"lat":52.4798711,"lon":-1.8959623},{"type":"node","id":864881711,"lat":52.4805486,"lon":-1.8949959},{"type":"node","id":864881880,"lat":52.4809645,"lon":-1.8954977},{"type":"node","id":864881951,"lat":52.4809553,"lon":-1.8955388},{"type":"node","id":864882000,"lat":52.4809553,"lon":-1.8954303},{"type":"node","id":864882195,"lat":52.4809394,"lon":-1.8955688},{"type":"node","id":908592240,"lat":52.4811968,"lon":-1.8963743},{"type":"node","id":908592241,"lat":52.4804042,"lon":-1.8952044},{"type":"node","id":1102124872,"lat":52.4808875,"lon":-1.8950906},{"type":"node","id":1102124881,"lat":52.4807322,"lon":-1.894988},{"type":"node","id":1102124891,"lat":52.4815118,"lon":-1.8950421},{"type":"node","id":1102124922,"lat":52.4810294,"lon":-1.8952594},{"type":"node","id":1102124953,"lat":52.4811962,"lon":-1.8954224},{"type":"node","id":1153420766,"lat":52.4800018,"lon":-1.8962621},{"type":"node","id":1153420778,"lat":52.4802518,"lon":-1.8959665},{"type":"node","id":1261689268,"lat":52.4808008,"lon":-1.8952591},{"type":"node","id":1261689269,"lat":52.4808469,"lon":-1.8957336},{"type":"node","id":1261689272,"lat":52.4809199,"lon":-1.8951997},{"type":"node","id":1261689273,"lat":52.4806228,"lon":-1.8953229},{"type":"node","id":1261689276,"lat":52.4807258,"lon":-1.8954388},{"type":"node","id":1261689278,"lat":52.4808139,"lon":-1.8950848},{"type":"node","id":1261689279,"lat":52.4805869,"lon":-1.8953938},{"type":"node","id":1261689286,"lat":52.4806978,"lon":-1.8951433},{"type":"node","id":1261691730,"lat":52.4808356,"lon":-1.8950432},{"type":"node","id":1261722704,"lat":52.4801706,"lon":-1.8952425},{"type":"node","id":1261722710,"lat":52.4799314,"lon":-1.895326},{"type":"node","id":1261722712,"lat":52.4803106,"lon":-1.8949253},{"type":"node","id":1261722713,"lat":52.4798625,"lon":-1.8958758},{"type":"node","id":1261722717,"lat":52.4804562,"lon":-1.8950668},{"type":"node","id":1261722719,"lat":52.4802723,"lon":-1.8948894},{"type":"node","id":1261722720,"lat":52.4803066,"lon":-1.8947237},{"type":"node","id":1261722722,"lat":52.4804034,"lon":-1.8951617},{"type":"node","id":1261722731,"lat":52.4803585,"lon":-1.8947832},{"type":"node","id":1261722733,"lat":52.4802807,"lon":-1.8950473},{"type":"node","id":1261722734,"lat":52.4798333,"lon":-1.8957934},{"type":"node","id":1261722743,"lat":52.4805316,"lon":-1.8949558},{"type":"node","id":1261722746,"lat":52.4804109,"lon":-1.8950223},{"type":"node","id":1261722748,"lat":52.4801539,"lon":-1.8950885},{"type":"node","id":1261722751,"lat":52.4804624,"lon":-1.8949023},{"type":"node","id":1261722755,"lat":52.4805088,"lon":-1.8949531},{"type":"node","id":1455180568,"lat":52.4809556,"lon":-1.8959773},{"type":"node","id":1455180569,"lat":52.4829019,"lon":-1.8984106},{"type":"node","id":1455180570,"lat":52.4804203,"lon":-1.8951725},{"type":"node","id":1455180571,"lat":52.482865,"lon":-1.8984321},{"type":"node","id":1455180573,"lat":52.4828032,"lon":-1.8982901},{"type":"node","id":1744420706,"lat":52.4799245,"lon":-1.8960794},{"type":"node","id":1744420707,"lat":52.4800863,"lon":-1.8957066},{"type":"node","id":1744420708,"lat":52.4801374,"lon":-1.8958274},{"type":"node","id":1744420709,"lat":52.4803386,"lon":-1.8958628},{"type":"node","id":1744420710,"lat":52.4805165,"lon":-1.8954965},{"type":"node","id":1744420712,"lat":52.4804237,"lon":-1.8957611},{"type":"node","id":1744420713,"lat":52.4804639,"lon":-1.895713},{"type":"node","id":1744420714,"lat":52.4804722,"lon":-1.8957031},{"type":"node","id":1744420717,"lat":52.4804799,"lon":-1.8956939},{"type":"node","id":1744420718,"lat":52.4805257,"lon":-1.8956392},{"type":"node","id":1744420719,"lat":52.4805574,"lon":-1.8960626},{"type":"node","id":1744420721,"lat":52.4805658,"lon":-1.8955875},{"type":"node","id":1744420722,"lat":52.4805976,"lon":-1.8960145},{"type":"node","id":1744420723,"lat":52.4806136,"lon":-1.8959954},{"type":"node","id":1744420724,"lat":52.4806166,"lon":-1.8955262},{"type":"node","id":1744420726,"lat":52.4806541,"lon":-1.8956219},{"type":"node","id":1744420727,"lat":52.4806593,"lon":-1.8959407},{"type":"node","id":1744420728,"lat":52.4806673,"lon":-1.8954782},{"type":"node","id":1744420729,"lat":52.4807005,"lon":-1.8958882},{"type":"node","id":1744420730,"lat":52.4807304,"lon":-1.8954581},{"type":"node","id":1744420731,"lat":52.4807512,"lon":-1.8958269},{"type":"node","id":1744420732,"lat":52.4807949,"lon":-1.8957835},{"type":"node","id":1744420734,"lat":52.480931,"lon":-1.8959989},{"type":"node","id":1744420739,"lat":52.4813902,"lon":-1.8966493},{"type":"node","id":1827309427,"lat":52.482275,"lon":-1.897636},{"type":"node","id":1827309440,"lat":52.4806737,"lon":-1.895578},{"type":"node","id":1827309442,"lat":52.4815991,"lon":-1.8968425},{"type":"node","id":2107829817,"lat":52.4785997,"lon":-1.8982439},{"type":"node","id":2107829819,"lat":52.4823034,"lon":-1.8967761},{"type":"node","id":2107829820,"lat":52.4836313,"lon":-1.8988098},{"type":"node","id":2107829821,"lat":52.4786806,"lon":-1.9000687},{"type":"node","id":2107829823,"lat":52.4793894,"lon":-1.8975988},{"type":"node","id":2107829825,"lat":52.4791804,"lon":-1.8977584},{"type":"node","id":2107829826,"lat":52.4790536,"lon":-1.897905},{"type":"node","id":2107829827,"lat":52.4827083,"lon":-1.8970855},{"type":"node","id":2107829828,"lat":52.4821934,"lon":-1.8966641},{"type":"node","id":2107829829,"lat":52.4809433,"lon":-1.8957951},{"type":"node","id":2107829830,"lat":52.4785179,"lon":-1.898521},{"type":"node","id":2107829831,"lat":52.4812285,"lon":-1.895632},{"type":"node","id":2107829832,"lat":52.4830779,"lon":-1.8976397},{"type":"node","id":2107829833,"lat":52.4842831,"lon":-1.8996207},{"type":"node","id":2107829834,"lat":52.4830307,"lon":-1.8974898},{"type":"node","id":2107829835,"lat":52.482438,"lon":-1.8968417},{"type":"node","id":2107829836,"lat":52.4831159,"lon":-1.8978907},{"type":"node","id":2107829837,"lat":52.4810541,"lon":-1.8956757},{"type":"node","id":2107829838,"lat":52.4785458,"lon":-1.8983275},{"type":"node","id":2107829839,"lat":52.4834676,"lon":-1.898601},{"type":"node","id":2107829840,"lat":52.4819303,"lon":-1.8963398},{"type":"node","id":2107829841,"lat":52.478845,"lon":-1.8981017},{"type":"node","id":2107829842,"lat":52.4813281,"lon":-1.8956548},{"type":"node","id":2107829843,"lat":52.4787118,"lon":-1.8981809},{"type":"node","id":2107829845,"lat":52.4843974,"lon":-1.8997588},{"type":"node","id":2107829846,"lat":52.4789713,"lon":-1.8980152},{"type":"node","id":2107829847,"lat":52.4844922,"lon":-1.8998822},{"type":"node","id":2107829848,"lat":52.4811532,"lon":-1.8956326},{"type":"node","id":2306317475,"lat":52.4811179,"lon":-1.8954497},{"type":"node","id":2306317478,"lat":52.4831802,"lon":-1.8981903},{"type":"node","id":2339547166,"lat":52.4811632,"lon":-1.8954763},{"type":"node","id":2451000877,"lat":52.4809184,"lon":-1.8950639},{"type":"node","id":2451000878,"lat":52.4811959,"lon":-1.8953472},{"type":"node","id":2453125689,"lat":52.4805,"lon":-1.8944546},{"type":"node","id":2453125691,"lat":52.480518,"lon":-1.8944967},{"type":"node","id":2453125692,"lat":52.4805432,"lon":-1.8945782},{"type":"node","id":2453125696,"lat":52.4807513,"lon":-1.8941617},{"type":"node","id":2453125698,"lat":52.4807781,"lon":-1.8941943},{"type":"node","id":2453125701,"lat":52.4810905,"lon":-1.8947549},{"type":"node","id":2453125708,"lat":52.4812822,"lon":-1.8943234},{"type":"node","id":2519321017,"lat":52.4797628,"lon":-1.8953934},{"type":"node","id":2520425398,"lat":52.4808951,"lon":-1.8949778},{"type":"node","id":2520425399,"lat":52.4808993,"lon":-1.894332},{"type":"node","id":3616332640,"lat":52.4785939,"lon":-1.899246},{"type":"node","id":3754517400,"lat":52.4785249,"lon":-1.8984028},{"type":"node","id":3778386672,"lat":52.4830694,"lon":-1.8975881},{"type":"node","id":3778386674,"lat":52.4831613,"lon":-1.8981255},{"type":"node","id":3818484229,"lat":52.4825693,"lon":-1.8969578},{"type":"node","id":3883350328,"lat":52.4823316,"lon":-1.8967999},{"type":"node","id":3883350334,"lat":52.4826415,"lon":-1.8970367},{"type":"node","id":4027013139,"lat":52.4802859,"lon":-1.8954317},{"type":"node","id":4027013155,"lat":52.4804776,"lon":-1.8951795},{"type":"node","id":4027013162,"lat":52.4804045,"lon":-1.8956381},{"type":"node","id":4027013165,"lat":52.4798311,"lon":-1.8957807},{"type":"node","id":4027013169,"lat":52.4804304,"lon":-1.8951131},{"type":"node","id":4027013185,"lat":52.479956,"lon":-1.8957523},{"type":"node","id":4204868692,"lat":52.4801787,"lon":-1.8966443},{"type":"node","id":4204868694,"lat":52.4810481,"lon":-1.8956482},{"type":"node","id":4204911699,"lat":52.4785657,"lon":-1.8982881},{"type":"node","id":4204911710,"lat":52.4786723,"lon":-1.8999947},{"type":"node","id":4204911716,"lat":52.479104,"lon":-1.8978449},{"type":"node","id":4204911717,"lat":52.4798113,"lon":-1.8970825},{"type":"node","id":4204911718,"lat":52.4801307,"lon":-1.896719},{"type":"node","id":4204911720,"lat":52.4806461,"lon":-1.8961075},{"type":"node","id":4204911721,"lat":52.4806579,"lon":-1.8961363},{"type":"node","id":4204911724,"lat":52.4811006,"lon":-1.8956529},{"type":"node","id":4204911727,"lat":52.4812827,"lon":-1.8956462},{"type":"node","id":4204911729,"lat":52.4817605,"lon":-1.8961363},{"type":"node","id":4207929471,"lat":52.4820227,"lon":-1.8964537},{"type":"node","id":4216185185,"lat":52.4796964,"lon":-1.8972181},{"type":"node","id":4502789023,"lat":52.483057,"lon":-1.8975418},{"type":"node","id":4710048694,"lat":52.481346,"lon":-1.8956662},{"type":"node","id":4710048695,"lat":52.4810061,"lon":-1.8953316},{"type":"node","id":4710048696,"lat":52.4806006,"lon":-1.8948587},{"type":"node","id":4710048697,"lat":52.4804881,"lon":-1.8947189},{"type":"node","id":4978801701,"lat":52.4804954,"lon":-1.8944006},{"type":"node","id":6094063080,"lat":52.4801019,"lon":-1.8960343},{"type":"node","id":6094063081,"lat":52.4801509,"lon":-1.896155},{"type":"node","id":6094063083,"lat":52.4802244,"lon":-1.8961175},{"type":"node","id":6094064485,"lat":52.4801509,"lon":-1.8959351},{"type":"node","id":6094064486,"lat":52.4806965,"lon":-1.8954523},{"type":"node","id":6094064487,"lat":52.4806116,"lon":-1.8954228},{"type":"node","id":6094064491,"lat":52.4806818,"lon":-1.8953799},{"type":"node","id":6094064492,"lat":52.4806851,"lon":-1.8955837},{"type":"node","id":6094064494,"lat":52.480133,"lon":-1.8960862},{"type":"node","id":6094064496,"lat":52.4807325,"lon":-1.8955006},{"type":"node","id":6863876840,"lat":52.4831435,"lon":-1.8980466},{"type":"node","id":6863876841,"lat":52.4801844,"lon":-1.8966596},{"type":"node","id":6863876842,"lat":52.4826302,"lon":-1.8970243},{"type":"node","id":7117546479,"lat":52.4812197,"lon":-1.8963484},{"type":"node","id":7117546480,"lat":52.4799551,"lon":-1.8943268},{"type":"node","id":7135760390,"lat":52.4816889,"lon":-1.8960565},{"type":"node","id":7135760391,"lat":52.4785876,"lon":-1.8982596},{"type":"node","id":7135760392,"lat":52.478657,"lon":-1.8998525},{"type":"node","id":7471288322,"lat":52.4803044,"lon":-1.8943864},{"type":"node","id":7471288333,"lat":52.4810569,"lon":-1.895434},{"type":"node","id":7471288343,"lat":52.4810307,"lon":-1.8957009},{"type":"node","id":7471288360,"lat":52.4802722,"lon":-1.8941527},{"type":"node","id":7471343030,"lat":52.4810635,"lon":-1.8955332},{"type":"node","id":7471343036,"lat":52.4803707,"lon":-1.8945519},{"type":"node","id":8004015902,"lat":52.4785927,"lon":-1.8992344},{"type":"node","id":8100471906,"lat":52.4813717,"lon":-1.8957033},{"type":"node","id":8100471908,"lat":52.481086,"lon":-1.8955918},{"type":"node","id":8333476965,"lat":52.4803608,"lon":-1.8949717},{"type":"node","id":8333476966,"lat":52.4804105,"lon":-1.8948427},{"type":"node","id":8378711597,"lat":52.4814187,"lon":-1.8951161},{"type":"node","id":8378711598,"lat":52.4814342,"lon":-1.895155},{"type":"node","id":10608386986,"lat":52.4810226,"lon":-1.8953059},{"type":"node","id":10608386987,"lat":52.480503,"lon":-1.8946793},{"type":"node","id":10608386989,"lat":52.481059,"lon":-1.8956154},{"type":"node","id":10608386990,"lat":52.4810815,"lon":-1.8956622},{"type":"node","id":10762333873,"lat":52.4798668,"lon":-1.8959195},{"type":"node","id":10762333875,"lat":52.4806059,"lon":-1.8960046},{"type":"node","id":10762333876,"lat":52.4804265,"lon":-1.8956131},{"type":"node","id":11479673687,"lat":52.4803258,"lon":-1.8941669},{"type":"node","id":11479673688,"lat":52.4804308,"lon":-1.8945619},{"type":"node","id":12004434595,"lat":52.48242,"lon":-1.8968341},{"type":"node","id":12004434596,"lat":52.482371,"lon":-1.896822},{"type":"node","id":12345889440,"lat":52.4830922,"lon":-1.897742},{"type":"node","id":12345889441,"lat":52.4832088,"lon":-1.8982594},{"type":"node","id":12345889456,"lat":52.4832657,"lon":-1.8983494},{"type":"node","id":12428728032,"lat":52.4786356,"lon":-1.8996464},{"type":"node","id":12428728033,"lat":52.4785591,"lon":-1.8989141},{"type":"node","id":12493400065,"lat":52.4803521,"lon":-1.8943591},{"type":"node","id":12530516718,"lat":52.4811516,"lon":-1.8954936},{"type":"node","id":12530516720,"lat":52.4810637,"lon":-1.8953812},{"type":"node","id":12530516721,"lat":52.480584,"lon":-1.8948381},{"type":"node","id":12530516722,"lat":52.4808237,"lon":-1.895066},{"type":"node","id":12530516723,"lat":52.4811703,"lon":-1.8954705},{"type":"node","id":12530516724,"lat":52.4811785,"lon":-1.8954796},{"type":"node","id":12530516725,"lat":52.4813255,"lon":-1.8956434},{"type":"node","id":12530516732,"lat":52.4803471,"lon":-1.8943223},{"type":"node","id":12530516733,"lat":52.4804219,"lon":-1.8945389},{"type":"node","id":12530516738,"lat":52.4802875,"lon":-1.8942636},{"type":"node","id":12530516739,"lat":52.4803018,"lon":-1.8943677},{"type":"node","id":21392706,"lat":52.47914,"lon":-1.8925466},{"type":"node","id":178916275,"lat":52.4796662,"lon":-1.8938089},{"type":"node","id":310651602,"lat":52.4805026,"lon":-1.8918367},{"type":"node","id":312628814,"lat":52.4809112,"lon":-1.8939179},{"type":"node","id":863884374,"lat":52.4817963,"lon":-1.8937823},{"type":"node","id":863884590,"lat":52.4816451,"lon":-1.8930822},{"type":"node","id":863884637,"lat":52.4817718,"lon":-1.8938163},{"type":"node","id":864416037,"lat":52.4804989,"lon":-1.8915363},{"type":"node","id":1455177634,"lat":52.4791677,"lon":-1.8925298},{"type":"node","id":1455180572,"lat":52.4796928,"lon":-1.8937909},{"type":"node","id":2453125719,"lat":52.4817714,"lon":-1.8937207},{"type":"node","id":7117546477,"lat":52.4794793,"lon":-1.8933136},{"type":"node","id":7117546478,"lat":52.4794518,"lon":-1.8933267},{"type":"node","id":7471343031,"lat":52.4802983,"lon":-1.8935535},{"type":"node","id":11479673682,"lat":52.480577,"lon":-1.8913163},{"type":"node","id":11602191684,"lat":52.4817852,"lon":-1.8937587},{"type":"node","id":12214861261,"lat":52.4804256,"lon":-1.8926295},{"type":"node","id":12214861264,"lat":52.4803827,"lon":-1.8926971},{"type":"node","id":12493400072,"lat":52.4805295,"lon":-1.8915599},{"type":"node","id":12493400084,"lat":52.4803483,"lon":-1.8935582},{"type":"node","id":12493400085,"lat":52.4804921,"lon":-1.8915672},{"type":"node","id":12493400087,"lat":52.4804359,"lon":-1.892148},{"type":"node","id":12530516717,"lat":52.4805489,"lon":-1.8913095},{"type":"node","id":12530516726,"lat":52.4805529,"lon":-1.8914399},{"type":"node","id":12530516727,"lat":52.4805422,"lon":-1.8914948},{"type":"node","id":12530516728,"lat":52.4805243,"lon":-1.8916133},{"type":"node","id":12530516729,"lat":52.4804748,"lon":-1.892123},{"type":"node","id":12530516730,"lat":52.4803828,"lon":-1.8931443},{"type":"node","id":12530516731,"lat":52.4803396,"lon":-1.8937947},{"type":"node","id":12530516734,"lat":52.4805126,"lon":-1.8914743},{"type":"node","id":12530516735,"lat":52.4804844,"lon":-1.8916463},{"type":"node","id":12530516736,"lat":52.4804624,"lon":-1.8918739},{"type":"node","id":12530516737,"lat":52.480344,"lon":-1.8930899},{"type":"node","id":3946422786,"lat":52.484557,"lon":-1.8999947}]}