{"version":0.6,"generator":"Overpass API 0.7.62.5 1bd436f1","osm3s":{"timestamp_osm_base":"2025-03-12T11:53:30Z","copyright":"The data included in this document is from www.openstreetmap.org. The data is made available under ODbL."},"elements":[{"type":"node","id":310674206,"lat":52.4801211,"lon":-1.8990618,"tags":{"addr:city":"Birmingham","addr:housenumber":"39-40","addr:postcode":"B2 5DP","addr:street":"Temple Street","amenity":"restaurant","brand":"Las Iguanas","brand:wikidata":"Q19875012","check_date":"2024-07-16","check_date:opening_hours":"2024-07-16","cuisine":"latin_american","fhrs:id":"1368302","name":"Las Iguanas","opening_hours":"Mo-Tu 11:00-21:30; We-Th 11:00-22:00; Fr-Sa 11:00-22:30; Su 11:00-21:30","phone":"+44 1218 034883","source":"survey","source:addr":"FHRS Open Data","website":"https:\/\/www.iguanas.co.uk\/restaurants\/birmingham-templest\/"}},{"type":"node","id":733120820,"lat":52.4800821,"lon":-1.8991352,"tags":{"entrance":"yes","name":"Somerset House"}},{"type":"node","id":975847496,"lat":52.4797736,"lon":-1.900165,"tags":{"addr:city":"Birmingham","addr:housenumber":"24","addr:postcode":"B2 5QP","addr:street":"Bennett's Hill","amenity":"pub","fhrs:id":"598443","name":"The Sun on the Hill","real_ale":"yes","source":"visual survey; estimate","url":"http:\/\/www.thesunonthehill.co.uk\/"}},{"type":"node","id":1083128169,"lat":52.4800419,"lon":-1.8991875,"tags":{"amenity":"bench","backrest":"yes","source":"visual survey; estimate"}},{"type":"node","id":1083128212,"lat":52.4800947,"lon":-1.8991669,"tags":{"amenity":"bench","backrest":"yes","source":"visual survey; estimate"}},{"type":"node","id":2519250879,"lat":52.4798519,"lon":-1.8991396,"tags":{"name":"Irwin Mitchell Solicitors","office":"lawyer"}},{"type":"node","id":2519250931,"lat":52.480015,"lon":-1.8990681,"tags":{"addr:city":"Birmingham","addr:postcode":"B2 5DP","addr:street":"Temple Street","amenity":"pub","fhrs:id":"1131082","name":"Head of Steam","wheelchair":"yes"}},{"type":"node","id":4592379292,"lat":52.4797674,"lon":-1.8992604,"tags":{"emergency":"fire_hydrant","fire_hydrant:diameter:signed":"no","fire_hydrant:position":"sidewalk","fire_hydrant:type":"underground","operator":"WMFS","source":"survey"}},{"type":"node","id":5865113822,"lat":52.4797476,"lon":-1.8995056,"tags":{"addr:city":"Birmingham","addr:housename":"Cheltenham House","addr:housenumber":"14-16","addr:postcode":"B2 5BG","addr:street":"Temple Street","amenity":"restaurant","fhrs:id":"1570104","name":"The Botanist","source":"survey","source:addr":"FHRS Open Data"}},{"type":"node","id":5865965185,"lat":52.480079,"lon":-1.8994377,"tags":{"leisure":"fitness_centre","name":"Anarchy 45","source":"survey"}},{"type":"node","id":5865965186,"lat":52.4800818,"lon":-1.8991334,"tags":{"artwork:location":"above entrance to Somerset House","artwork_type":"relief","tourism":"artwork"}},{"type":"node","id":6261194845,"lat":52.4796788,"lon":-1.9001406,"tags":{"addr:city":"Birmingham","addr:postcode":"B2 5QP","addr:street":"Bennett's Hill","amenity":"restaurant","fhrs:id":"1025693","name":"Indian Streatery","source":"survey"}},{"type":"node","id":10989282438,"lat":52.479906,"lon":-1.9001322,"tags":{"addr:city":"Birmingham","addr:housenumber":"25","addr:postcode":"B2 5RE","addr:street":"Bennett's Hill","brand":"Wetherspoon","name":"The Briar Rose","tourism":"hotel","website":"https:\/\/www.jdwetherspoon.com\/hotels\/england\/west-midlands\/the-briar-rose"}}]}