{"version":0.6,"generator":"Overpass API 0.7.62.5 1bd436f1","osm3s":{"timestamp_osm_base":"2025-03-12T11:55:30Z","copyright":"The data included in this document is from www.openstreetmap.org. The data is made available under ODbL."},"elements":[{"type":"way","id":10496353,"nodes":[90235395,2523807524],"tags":{"highway":"footway","lit":"yes","surface":"paving_stones"}},{"type":"way","id":10496355,"nodes":[90235394,4204911717,90235392],"tags":{"highway":"pedestrian","lit":"yes","name":"Warwick Passage","postal_code":"B2","surface":"paving_stones"}},{"type":"way","id":17273349,"nodes":[90235393,90235392,10762333874,26590997],"tags":{"designation":"public_footpath","highway":"pedestrian","lit":"yes","name":"Union Passage","postal_code":"B2","prow_ref":"Birmingham FP 1317","source:prow_ref":"birmingham_city_council_prow_gis_data","surface":"paving_stones"}},{"type":"way","id":28515065,"nodes":[90235392,2062867177],"tags":{"bicycle":"no","foot":"permissive","highway":"pedestrian","lit":"yes","name":"City Arcade","source":"eyeball survey & estimate","surface":"asphalt"}},{"type":"way","id":82088506,"nodes":[956041299,956041314,956041319,4027013158,956041303,956041299],"tags":{"addr:city":"Birmingham","addr:housenumber":"6-9","addr:postcode":"B2 4RF","addr:street":"New Street","brand":"H&M","brand:wikidata":"Q188326","brand:wikipedia":"en:H&M","name":"H&M","shop":"clothes","was:name":"BHS","was:shop":"department_store"}},{"type":"way","id":82094302,"nodes":[955996342,90235392],"tags":{"highway":"footway","lit":"yes","name":"City Centre Arcade","source":"visual survey; estimate","surface":"paving_stones"}},{"type":"way","id":82094303,"nodes":[956078896,955996342],"tags":{"handrail":"yes","highway":"steps","incline":"up","lit":"yes","name":"City Centre Arcade","ramp":"no","source":"visual survey; estimate","surface":"paving_stones","tunnel":"yes"}},{"type":"way","id":82096286,"nodes":[956041320,955996342,4027013160,696842444,956060186,956080711,956080709,956080713,12004434604,696842445,956080710,956080706,955935290,955935280,956041320],"tags":{"addr:city":"Birmingham","addr:housenumber":"29","addr:postcode":"B2 4LR","addr:street":"Union Street","brand":"WHSmith","brand:wikidata":"Q1548712","brand:wikipedia":"en:WHSmith","building":"retail","fixme":"FIx shape","name":"WHSmith","opening_hours":"Mo-Sa 08:30-19:30; Su 11:00-17:00","shop":"newsagent","source":"visual survey;estimate"}},{"type":"way","id":82096288,"nodes":[956060186,956080714,956041320,956080705,956080712,956080707,956080711,956060186],"tags":{"addr:city":"Birmingham","addr:housename":"City Centre House","addr:housenumber":"30","addr:postcode":"B2 4AR","addr:street":"Union Street","building":"office","note":"I have BHS as 31-33 with 30 as a separate entrance","source":"survey","source:addr:postcode":"code-point_open","was:name":"BHS","was:shop":"department_store"}},{"type":"way","id":87290889,"nodes":[1153420794,1153420770,1153420772,864881581,2062867177,864882042,1014937429,1014937483,1014937435,1014937445,1014937450,1014937484,3246047516,1014937456,1153420794],"tags":{"addr:city":"Birmingham","addr:postcode":"B2 4TX","addr:street":"City Arcade","architect":"Newton and Cheadle","building":"retail","building:levels":"4","heritage":"2","heritage:operator":"Historic England","listed_status":"Grade II*","name":"City Arcade","source":"cities_revealed_aerial_imagery;Birmingham_City_Council","start_date":"1900"}},{"type":"way","id":99870977,"nodes":[1154582897,1154582849,696842440,864881508,1154582868,3989019914,3989019915,3989019913,3989019916,1154582897],"tags":{"addr:city":"Birmingham","addr:housenumber":"16-28","addr:street":"Corporation Street","building":"yes","building:levels":"5","leisure":"fitness_centre","name":"EasyGym","source":"visual survey;estimate;OS_OpenData_StreetView"}},{"type":"way","id":99870978,"nodes":[696842436,1154582852,696842437,1154582880,1154582889,1154582900,696842436],"tags":{"addr:city":"Birmingham","addr:housenumber":"16-28","addr:postcode":"B2 4RN","addr:street":"Corporation Street","building":"retail","building:levels":"9","shop":"vacant","source":"visual survey;estimate;OS_OpenData_StreetView"}},{"type":"way","id":99870990,"nodes":[696842438,1273105171,1273105176,7261672797,1154582869,1154582902,1154582859,1154582883,696842438],"tags":{"addr:city":"Birmingham","addr:housenumber":"16-18","addr:postcode":"B2 4SP","addr:street":"New Street","brand":"Sports Direct","brand:wikidata":"Q7579661","building":"yes","building:levels":"7","name":"Sports Direct","phone":"+44 121 643 5978","shop":"sports","store_ref":"0556","wheelchair":"yes"}},{"type":"way","id":99870993,"nodes":[1154582849,1154582897,1154582852,696842436,1154582849],"tags":{"building":"retail","building:levels":"9","disused:shop":"clothes","old_name":"New Look","source":"visual survey;estimate;OS_OpenData_StreetView"}},{"type":"way","id":111816766,"nodes":[1273105171,1273105173,1273105174,956033717,1273105176,1273105171],"tags":{"addr:city":"Birmingham","addr:housenumber":"15A","addr:postcode":"B2 4RF","addr:street":"New Street","building":"retail","building:levels":"7","old_name":"The Works","shop":"vacant","wheelchair":"yes"}},{"type":"way","id":111816768,"nodes":[1273105173,1273105172,1273105175,1273105174,1273105173],"tags":{"addr:city":"Birmingham","addr:housenumber":"14-15","addr:postcode":"B2 4RQ","addr:street":"New Street","brand":"Specsavers","brand:wikidata":"Q2000610","brand:wikipedia":"en:Specsavers","building":"retail","building:levels":"7","contact:website":"https:\/\/www.specsavers.co.uk\/stores\/birmingham","name":"Specsavers","opening_hours":"Mo-Fr 08:30-18:30; Sa 08:30-17:30; Su 10:00-16:00","phone":"+44 121 6162220","shop":"optician","source":"visual survey;estimate;OS_OpenData_StreetView","wheelchair":"yes"}},{"type":"way","id":111816769,"nodes":[1273105175,1273105172,1273105173,1273105171,696842438,955996342,4027013160,696842444,956060186,956080711,956080709,956080713,12004434604,696842445,956080710,956080706,863896136,696842431,864881530,956041319,4027013158,2523807523,1273105175],"tags":{"building":"retail","building:layers":"3","loc_name":"Big Top Shopping Centre"}},{"type":"way","id":135907298,"nodes":[1154582872,1154582895,1154582875,1154582889,1154582880,696842437,1154582831,2523807525,1154582902,1154582869,2523807524,1154582819,1154582893,1154582843,1154582885,1154582872],"tags":{"addr:city":"Birmingham","addr:housename":"Britannia Hotel","addr:housenumber":"21-25","addr:postcode":"B2 4RX","addr:street":"New Street","building":"yes","building:levels":"10","fhrs:id":"598806","heritage":"6","heritage:operator":"Birmingham City Council","listed_status":"local_grade_B","name":"Britannia Hotel","source":"visual survey;estimate;OS_OpenData_StreetView","tourism":"hotel","wheelchair":"limited"}},{"type":"way","id":245134686,"nodes":[2523807523,956041320],"tags":{"highway":"footway","lit":"yes","name":"City Centre Arcade","source":"visual survey; estimate","surface":"paving_stones","tunnel":"yes"}},{"type":"way","id":245134687,"nodes":[956080706,955935290,955935280,956080705,956041320,956078896],"tags":{"highway":"footway","name":"City Centre Arcade","source":"visual survey;estimate","tunnel":"yes"}},{"type":"way","id":245134697,"nodes":[2523807524,2523807525,90235393],"tags":{"designation":"public_footpath","highway":"footway","lit":"yes","prow_ref":"Birmingham FP 1317","source:prow_ref":"birmingham_city_council_prow_gis_data","surface":"paving_stones","tunnel":"yes"}},{"type":"way","id":318209824,"nodes":[2062867177,3246047516],"tags":{"bicycle":"no","foot":"permissive","highway":"footway","lit":"yes","name":"City Arcade","source":"eyeball survey & estimate","surface":"tiles","tunnel":"building_passage"}},{"type":"way","id":396099330,"nodes":[696842440,864881508,1154582868,3989019914,3989019915,3989019913,3989019916,1154582897,1154582852,696842437,1154582880,1154582889,1154582900,696842436,1154582849,696842440],"tags":{"building":"former","name_former":"Beatties Department Store"}},{"type":"way","id":400071569,"nodes":[4027013176,864881501,864881803,864881320,1153420766,1744420706,864881645,10762333873,1261722713,4027013165,2519321017,1261722741,1261722727,1261722749,10762333871,696842445,12004434604,956080713,956080709,956080711,956060186,696842444,4027013160,10762333874,864881581,1153420772,864881917,1153420794,3246047516,1014937484,864882039,4027013290,4027013152,10762333872,4027013176],"tags":{"area":"yes","highway":"pedestrian","lit":"yes","surface":"paving_stones"}},{"type":"way","id":400071570,"nodes":[733109955,7259218429,696852223,696852224,7259218435,7259218432,7259218433,696842434,8754355066,1154582819,2523807524,1154582869,7261672797,1273105176,1273105174,1273105175,2523807523,4027013158,956041319,864881530,10762333878,313224746,956033699,733109939,1126429964,1126420338,733109955],"tags":{"area":"yes","bicycle":"designated","highway":"pedestrian","lit":"yes","smoothness":"excellent","surface":"paving_stones"}},{"type":"way","id":649320216,"nodes":[6094063077,6094064490,6094063079,6094064495,6094063077],"tags":{"building":"yes","height":"41"}},{"type":"node","id":26590997,"lat":52.4798246,"lon":-1.8959696},{"type":"node","id":90235392,"lat":52.4795405,"lon":-1.8963425},{"type":"node","id":90235393,"lat":52.4792196,"lon":-1.8966845},{"type":"node","id":90235394,"lat":52.4798269,"lon":-1.8971207},{"type":"node","id":90235395,"lat":52.4788673,"lon":-1.8968868},{"type":"node","id":313224746,"lat":52.4784724,"lon":-1.8954012},{"type":"node","id":696842431,"lat":52.4786792,"lon":-1.8952703},{"type":"node","id":696842434,"lat":52.4791125,"lon":-1.8975612},{"type":"node","id":696842436,"lat":52.4795081,"lon":-1.8971837},{"type":"node","id":696842437,"lat":52.4791961,"lon":-1.8967283},{"type":"node","id":696842438,"lat":52.4792676,"lon":-1.8965549},{"type":"node","id":696842440,"lat":52.479721,"lon":-1.8969664},{"type":"node","id":696842444,"lat":52.4797432,"lon":-1.8959926},{"type":"node","id":696842445,"lat":52.4795044,"lon":-1.8948359},{"type":"node","id":696852223,"lat":52.4788646,"lon":-1.8973502},{"type":"node","id":696852224,"lat":52.4789541,"lon":-1.8977995},{"type":"node","id":733109939,"lat":52.4785274,"lon":-1.895666},{"type":"node","id":733109955,"lat":52.4788424,"lon":-1.8972234},{"type":"node","id":863896136,"lat":52.478718,"lon":-1.8951521},{"type":"node","id":864881320,"lat":52.4800934,"lon":-1.8964711},{"type":"node","id":864881501,"lat":52.4801459,"lon":-1.8965347},{"type":"node","id":864881508,"lat":52.4797263,"lon":-1.8969166},{"type":"node","id":864881530,"lat":52.4786921,"lon":-1.8953351},{"type":"node","id":864881581,"lat":52.4796169,"lon":-1.8962914},{"type":"node","id":864881645,"lat":52.4798711,"lon":-1.8959623},{"type":"node","id":864881803,"lat":52.4801185,"lon":-1.8965198},{"type":"node","id":864881917,"lat":52.4798038,"lon":-1.8960705},{"type":"node","id":864882039,"lat":52.4800501,"lon":-1.8966471},{"type":"node","id":864882042,"lat":52.4796123,"lon":-1.8964187},{"type":"node","id":955935280,"lat":52.4792903,"lon":-1.8953696},{"type":"node","id":955935290,"lat":52.4792321,"lon":-1.8954006},{"type":"node","id":955996342,"lat":52.4795116,"lon":-1.8962414},{"type":"node","id":956033699,"lat":52.4784837,"lon":-1.8954608},{"type":"node","id":956033717,"lat":52.478883,"lon":-1.8964622},{"type":"node","id":956041299,"lat":52.479373,"lon":-1.8958581},{"type":"node","id":956041303,"lat":52.4788271,"lon":-1.8961421},{"type":"node","id":956041314,"lat":52.4792859,"lon":-1.8954234},{"type":"node","id":956041319,"lat":52.4787508,"lon":-1.8956992},{"type":"node","id":956041320,"lat":52.4794017,"lon":-1.8958937},{"type":"node","id":956060186,"lat":52.4796873,"lon":-1.8957403},{"type":"node","id":956078896,"lat":52.4794807,"lon":-1.8961713},{"type":"node","id":956080705,"lat":52.4793138,"lon":-1.8954523},{"type":"node","id":956080706,"lat":52.4791487,"lon":-1.8949765},{"type":"node","id":956080707,"lat":52.4795485,"lon":-1.8954401},{"type":"node","id":956080709,"lat":52.4796167,"lon":-1.8952831},{"type":"node","id":956080710,"lat":52.4792745,"lon":-1.8949248},{"type":"node","id":956080711,"lat":52.4796362,"lon":-1.8953924},{"type":"node","id":956080712,"lat":52.479528,"lon":-1.8953373},{"type":"node","id":956080713,"lat":52.4796001,"lon":-1.8952046},{"type":"node","id":956080714,"lat":52.4794582,"lon":-1.8958633},{"type":"node","id":1014937429,"lat":52.4796507,"lon":-1.8965057},{"type":"node","id":1014937435,"lat":52.4798074,"lon":-1.8966439},{"type":"node","id":1014937445,"lat":52.4799135,"lon":-1.8965361},{"type":"node","id":1014937450,"lat":52.479899,"lon":-1.8965017},{"type":"node","id":1014937456,"lat":52.479927,"lon":-1.8963511},{"type":"node","id":1014937483,"lat":52.479717,"lon":-1.8964301},{"type":"node","id":1014937484,"lat":52.4799603,"lon":-1.8964302},{"type":"node","id":1126420338,"lat":52.4786902,"lon":-1.8964673},{"type":"node","id":1126429964,"lat":52.4786587,"lon":-1.8963374},{"type":"node","id":1153420766,"lat":52.4800018,"lon":-1.8962621},{"type":"node","id":1153420770,"lat":52.4797713,"lon":-1.8963121},{"type":"node","id":1153420772,"lat":52.4797269,"lon":-1.8961663},{"type":"node","id":1153420794,"lat":52.4799087,"lon":-1.8963098},{"type":"node","id":1154582819,"lat":52.479082,"lon":-1.8974099},{"type":"node","id":1154582831,"lat":52.4790593,"lon":-1.8968061},{"type":"node","id":1154582843,"lat":52.4791063,"lon":-1.8973558},{"type":"node","id":1154582849,"lat":52.4796307,"lon":-1.8970633},{"type":"node","id":1154582852,"lat":52.479353,"lon":-1.8966145},{"type":"node","id":1154582859,"lat":52.4790979,"lon":-1.8967178},{"type":"node","id":1154582868,"lat":52.4796702,"lon":-1.8967514},{"type":"node","id":1154582869,"lat":52.4789593,"lon":-1.8967926},{"type":"node","id":1154582872,"lat":52.4792441,"lon":-1.8973642},{"type":"node","id":1154582875,"lat":52.4792983,"lon":-1.8973341},{"type":"node","id":1154582880,"lat":52.4792864,"lon":-1.8971124},{"type":"node","id":1154582883,"lat":52.4790791,"lon":-1.8966659},{"type":"node","id":1154582885,"lat":52.4792267,"lon":-1.8972799},{"type":"node","id":1154582889,"lat":52.4793422,"lon":-1.8973055},{"type":"node","id":1154582893,"lat":52.4791173,"lon":-1.8973862},{"type":"node","id":1154582895,"lat":52.4792463,"lon":-1.8973679},{"type":"node","id":1154582897,"lat":52.4794605,"lon":-1.8964865},{"type":"node","id":1154582900,"lat":52.4793505,"lon":-1.8973398},{"type":"node","id":1154582902,"lat":52.4790489,"lon":-1.896747},{"type":"node","id":1261722713,"lat":52.4798625,"lon":-1.8958758},{"type":"node","id":1261722727,"lat":52.4796646,"lon":-1.8948688},{"type":"node","id":1261722741,"lat":52.4797401,"lon":-1.8952663},{"type":"node","id":1261722749,"lat":52.4796953,"lon":-1.8947841},{"type":"node","id":1273105171,"lat":52.4792307,"lon":-1.8963549},{"type":"node","id":1273105172,"lat":52.4791747,"lon":-1.8960517},{"type":"node","id":1273105173,"lat":52.4792067,"lon":-1.8962251},{"type":"node","id":1273105174,"lat":52.4788704,"lon":-1.8963832},{"type":"node","id":1273105175,"lat":52.4788396,"lon":-1.8962191},{"type":"node","id":1273105176,"lat":52.4788954,"lon":-1.8965401},{"type":"node","id":1744420706,"lat":52.4799245,"lon":-1.8960794},{"type":"node","id":2062867177,"lat":52.4796147,"lon":-1.8963533},{"type":"node","id":2519321017,"lat":52.4797628,"lon":-1.8953934},{"type":"node","id":2523807523,"lat":52.4788318,"lon":-1.8961725},{"type":"node","id":2523807524,"lat":52.4789687,"lon":-1.896834},{"type":"node","id":2523807525,"lat":52.4790591,"lon":-1.8967891},{"type":"node","id":3246047516,"lat":52.4799422,"lon":-1.8963896},{"type":"node","id":3989019913,"lat":52.479529,"lon":-1.8964504},{"type":"node","id":3989019914,"lat":52.4795764,"lon":-1.8965079},{"type":"node","id":3989019915,"lat":52.4795555,"lon":-1.8964705},{"type":"node","id":3989019916,"lat":52.4795015,"lon":-1.8964485},{"type":"node","id":4027013152,"lat":52.4800421,"lon":-1.8967791},{"type":"node","id":4027013158,"lat":52.4788253,"lon":-1.8961388},{"type":"node","id":4027013160,"lat":52.4795784,"lon":-1.8961619},{"type":"node","id":4027013165,"lat":52.4798311,"lon":-1.8957807},{"type":"node","id":4027013176,"lat":52.4801861,"lon":-1.8966033},{"type":"node","id":4027013290,"lat":52.4800105,"lon":-1.896692},{"type":"node","id":4204911717,"lat":52.4798113,"lon":-1.8970825},{"type":"node","id":6094063077,"lat":52.4797184,"lon":-1.8959493},{"type":"node","id":6094063079,"lat":52.4789747,"lon":-1.8961041},{"type":"node","id":6094064490,"lat":52.4790172,"lon":-1.896324},{"type":"node","id":6094064495,"lat":52.4796807,"lon":-1.8957238},{"type":"node","id":7259218429,"lat":52.4788546,"lon":-1.8972932},{"type":"node","id":7259218432,"lat":52.4790201,"lon":-1.8976959},{"type":"node","id":7259218433,"lat":52.4790776,"lon":-1.8976055},{"type":"node","id":7259218435,"lat":52.4789724,"lon":-1.8977708},{"type":"node","id":7261672797,"lat":52.4789277,"lon":-1.8967024},{"type":"node","id":8754355066,"lat":52.4790947,"lon":-1.8974692},{"type":"node","id":10762333871,"lat":52.479565,"lon":-1.8947995},{"type":"node","id":10762333872,"lat":52.4801175,"lon":-1.896687},{"type":"node","id":10762333873,"lat":52.4798668,"lon":-1.8959195},{"type":"node","id":10762333874,"lat":52.4796056,"lon":-1.8962535},{"type":"node","id":10762333878,"lat":52.4785855,"lon":-1.8953687},{"type":"node","id":12004434604,"lat":52.4795475,"lon":-1.8948855}]}