{"version":0.6,"generator":"Overpass API 0.7.62.5 1bd436f1","osm3s":{"timestamp_osm_base":"2025-03-12T12:11:49Z","copyright":"The data included in this document is from www.openstreetmap.org. The data is made available under ODbL."},"elements":[{"type":"node","id":181305100,"lat":52.4781467,"lon":-1.8941101,"tags":{"entrance":"yes","level":"2","source":"survey"}},{"type":"node","id":355922685,"lat":52.4778277,"lon":-1.8945541,"tags":{"addr:city":"Birmingham","addr:postcode":"B5 4BG","addr:unit":"SU744","amenity":"restaurant","brand":"Banana Tree","brand:wikidata":"Q123013837","check_date":"2024-07-16","check_date:opening_hours":"2024-07-16","entrance":"yes","level":"1","name":"BananaTree","opening_hours":"Mo-Th 12:00-22:00; Fr-Sa 12:00-23:00; Su 12:00-22:00","source":"survey","website":"https:\/\/bananatree.co.uk\/restaurants\/birmingham-bullring\/"}},{"type":"node","id":355922686,"lat":52.4776664,"lon":-1.8943695,"tags":{"addr:city":"Birmingham","addr:housename":"Middle Mall","addr:postcode":"B5 4BE","addr:street":"The Bullring","addr:unit":"Su528","amenity":"fast_food","brand":"Five Guys","brand:wikidata":"Q1131810","brand:wikipedia":"en:Five Guys","contact:facebook":"https:\/\/www.facebook.com\/FiveGuysBirminghamBullring","cuisine":"burger","delivery":"yes","entrance":"yes","fhrs:id":"912750","level":"1","name":"Five Guys","official_name":"Five Guys Burgers and Fries","opening_hours":"11:00-23:00","operator:wikidata":"Q1131810","outdoor_seating":"yes","payment:american_express":"yes","payment:cash":"yes","payment:mastercard":"yes","payment:visa":"yes","phone":"+44 121 6430215","source:addr":"FHRS Open Data","takeaway":"yes","website":"https:\/\/restaurants.fiveguys.co.uk\/west-midlands\/unit-su528","wheelchair":"yes"}},{"type":"node","id":355922687,"lat":52.4779039,"lon":-1.8943348,"tags":{"amenity":"fast_food","email":"info@baguettedumonde.ie","level":"1","name":"Baguette Du Monde","outdoor_seating":"yes","smoking":"no","takeaway":"yes","website":"http:\/\/baguettedumonde.ie\/","wheelchair":"yes"}},{"type":"node","id":355922689,"lat":52.4777873,"lon":-1.8942176,"tags":{"entrance":"yes","level":"1","source":"survey","was:amenity":"fast_food","was:name":"Urban Pie","wheelchair":"yes"}},{"type":"node","id":864881963,"lat":52.4776097,"lon":-1.8943138,"tags":{"entrance":"main","level":"1","source":"survey"}},{"type":"node","id":1555809244,"lat":52.4776756,"lon":-1.8940535,"tags":{"entrance":"main","level":"1","source":"survey"}},{"type":"node","id":2535904104,"lat":52.4781525,"lon":-1.893698,"tags":{"brand":"AllSaints","brand:wikidata":"Q4728473","brand:wikipedia":"en:AllSaints","level":"2","name":"AllSaints","shop":"clothes","wheelchair":"yes"}},{"type":"node","id":2535904134,"lat":52.4782614,"lon":-1.8942499,"tags":{"level":"2","name":"Versus Versace","shop":"clothes"}},{"type":"node","id":2535904206,"lat":52.4776306,"lon":-1.8936613,"tags":{"brand":"Hugo Boss","brand:wikidata":"Q491627","brand:wikipedia":"en:Hugo Boss","level":"2","name":"Hugo Boss","shop":"clothes","short_name":"Boss"}},{"type":"node","id":2535904210,"lat":52.477963,"lon":-1.8936759,"tags":{"brand":"Jack Wolfskin","brand:wikidata":"Q536133","brand:wikipedia":"en:Jack Wolfskin","level":"1","name":"Jack Wolfskin","shop":"outdoor"}},{"type":"node","id":2535904212,"lat":52.4782308,"lon":-1.8941657,"tags":{"level":"2","name":"Cadenzaa","shop":"jewelry"}},{"type":"node","id":2535904217,"lat":52.4781916,"lon":-1.8939319,"tags":{"brand":"Kurt Geiger","brand:wikidata":"Q17063744","brand:wikipedia":"en:Kurt Geiger","level":"2","name":"Kurt Geiger","shop":"shoes","wheelchair":"yes"}},{"type":"node","id":2535904220,"lat":52.4780614,"lon":-1.8940568,"tags":{"brand":"Lacoste","brand:wikidata":"Q309031","brand:wikipedia":"en:Lacoste","level":"2","name":"Lacoste","shop":"clothes"}},{"type":"node","id":2535904226,"lat":52.4779925,"lon":-1.8937215,"tags":{"level":"2","name":"Leslie Davis","shop":"jewelry"}},{"type":"node","id":2535904228,"lat":52.4781267,"lon":-1.8946241,"tags":{"level":"2","name":"Lipsy","shop":"clothes"}},{"type":"node","id":2535904235,"lat":52.477667,"lon":-1.8936942,"tags":{"brand":"Mango","brand:wikidata":"Q136503","brand:wikipedia":"en:Mango (retailer)","level":"1","name":"Mango","shop":"clothes"}},{"type":"node","id":2535904240,"lat":52.4780976,"lon":-1.8942831,"tags":{"level":"2","name":"Molton Brown","shop":"clothes"}},{"type":"node","id":2535904253,"lat":52.4779154,"lon":-1.8937697,"tags":{"brand":"Oasis","brand:wikidata":"Q64532852","level":"1","name":"Oasis","shop":"clothes"}},{"type":"node","id":2535904255,"lat":52.4780405,"lon":-1.893943,"tags":{"brand":"Office","brand:wikidata":"Q7079121","brand:wikipedia":"en:Office Holdings","check_date":"2024-08-21","check_date:opening_hours":"2024-08-21","level":"2","name":"Office","opening_hours":"Mo-Fr 10:00-20:00; Sa 09:00-20:00; Su 11:30-17:30","shop":"shoes","website":"https:\/\/www.office.co.uk\/view\/content\/storelocator?storename=Offspring%20Ladies"}},{"type":"node","id":2535904257,"lat":52.4779841,"lon":-1.8936569,"tags":{"brand":"Omega","brand:wikidata":"Q659224","level":"2","name":"Omega","shop":"watches"}},{"type":"node","id":2535904263,"lat":52.4778662,"lon":-1.894012,"tags":{"amenity":"restaurant","brand":"PizzaExpress","brand:wikidata":"Q662845","brand:wikipedia":"en:PizzaExpress","cuisine":"pizza","diet:gluten_free":"yes","diet:vegan":"yes","diet:vegetarian":"yes","level":"2","name":"PizzaExpress","phone":"+44 121 643 7209","website":"https:\/\/www.pizzaexpress.com\/birmingham-bullring-shopping-centre"}},{"type":"node","id":2535904270,"lat":52.4781283,"lon":-1.8944871,"tags":{"brand":"Radley London","brand:wikidata":"Q7281436","brand:wikipedia":"en:Radley (company)","level":"2","name":"Radley London","shop":"fashion_accessories","short_name":"Radley"}},{"type":"node","id":2535904302,"lat":52.4779498,"lon":-1.8936713,"tags":{"addr:city":"Birmingham","addr:housename":"Upper East Mall","addr:postcode":"B5 4EN","addr:street":"Bullring","addr:unit":"Unit K","amenity":"cafe","brand":"Starbucks","brand:wikidata":"Q37158","brand:wikipedia":"en:Starbucks","cuisine":"coffee_shop","fhrs:id":"1617650","level":"2","name":"Starbucks","official_name":"Starbucks Coffee","source:addr":"FHRS Open Data","takeaway":"yes","website":"https:\/\/www.starbucks.com\/store-locator\/store\/2742\/birmingham-bullring-upper-bullring-centre-birmingham-eng-b-5-4-en-gb"}},{"type":"node","id":2535904304,"lat":52.4776636,"lon":-1.893541,"tags":{"level":"2","name":"Links","shop":"jewelry"}},{"type":"node","id":2535904314,"lat":52.4780081,"lon":-1.8938426,"tags":{"brand":"Swarovski","brand:wikidata":"Q611115","brand:wikipedia":"en:Swarovski","level":"2","name":"Swarovski","shop":"jewelry"}},{"type":"node","id":2535904315,"lat":52.4781198,"lon":-1.894387,"tags":{"brand":"Swatch","brand:wikidata":"Q573422","level":"2","name":"Swatch","shop":"watches"}},{"type":"node","id":2535904322,"lat":52.4777073,"lon":-1.8935726,"tags":{"brand":"The Fragrance Shop","brand:wikidata":"Q105337125","level":"1","name":"The Fragrance Shop","shop":"perfumery"}},{"type":"node","id":2535904329,"lat":52.4779765,"lon":-1.8936259,"tags":{"alt_name":"North Face","brand":"The North Face","brand:wikidata":"Q152784","brand:wikipedia":"en:The North Face","clothes":"outdoor","level":"1","name":"The North Face","shop":"clothes"}},{"type":"node","id":2535904333,"lat":52.4779829,"lon":-1.8935853,"tags":{"brand":"Thomas Cook","brand:wikidata":"Q2141800","brand:wikipedia":"en:Thomas Cook Group","level":"1","name":"Thomas Cook","shop":"travel_agency"}},{"type":"node","id":2535904350,"lat":52.4780784,"lon":-1.8941832,"tags":{"brand":"True Religion","brand:wikidata":"Q2456205","brand:wikipedia":"en:True Religion (clothing brand)","clothes":"denim","level":"2","name":"True Religion","shop":"clothes"}},{"type":"node","id":2535904352,"lat":52.4779012,"lon":-1.8937354,"tags":{"level":"0","note":"Vacant shop"}},{"type":"node","id":2535904359,"lat":52.4776401,"lon":-1.8945499,"tags":{"brand":"Vodafone","brand:wikidata":"Q122141","brand:wikipedia":"en:Vodafone","layer":"2","name":"Vodafone","shop":"mobile_phone"}},{"type":"node","id":2535904360,"lat":52.4779361,"lon":-1.8936987,"tags":{"brand":"Warehouse","brand:wikidata":"Q28135370","brand:wikipedia":"en:Warehouse (clothing)","level":"1","name":"Warehouse","shop":"clothes"}},{"type":"node","id":2535904361,"lat":52.4778899,"lon":-1.8938632,"tags":{"level":"1","name":"Red5","shop":"clothes"}},{"type":"node","id":3491963171,"lat":52.4782109,"lon":-1.8940595,"tags":{"brand":"Ted Baker","brand:wikidata":"Q2913458","brand:wikipedia":"en:Ted Baker","level":"2","name":"Ted Baker","shop":"clothes"}},{"type":"node","id":4066820888,"lat":52.4777905,"lon":-1.8936487,"tags":{"door":"no","level":"2"}},{"type":"node","id":4066821590,"lat":52.4778452,"lon":-1.8936907,"tags":{"door":"no","level":"2"}},{"type":"node","id":9040053224,"lat":52.4778448,"lon":-1.8942404,"tags":{"addr:city":"Birmingham","addr:housename":"Middle Mall","addr:postcode":"B5 4BE","addr:street":"The Bullring","addr:unit":"Su526","amenity":"restaurant","fhrs:id":"1180365","name":"Indian Streatery","source":"survey","source:addr":"FHRS Open Data"}},{"type":"node","id":9040053225,"lat":52.4777824,"lon":-1.8941338,"tags":{"addr:city":"Birmingham","addr:housename":"Middle Mall","addr:postcode":"B5 4BE","addr:street":"The Bullring","addr:unit":"Su524","amenity":"fast_food","brand":"Wingstop","brand:wikidata":"Q8025339","cuisine":"wings","fhrs:id":"1384158","level":"1","name":"Wingstop","source":"bing","source:addr":"FHRS Open Data","takeaway":"yes"}},{"type":"node","id":12015642417,"lat":52.4777309,"lon":-1.8936314,"tags":{"highway":"elevator"}}]}