{"version":0.6,"generator":"Overpass API 0.7.62.5 1bd436f1","osm3s":{"timestamp_osm_base":"2025-03-12T12:10:49Z","copyright":"The data included in this document is from www.openstreetmap.org. The data is made available under ODbL."},"elements":[{"type":"node","id":957146005,"lat":52.4827808,"lon":-1.8927983,"tags":{"PMSA_ref":"WMbiBIxx258","artist_name":"Vincent Woropay","artwork:material":"black Indian granite","artwork_type":"sculpture","name":"Wattilisk","source":"visual survey; estimate; PMSA","start_date":"1988-03-16","tourism":"artwork","url":"http:\/\/pmsa.cch.kcl.ac.uk\/BM\/WMbiBIxx258.htm"}},{"type":"node","id":1041132479,"lat":52.4828907,"lon":-1.8934164,"tags":{"highway":"give_way"}},{"type":"node","id":2519320970,"lat":52.4824848,"lon":-1.8933334,"tags":{"addr:city":"Birmingham","addr:postcode":"B4 7LX","addr:street":"Dalton Street","name":"Birmingham Ink","shop":"tattoo"}},{"type":"node","id":2519320989,"lat":52.4824319,"lon":-1.893385,"tags":{"addr:city":"Birmingham","addr:postcode":"B4 7LX","addr:street":"Dalton Street","name":"Heart + Space","shop":"beauty"}},{"type":"node","id":2519321005,"lat":52.4823644,"lon":-1.8934458,"tags":{"addr:city":"Birmingham","addr:postcode":"B4 7LX","addr:street":"Dalton Street","name":"Swordfish","shop":"music"}},{"type":"node","id":3899076082,"lat":52.4828558,"lon":-1.8932883,"tags":{"button_operated":"no","crossing":"traffic_signals","crossing:island":"yes","crossing_ref":"puffin","highway":"crossing","ref":"E0113","tactile_paving":"yes","traffic_signals:sound":"no","traffic_signals:vibration":"yes"}},{"type":"node","id":4494176603,"lat":52.4826716,"lon":-1.8930092,"tags":{"highway":"give_way","source":"bing"}},{"type":"node","id":4494176604,"lat":52.4827639,"lon":-1.8929301,"tags":{"highway":"give_way","source":"bing"}},{"type":"node","id":4546926533,"lat":52.4827779,"lon":-1.8930241,"tags":{"emergency":"fire_hydrant","fire_hydrant:diameter":"100","operator":"WMFS","source":"survey"}},{"type":"node","id":4560170645,"lat":52.4827323,"lon":-1.8927346,"tags":{"amenity":"bench","source":"survey"}},{"type":"node","id":4560170662,"lat":52.4828826,"lon":-1.8931598,"tags":{"natural":"tree","source":"visual survey;bing"}},{"type":"node","id":4560170663,"lat":52.4828491,"lon":-1.8930726,"tags":{"natural":"tree","source":"visual survey;bing"}},{"type":"node","id":4560170664,"lat":52.4828597,"lon":-1.8929707,"tags":{"natural":"tree","source":"visual survey;bing"}},{"type":"node","id":4560170668,"lat":52.4828385,"lon":-1.8925979,"tags":{"entrance":"yes"}},{"type":"node","id":4562105531,"lat":52.4829197,"lon":-1.8927174,"tags":{"amenity":"bench","source":"survey"}},{"type":"node","id":4562105532,"lat":52.4827573,"lon":-1.8927225,"tags":{"amenity":"bench","source":"survey"}},{"type":"node","id":4562105535,"lat":52.4824777,"lon":-1.8925972,"tags":{"man_made":"street_cabinet","source":"survey"}},{"type":"node","id":4562105536,"lat":52.4825419,"lon":-1.8925057,"tags":{"man_made":"street_cabinet","source":"survey"}},{"type":"node","id":4562105537,"lat":52.4825187,"lon":-1.8924561,"tags":{"man_made":"street_cabinet","source":"survey"}},{"type":"node","id":4567172217,"lat":52.4828484,"lon":-1.8932185,"tags":{"man_made":"street_cabinet","operator":"bcc","ref":"E0113","source":"survey","street_cabinet":"traffic_signals"}},{"type":"node","id":4722259532,"lat":52.4829413,"lon":-1.8927617,"tags":{"amenity":"taxi","source":"survey"}},{"type":"node","id":4734591436,"lat":52.4825244,"lon":-1.8926859,"tags":{"bus":"yes","highway":"bus_stop","name":"NE1","naptan:AtcoCode":"43000208601","naptan:Bearing":"NW","naptan:BusStopType":"MKD","naptan:CommonName":"Dalton St","naptan:Indicator":"Stop NE1","naptan:NaptanCode":"nwmwgwaw","naptan:Status":"ACT","naptan:StopType":"BCT","naptan:Street":"NEWTON ST","naptan:Towards":"City Centre","public_transport":"platform","route_ref":"65;67;UNLOAD_ONLY","source":"WMCA"}}]}