{"version":0.6,"generator":"Overpass API 0.7.62.5 1bd436f1","osm3s":{"timestamp_osm_base":"2025-03-12T11:54:30Z","copyright":"The data included in this document is from www.openstreetmap.org. The data is made available under ODbL."},"elements":[{"type":"node","id":355915860,"lat":52.4824633,"lon":-1.8947839,"tags":{"amenity":"bicycle_parking","bcc_ref":"262","bicycle_parking":"stands","capacity":"16","covered":"no","name":"Old Square outside Snow and Rock","source":"survey"}},{"type":"node","id":1102143842,"lat":52.4826738,"lon":-1.8952206,"tags":{"addr:city":"Birmingham","addr:housenumber":"10","addr:postcode":"B4 6BS","addr:street":"The Priory Queensway","amenity":"dentist","healthcare":"dentist","name":"Smiles Plus","source":"visual survey & estimate","url":"http:\/\/www.jameshull.co.uk\/practices\/midlands-east-anglia\/birmingham\/priory-queensway\/"}},{"type":"node","id":1102143909,"lat":52.4828644,"lon":-1.8955686,"tags":{"addr:city":"Birmingham","addr:housenumber":"2-4","addr:postcode":"B4 6BS","addr:street":"The Priory Queensway","disused:amenity":"bank","old_name":"TSB","source":"visual survey & estimate","source:addr:postcode":"code-point_open"}},{"type":"node","id":1102143932,"lat":52.4827751,"lon":-1.895415,"tags":{"amenity":"cafe","name":"Priory","source":"visual survey & estimate"}},{"type":"node","id":1830701367,"lat":52.4825501,"lon":-1.8955616,"tags":{"bench":"yes","bin":"yes","bus":"yes","highway":"bus_stop","name":"PQ4","name_on_sign":"Priorty Queensway","naptan:AtcoCode":"43000208501","naptan:Bearing":"NW","naptan:BusStopType":"MKD","naptan:CommonName":"Colmore Circus","naptan:Indicator":"Stop PQ4","naptan:NaptanCode":"nwmwdawj","naptan:PlusbusZoneRef":"West Midlands","naptan:Status":"ACT","naptan:StopType":"BCT","naptan:Street":"THE PRIORY QUEENSWAY","naptan:Towards":"Hockley, Hamstead, Handsworth","public_transport":"platform","route_ref":"74","shelter":"yes","source":"WMCA"}},{"type":"node","id":1830752224,"lat":52.4826822,"lon":-1.8953943,"tags":{"bench":"no","bin":"no","bus":"yes","highway":"bus_stop","lit":"no","name":"PQ6","name_on_sign":"Priorty Queensway","naptan:AtcoCode":"43000208503","naptan:Bearing":"SE","naptan:BusStopType":"MKD","naptan:CommonName":"Colmore Circus","naptan:Indicator":"Stop PQ6","naptan:NaptanCode":"nwmwgpmd","naptan:PlusbusZoneRef":"West Midlands","naptan:Status":"ACT","naptan:StopType":"BCT","naptan:Street":"THE PRIORY QUEENSWAY","naptan:Towards":"xxx","public_transport":"platform","route_ref":"16;16A;16W;110;424;424E;X16","shelter":"no","source":"WMCA","tactile_paving":"no"}},{"type":"node","id":2400495485,"lat":52.4824505,"lon":-1.8952777,"tags":{"button_operated":"yes","crossing":"traffic_signals","crossing_ref":"pelican","highway":"crossing","ref":"E0143","source":"BING;BCC_CycleData","tactile_paving":"yes","traffic_signals:sound":"yes","traffic_signals:vibration":"no"}},{"type":"node","id":2400495491,"lat":52.4825479,"lon":-1.8952468,"tags":{"button_operated":"yes","crossing":"traffic_signals","crossing_ref":"pelican","highway":"crossing","ref":"E0143","source":"BING;BCC_CycleData","tactile_paving":"yes","traffic_signals:sound":"yes","traffic_signals:vibration":"no"}},{"type":"node","id":2523807506,"lat":52.4825469,"lon":-1.894696,"tags":{"name":"Salts Medilink","office":"medical","opening_hours":"Mo-Fr 09:00-17:00","phone":"+44 121 333 1596","website":"https:\/\/www.saltsmedilink.co.uk\/dispensing-care-centres\/birmingham-central"}},{"type":"node","id":2523807514,"lat":52.4825795,"lon":-1.8949432,"tags":{"brand":"Snow+Rock","brand:wikidata":"Q113556466","contact:website":"https:\/\/www.snowandrock.com\/stores\/birmingham.html","name":"Snow+Rock","shop":"outdoor"}},{"type":"node","id":2799477404,"lat":52.4825024,"lon":-1.894871,"tags":{"entrance":"yes","foot":"yes"}},{"type":"node","id":2799477405,"lat":52.4825764,"lon":-1.8951586,"tags":{"entrance":"yes","foot":"yes","operator":"Canon House","source":"visual survey & estimate"}},{"type":"node","id":2799477407,"lat":52.4830053,"lon":-1.8956102,"tags":{"entrance":"yes","foot":"yes","operator":"Two Colmore Square"}},{"type":"node","id":3818484226,"lat":52.4825335,"lon":-1.8956153,"tags":{"man_made":"street_cabinet","source":"survey"}},{"type":"node","id":3818484227,"lat":52.4825341,"lon":-1.8956419,"tags":{"man_made":"surveillance","source":"survey"}},{"type":"node","id":3818484230,"lat":52.4825811,"lon":-1.8951929,"tags":{"man_made":"street_cabinet","operator":"bcc","source":"survey","street_cabinet":"traffic_signals"}},{"type":"node","id":4711767164,"lat":52.4825548,"lon":-1.8951604,"tags":{"emergency":"fire_hydrant","fire_hydrant:type":"underground","operator":"WMFS","source":"survey"}},{"type":"node","id":7033831824,"lat":52.4830203,"lon":-1.8953615,"tags":{"addr:city":"Birmingham","addr:postcode":"B4 6FD","addr:street":"Snow Hill Queensway"}},{"type":"node","id":8032170433,"lat":52.4830069,"lon":-1.8953589,"tags":{"addr:city":"Birmingham","addr:postcode":"B4 6SH","addr:street":"Colmore Circus Queensway"}},{"type":"node","id":8841772266,"lat":52.4824667,"lon":-1.8949078,"tags":{"amenity":"bicycle_rental","capacity":"9","email":"support@beryl.cc","fee":"yes","name":"Old Square","network":"West Midlands Cycle Hire","network:regional":"Starley","official_name":"Old Square","operator":"Beryl","operator:wikidata":"Q106575369","payment:app":"yes","payment:cash":"no","payment:credit_cards":"no","payment:cryptocurrencies":"no","payment:debit_cards":"no","payment:electronic_purses":"no","phone":"+44 20 3003 5044","ref:gbfs":"beryl_west_midlands:2755","ref:wmch":"4","rental":"city_bike;ebike","source":"tfwm\/serco","website":"https:\/\/beryl.cc\/scheme\/west-midlands"}},{"type":"node","id":8841772269,"lat":52.4824209,"lon":-1.8946467,"tags":{"access":"customers","amenity":"parking","operator":"Voi","operator:type":"private","parking":"e-scooter"}},{"type":"node","id":8862043604,"lat":52.4830074,"lon":-1.8957042,"tags":{"amenity":"bicycle_rental","bicycle_rental":"docking_station","capacity":"12","email":"support@beryl.cc","fee":"yes","name":"Colmore Circus","network":"West Midlands Cycle Hire","network:regional":"Starley","official_name":"Colmore Circus","operator":"Beryl","operator:wikidata":"Q106575369","payment:app":"yes","payment:cash":"no","payment:credit_cards":"no","payment:cryptocurrencies":"no","payment:debit_cards":"no","payment:electronic_purses":"no","phone":"+44 20 3003 5044","ref:gbfs":"beryl_west_midlands:2824","ref:wmch":"61","rental":"city_bike;ebike","source":"tfwm\/serco","website":"https:\/\/beryl.cc\/scheme\/west-midlands"}}]}