{"version":0.6,"generator":"Overpass API 0.7.62.5 1bd436f1","osm3s":{"timestamp_osm_base":"2025-03-11T16:23:15Z","copyright":"The data included in this document is from www.openstreetmap.org. The data is made available under ODbL."},"elements":[{"type":"node","id":173964979,"lat":52.4994742,"lon":13.4169867,"tags":{"bus":"yes","name":"U Kottbusser Tor","name:BVG":"U Kottbusser Tor [Bus Reichenberger Stra\u00dfe]","public_transport":"stop_position","ref:BVG":"101356","website":"https:\/\/qr.bvg.de\/h101356"}},{"type":"node","id":622290142,"lat":52.4994573,"lon":13.4167896,"tags":{"name":"Reichenberger Stra\u00dfe\/Skalitzer Stra\u00dfe","railway":"subway_entrance","ref":"C","wheelchair":"no"}},{"type":"node","id":622290143,"lat":52.4995518,"lon":13.416917,"tags":{"check_date:wheelchair":"2021-06-05","name":"Reichenberger Stra\u00dfe\/Dresdener Stra\u00dfe","railway":"subway_entrance","ref":"D","wheelchair":"no"}},{"type":"node","id":672945391,"lat":52.4994349,"lon":13.4169852,"tags":{"bus":"yes","highway":"bus_stop","name":"U Kottbusser Tor","shelter":"no","wheelchair":"no"}},{"type":"node","id":866021764,"lat":52.4994353,"lon":13.4166734,"tags":{"addr:city":"Berlin","addr:country":"DE","addr:housenumber":"10","addr:postcode":"10999","addr:street":"Reichenberger Stra\u00dfe","addr:suburb":"Kreuzberg","amenity":"fast_food","contact:phone":"+49 30 6159266","cuisine":"turkish","name":"Izmir K\u00f6ftecisi Konak Grill","opening_hours":"Mo-We 10:30-02:30, Th 10:30-03:00, Fr,Sa 10:30-04:00, Su 11:30-02:30","toilets:wheelchair":"no","wheelchair":"no"}},{"type":"node","id":874253668,"lat":52.4993967,"lon":13.4168191,"tags":{"addr:city":"Berlin","addr:country":"DE","addr:housenumber":"10","addr:postcode":"10999","addr:street":"Reichenberger Stra\u00dfe","addr:suburb":"Kreuzberg","amenity":"restaurant","cuisine":"turkish","diet:halal":"yes","diet:meat":"yes","name":"Konyali","wheelchair":"yes"}},{"type":"node","id":874253674,"lat":52.4994163,"lon":13.4167414,"tags":{"amenity":"casino","name":"Kotti Sports Bar"}},{"type":"node","id":874259347,"lat":52.4995687,"lon":13.417085,"tags":{"name":"Getr\u00e4nke Presseshop","shop":"kiosk","wheelchair":"limited"}},{"type":"node","id":1286990154,"lat":52.4996534,"lon":13.4167664,"tags":{"barrier":"swing_gate","bicycle":"yes","foot":"yes"}},{"type":"node","id":1982717508,"lat":52.4996712,"lon":13.416725,"tags":{"amenity":"bicycle_rental","name":"Kottbusser Tor \/ Reichenberger Stra\u00dfe","network":"call-a-bike","operator":"Deutsche Bahn Connect GmbH","ref":"1333"}},{"type":"node","id":2783346072,"lat":52.4994653,"lon":13.4165856,"tags":{"barrier":"lift_gate"}},{"type":"node","id":2840614869,"lat":52.4997519,"lon":13.4170367,"tags":{"addr:city":"Berlin","addr:country":"DE","addr:housenumber":"176","addr:postcode":"10999","addr:street":"Reichenberger Stra\u00dfe","addr:suburb":"Kreuzberg","source":"Geoportal Berlin \/ Hauskoordinaten"}},{"type":"node","id":5929088732,"lat":52.4994939,"lon":13.417064,"tags":{"emergency":"fire_hydrant","fire_hydrant:diameter":"150","fire_hydrant:position":"sidewalk","fire_hydrant:type":"underground","survey:date":"2018-09-25"}},{"type":"node","id":7230700362,"lat":52.4994098,"lon":13.416944,"tags":{"camera:type":"dome","description":"\u00dcberwachungskamera auf Zwischenebene (Level -1) im U.Bhf. Kottbusser Tor.","description:en":"Surveillance camera at intermediate level (level -1) in the Kottbusser Tor underground station.","man_made":"surveillance","surveillance":"public","surveillance:type":"camera","surveillance:zone":"entrance"}},{"type":"node","id":7230700363,"lat":52.4993967,"lon":13.4169803,"tags":{"camera:type":"dome","description":"\u00dcberwachungskamera auf Zwischenebene (Level -1) im U.Bhf. Kottbusser Tor.","description:en":"Surveillance camera at intermediate level (level -1) in the Kottbusser Tor underground station.","man_made":"surveillance","surveillance":"public","surveillance:type":"camera","surveillance:zone":"entrance"}},{"type":"node","id":7230700364,"lat":52.4995227,"lon":13.4170543,"tags":{"camera:type":"dome","description":"\u00dcberwachungskamera auf Zwischenebene (Level -1) im U.Bhf. Kottbusser Tor.","description:en":"Surveillance camera at intermediate level (level -1) in the Kottbusser Tor underground station.","man_made":"surveillance","surveillance":"public","surveillance:type":"camera","surveillance:zone":"entrance"}},{"type":"node","id":7230700365,"lat":52.4995082,"lon":13.4170962,"tags":{"camera:type":"dome","description":"\u00dcberwachungskamera auf Zwischenebene (Level -1) im U.Bhf. Kottbusser Tor.","description:en":"Surveillance camera at intermediate level (level -1) in the Kottbusser Tor underground station.","man_made":"surveillance","surveillance":"public","surveillance:type":"camera","surveillance:zone":"entrance"}},{"type":"node","id":7230700366,"lat":52.499502,"lon":13.4170141,"tags":{"camera:type":"dome","description":"\u00dcberwachungskamera auf Zwischenebene (Level -1) im U.Bhf. Kottbusser Tor.","description:en":"Surveillance camera at intermediate level (level -1) in the Kottbusser Tor underground station.","man_made":"surveillance","surveillance":"public","surveillance:type":"camera","surveillance:zone":"entrance"}},{"type":"node","id":7945331219,"lat":52.4995017,"lon":13.4171157,"tags":{"highway":"street_lamp"}},{"type":"node","id":7945331220,"lat":52.4995759,"lon":13.4168471,"tags":{"highway":"street_lamp"}},{"type":"node","id":8014492449,"lat":52.4996493,"lon":13.4171283,"tags":{"addr:city":"Berlin","addr:housenumber":"176","addr:postcode":"10999","addr:street":"Reichenberger Stra\u00dfe","amenity":"restaurant","contact:facebook":"https:\/\/www.facebook.com\/Mantika-Mant%C4%B1-111645077068109\/","contact:phone":"+49 30 33948005","diet:vegan":"yes","name":"Mantika Manti","opening_hours":"Mo-Fr 11:00-22:00; Sa, Su 13:00-00:00"}},{"type":"node","id":8842053202,"lat":52.4995747,"lon":13.416851,"tags":{"bicycle":"yes","information":"guidepost","support":"street_lamp","tourism":"information"}},{"type":"node","id":8842053203,"lat":52.4995146,"lon":13.4165667,"tags":{"bicycle":"yes","information":"guidepost","support":"street_lamp","tourism":"information"}},{"type":"node","id":8842053204,"lat":52.4995131,"lon":13.4165733,"tags":{"highway":"street_lamp"}},{"type":"node","id":9682018926,"lat":52.499684,"lon":13.4171513,"tags":{"addr:city":"Berlin","addr:country":"DE","addr:housenumber":"176","addr:postcode":"10999","addr:street":"Reichenberger Stra\u00dfe","addr:suburb":"Kreuzberg","contact:facebook":"https:\/\/www.facebook.com\/mubiscookies.official\/","contact:instagram":"https:\/\/www.instagram.com\/mubiscookies.official\/","contact:mobile":"+49 176 41758864","name":"Mubi's Cookies","opening_hours":"Mo-Th 12:00-23:00; Fr-Sa 12:00-01:00, Su 12:00-24:00","shop":"confectionery"}},{"type":"node","id":9775732023,"lat":52.4996006,"lon":13.4168564,"tags":{"amenity":"atm","check_date":"2022-05-27","network":"Euronet","opening_hours":"24\/7"}},{"type":"node","id":9846839540,"lat":52.4994903,"lon":13.4164685,"tags":{"check_date":"2022-06-25","level":"0","name":"Cankat Sp\u00e4ti","shop":"convenience"}},{"type":"node","id":9846849130,"lat":52.4998358,"lon":13.4170494,"tags":{"amenity":"fast_food","check_date:opening_hours":"2024-08-20","cuisine":"chicken","indoor_seating":"no","level":"0","name":"Kaiza Chicken","opening_hours:signed":"no","outdoor_seating":"yes"}},{"type":"node","id":9846859834,"lat":52.4996735,"lon":13.4169419,"tags":{"amenity":"fast_food","check_date":"2022-06-25","level":"0","name":"Lookma Berlin","outdoor_seating":"yes"}},{"type":"node","id":9846863893,"lat":52.499802,"lon":13.4170095,"tags":{"amenity":"cafe","check_date":"2024-08-20","check_date:opening_hours":"2024-08-20","cuisine":"bubble_tea","level":"0","name":"Geicha","opening_hours:signed":"no","outdoor_seating":"yes"}},{"type":"node","id":9850099580,"lat":52.4996949,"lon":13.4165944,"tags":{"barrier":"gate"}},{"type":"node","id":12241126620,"lat":52.4996666,"lon":13.4171541,"tags":{"amenity":"fast_food","cuisine":"kebab","indoor_seating":"yes","name":"S\u00f6ner","outdoor_seating":"yes"}},{"type":"node","id":12400300660,"lat":52.4993983,"lon":13.4170168,"tags":{"description":"Linienverlauf U-Bahnlinie 8","indoor":"yes","information":"map","level":"-1","map_size":"route","map_type":"scheme","operator":"Berliner Verkehrsbetriebe","tourism":"information"}},{"type":"node","id":12400300661,"lat":52.4994173,"lon":13.4170328,"tags":{"description":"Karte U-Bahnhof Kottbusser Tor und n\u00e4here Umgebung","indoor":"yes","information":"map","level":"-1","map_size":"site","map_type":"street","operator":"Berliner Verkehrsbetriebe","tourism":"information"}},{"type":"node","id":12400300662,"lat":52.4995153,"lon":13.4170734,"tags":{"description":"Karte U-Bahnhof Kottbusser Tor und n\u00e4here Umgebung","indoor":"yes","information":"map","level":"-1","map_size":"site","map_type":"street","operator":"Berliner Verkehrsbetriebe","tourism":"information"}},{"type":"node","id":12400300663,"lat":52.4994959,"lon":13.4171015,"tags":{"description":"Linienverlauf U-Bahnlinie 8","indoor":"yes","information":"map","level":"-1","map_size":"route","map_type":"scheme","operator":"Berliner Verkehrsbetriebe","tourism":"information"}}]}