{"version":0.6,"generator":"Overpass API 0.7.62.5 1bd436f1","osm3s":{"timestamp_osm_base":"2025-03-12T11:57:36Z","copyright":"The data included in this document is from www.openstreetmap.org. The data is made available under ODbL."},"elements":[{"type":"node","id":313190997,"lat":52.4785048,"lon":-1.8948792,"tags":{"man_made":"surveillance","source":"survey"}},{"type":"node","id":956033695,"lat":52.4784408,"lon":-1.895374,"tags":{"addr:city":"Birmingham","addr:housenumber":"146-148","addr:postcode":"B2 4NY","addr:street":"New Street","disused:shop":"yes"}},{"type":"node","id":956033699,"lat":52.4784837,"lon":-1.8954608,"tags":{"entrance":"yes","foot":"yes","source":"visual survey; estimate"}},{"type":"node","id":956042751,"lat":52.4787624,"lon":-1.8956515,"tags":{"addr:city":"Birmingham","addr:housenumber":"4\/5","addr:postcode":"B2 4RF","addr:street":"New Street","branch":"Gilly Hicks","brand":"Hollister","brand:wikidata":"Q1257477","brand:wikipedia":"en:Burton (retailer)","name":"Hollister","official_name":"Hollister Co.","payment:american_express":"yes","payment:cash":"yes","payment:diners_club":"yes","payment:mastercard":"yes","payment:visa":"yes","shop":"clothes","website":"https:\/\/www.hollisterco.com\/shop\/uk\/clothing-stores\/GB\/Birmingham\/GB\/33541","wheelchair":"yes"}},{"type":"node","id":1101446903,"lat":52.4784152,"lon":-1.8950947,"tags":{"artist_name":"Peter Fink","artwork:material":"carbon fibre masts;stainless steel leaves","artwork:size":"30m high","artwork_type":"sculpture","material":"carbon_fibre_masts;stainless_steel_leaves","name":"Sculptural Light Wands","source":"George_T_Noszlopy;Fiona_Waterhouse","start_date":"2003-09","tourism":"artwork","wheelchair":"yes"}},{"type":"node","id":1402200760,"lat":52.4787584,"lon":-1.8950182,"tags":{"amenity":"bicycle_parking","bcc_ref":"63","bicycle_parking":"stands","capacity":"10","covered":"no","name":"High Street near Bullring","source":"survey"}},{"type":"node","id":1506609570,"lat":52.4786413,"lon":-1.8952478,"tags":{"information":"guidepost","source":"survey","tourism":"information"}},{"type":"node","id":1506609572,"lat":52.4787246,"lon":-1.8948781,"tags":{"information":"guidepost","source":"survey","tourism":"information"}},{"type":"node","id":1975375856,"lat":52.4783524,"lon":-1.8946998,"tags":{"amenity":"atm","brand":"Nationwide","brand:wikidata":"Q846735","cash_in":"yes","check_date":"2022-10-31","indoor":"no","operator":"Nationwide","operator:wikidata":"Q846735","source":"survey"}},{"type":"node","id":1981141776,"lat":52.4784542,"lon":-1.8948751,"tags":{"historic":"memorial","memorial":"plaque","memorial:project":"Blue plaque","name":"William Hutton - first historian of Birmingham","openplaques:id":"1573","source":"survey"}},{"type":"node","id":2519250944,"lat":52.4782878,"lon":-1.8953668,"tags":{"addr:city":"Birmingham","addr:country":"GB","addr:housenumber":"148","addr:postcode":"B5 4BU","addr:street":"New Street","alt_name":"Bullring Zara","brand":"Zara","brand:wikidata":"Q147662","brand:wikipedia":"en:Zara (retailer)","name":"Zara","phone":"+44 121 6160600","shop":"clothes","website":"https:\/\/www.zara.com\/uk\/","wheelchair":"yes"}},{"type":"node","id":4592378562,"lat":52.4787568,"lon":-1.8949645,"tags":{"emergency":"fire_hydrant","fire_hydrant:diameter":"150","fire_hydrant:position":"sidewalk","fire_hydrant:type":"underground","operator":"WMFS","source":"survey"}},{"type":"node","id":4592378563,"lat":52.4786261,"lon":-1.8949283,"tags":{"emergency":"fire_hydrant","fire_hydrant:diameter":"150","fire_hydrant:position":"sidewalk","fire_hydrant:type":"underground","operator":"WMFS","source":"survey"}},{"type":"node","id":4720101945,"lat":52.4788353,"lon":-1.8948551,"tags":{"age":"early-mature","constituency":"City Centre","height":"10","height:range":"9 to 9.99m","leaf_cycle":"deciduous","leaf_type":"broadleaved","natural":"tree","plot_number":"100001","ref:usrn":"2701781","site_name":"HIGH STREET","source":"bcc_dec_2016","species":"Carpinus betulus","species:wikidata":"Q158776","taxon":"Carpinus betulus fastigiata","tree_form":"natural","ward":"Ladywood"}},{"type":"node","id":4720101950,"lat":52.4786923,"lon":-1.8956121,"tags":{"age":"semi-mature","constituency":"City Centre","genus":"Platanus","height":"23","height:range":"22 to 22.99m","leaf_cycle":"deciduous","leaf_type":"broadleaved","natural":"tree","plot_number":"100019","ref:usrn":"2702077","site_name":"NEW STREET","source":"bcc_dec_2016","species":"Platanus x acerifolia","tree_form":"unbalanced","ward":"Ladywood"}},{"type":"node","id":4720101951,"lat":52.4785533,"lon":-1.8954781,"tags":{"age":"semi-mature","constituency":"City Centre","genus":"Platanus","height":"18","height:range":"17 to 17.99m","leaf_cycle":"deciduous","leaf_type":"broadleaved","natural":"tree","plot_number":"100023","ref:usrn":"2702077","site_name":"NEW STREET","source":"bcc_dec_2016","species":"Platanus x acerifolia","tree_form":"unbalanced","ward":"Ladywood"}},{"type":"node","id":4720101952,"lat":52.4786393,"lon":-1.8954351,"tags":{"age":"semi-mature","constituency":"City Centre","genus":"Platanus","height":"18","height:range":"17 to 17.99m","leaf_cycle":"deciduous","leaf_type":"broadleaved","natural":"tree","plot_number":"100022","ref:usrn":"2702077","site_name":"NEW STREET","source":"bcc_dec_2016","species":"Platanus x acerifolia","tree_form":"unbalanced","ward":"Ladywood"}},{"type":"node","id":5028463805,"lat":52.4784252,"lon":-1.8948995,"tags":{"emergency":"fire_hydrant","fire_hydrant:diameter:signed":"no","fire_hydrant:position":"sidewalk","fire_hydrant:type":"underground","operator":"WMFS","source":"survey"}},{"type":"node","id":5028463806,"lat":52.4784329,"lon":-1.8948995,"tags":{"emergency":"fire_hydrant","fire_hydrant:diameter:signed":"no","fire_hydrant:position":"sidewalk","fire_hydrant:type":"underground","operator":"WMFS","source":"survey"}},{"type":"node","id":5028463807,"lat":52.4784403,"lon":-1.8949002,"tags":{"emergency":"fire_hydrant","fire_hydrant:diameter:signed":"no","fire_hydrant:position":"sidewalk","fire_hydrant:type":"underground","operator":"WMFS","source":"survey"}},{"type":"node","id":6410985128,"lat":52.4788605,"lon":-1.8947567,"tags":{"entrance":"yes"}},{"type":"node","id":6635129441,"lat":52.4782933,"lon":-1.8948918,"tags":{"operator":"Network Rail","railway":"switch"}},{"type":"node","id":6650054664,"lat":52.4787382,"lon":-1.8952621,"tags":{"addr:city":"Birmingham","addr:postcode":"B4 7TE","addr:street":"High Street","amenity":"bank","brand":"Metro Bank","brand:wikidata":"Q6824499","brand:wikipedia":"en:Metro Bank (United Kingdom)","name":"Metro Bank","source":"survey","wheelchair":"yes"}},{"type":"node","id":7273075356,"lat":52.478742,"lon":-1.8954111,"tags":{"addr:city":"Birmingham","addr:housenumber":"1","addr:postcode":"B2 4RF","addr:street":"New Street","brand":"JD Sports","brand:wikidata":"Q6108019","brand:wikipedia":"en:JD Sports","contact:instagram":"jdofficial","contact:pinterest":"jdofficial","contact:twitter":"jdsportsfashion","contact:youtube":"https:\/\/www.youtube.com\/user\/JDsportsOfficial","name":"JD Sports","opening_hours":"Mo-Fr 09:00-21:00; Sa 09:00-20:00; Su 11:00-17:00","phone":"+44 121 6439162","shop":"sports","website":"https:\/\/www.jdsports.co.uk\/","wheelchair":"yes"}},{"type":"node","id":7673849362,"lat":52.4787781,"lon":-1.8953186,"tags":{"addr:city":"Birmingham","addr:housenumber":"1","addr:postcode":"B2 4LE","addr:street":"New Street"}},{"type":"node","id":11687769870,"lat":52.4785334,"lon":-1.8946485,"tags":{"addr:city":"Birmingham","addr:housename":"Waterstones Booksellers Ltd","addr:housenumber":"24-26","addr:postcode":"B4 7SL","addr:street":"High Street","addr:suburb":"Ladywood","amenity":"cafe","diet:vegan":"yes","diet:vegetarian":"yes","fhrs:id":"844213","name":"Waterstones Cafe W","smoking":"no","source:addr":"FHRS Open Data","wheelchair":"yes"}},{"type":"node","id":12004434606,"lat":52.4788891,"lon":-1.8951778,"tags":{"addr:city":"Birmingham","addr:street":"High Street","brand":"Deichmann","brand:wikidata":"Q664543","name":"Deichmann","shop":"shoes","wheelchair":"yes"}},{"type":"node","id":12004434609,"lat":52.4789496,"lon":-1.8948546,"tags":{"advertising":"totem","amenity":"telephone","operator":"BT"}}]}