{"version":0.6,"generator":"Overpass API 0.7.62.5 1bd436f1","osm3s":{"timestamp_osm_base":"2025-03-12T11:56:32Z","copyright":"The data included in this document is from www.openstreetmap.org. The data is made available under ODbL."},"elements":[{"type":"way","id":4077636,"nodes":[21392382,21392384],"tags":{"gritting":"priority_3","highway":"pedestrian","lane_markings":"no","lit":"yes","maintenance":"gritting","maxspeed":"20 mph","name":"Waterloo Street","oneway":"yes","postal_code":"B2","sidewalk":"both","surface":"sett"}},{"type":"way","id":10595208,"nodes":[92522965,7466770084,696408550,92522969],"tags":{"highway":"footway","name":"Waterloo Passage"}},{"type":"way","id":10595212,"nodes":[92523007,7297030804,344399140,92522977],"tags":{"designation":"public_footpath","highway":"pedestrian","lit":"yes","name":"Eden Place","prow_ref":"Birmingham FP 2248","source":"survey","source:prow_ref":"birmingham_city_council_prow_gis_data","surface":"paving_stones"}},{"type":"way","id":23364072,"nodes":[9605287473,252972889,12536974766,1083838611,1273082046,4600224337,252972890,1273082019,1273082044,252972891,1126468936,7116174851,178928727,3785139557,310675207,1753953457,310689036,365939040,1753953446,865174285,252972892,1753953451,365939038,1335373250,9605287470,252972893,9605287471,442338763,622138548,310648873,6792082378,310648872,272888876,1335375091,622137827,1335375101,1335375097,1335375089,1335375088,622137828,1335375094,2495096240,11486980207,622133297,11486980211,11486980212,11486980213,11486980214,11486980216,11486980208,9850453690,11486980210,9605287473],"tags":{"area":"yes","area:highway":"pedestrian"}},{"type":"way","id":25077941,"nodes":[12536974768,272884497],"tags":{"designation":"public_footpath","handrail":"yes","highway":"steps","incline":"down","lit":"yes","prow_ref":"Birmingham FP 2249","ramp":"no","source:prow_ref":"birmingham_city_council_prow_gis_data","step_count":"24","surface":"paving_stones","tactile_paving":"no"}},{"type":"way","id":25077944,"nodes":[272884497,272884498],"tags":{"designation":"public_footpath","highway":"footway","lit":"yes","prow_ref":"Birmingham FP 2249","smoothness":"excellent","source:prow_ref":"birmingham_city_council_prow_gis_data","surface":"paving_stones"}},{"type":"way","id":25078081,"nodes":[272886317,272886318,272886320,272886317],"tags":{"leisure":"garden","note":"approx"}},{"type":"way","id":25078183,"nodes":[272888218,1083838596,272888219,1083838615,865140420,5653884187,1273082046,1083838611,272888218],"tags":{"addr:city":"Birmingham","addr:housenumber":"71","addr:postcode":"B2 4DU","addr:street":"New Street","building":"yes","building:levels":"5","height":"41","name":"Waterloo House","source":"visual survey; estimate","source:height":"emuanalytics"}},{"type":"way","id":25078214,"nodes":[622133294,310648872,272888876,1335375091,622137827,1335375096,1335375100,1335375089,1335375088,622137828,1335375094,2495096240,622133297,310648877,272888879,696436825,2495096253,2495096251,2495096241,2495096238,1335375093,696436820,4081299297,622133294],"tags":{"addr:city":"Birmingham","addr:housename":"Council House","addr:postcode":"B1 1BB","addr:street":"Victoria Square","amenity":"townhall","architect":"Yeoville Thomason","building":"public","building:levels":"6","heritage":"2","heritage:operator":"Historic England","listed_status":"Grade II*","name":"Council House","name:ko":"\uc2dc\uc758\ud68c","operator":"Birmingham City Council","source":"visual survey;cities_revealed_aerial_ imagery;PMSA","start_date":"1874-9","url":"http:\/\/www.birmingham.gov.uk\/councilhouse","wheelchair":"yes","wikidata":"Q5176236","wikipedia":"en:Council House, Birmingham"}},{"type":"way","id":25094450,"nodes":[21693257,12262559963,1083797738,1083797730,92522977,21392382],"tags":{"gritting":"priority_3","highway":"pedestrian","lit":"yes","maintenance":"gritting","maxspeed":"20 mph","name":"Colmore Row","oneway":"yes","sidewalk":"both","surface":"sett"}},{"type":"way","id":56395993,"nodes":[1083797756,1083797703,1083797692,1083797760,1083797690,706931784,706931829,1083797756],"tags":{"addr:city":"Birmingham","addr:housenumber":"35;36","addr:postcode":"B2 5TJ","addr:street":"Waterloo Street","building":"yes","height":"23","heritage":"2","heritage:operator":"Historic England","listed_status":"Grade II","name":"Apsley House","source":"visual survey;bing;Birmingham_City_Council","source:height":"emuanalytics","wikidata":"Q26506196"}},{"type":"way","id":87356441,"nodes":[1039629482,1039629457,1015860812,1015860795,1039629482],"tags":{"addr:city":"Birmingham","addr:housenumber":"118-120","addr:postcode":"B3 3BD","addr:street":"Colmore Row","amenity":"bank","atm":"no","building":"yes","height":"23","heritage":"2","heritage:operator":"Historic England","listed_status":"Grade II","name":"Co-operative Bank","source":"visual survey;OS_OpenData_StreetView;cities_revealed_aerial_imagery","source:height":"emuanalytics"}},{"type":"way","id":87356445,"nodes":[1015860738,1015860795,1015860812,1015860805,1015860738],"tags":{"addr:city":"Birmingham","addr:housenumber":"122-124","addr:postcode":"B3 3AP","addr:street":"Colmore Row","amenity":"cafe","architect":"Prof W R Lethaby;C L Ball","building":"heritage","cuisine":"coffee_shop;sandwich;cake","fhrs:id":"777696","height":"23","heritage":"2","heritage:operator":"Historic England","listed_status":"Grade I","name":"Java Roastery","not:addr:postcode":"B3 3AU","opening_hours":"Mo-Fr 07:00-19:00 Sa 09:00-19:00 Su 10:00-18:00","outdoor_seating":"no","previous_name":"Hudson's Coffee House (until late 2011)","previous_use":"Eagle Insurance offices","source":"visual survey;cities_revealed_aerial_imagery;Birmingham_Civic_Society","source:height":"emuanalytics","start_date":"1900","website":"https:\/\/javaroastery.co.uk\/","wikidata":"Q4548210","wikipedia":"en:122\u2013124 Colmore Row"}},{"type":"way","id":87356455,"nodes":[706931855,1086074992,706931853,1015860738,1015860805,706931855],"tags":{"addr:city":"Birmingham","addr:housenumber":"126","addr:postcode":"B3 3AP","addr:street":"Colmore Row","architect":"S N Cooke","building":"yes","height":"23","source":"OS_OpenData_StreetView","source:height":"emuanalytics","start_date":"1926"}},{"type":"way","id":89710855,"nodes":[1039684910,1039629457,1039629482,1039684924,1039684910],"tags":{"addr:city":"Birmingham","addr:housenumber":"116","addr:postcode":"B3 3BD","addr:street":"Colmore Row","amenity":"bank","architect":"Paul Waterhouse","building":"yes","height":"23","heritage":"2","heritage:operator":"Historic England","listed_status":"Grade II","name":"Victoria House","source":"visual survey;cities_revealed_aerial_imagery;Birmingham_City_Council","source:height":"emuanalytics","start_date":"1912"}},{"type":"way","id":89714964,"nodes":[1039684924,1039684908,1039684894,1039684910,1039684924],"tags":{"addr:city":"Birmingham","addr:housenumber":"114","addr:postcode":"B3 3BD","addr:street":"Colmore Row","architect":"Paul Waterhouse","atm":"yes","building":"yes","height":"23","heritage":"2","heritage:operator":"Historic England","listed_status":"Grade II","source":"visual survey;cities_revealed_aerial_imagery;Birmingham_City_Council","source:height":"emuanalytics","start_date":"1912"}},{"type":"way","id":89714970,"nodes":[1086074992,1086074995,706931815,1086074996,706931853,1086074992],"tags":{"addr:city":"Birmingham","addr:housenumber":"130","addr:postcode":"B3 3AP","addr:street":"Colmore Row","architect":"Goddard & Co","building":"yes","height":"23","heritage":"2","heritage:operator":"Historic England","listed_status":"Grade II","source":"OS_OpenData_StreetView;visual survey;cities_revealed_aerial_imagery;Birmingham_City_Council","source:height":"emuanalytics","start_date":"1903","url":"http:\/\/www.birmingham.gov.uk\/carers-centre","wikidata":"Q18159596","wikipedia":"en:130 Colmore Row"}},{"type":"way","id":89722211,"nodes":[2560024838,865140463,865140242,1273082014,8015435061,1272977519,7237585846,1272977550,2560024838],"tags":{"addr:city":"Birmingham","addr:housenumber":"66-68","addr:postcode":"B2 4DU","addr:street":"New Street","building":"apartments","building:levels":"5","name":"New Street Chambers"}},{"type":"way","id":93487277,"nodes":[1083797706,1083797703,1083797692,1083838593,1083797706],"tags":{"addr:city":"Birmingham","addr:housenumber":"31-34","addr:postcode":"B2 5TJ","addr:street":"Waterloo Street","building":"yes","height":"23","heritage":"2","heritage:operator":"Historic England","listed_status":"Grade II","name":"Wellington House","source":"visual survey;bing;Birmingham_City_Council","source:height":"emuanalytics"}},{"type":"way","id":93489762,"nodes":[865140082,865140057,865140505,1083838596,272888218,865140082],"tags":{"addr:city":"Birmingham","addr:housename":"New Oxford House","addr:housenumber":"16","addr:postcode":"B2 5UG","addr:street":"Waterloo Street","amenity":"restaurant","architect":"S N Cooke","award:michelin":"1","brand":"Pieminister","brand:wikidata":"Q16967078","brand:wikipedia":"en:Pieminister","building":"yes","cuisine":"pie","diet:vegan":"yes","diet:vegetarian":"yes","fhrs:id":"1150594","height":"41","heritage":"6","heritage:operator":"Birmingham City Council","listed_status":"local_grade_B","name":"Pieminister","opening_hours":"Su-Fr 12:00-22:00; Sa 11:00-22:00","payment:cash":"yes","phone":"+44 121 6433745","source":"visual survey;estimate","source:height":"emuanalytics","start_date":"1934","website":"https:\/\/www.adamsrestaurant.co.uk\/"}},{"type":"way","id":93489768,"nodes":[1083838593,706933319,706933314,706933356,1083797706,1083838593],"tags":{"addr:city":"Birmingham","addr:housenumber":"30","addr:postcode":"B2 5TJ","addr:street":"Waterloo Street","building":"office","height":"23","heritage":"2","heritage:operator":"Historic England","listed_status":"Grade II","name":"Christchurch House","source":"visual survey;cities_revealed_aerial_imagery;Birmingham_City_Council","source:height":"emuanalytics","wikidata":"Q26340368"}},{"type":"way","id":93489770,"nodes":[1039774936,1039774977,1039774957,865140200,865139976,865140618,865140413,865140057,865140082,865140494,1083838618,1083838598,1039774936],"tags":{"addr:city":"Birmingham","addr:housenumber":"14","addr:postcode":"B2 5TX","addr:street":"Waterloo Street","architect":"W Norman Twist","building":"office","height":"41","heritage":"6","heritage:operator":"Birmingham City Council","listed_status":"local_grade_B","name":"Neville House","source":"visual survey;cities_revealed_aerial_ imagery","source:height":"emuanalytics","start_date":"1934"}},{"type":"way","id":93612666,"nodes":[1086074992,706931855,706931814,1086074995,1086074992],"tags":{"addr:city":"Birmingham","addr:housenumber":"26","addr:postcode":"B2 5TJ","addr:street":"Waterloo Street","building":"yes","height":"23","source":"OS_OpenData_StreetView;visual survey;cities_revealed_aerial_imagery;Birmingham_City_Council","source:addr:postcode":"code-point_open","source:height":"emuanalytics"}},{"type":"way","id":163717092,"nodes":[1753953485,11486980209,1753953481],"tags":{"highway":"footway","lit":"yes","source":"survey","surface":"paving_stones"}},{"type":"way","id":163717108,"nodes":[1753953481,1753953477,1753953475],"tags":{"handrail":"no","highway":"steps","incline":"down","lit":"yes","ramp":"no","source":"survey","step_count":"24","surface":"paving_stones"}},{"type":"way","id":163717113,"nodes":[1753953475,1753953470,1753953461],"tags":{"highway":"footway","lit":"yes","smoothness":"excellent","source":"survey","surface":"paving_stones"}},{"type":"way","id":163781312,"nodes":[21392384,1039684916,21392383,11486980215,92522965,696408548,21392385,367432604,12262559964,12536974764,4490388059,21693261],"tags":{"gritting":"priority_3","highway":"pedestrian","lane_markings":"no","lit":"yes","maintenance":"gritting","maxspeed":"20 mph","name":"Waterloo Street","oneway":"yes","postal_code":"B2","surface":"sett"}},{"type":"way","id":249394708,"nodes":[865140463,2560024838,865140420,1083838615,865140463],"tags":{"addr:city":"Birmingham","addr:housenumber":"69","addr:postcode":"B2 4DU","addr:street":"New Street","building":"apartments","building:levels":"4","heritage":"6","heritage:operator":"Birmingham City Council","listed_status":"local_grade_B","name":"New Street Chambers"}},{"type":"way","id":458111531,"nodes":[4541585938,4541585937],"tags":{"amenity":"taxi","source":"survey"}},{"type":"way","id":1043697687,"nodes":[9605287473,12536974768],"tags":{"designation":"public_footpath","handrail":"yes","highway":"footway","incline":"down","lit":"yes","prow_ref":"Birmingham FP 2249","ramp":"no","source:prow_ref":"birmingham_city_council_prow_gis_data","step_count":"6","surface":"paving_stones"}},{"type":"way","id":1236949522,"nodes":[11486980234,11486980235,11486980236,11486980218,11486980219,11486980220,11486980249,11486980248,11486980247,11486980246,11486980221,11486980245,11486980244,11486980243,11486980242,11486980222,11486980237,11486980238,11486980239,11486980240,11486980241,11486980223,11486980231,11486980232,11486980233,11486980224,11486980225,11486980226,11486980227,11486980228,11486980229,11486980230,11486980234],"tags":{"natural":"water"}},{"type":"way","id":1354726085,"nodes":[12536974756,12536974757,12536974758,12536974765,12536974766,12536974768,12536974767],"tags":{"footway":"sidewalk","highway":"footway"}},{"type":"way","id":1354726091,"nodes":[12536974767,9605287464,11486980216,21392384],"tags":{"bicycle":"designated","highway":"footway","lit":"yes","segregated":"no","surface":"paving_stones","wheelchair":"yes"}},{"type":"node","id":21392382,"lat":52.4802109,"lon":-1.9022037},{"type":"node","id":21392383,"lat":52.4800947,"lon":-1.9022744},{"type":"node","id":21392384,"lat":52.4801381,"lon":-1.9022805},{"type":"node","id":21392385,"lat":52.4800105,"lon":-1.9012902},{"type":"node","id":21693257,"lat":52.4808593,"lon":-1.9009217},{"type":"node","id":92522965,"lat":52.4799737,"lon":-1.9019475},{"type":"node","id":92522969,"lat":52.4804578,"lon":-1.900977},{"type":"node","id":92522977,"lat":52.4802545,"lon":-1.9021272},{"type":"node","id":92523007,"lat":52.4809047,"lon":-1.902993},{"type":"node","id":178928727,"lat":52.4793553,"lon":-1.9023684},{"type":"node","id":252972889,"lat":52.4798815,"lon":-1.9017562},{"type":"node","id":252972890,"lat":52.4793502,"lon":-1.9019328},{"type":"node","id":252972891,"lat":52.4793664,"lon":-1.9022227},{"type":"node","id":252972892,"lat":52.4792567,"lon":-1.9028224},{"type":"node","id":252972893,"lat":52.4793485,"lon":-1.9031808},{"type":"node","id":272884497,"lat":52.4797963,"lon":-1.901903},{"type":"node","id":272884498,"lat":52.479406,"lon":-1.9019766},{"type":"node","id":272886317,"lat":52.4798928,"lon":-1.9021229},{"type":"node","id":272886318,"lat":52.4798352,"lon":-1.9018898},{"type":"node","id":272886320,"lat":52.4798066,"lon":-1.9020477},{"type":"node","id":272888218,"lat":52.4798492,"lon":-1.9016553},{"type":"node","id":272888219,"lat":52.4797151,"lon":-1.9016888},{"type":"node","id":272888876,"lat":52.4798605,"lon":-1.9032964},{"type":"node","id":272888879,"lat":52.4804087,"lon":-1.9027441},{"type":"node","id":310648872,"lat":52.4799193,"lon":-1.9033782},{"type":"node","id":310648873,"lat":52.4798585,"lon":-1.9036859},{"type":"node","id":310648877,"lat":52.480515,"lon":-1.9025577},{"type":"node","id":310675207,"lat":52.4793463,"lon":-1.9024156},{"type":"node","id":310689036,"lat":52.4793831,"lon":-1.9025357},{"type":"node","id":344399140,"lat":52.4804087,"lon":-1.9023076},{"type":"node","id":365939038,"lat":52.4792127,"lon":-1.9030089},{"type":"node","id":365939040,"lat":52.4793658,"lon":-1.9025489},{"type":"node","id":367432604,"lat":52.4801012,"lon":-1.9009875},{"type":"node","id":442338763,"lat":52.4793911,"lon":-1.9032105},{"type":"node","id":622133294,"lat":52.4800664,"lon":-1.9036045},{"type":"node","id":622133297,"lat":52.4803361,"lon":-1.9022824},{"type":"node","id":622137827,"lat":52.4798783,"lon":-1.9031547},{"type":"node","id":622137828,"lat":52.4800686,"lon":-1.9027106},{"type":"node","id":622138548,"lat":52.4794336,"lon":-1.9032538},{"type":"node","id":696408548,"lat":52.479907,"lon":-1.9016379},{"type":"node","id":696408550,"lat":52.4800894,"lon":-1.9018697},{"type":"node","id":696436820,"lat":52.4802001,"lon":-1.903373},{"type":"node","id":696436825,"lat":52.4803858,"lon":-1.9027089},{"type":"node","id":706931784,"lat":52.4802404,"lon":-1.9012079},{"type":"node","id":706931814,"lat":52.4800178,"lon":-1.9019505},{"type":"node","id":706931815,"lat":52.4801098,"lon":-1.9022186},{"type":"node","id":706931829,"lat":52.4802879,"lon":-1.9012458},{"type":"node","id":706931853,"lat":52.4802243,"lon":-1.9020915},{"type":"node","id":706931855,"lat":52.4800894,"lon":-1.9018964},{"type":"node","id":706933314,"lat":52.480013,"lon":-1.9018833},{"type":"node","id":706933319,"lat":52.479971,"lon":-1.9017375},{"type":"node","id":706933356,"lat":52.4800847,"lon":-1.9018484},{"type":"node","id":865139976,"lat":52.4797354,"lon":-1.9009228},{"type":"node","id":865140057,"lat":52.4797182,"lon":-1.9011484},{"type":"node","id":865140082,"lat":52.4799357,"lon":-1.9013294},{"type":"node","id":865140200,"lat":52.4797535,"lon":-1.9007434},{"type":"node","id":865140242,"lat":52.4796802,"lon":-1.9011854},{"type":"node","id":865140413,"lat":52.4797493,"lon":-1.9010143},{"type":"node","id":865140420,"lat":52.4794836,"lon":-1.9017325},{"type":"node","id":865140463,"lat":52.4797012,"lon":-1.9015412},{"type":"node","id":865140494,"lat":52.4799489,"lon":-1.9013388},{"type":"node","id":865140505,"lat":52.4797134,"lon":-1.9015522},{"type":"node","id":865140618,"lat":52.4797668,"lon":-1.900936},{"type":"node","id":865174285,"lat":52.4792974,"lon":-1.9028076},{"type":"node","id":1015860738,"lat":52.480279,"lon":-1.9019775},{"type":"node","id":1015860795,"lat":52.4803446,"lon":-1.901842},{"type":"node","id":1015860805,"lat":52.4801346,"lon":-1.9017933},{"type":"node","id":1015860812,"lat":52.4801942,"lon":-1.9016469},{"type":"node","id":1039629457,"lat":52.4802678,"lon":-1.901478},{"type":"node","id":1039629482,"lat":52.4804233,"lon":-1.9016794},{"type":"node","id":1039684894,"lat":52.4803479,"lon":-1.9012896},{"type":"node","id":1039684908,"lat":52.4805147,"lon":-1.9014907},{"type":"node","id":1039684910,"lat":52.4803054,"lon":-1.9013875},{"type":"node","id":1039684916,"lat":52.4801098,"lon":-1.9022843},{"type":"node","id":1039684924,"lat":52.4804653,"lon":-1.9015926},{"type":"node","id":1039774936,"lat":52.4799212,"lon":-1.9008943},{"type":"node","id":1039774957,"lat":52.4798022,"lon":-1.9007519},{"type":"node","id":1039774977,"lat":52.4799359,"lon":-1.9007789},{"type":"node","id":1083797690,"lat":52.4802657,"lon":-1.9011316},{"type":"node","id":1083797692,"lat":52.4801095,"lon":-1.9012204},{"type":"node","id":1083797703,"lat":52.4802864,"lon":-1.9013741},{"type":"node","id":1083797706,"lat":52.480176,"lon":-1.9016391},{"type":"node","id":1083797730,"lat":52.4803905,"lon":-1.9018666},{"type":"node","id":1083797738,"lat":52.4805599,"lon":-1.9015691},{"type":"node","id":1083797756,"lat":52.4803232,"lon":-1.9012714},{"type":"node","id":1083797760,"lat":52.4801664,"lon":-1.901047},{"type":"node","id":1083838593,"lat":52.4800265,"lon":-1.9015157},{"type":"node","id":1083838596,"lat":52.4797454,"lon":-1.9015742},{"type":"node","id":1083838598,"lat":52.4799051,"lon":-1.9010208},{"type":"node","id":1083838611,"lat":52.4797865,"lon":-1.9018347},{"type":"node","id":1083838615,"lat":52.4796651,"lon":-1.9016987},{"type":"node","id":1083838618,"lat":52.4800131,"lon":-1.901107},{"type":"node","id":1086074992,"lat":52.4801522,"lon":-1.9019909},{"type":"node","id":1086074995,"lat":52.4800623,"lon":-1.9020732},{"type":"node","id":1086074996,"lat":52.4801541,"lon":-1.9021826},{"type":"node","id":1126468936,"lat":52.4793431,"lon":-1.9022447},{"type":"node","id":1272977519,"lat":52.4794602,"lon":-1.9013953},{"type":"node","id":1272977550,"lat":52.4794692,"lon":-1.901524},{"type":"node","id":1273082014,"lat":52.4794492,"lon":-1.9012357},{"type":"node","id":1273082019,"lat":52.4793531,"lon":-1.9019779},{"type":"node","id":1273082044,"lat":52.4793614,"lon":-1.9021049},{"type":"node","id":1273082046,"lat":52.4795098,"lon":-1.9019064},{"type":"node","id":1335373250,"lat":52.4792304,"lon":-1.9030872},{"type":"node","id":1335375088,"lat":52.4800102,"lon":-1.9028128},{"type":"node","id":1335375089,"lat":52.4800435,"lon":-1.9028639},{"type":"node","id":1335375091,"lat":52.4798619,"lon":-1.9032363},{"type":"node","id":1335375093,"lat":52.4800827,"lon":-1.9031959},{"type":"node","id":1335375094,"lat":52.4801197,"lon":-1.9026209},{"type":"node","id":1335375096,"lat":52.4799023,"lon":-1.9031125},{"type":"node","id":1335375097,"lat":52.4799254,"lon":-1.9030699},{"type":"node","id":1335375100,"lat":52.479902,"lon":-1.9031119},{"type":"node","id":1335375101,"lat":52.4799023,"lon":-1.9031101},{"type":"node","id":1753953446,"lat":52.4792926,"lon":-1.9027751},{"type":"node","id":1753953451,"lat":52.4792455,"lon":-1.902864},{"type":"node","id":1753953457,"lat":52.4793646,"lon":-1.9024777},{"type":"node","id":1753953461,"lat":52.4794082,"lon":-1.902028},{"type":"node","id":1753953470,"lat":52.479534,"lon":-1.9020579},{"type":"node","id":1753953475,"lat":52.4797482,"lon":-1.9021152},{"type":"node","id":1753953477,"lat":52.4798211,"lon":-1.9021663},{"type":"node","id":1753953481,"lat":52.4798802,"lon":-1.9022429},{"type":"node","id":1753953485,"lat":52.4800435,"lon":-1.9024997},{"type":"node","id":2495096238,"lat":52.4801264,"lon":-1.9031192},{"type":"node","id":2495096240,"lat":52.4801321,"lon":-1.9026399},{"type":"node","id":2495096241,"lat":52.4801399,"lon":-1.9031399},{"type":"node","id":2495096251,"lat":52.480234,"lon":-1.9029749},{"type":"node","id":2495096253,"lat":52.4802646,"lon":-1.9029212},{"type":"node","id":2560024838,"lat":52.4794735,"lon":-1.9015868},{"type":"node","id":3785139557,"lat":52.47935,"lon":-1.9023962},{"type":"node","id":4081299297,"lat":52.4801616,"lon":-1.9034358},{"type":"node","id":4541585937,"lat":52.4803071,"lon":-1.9021093},{"type":"node","id":4541585938,"lat":52.4802699,"lon":-1.9021784},{"type":"node","id":4600224337,"lat":52.4794025,"lon":-1.9019217},{"type":"node","id":5653884187,"lat":52.4794966,"lon":-1.9018693},{"type":"node","id":6792082378,"lat":52.4798856,"lon":-1.903577},{"type":"node","id":7116174851,"lat":52.4793541,"lon":-1.9023242},{"type":"node","id":7237585846,"lat":52.4794653,"lon":-1.9014679},{"type":"node","id":7297030804,"lat":52.4808436,"lon":-1.9029085},{"type":"node","id":7466770084,"lat":52.4800283,"lon":-1.9019077},{"type":"node","id":8015435061,"lat":52.4794545,"lon":-1.9013125},{"type":"node","id":9605287464,"lat":52.4800936,"lon":-1.9024062},{"type":"node","id":9605287470,"lat":52.4793322,"lon":-1.9031679},{"type":"node","id":9605287471,"lat":52.4793656,"lon":-1.9031927},{"type":"node","id":9605287473,"lat":52.4798971,"lon":-1.9018241},{"type":"node","id":9850453690,"lat":52.4800686,"lon":-1.9023463},{"type":"node","id":11486980207,"lat":52.4802121,"lon":-1.9025013},{"type":"node","id":11486980208,"lat":52.4800907,"lon":-1.9023561},{"type":"node","id":11486980209,"lat":52.4800152,"lon":-1.9024552},{"type":"node","id":11486980210,"lat":52.4800429,"lon":-1.9023031},{"type":"node","id":11486980211,"lat":52.4802578,"lon":-1.9021858},{"type":"node","id":11486980212,"lat":52.4801992,"lon":-1.9022946},{"type":"node","id":11486980213,"lat":52.480158,"lon":-1.9023407},{"type":"node","id":11486980214,"lat":52.4801263,"lon":-1.9023598},{"type":"node","id":11486980215,"lat":52.4800672,"lon":-1.902241},{"type":"node","id":11486980216,"lat":52.4801106,"lon":-1.9023582},{"type":"node","id":11486980218,"lat":52.4796948,"lon":-1.9023637},{"type":"node","id":11486980219,"lat":52.4797204,"lon":-1.9024183},{"type":"node","id":11486980220,"lat":52.4797449,"lon":-1.9024555},{"type":"node","id":11486980221,"lat":52.4798067,"lon":-1.9025081},{"type":"node","id":11486980222,"lat":52.4798739,"lon":-1.9023744},{"type":"node","id":11486980223,"lat":52.4798257,"lon":-1.9022685},{"type":"node","id":11486980224,"lat":52.479708,"lon":-1.9021648},{"type":"node","id":11486980225,"lat":52.4796944,"lon":-1.9021581},{"type":"node","id":11486980226,"lat":52.4796802,"lon":-1.902159},{"type":"node","id":11486980227,"lat":52.4796669,"lon":-1.9021673},{"type":"node","id":11486980228,"lat":52.4796559,"lon":-1.9021822},{"type":"node","id":11486980229,"lat":52.4796484,"lon":-1.902202},{"type":"node","id":11486980230,"lat":52.4796452,"lon":-1.9022248},{"type":"node","id":11486980231,"lat":52.4797968,"lon":-1.9022288},{"type":"node","id":11486980232,"lat":52.4797637,"lon":-1.9021984},{"type":"node","id":11486980233,"lat":52.4797199,"lon":-1.9021787},{"type":"node","id":11486980234,"lat":52.4796465,"lon":-1.902248},{"type":"node","id":11486980235,"lat":52.4796524,"lon":-1.9022693},{"type":"node","id":11486980236,"lat":52.4796621,"lon":-1.9022864},{"type":"node","id":11486980237,"lat":52.4798754,"lon":-1.9023419},{"type":"node","id":11486980238,"lat":52.4798737,"lon":-1.9023135},{"type":"node","id":11486980239,"lat":52.4798644,"lon":-1.902291},{"type":"node","id":11486980240,"lat":52.4798554,"lon":-1.9022787},{"type":"node","id":11486980241,"lat":52.4798422,"lon":-1.9022729},{"type":"node","id":11486980242,"lat":52.4798683,"lon":-1.9024069},{"type":"node","id":11486980243,"lat":52.4798559,"lon":-1.9024432},{"type":"node","id":11486980244,"lat":52.479842,"lon":-1.9024715},{"type":"node","id":11486980245,"lat":52.4798264,"lon":-1.9024938},{"type":"node","id":11486980246,"lat":52.4797893,"lon":-1.9025131},{"type":"node","id":11486980247,"lat":52.4797701,"lon":-1.9025135},{"type":"node","id":11486980248,"lat":52.4797585,"lon":-1.9025011},{"type":"node","id":11486980249,"lat":52.4797492,"lon":-1.9024783},{"type":"node","id":12262559963,"lat":52.4808099,"lon":-1.9010286},{"type":"node","id":12262559964,"lat":52.4802409,"lon":-1.900561},{"type":"node","id":12536974758,"lat":52.4801221,"lon":-1.9007921},{"type":"node","id":12536974765,"lat":52.4798637,"lon":-1.9016789},{"type":"node","id":12536974766,"lat":52.479863,"lon":-1.9017715},{"type":"node","id":12536974767,"lat":52.4800754,"lon":-1.9024402},{"type":"node","id":12536974768,"lat":52.479883,"lon":-1.9018347},{"type":"node","id":21693261,"lat":52.4802873,"lon":-1.9004217},{"type":"node","id":4490388059,"lat":52.4802642,"lon":-1.9004899},{"type":"node","id":12536974756,"lat":52.4801973,"lon":-1.9004913},{"type":"node","id":12536974757,"lat":52.4802111,"lon":-1.9005182},{"type":"node","id":12536974764,"lat":52.4802492,"lon":-1.9005355}]}