{"version":0.6,"generator":"Overpass API 0.7.62.5 1bd436f1","osm3s":{"timestamp_osm_base":"2025-03-12T12:11:49Z","copyright":"The data included in this document is from www.openstreetmap.org. The data is made available under ODbL."},"elements":[{"type":"way","id":28511979,"nodes":[312743197,3763940170,3751869924,3757918352,3757918353,1139274081,310309583,3763940167,747349635,3763940169,747316074,3757918354,3779614558,312743197],"tags":{"access":"yes","amenity":"parking","building":"yes","building:levels":"6","fee":"yes","layer":"2","max_level":"6","min_level":"2","name":"Grand Central Parking","parking":"multi-storey","source":"local_knowledge;estimate"}},{"type":"way","id":60168251,"nodes":[2471013688,2470956413,2470441572,2470956428,2470956424,2470956414,747349614,747349619,1320263834,747418114,2470945279,2470945305,747405587,747671935,2471013688],"tags":{"area":"yes","layer":"-1","level":"0","public_transport":"platform","railway":"platform","ref":"3b","source":"visual survey;estimate","wheelchair":"yes"}},{"type":"way","id":60168254,"nodes":[178948800,747671930,3761531774,8542014801],"tags":{"electrified":"contact_line","frequency":"50","gauge":"1435","layer":"-1","level":"0","maxspeed":"10 mph","name":"Rugby Birmingham and Stafford Line","railway":"rail","railway:aws":"no","railway:etcs":"no","railway:lzb":"no","railway:pzb":"no","ref":"RBS2","tunnel":"yes","usage":"main","voltage":"25000"}},{"type":"way","id":60170849,"nodes":[2470985055,2470985074,2470985068,2470985016,3761569964,9938710716,2470985047,2470985072,2470985025,2470985051,747405585,3761569965,1320263843,747405522,2470945311,3758957518,2471075900,747418129,2470945320,747405659,747405682,2470985055],"tags":{"area":"yes","bench":"yes","bin":"no","layer":"-1","level":"0","public_transport":"platform","railway":"platform","ref":"8b","source":"visual survey;estimate","tactile_paving":"yes","wheelchair":"yes"}},{"type":"way","id":60170855,"nodes":[178947420,747418130,747405673,8542014809],"tags":{"electrified":"contact_line","frequency":"50","gauge":"1435","layer":"-1","level":"0","maxspeed":"10 mph","name":"Birmingham and Gloucester Line","railway":"rail","railway:aws":"no","railway:etcs":"no","railway:lzb":"no","railway:pzb":"no","railway:track_ref":"7B","ref":"BAG1","tunnel":"yes","usage":"main","voltage":"25000"}},{"type":"way","id":60170857,"nodes":[2470985055,2470985074,2470985068,2470985016,3761569964,9938710716,2470985047,2470985072,2470985025,2470985018,747405636,1320263823,747405565,2470945306,2470945283,747405563,747405620,2470985055],"tags":{"area":"yes","bench":"yes","bin":"no","layer":"-1","level":"0","name":"9b","public_transport":"platform","railway":"platform","ref":"9b","source":"visual survey;estimate","tactile_paving":"yes","wheelchair":"yes"}},{"type":"way","id":219208231,"nodes":[313201325,2284075934,3763940171],"tags":{"highway":"service","incline":"up","source":"survey"}},{"type":"way","id":239239820,"nodes":[2470441565,2470441582,2470441576],"tags":{"access":"destination","highway":"footway","level":"1","lit":"yes","surface":"paving_stones"}},{"type":"way","id":239239824,"nodes":[2470441541,2470441593],"tags":{"conveying":"yes","handrail":"yes","highway":"steps","incline":"up","level":"0;1","lit":"yes","name":"8b 9b"}},{"type":"way","id":239239826,"nodes":[2470441622,2470441537],"tags":{"conveying":"yes","handrail":"yes","highway":"steps","incline":"up","level":"0;1","lit":"yes","name":"4b 4c 5b"}},{"type":"way","id":239239827,"nodes":[2470441590,2470441545,2470441596],"tags":{"access":"destination","highway":"footway","level":"1","lit":"yes","surface":"paving_stones"}},{"type":"way","id":239239833,"nodes":[2470441616,2470441576],"tags":{"conveying":"yes","handrail":"yes","highway":"steps","level":"0;1","lit":"yes","name":"6b 7b"}},{"type":"way","id":239239834,"nodes":[2470441547,2470441535,2470441599,2470441570,2470441582,2470441531,2470441574,2471134208,2470441545,2470441559],"tags":{"access":"destination","highway":"footway","level":"1","lit":"yes","source":"survey","surface":"paving_stones"}},{"type":"way","id":239239835,"nodes":[2470441543,2470441570,2470441593],"tags":{"access":"destination","highway":"footway","level":"1","lit":"yes","surface":"paving_stones"}},{"type":"way","id":239239836,"nodes":[2470441572,2470441596],"tags":{"conveying":"yes","handrail":"yes","highway":"steps","incline":"up","level":"0;1","lit":"yes","name":"2b 3b"}},{"type":"way","id":239239837,"nodes":[2470441532,2470441574,2470441537],"tags":{"access":"destination","highway":"footway","level":"1","lit":"yes","surface":"paving_stones"}},{"type":"way","id":239302495,"nodes":[2471013689,2470985039,2470985020,2470985029,2470985041,2470985053,2470985023,2470985064,747405550,1320263812,9938727618,747405680,2470945302,3758957514,2471075894,747418094,2470945298,747405557,747671944,2471013689],"tags":{"area":"yes","bench":"yes","bin":"no","layer":"-1","level":"0","public_transport":"platform","railway":"platform","ref":"7b","source":"visual survey;estimate","wheelchair":"yes"}},{"type":"way","id":239302496,"nodes":[747349570,3761447438,2470945281,747418110,2470945282,747349602,747671934,747349643,2470967697,2470967695,2470967698,2470967704,747349570],"tags":{"area":"yes","bench":"yes","bin":"no","layer":"-1","level":"0","public_transport":"platform","railway":"platform","ref":"4b","tactile_paving":"yes","wheelchair":"yes"}},{"type":"way","id":239302498,"nodes":[2471013688,2470956413,2470441572,2470956428,2470956424,2470956414,747349614,2470967703,1320263814,747418119,747418135,2470945289,3758957516,2470945318,747405650,747671941,2471013688],"tags":{"area":"yes","layer":"-1","level":"0","public_transport":"platform","railway":"platform","ref":"2b","source":"visual survey;estimate","wheelchair":"yes"}},{"type":"way","id":239302499,"nodes":[2470967697,2470967695,2470967698,2470967704,2470967710,2470967709,747349593,747418138,2470945278,747349554,747671945,2470967697],"tags":{"area":"yes","bench":"yes","bin":"no","layer":"-1","level":"0","public_transport":"platform","railway":"platform","ref":"5b","source":"visual survey;estimate","tactile_paving":"yes","wheelchair":"yes"}},{"type":"way","id":239302502,"nodes":[2471013689,2470985039,2470985020,2470985029,2470985041,2470985053,2470985023,2470985064,747349598,1320263827,747349562,3758957511,2471075904,747418122,2470945286,747405547,747671933,2471013689],"tags":{"area":"yes","bench":"yes","bin":"no","layer":"-1","level":"0","public_transport":"platform","railway":"platform","ref":"6b","source":"visual survey;estimate","wheelchair":"yes"}},{"type":"way","id":239338292,"nodes":[2470956427,3761531780,3761531781,3761531783,2471187097,9942495136,977366273,977366261,2470956432,9938770782,9938770796,2470956431,9938770783,2470956426,5136932584,2470956433,747349556,1320263785,747671706,3758957513,2471075899,747671926,3761531779,747671937,2470956427],"tags":{"area":"yes","layer":"-1","level":"0","public_transport":"platform","railway":"platform","ref":"1b","source":"visual survey;estimate","wheelchair":"yes"}},{"type":"way","id":371608827,"nodes":[2291945887,313201325,3761531791,2291945878,2291945876],"tags":{"access":"yes","bicycle":"designated","description":"New Street Drop and Go","foot":"yes","highway":"service","horse":"no","level":"1","maxspeed":"10 mph","oneway":"yes","sidewalk":"right","surface":"asphalt"}},{"type":"way","id":371608830,"nodes":[9938710715,3751736612,3751736613,9938770781,2284078606],"tags":{"bridge":"yes","highway":"service","incline":"up","layer":"1","source":"survey"}},{"type":"way","id":371625591,"nodes":[3757918363,3763940185,3763940182,2284097704,3761550924,3758605209,12029065314,3763940177,3751876125,3757905929,3751869922,3761656457,3754517397,3751690208,3758804227,747905160,3751706544,3751706543,3751736614,747905195,747905186,3751706542,3751706541,3758762814,3751706540,3751690200,310309579,3751690199,3751690197,1313544805,3761447433,3761447431,696422184,3761447430,3958542652,3958542651,3757905410,3757905406,3757905403,3958542642,3757905396,3757905397,3757905400,3757905411,3761195245,3958542649,3757905405,3757905402,3608693651,3757905404,3751696169,3757905408,3751696171,3757905421,3757905735,3751696175,3754517390,3958582322,3958582319,3751869913,3958582323,3958542654,9939257097,9942495137,9942495138,1481872266,256777156,3957692272,256777150,747405581,747405593,178947420,9942500239,9942495135,9942495134,3754517398,9938770779,313201320,1014941510,3757918358,3757918359,3757918349,3757918360,3757918361,3757918363],"tags":{"building":"train_station","height":"10","level":"1","max_level":"1","min_level":"-1"}},{"type":"way","id":372243396,"nodes":[3757905850,3757905860,3757905856,3757905847,3757905850],"tags":{"addr:city":"Birmingham","addr:housename":"New Street Station","addr:postcode":"B2 4QA","addr:street":"Station Street","amenity":"fast_food","brand":"Upper Crust","brand:wikidata":"Q7898585","brand:wikipedia":"en:Upper Crust (restaurant chain)","cuisine":"sandwich","fhrs:id":"897222","indoor":"room","level":"1","name":"Upper Crust","room":"amenity","source:addr":"FHRS Open Data","takeaway":"yes"}},{"type":"way","id":372243412,"nodes":[3757905918,3757905909,3763940168,3761550923],"tags":{"barrier":"wall","level":"1"}},{"type":"way","id":372243417,"nodes":[3757905924,3757905919,3757905914,3757905918,3757905924],"tags":{"amenity":"fast_food","indoor":"room","level":"1","name":"Camden Food Co","room":"amenity"}},{"type":"way","id":372243418,"nodes":[3757905850,3757905847,2470441593,3757905843,3757905846,2470441541,3757905850],"tags":{"level":"1"}},{"type":"way","id":372243420,"nodes":[3757905942,3757905937,3757905931,3757905934,3763940173,2470441572,3757905942],"tags":{"indoor":"yes","level":"1"}},{"type":"way","id":372243421,"nodes":[3757905891,3757905886,3757905877,3757905881,3757905891],"tags":{"level":"1"}},{"type":"way","id":372243436,"nodes":[3757905950,3757905953,3757905952,3757905962,3757905954,3757905947,3757905950],"tags":{"addr:city":"Birmingham","addr:housename":"Birmingham New Street Railway Station","addr:postcode":"B2 4QE","addr:street":"Smallbrook Queensway","addr:unit":"12","amenity":"fast_food","brand":"Greggs","brand:wikidata":"Q3403981","cuisine":"sandwich;bakery","fhrs:id":"1106243","indoor":"room","level":"1","name":"Greggs","opening_hours":"Mo-Fr 05:30-23:00, Fr,Sa 05:30-23:30, Su 08:00-23:00","payment:cash":"yes","room":"amenity","source:addr":"FHRS Open Data","takeaway":"yes"}},{"type":"way","id":372243442,"nodes":[3757905889,3757905878,3757905873,3757905871,3758549081,3757905862,3757905855,3757905848,3757905853,3757905898,3757905889],"tags":{"indoor":"room","level":"1","operator":"Virgin Trains","shop":"ticket","tickets":"train"}},{"type":"way","id":372243447,"nodes":[3757905947,3757905932,3757934946,3757905935,3757905950,3757905947],"tags":{"amenity":"pharmacy","brand":"Boots","brand:wikidata":"Q6123139","brand:wikipedia":"en:Boots (company)","check_date:opening_hours":"2022-11-12","healthcare":"pharmacy","indoor":"room","level":"1","name":"Boots","opening_hours":"Mo-Sa 07:00-22:00; Su 08:00-20:00","payment:cash":"yes","room":"amenity","website":"https:\/\/www.boots.com\/stores\/1214-birmingham-new-street-station-b2-4nd","wheelchair":"yes"}},{"type":"way","id":372243449,"nodes":[3757905848,3757905836,3757905833,3757934942,3757905837,3757905853,3757905848],"tags":{"addr:city":"Birmingham","addr:postcode":"B2 4ND","addr:street":"New Street","addr:suburb":"Ladywood","addr:unit":"9","brand":"M&S Simply Food","brand:wikidata":"Q714491","brand:wikipedia":"en:Marks & Spencer","check_date":"2024-07-21","check_date:opening_hours":"2024-07-21","contact:website":"https:\/\/www.marksandspencer.com\/stores\/birmingham-new-street-rail-1217","fhrs:id":"602598","indoor":"room","level":"1","name":"M&S Simply Food","opening_hours":"Mo-Sa 06:00-23:00; Su 08:00-22:00","shop":"convenience","source:addr":"FHRS Open Data"}},{"type":"way","id":372243451,"nodes":[3757905917,3757934945,3757905913,3757905910,3757905889,3757905898,3757905917],"tags":{"brand":"WHSmith","brand:wikidata":"Q1548712","brand:wikipedia":"en:WHSmith","indoor":"room","level":"1","name":"WHSmith","opening_hours":"Mo-Sa 07:00-21:00; Su 10:30-21:00","shop":"newsagent","wheelchair":"yes"}},{"type":"way","id":372247537,"nodes":[3757934946,3761569975,3761569974,3763940172,3761569973,2471134209,3761569971,3761569970,3761569969,3761569968,3761569967,3757934945],"tags":{"barrier":"fence","level":"1","source":"visual survey,estimate"}},{"type":"way","id":372247544,"nodes":[3757905843,3757934943,3757934944,3757905846,3757905843],"tags":{"amenity":"fast_food","indoor":"room","level":"1","name":"Mi Casa Burritos","room":"amenity"}},{"type":"way","id":372307919,"nodes":[3758708382,3758674483,12015192805,3758942009,12015192808,3758674491,3608693652,3761667085],"tags":{"designation":"permissive","highway":"footway","indoor":"yes","level":"1","source":"survey"}},{"type":"way","id":372314923,"nodes":[3758674449,3758674466,3758674483,2471134209],"tags":{"highway":"footway","indoor":"yes","level":"1","source":"survey"}},{"type":"way","id":372322802,"nodes":[3758750516,3758750517],"tags":{"bottom":"level_0","conveying":"forward","handrail":"yes","highway":"steps","incline":"down","level":"1;2","lit":"yes","top":"level_1"}},{"type":"way","id":372322803,"nodes":[3758750514,3758750515],"tags":{"bottom":"level_0","conveying":"forward","handrail":"yes","highway":"steps","incline":"up","level":"1;2","lit":"yes","top":"level_1"}},{"type":"way","id":372337636,"nodes":[3758942009,3758942010],"tags":{"highway":"footway","level":"1","lit":"yes","surface":"paving_stones"}},{"type":"way","id":372337637,"nodes":[2471134209,2471134208],"tags":{"access":"destination","highway":"footway","level":"1","source":"survey"}},{"type":"way","id":372338533,"nodes":[3751869919,12029079669,12029065366,3751869918,12029065356,12029065358,12029065357,2284075942,12029065349,12029065351,3757918357,12029065359,12029065362,3758974293,3758750516,12029079696,12029079690,12029079685,12029079687,12029079686,12029079688,12029079689,12029079692,3758750515,3758974291,12029065363,3751869919],"tags":{"indoor":"yes","layer":"1","level":"2"}},{"type":"way","id":372340640,"nodes":[3758974293,12029065362,12029065359,3757918357,12029065351,12029065349,2284075942,12029065357,12029065358,12029065356,3751869918,12029065366,12029079669,3751869919,12029065363,3758974291],"tags":{"barrier":"wall","layer":"1","level":"2"}},{"type":"way","id":372600736,"nodes":[3757905937,3757905942,3757905944,3757905949,3757905955,3757905957,3757905960,3761531787,3757905959,3757905970,3757905962,3757905952,3757905953,3757905956,3757905937],"tags":{"indoor":"room","level":"1"}},{"type":"way","id":372600738,"nodes":[3761550923,3761613323,3757905891,3757905881,3761613322,3757905860],"tags":{"barrier":"wall","level":"1"}},{"type":"way","id":372600739,"nodes":[3761550923,3761550922,3757905905,3757905909,3763940168,3761550923],"tags":{"amenity":"cafe","brand":"Costa","brand:wikidata":"Q608845","brand:wikipedia":"en:Costa Coffee","cuisine":"coffee_shop","diet:vegetarian":"yes","indoor":"room","level":"1","name":"Costa","room":"amenity","smoking":"no","takeaway":"yes"}},{"type":"way","id":372600740,"nodes":[3757905918,3757905914,2470441537,3757905905,3757905909,2470441622,3757905918],"tags":{"indoor":"yes","level":"1"}},{"type":"way","id":372679587,"nodes":[2284078606,3757918355,3762309797],"tags":{"highway":"service","layer":"2","level":"3","note":"situated on surface of roof NOT a bridge or viaduct","source":"survey"}},{"type":"way","id":372837834,"nodes":[3763940175,3763940174,3763940173,12029065329,12029065336,3763940170,12029065332,12029065330,12029065331,3763940166,3779614557,3763940167,747316074,3763940175],"tags":{"amenity":"parking","fee":"yes","indoor":"yes","layer":"1","level":"2","name":"Short Stay Parking"}},{"type":"way","id":372837835,"nodes":[3763940176,3763940174],"tags":{"highway":"footway","layer":"1","level":"2","lit":"yes","surface":"paving_stones"}},{"type":"way","id":392551649,"nodes":[1481473312,3957692552,3957692539,8542014800],"tags":{"electrified":"contact_line","frequency":"50","gauge":"1435","layer":"-1","level":"0","maxspeed":"10 mph","name":"Rugby Birmingham and Stafford Line","railway":"rail","railway:aws":"no","railway:etcs":"no","railway:lzb":"no","railway:pzb":"no","ref":"RBS2","tunnel":"yes","usage":"main","voltage":"25000"}},{"type":"way","id":392664825,"nodes":[3757905934,3757905931,3757905919,3757905924,3763940170,3757905934],"tags":{"indoor":"room","level":"1"}},{"type":"way","id":393859308,"nodes":[3969154678,3969154677],"tags":{"handrail":"yes","highway":"steps","incline":"up","level":"2;3;4;5","lit":"yes","ramp":"no","surface":"paving_stones"}},{"type":"way","id":393859318,"nodes":[3757918355,3969154680,3969154679,3969154676,3969154673,3969154674],"tags":{"access":"destination","bicycle":"no","emergency":"yes","foot":"no","goods":"delivery","hgv":"no","highway":"service","layer":"2","level":"3","motor_vehicle":"delivery","motorcar":"delivery","noexit":"yes","note":"delivery service road on surface of roof NOT a bridge or viaduct","psv":"no","source":"visual survey;estimate","tourist_bus":"no","vehicle":"delivery"}},{"type":"way","id":397511514,"nodes":[2291945884,3957685060,2291945881,3761447439,2291945889,2291945887],"tags":{"access":"yes","bicycle":"designated","foot":"yes","highway":"service","horse":"no","level":"1","maxheight":"2.2","maxspeed":"10 mph","name":"New Street Drop and Go","oneway":"yes","sidewalk":"right","surface":"asphalt","tunnel":"yes"}},{"type":"way","id":401207833,"nodes":[9938770775,9938770774,9938770773,9938770772,747405683,1481817609,1481817632,1481813457,3957692283,1481813475,1481805419,1481805425,1481803008,1481797722,747349633,747349644,747349647,747349611,9938770780,1320263816],"tags":{"barrier":"wall","layer":"1"}},{"type":"way","id":904874481,"nodes":[747349611,747418102,747405521,8542014802],"tags":{"electrified":"contact_line","frequency":"50","gauge":"1435","layer":"-1","level":"0","maxspeed":"10 mph","name":"Rugby Birmingham and Stafford Line","railway":"rail","railway:aws":"no","railway:etcs":"no","railway:lzb":"no","railway:pzb":"no","railway:track_ref":"3B","ref":"RBS2","source":"visual survey;estimate","tunnel":"yes","usage":"main","voltage":"25000"}},{"type":"way","id":919851354,"nodes":[747349647,3957692500,3957692472,8542014803],"tags":{"electrified":"contact_line","frequency":"50","gauge":"1435","layer":"-1","level":"0","maxspeed":"10 mph","name":"Rugby Birmingham and Stafford Line","railway":"rail","railway:aws":"no","railway:etcs":"no","railway:lzb":"no","railway:pzb":"no","railway:track_ref":"4B","ref":"RBS2","source":"visual survey;estimate","tunnel":"yes","usage":"main","voltage":"25000"}},{"type":"way","id":919851355,"nodes":[9942495134,747418127,747349640,8542014804],"tags":{"electrified":"contact_line","frequency":"50","gauge":"1435","layer":"-1","level":"0","maxspeed":"10 mph","name":"Rugby Birmingham and Stafford Line","railway":"rail","railway:aws":"no","railway:etcs":"no","railway:lzb":"no","railway:pzb":"no","railway:track_ref":"5B","ref":"RBS2","source":"visual survey;estimate","tunnel":"yes","usage":"main","voltage":"25000"}},{"type":"way","id":919851356,"nodes":[9942495135,747418126,747405553,8542014805],"tags":{"electrified":"contact_line","frequency":"50","gauge":"1435","layer":"-1","level":"0","maxspeed":"10 mph","name":"Rugby Birmingham and Stafford Line","railway":"rail","railway:aws":"no","railway:etcs":"no","railway:lzb":"no","railway:pzb":"no","ref":"RBS2","service":"siding","source":"visual survey;estimate","tunnel":"yes","voltage":"25000"}},{"type":"way","id":919851357,"nodes":[8542014806,1481840424,9942500239],"tags":{"electrified":"contact_line","frequency":"50","gauge":"1435","layer":"-1","level":"0","maxspeed":"10 mph","name":"Rugby Birmingham and Stafford Line","railway":"rail","railway:aws":"no","railway:etcs":"no","railway:lzb":"no","railway:pzb":"no","railway:track_ref":"6B","ref":"RBS2","tunnel":"yes","usage":"main","voltage":"25000"}},{"type":"way","id":919851358,"nodes":[747405593,747418116,747405662,8542014807],"tags":{"electrified":"contact_line","frequency":"50","gauge":"1435","layer":"-1","level":"0","maxspeed":"10 mph","name":"Birmingham and Gloucester Line","railway":"rail","railway:aws":"no","railway:etcs":"no","railway:lzb":"no","railway:pzb":"no","ref":"BAG1","service":"siding","tunnel":"yes","voltage":"25000"}},{"type":"way","id":919851359,"nodes":[747405581,3761594720,747418092,747405605,8542014808],"tags":{"electrified":"contact_line","frequency":"50","gauge":"1435","layer":"-1","level":"0","maxspeed":"10 mph","name":"Birmingham and Gloucester Line","railway":"rail","railway:aws":"no","railway:etcs":"no","railway:lzb":"no","railway:pzb":"no","railway:track_ref":"8B","ref":"BAG1","tunnel":"yes","usage":"main","voltage":"25000"}},{"type":"way","id":919851361,"nodes":[256777150,747418107,256777151,8542014810],"tags":{"electrified":"contact_line","frequency":"50","gauge":"1435","layer":"-1","level":"0","maxspeed":"10 mph","name":"Birmingham and Gloucester Line","railway":"rail","railway:aws":"no","railway:etcs":"no","railway:lzb":"no","railway:pzb":"no","railway:track_ref":"9B","ref":"BAG1","tunnel":"yes","usage":"main","voltage":"25000"}},{"type":"way","id":1084581983,"nodes":[9938770775,9938770776,9938770777,9938770778,3757918351,9939257098,3754517398,9938770779,9938770780,747349611,747349647,747349644,747349633,1481797722,1481803008,1481805425,1481805419,1481813475,3957692283,1481813457,1481817632,1481817609,747405683,9938770772,9938770773,9938770774,9938770775],"tags":{"layer":"1","man_made":"bridge","name":"Car Park Ramp Bridge","ref":"RBS2\/1A"}},{"type":"way","id":1085078648,"nodes":[747349644,9942495134],"tags":{"electrified":"contact_line","frequency":"50","gauge":"1435","level":"0","maxspeed":"10 mph","name":"Rugby Birmingham and Stafford Line","railway":"rail","railway:aws":"no","railway:etcs":"no","railway:lzb":"no","railway:pzb":"no","railway:track_ref":"5B","ref":"RBS2","source":"visual survey;estimate","usage":"main","voltage":"25000"}},{"type":"way","id":1085078649,"nodes":[747349633,9942495135],"tags":{"electrified":"contact_line","frequency":"50","gauge":"1435","level":"0","maxspeed":"10 mph","name":"Rugby Birmingham and Stafford Line","railway":"rail","railway:aws":"no","railway:etcs":"no","railway:lzb":"no","railway:pzb":"no","ref":"RBS2","service":"siding","source":"visual survey;estimate","voltage":"25000"}},{"type":"way","id":1085078650,"nodes":[977366266,1312314668,977366268,977366259,977366261,977366273,9942495136,9938770779,3754517398,9942495134,9942495135,9942500239,178947420,747405593,747405581,256777150,3957692272,256777156,1481872266,9942495138,9942495137,9939257097,4036562297,4036562295,4690536029,4036562296,9939074818,4036562298,1320263789,9939257090,977366266],"tags":{"landuse":"railway"}},{"type":"way","id":1085079393,"nodes":[1481805419,747405581],"tags":{"electrified":"contact_line","frequency":"50","gauge":"1435","level":"0","maxspeed":"10 mph","name":"Birmingham and Gloucester Line","railway":"rail","railway:aws":"no","railway:etcs":"no","railway:lzb":"no","railway:pzb":"no","railway:track_ref":"8B","ref":"BAG1","usage":"main","voltage":"25000"}},{"type":"way","id":1085079394,"nodes":[1481805425,747405593],"tags":{"electrified":"contact_line","frequency":"50","gauge":"1435","level":"0","maxspeed":"10 mph","name":"Birmingham and Gloucester Line","railway":"rail","railway:aws":"no","railway:etcs":"no","railway:lzb":"no","railway:pzb":"no","ref":"BAG1","service":"siding","voltage":"25000"}},{"type":"way","id":1085079395,"nodes":[1481803008,178947420],"tags":{"electrified":"contact_line","frequency":"50","gauge":"1435","level":"0","maxspeed":"10 mph","name":"Birmingham and Gloucester Line","railway":"rail","railway:aws":"no","railway:etcs":"no","railway:lzb":"no","railway:pzb":"no","railway:track_ref":"7B","ref":"BAG1","usage":"main","voltage":"25000"}},{"type":"way","id":1085079396,"nodes":[9942500239,1481797722],"tags":{"electrified":"contact_line","frequency":"50","gauge":"1435","level":"0","maxspeed":"10 mph","name":"Rugby Birmingham and Stafford Line","railway":"rail","railway:aws":"no","railway:etcs":"no","railway:lzb":"no","railway:pzb":"no","railway:track_ref":"6B","ref":"RBS2","usage":"main","voltage":"25000"}},{"type":"way","id":1296663493,"nodes":[12015192803,3758750517],"tags":{"designation":"permissive","highway":"footway","indoor":"yes","level":"1","source":"survey"}},{"type":"way","id":1296663494,"nodes":[12015192804,12029079694,12015192803,12015192805],"tags":{"designation":"permissive","highway":"footway","indoor":"yes","level":"1","source":"survey"}},{"type":"way","id":1296664634,"nodes":[3757905942,3763940173,3757905934],"tags":{"barrier":"wall","level":"1"}},{"type":"way","id":1296664637,"nodes":[3757905850,3757905846],"tags":{"barrier":"wall","level":"1"}},{"type":"way","id":1298530228,"nodes":[12029065325,12029079683,12029079682,12029065326,12029065325],"tags":{"disused:shop":"yes","indoor":"room","layer":"1","level":"2"}},{"type":"way","id":1298530229,"nodes":[12029065323,3758952489,3758549071,12029065324,12029065323],"tags":{"brand":"Foyles","brand:wikidata":"Q1440267","indoor":"room","layer":"1","level":"2","name":"Foyles","shop":"books"}},{"type":"way","id":1298530230,"nodes":[12029065326,12029065327,12029065328,12029065325,12029065326],"tags":{"brand":"Joules","brand:wikidata":"Q25351738","brand:wikipedia":"en:Joules (clothing)","contact:website":"https:\/\/www.joules.com\/store-locator\/store\/joules-of-birmingham","indoor":"room","layer":"1","level":"2","name":"Joules","opening_hours":"Mo-Sa 09:00-20:00; Su 11:00-17:00","shop":"clothes"}},{"type":"way","id":1298530231,"nodes":[12029065324,12029065328,12029065327,12029065323,12029065324],"tags":{"brand":"The White Company","brand:wikidata":"Q48814470","indoor":"room","layer":"1","level":"2","name":"The White Company","opening_hours":"Mo-Fr 09:30-19:00; Sa 09:00-19:00; Su 11:00-17:00","shop":"interior_decoration"}},{"type":"way","id":1298530232,"nodes":[3758549107,3758549104,12029065336,12029065329,3758549107],"tags":{"brand":"Rituals","brand:wikidata":"Q62874140","check_date:opening_hours":"2022-11-12","indoor":"room","layer":"1","level":"2","name":"Rituals","opening_hours:signed":"no","shop":"cosmetics"}},{"type":"way","id":1298530233,"nodes":[12029065334,3758549104,12029065336,12029065332,12029065334],"tags":{"brand":"Hobbs","brand:wikidata":"Q25108740","brand:wikipedia":"en:Hobbs Ltd","indoor":"room","layer":"1","level":"2","name":"Hobbs","opening_hours":"Mo-Sa 09:30-18:00; Su 11:00-17:00","shop":"clothes"}},{"type":"way","id":1298530234,"nodes":[12029065330,12029065331,12029065333,12029065335,12029065330],"tags":{"brand":"MAC Cosmetics","brand:wikidata":"Q2624442","indoor":"room","layer":"1","level":"2","name":"MAC Cosmetics","opening_hours":"Mo-Sa 10:00-18:00; Su 11:00-16:00","shop":"cosmetics","short_name":"M\u00b7A\u00b7C"}},{"type":"way","id":1298530235,"nodes":[12029065331,3763940166,12029079684,12029065333,12029065331],"tags":{"brand":"Kiehl's","brand:wikidata":"Q3196447","brand:wikipedia":"en:Kiehl's","indoor":"room","layer":"1","level":"2","name":"Kiehl's","opening_hours":"Mo-Sa 09:00-18:00; Su 11:00-17:00","shop":"cosmetics"}},{"type":"way","id":1298530236,"nodes":[12029065332,12029065330,12029065335,12029065334,12029065332],"tags":{"brand":"Jo Malone","brand:wikidata":"Q28940761","indoor":"room","layer":"1","level":"2","name":"Jo Malone","opening_hours":"Mo-Sa 10:00-18:00; Su 11:00-16:00","shop":"perfumery"}},{"type":"way","id":1298530244,"nodes":[12029065352,12029079670,3757918357,12029065351,12029065352],"tags":{"indoor":"room","level":"2","name":"MobileBitz","shop":"mobile_phone"}},{"type":"way","id":1298530245,"nodes":[3757918357,12029079670,12029065352,12029079671,12029079672,12029079673,12029065350,12029079674,2284075942,12029079678,12029079677,12029079676,12029079681,12029065353,12029065354,12029065355,12029079680,12029079679,3751869918,12029065366,12029065367,12029065368,12029079669,3751869919,12029065363,12029065364,12029065365,3758974291,3758750515,12029079692,12029079689,12029079688,12029079686,12029079687,12029079685,12029079690,12029079696,3758750516,3758974293,12029065362,12029065361,12029065360,12029065359,3757918357],"tags":{"level":"2"}},{"type":"way","id":1298530249,"nodes":[12029065362,12029065361,12029065360,12029065359,12029065362],"tags":{"amenity":"bank","brand":"Barclays","brand:wikidata":"Q245343","indoor":"room","level":"2","name":"Barclays"}},{"type":"way","id":1298530250,"nodes":[3758974291,12029065365,12029065364,12029065363,3758974291],"tags":{"amenity":"bar","indoor":"room","level":"2","name":"Frizzenti"}},{"type":"way","id":1298530254,"nodes":[12029079690,12029079685,12029079687,12029079686,12029079688,12029079689],"tags":{"barrier":"wall","level":"2"}},{"type":"way","id":1298530256,"nodes":[12029079692,12029079693],"tags":{"bottom":"level_0","conveying":"forward","handrail":"yes","highway":"steps","incline":"down","level":"1;2","lit":"yes","top":"level_1"}},{"type":"way","id":1298530258,"nodes":[12029079695,12029079696],"tags":{"bottom":"level_0","conveying":"forward","handrail":"yes","highway":"steps","incline":"up","level":"1;2","lit":"yes","top":"level_1"}},{"type":"node","id":747405585,"lat":52.4779348,"lon":-1.90126},{"type":"node","id":747405636,"lat":52.4778912,"lon":-1.9012751},{"type":"node","id":1320263789,"lat":52.4779219,"lon":-1.9013004},{"type":"node","id":1320263812,"lat":52.4779018,"lon":-1.9007015},{"type":"node","id":1320263823,"lat":52.4777983,"lon":-1.9009615},{"type":"node","id":1320263827,"lat":52.4779603,"lon":-1.9005513},{"type":"node","id":1320263843,"lat":52.477804,"lon":-1.9007334},{"type":"node","id":2470985018,"lat":52.4779485,"lon":-1.9014294},{"type":"node","id":2470985023,"lat":52.4779603,"lon":-1.9008605},{"type":"node","id":2470985025,"lat":52.4779608,"lon":-1.9014294},{"type":"node","id":2470985047,"lat":52.4777784,"lon":-1.9007485},{"type":"node","id":2470985053,"lat":52.4779347,"lon":-1.9006523},{"type":"node","id":2470985072,"lat":52.4779101,"lon":-1.9012643},{"type":"node","id":3761569965,"lat":52.4778682,"lon":-1.9010009},{"type":"node","id":4036562296,"lat":52.4773278,"lon":-1.900622},{"type":"node","id":4036562298,"lat":52.4775165,"lon":-1.9008486},{"type":"node","id":4690536029,"lat":52.4773168,"lon":-1.9005839},{"type":"node","id":9938710716,"lat":52.4777401,"lon":-1.9005491},{"type":"node","id":9938727618,"lat":52.4778826,"lon":-1.9005861},{"type":"node","id":9939074818,"lat":52.4773665,"lon":-1.9006685},{"type":"node","id":178948800,"lat":52.4783788,"lon":-1.9010162},{"type":"node","id":747349556,"lat":52.478418,"lon":-1.9019535},{"type":"node","id":747349598,"lat":52.4780214,"lon":-1.9011787},{"type":"node","id":747349614,"lat":52.4783499,"lon":-1.9018253},{"type":"node","id":747349619,"lat":52.4783419,"lon":-1.9018226},{"type":"node","id":747405550,"lat":52.4779906,"lon":-1.9012},{"type":"node","id":747418119,"lat":52.4783572,"lon":-1.9010155},{"type":"node","id":747671706,"lat":52.4784191,"lon":-1.900997},{"type":"node","id":1320263785,"lat":52.4784269,"lon":-1.9012226},{"type":"node","id":1320263814,"lat":52.4783623,"lon":-1.9012843},{"type":"node","id":1320263834,"lat":52.4782258,"lon":-1.9005982},{"type":"node","id":1481473312,"lat":52.4784025,"lon":-1.9010083},{"type":"node","id":2470956414,"lat":52.478313,"lon":-1.9011356},{"type":"node","id":2470956424,"lat":52.4782836,"lon":-1.9007996},{"type":"node","id":2470956426,"lat":52.4784682,"lon":-1.9010225},{"type":"node","id":2470956431,"lat":52.4784641,"lon":-1.9009729},{"type":"node","id":2470956432,"lat":52.4784338,"lon":-1.9006011},{"type":"node","id":2470956433,"lat":52.4784761,"lon":-1.9019544},{"type":"node","id":2470967703,"lat":52.4783603,"lon":-1.9018191},{"type":"node","id":2470967709,"lat":52.4780864,"lon":-1.900555},{"type":"node","id":2470985051,"lat":52.4779747,"lon":-1.9014214},{"type":"node","id":2470985064,"lat":52.4780099,"lon":-1.9011863},{"type":"node","id":5136932584,"lat":52.4784721,"lon":-1.9014823},{"type":"node","id":9938770782,"lat":52.4784531,"lon":-1.9008383},{"type":"node","id":9938770783,"lat":52.4784654,"lon":-1.9009884},{"type":"node","id":9938770796,"lat":52.4784569,"lon":-1.900884},{"type":"node","id":9939257090,"lat":52.4781144,"lon":-1.9011012},{"type":"node","id":178947420,"lat":52.4778109,"lon":-1.9001201},{"type":"node","id":256777150,"lat":52.4776072,"lon":-1.9001736},{"type":"node","id":256777151,"lat":52.4774711,"lon":-1.8992148},{"type":"node","id":256777156,"lat":52.4775423,"lon":-1.9001906},{"type":"node","id":310309579,"lat":52.4772062,"lon":-1.8977837},{"type":"node","id":310309583,"lat":52.4775268,"lon":-1.900125},{"type":"node","id":696422184,"lat":52.477104,"lon":-1.8988614},{"type":"node","id":747349554,"lat":52.477913,"lon":-1.8991288},{"type":"node","id":747349562,"lat":52.47793,"lon":-1.9002271},{"type":"node","id":747349640,"lat":52.4778927,"lon":-1.8991024},{"type":"node","id":747405522,"lat":52.4777403,"lon":-1.9002632},{"type":"node","id":747405547,"lat":52.4778012,"lon":-1.8991241},{"type":"node","id":747405553,"lat":52.4778641,"lon":-1.8991412},{"type":"node","id":747405557,"lat":52.4777285,"lon":-1.8991436},{"type":"node","id":747405563,"lat":52.477497,"lon":-1.8992019},{"type":"node","id":747405565,"lat":52.4776514,"lon":-1.9003022},{"type":"node","id":747405581,"lat":52.4777417,"lon":-1.9001382},{"type":"node","id":747405593,"lat":52.4777769,"lon":-1.900129},{"type":"node","id":747405605,"lat":52.477621,"lon":-1.8991727},{"type":"node","id":747405620,"lat":52.4774729,"lon":-1.8989088},{"type":"node","id":747405659,"lat":52.4776052,"lon":-1.8991811},{"type":"node","id":747405662,"lat":52.4776558,"lon":-1.8991721},{"type":"node","id":747405673,"lat":52.4777067,"lon":-1.8991693},{"type":"node","id":747405680,"lat":52.4778508,"lon":-1.9002625},{"type":"node","id":747405682,"lat":52.4775761,"lon":-1.8988904},{"type":"node","id":747405683,"lat":52.4773572,"lon":-1.9003714},{"type":"node","id":747418092,"lat":52.4776743,"lon":-1.8996018},{"type":"node","id":747418094,"lat":52.4777821,"lon":-1.8995828},{"type":"node","id":747418107,"lat":52.4775372,"lon":-1.8996482},{"type":"node","id":747418116,"lat":52.4777114,"lon":-1.8995884},{"type":"node","id":747418122,"lat":52.477856,"lon":-1.899568},{"type":"node","id":747418126,"lat":52.4779121,"lon":-1.8995878},{"type":"node","id":747418127,"lat":52.4779462,"lon":-1.899578},{"type":"node","id":747418129,"lat":52.4776621,"lon":-1.8995803},{"type":"node","id":747418130,"lat":52.4777498,"lon":-1.8995766},{"type":"node","id":747671933,"lat":52.4777772,"lon":-1.8988651},{"type":"node","id":747671944,"lat":52.4777046,"lon":-1.8988852},{"type":"node","id":747671945,"lat":52.4778856,"lon":-1.8988564},{"type":"node","id":747905160,"lat":52.4775616,"lon":-1.8976542},{"type":"node","id":747905186,"lat":52.4774232,"lon":-1.8975227},{"type":"node","id":747905195,"lat":52.477461,"lon":-1.8975132},{"type":"node","id":1139274081,"lat":52.477507,"lon":-1.8999427},{"type":"node","id":1313544805,"lat":52.4771436,"lon":-1.8982462},{"type":"node","id":1481797722,"lat":52.477956,"lon":-1.9002284},{"type":"node","id":1481803008,"lat":52.4778265,"lon":-1.9002593},{"type":"node","id":1481805419,"lat":52.4777579,"lon":-1.9002757},{"type":"node","id":1481805425,"lat":52.4777928,"lon":-1.9002674},{"type":"node","id":1481813457,"lat":52.4775673,"lon":-1.9003212},{"type":"node","id":1481813475,"lat":52.4776298,"lon":-1.9003063},{"type":"node","id":1481817609,"lat":52.4774216,"lon":-1.9003559},{"type":"node","id":1481817632,"lat":52.4774588,"lon":-1.9003471},{"type":"node","id":1481840424,"lat":52.477825,"lon":-1.8990291},{"type":"node","id":1481872266,"lat":52.477423,"lon":-1.900222},{"type":"node","id":2291945884,"lat":52.4772756,"lon":-1.9001247},{"type":"node","id":2470441531,"lat":52.4779102,"lon":-1.8995394},{"type":"node","id":2470441535,"lat":52.4774077,"lon":-1.8996895},{"type":"node","id":2470441541,"lat":52.4776574,"lon":-1.8998651},{"type":"node","id":2470441543,"lat":52.47762,"lon":-1.8995281},{"type":"node","id":2470441547,"lat":52.4772414,"lon":-1.8997393},{"type":"node","id":2470441565,"lat":52.4778244,"lon":-1.8994641},{"type":"node","id":2470441570,"lat":52.4776305,"lon":-1.899623},{"type":"node","id":2470441576,"lat":52.4778396,"lon":-1.8996016},{"type":"node","id":2470441582,"lat":52.4778352,"lon":-1.8995618},{"type":"node","id":2470441593,"lat":52.4776357,"lon":-1.8996693},{"type":"node","id":2470441599,"lat":52.4775034,"lon":-1.8996603},{"type":"node","id":2470441616,"lat":52.4778615,"lon":-1.8997989},{"type":"node","id":2470945278,"lat":52.477958,"lon":-1.8994748},{"type":"node","id":2470945283,"lat":52.4775558,"lon":-1.8995865},{"type":"node","id":2470945286,"lat":52.4778483,"lon":-1.8995033},{"type":"node","id":2470945298,"lat":52.4777746,"lon":-1.8995215},{"type":"node","id":2470945302,"lat":52.4778226,"lon":-1.8999408},{"type":"node","id":2470945306,"lat":52.4776112,"lon":-1.8999996},{"type":"node","id":2470945311,"lat":52.4777102,"lon":-1.8999896},{"type":"node","id":2470945320,"lat":52.4776547,"lon":-1.8995239},{"type":"node","id":2470967695,"lat":52.4779621,"lon":-1.8991468},{"type":"node","id":2470967697,"lat":52.47793,"lon":-1.8988459},{"type":"node","id":2470985016,"lat":52.477697,"lon":-1.9002764},{"type":"node","id":2470985020,"lat":52.4777941,"lon":-1.899353},{"type":"node","id":2470985029,"lat":52.4778618,"lon":-1.8999515},{"type":"node","id":2470985039,"lat":52.4777597,"lon":-1.8990811},{"type":"node","id":2470985041,"lat":52.4778939,"lon":-1.9002384},{"type":"node","id":2470985055,"lat":52.4775398,"lon":-1.8988986},{"type":"node","id":2470985068,"lat":52.4776348,"lon":-1.8996506},{"type":"node","id":2470985074,"lat":52.4775676,"lon":-1.8991876},{"type":"node","id":2471013689,"lat":52.4777431,"lon":-1.8988755},{"type":"node","id":2471075894,"lat":52.4778006,"lon":-1.8997466},{"type":"node","id":2471075900,"lat":52.4776877,"lon":-1.8997892},{"type":"node","id":2471075904,"lat":52.4778749,"lon":-1.8997201},{"type":"node","id":3608693651,"lat":52.4768572,"lon":-1.8996454},{"type":"node","id":3608693652,"lat":52.477134,"lon":-1.8994112},{"type":"node","id":3751690197,"lat":52.4771792,"lon":-1.8979128},{"type":"node","id":3751690199,"lat":52.4772015,"lon":-1.8978046},{"type":"node","id":3751690200,"lat":52.4772293,"lon":-1.8976979},{"type":"node","id":3751690208,"lat":52.4776704,"lon":-1.8976261},{"type":"node","id":3751696169,"lat":52.4768885,"lon":-1.8997358},{"type":"node","id":3751696171,"lat":52.4770148,"lon":-1.8999635},{"type":"node","id":3751696175,"lat":52.4771513,"lon":-1.9000191},{"type":"node","id":3751706540,"lat":52.4772606,"lon":-1.8976375},{"type":"node","id":3751706541,"lat":52.4773109,"lon":-1.8975782},{"type":"node","id":3751706542,"lat":52.4773537,"lon":-1.8975543},{"type":"node","id":3751706543,"lat":52.4775543,"lon":-1.8975677},{"type":"node","id":3751706544,"lat":52.477566,"lon":-1.8976147},{"type":"node","id":3751736612,"lat":52.4772788,"lon":-1.9003756},{"type":"node","id":3751736613,"lat":52.4773212,"lon":-1.9003245},{"type":"node","id":3751736614,"lat":52.4775144,"lon":-1.8975249},{"type":"node","id":3751869913,"lat":52.4771949,"lon":-1.8998697},{"type":"node","id":3751869918,"lat":52.4774939,"lon":-1.8987243},{"type":"node","id":3751869919,"lat":52.4775427,"lon":-1.8992227},{"type":"node","id":3754517390,"lat":52.4771686,"lon":-1.9},{"type":"node","id":3754517397,"lat":52.4779264,"lon":-1.8975353},{"type":"node","id":3757905396,"lat":52.4768144,"lon":-1.8991554},{"type":"node","id":3757905397,"lat":52.4768207,"lon":-1.8991858},{"type":"node","id":3757905400,"lat":52.4768415,"lon":-1.8991878},{"type":"node","id":3757905402,"lat":52.4768616,"lon":-1.8996171},{"type":"node","id":3757905403,"lat":52.4768659,"lon":-1.8989276},{"type":"node","id":3757905404,"lat":52.4768698,"lon":-1.8996925},{"type":"node","id":3757905405,"lat":52.4768703,"lon":-1.8995809},{"type":"node","id":3757905406,"lat":52.4769035,"lon":-1.8988327},{"type":"node","id":3757905408,"lat":52.4769405,"lon":-1.899825},{"type":"node","id":3757905410,"lat":52.4769585,"lon":-1.8987769},{"type":"node","id":3757905411,"lat":52.4769638,"lon":-1.8991929},{"type":"node","id":3757905421,"lat":52.477064,"lon":-1.9000141},{"type":"node","id":3757905735,"lat":52.4771225,"lon":-1.9000244},{"type":"node","id":3757905833,"lat":52.4775297,"lon":-1.8993552},{"type":"node","id":3757905836,"lat":52.4775458,"lon":-1.8993231},{"type":"node","id":3757905837,"lat":52.4775509,"lon":-1.8995754},{"type":"node","id":3757905843,"lat":52.4776203,"lon":-1.8996742},{"type":"node","id":3757905846,"lat":52.477643,"lon":-1.8998696},{"type":"node","id":3757905847,"lat":52.4776536,"lon":-1.8996637},{"type":"node","id":3757905848,"lat":52.4776577,"lon":-1.8992983},{"type":"node","id":3757905850,"lat":52.4776764,"lon":-1.8998591},{"type":"node","id":3757905853,"lat":52.4776845,"lon":-1.8995366},{"type":"node","id":3757905855,"lat":52.4776959,"lon":-1.8992775},{"type":"node","id":3757905856,"lat":52.4776981,"lon":-1.8996497},{"type":"node","id":3757905860,"lat":52.4777182,"lon":-1.8998485},{"type":"node","id":3757905862,"lat":52.4777367,"lon":-1.8992871},{"type":"node","id":3757905871,"lat":52.4777645,"lon":-1.8993164},{"type":"node","id":3757905873,"lat":52.4777975,"lon":-1.8993186},{"type":"node","id":3757905877,"lat":52.4778236,"lon":-1.8996088},{"type":"node","id":3757905878,"lat":52.477837,"lon":-1.8993087},{"type":"node","id":3757905881,"lat":52.4778446,"lon":-1.899805},{"type":"node","id":3757905886,"lat":52.4778569,"lon":-1.8995961},{"type":"node","id":3757905889,"lat":52.4778717,"lon":-1.8992268},{"type":"node","id":3757905891,"lat":52.4778793,"lon":-1.8997933},{"type":"node","id":3757905898,"lat":52.4778994,"lon":-1.8994683},{"type":"node","id":3757905910,"lat":52.4779637,"lon":-1.8992021},{"type":"node","id":3757918351,"lat":52.477299,"lon":-1.9002626},{"type":"node","id":3757918352,"lat":52.4774667,"lon":-1.89957},{"type":"node","id":3757918353,"lat":52.4774791,"lon":-1.8996852},{"type":"node","id":3757934942,"lat":52.4775462,"lon":-1.8995306},{"type":"node","id":3757934943,"lat":52.4775568,"lon":-1.8996959},{"type":"node","id":3757934944,"lat":52.4775793,"lon":-1.89989},{"type":"node","id":3758549071,"lat":52.4775526,"lon":-1.8994437},{"type":"node","id":3758549081,"lat":52.4777478,"lon":-1.8992981},{"type":"node","id":3758674491,"lat":52.4774613,"lon":-1.8993044},{"type":"node","id":3758750514,"lat":52.4775835,"lon":-1.8991903},{"type":"node","id":3758750515,"lat":52.4777286,"lon":-1.8991529},{"type":"node","id":3758750516,"lat":52.4778233,"lon":-1.8991225},{"type":"node","id":3758762814,"lat":52.4772848,"lon":-1.8976008},{"type":"node","id":3758804227,"lat":52.4776225,"lon":-1.8976388},{"type":"node","id":3758942009,"lat":52.4777941,"lon":-1.8992168},{"type":"node","id":3758942010,"lat":52.477768,"lon":-1.8989809},{"type":"node","id":3758952489,"lat":52.4775944,"lon":-1.89987},{"type":"node","id":3758957511,"lat":52.4778815,"lon":-1.8997726},{"type":"node","id":3758957514,"lat":52.4778062,"lon":-1.8997965},{"type":"node","id":3758957518,"lat":52.4776974,"lon":-1.8998663},{"type":"node","id":3758974291,"lat":52.4777304,"lon":-1.8991729},{"type":"node","id":3758974293,"lat":52.4778259,"lon":-1.8991487},{"type":"node","id":3761195245,"lat":52.4769784,"lon":-1.8993496},{"type":"node","id":3761447430,"lat":52.4770493,"lon":-1.8988658},{"type":"node","id":3761447431,"lat":52.4770917,"lon":-1.8985983},{"type":"node","id":3761447433,"lat":52.4771028,"lon":-1.8984849},{"type":"node","id":3761550922,"lat":52.477945,"lon":-1.8995686},{"type":"node","id":3761569964,"lat":52.4777039,"lon":-1.9003302},{"type":"node","id":3761594720,"lat":52.4777063,"lon":-1.8998618},{"type":"node","id":3761613322,"lat":52.4777953,"lon":-1.8998205},{"type":"node","id":3761613323,"lat":52.4779297,"lon":-1.8997776},{"type":"node","id":3761667085,"lat":52.4770655,"lon":-1.8993833},{"type":"node","id":3763940166,"lat":52.4778721,"lon":-1.8997918},{"type":"node","id":3763940167,"lat":52.4779014,"lon":-1.9000198},{"type":"node","id":3779614557,"lat":52.4778918,"lon":-1.8999498},{"type":"node","id":3957685060,"lat":52.4776384,"lon":-1.9000102},{"type":"node","id":3957692272,"lat":52.4775867,"lon":-1.900179},{"type":"node","id":3957692283,"lat":52.477608,"lon":-1.9003115},{"type":"node","id":3958542642,"lat":52.4768398,"lon":-1.8990447},{"type":"node","id":3958542649,"lat":52.4769938,"lon":-1.8994994},{"type":"node","id":3958542651,"lat":52.477025,"lon":-1.898753},{"type":"node","id":3958542652,"lat":52.4770384,"lon":-1.8987708},{"type":"node","id":3958542654,"lat":52.4772505,"lon":-1.8999918},{"type":"node","id":3958582319,"lat":52.4771625,"lon":-1.8998826},{"type":"node","id":3958582322,"lat":52.4771714,"lon":-1.8999677},{"type":"node","id":3958582323,"lat":52.477234,"lon":-1.8998562},{"type":"node","id":3969154673,"lat":52.4775451,"lon":-1.8980216},{"type":"node","id":3969154674,"lat":52.4776289,"lon":-1.8990759},{"type":"node","id":3969154676,"lat":52.4778699,"lon":-1.8979394},{"type":"node","id":3969154677,"lat":52.4778772,"lon":-1.8996803},{"type":"node","id":3969154678,"lat":52.4778866,"lon":-1.8997708},{"type":"node","id":3969154679,"lat":52.4779043,"lon":-1.8979383},{"type":"node","id":3969154680,"lat":52.4779363,"lon":-1.897964},{"type":"node","id":4036562295,"lat":52.4773172,"lon":-1.900516},{"type":"node","id":4036562297,"lat":52.4773678,"lon":-1.9004248},{"type":"node","id":8542014804,"lat":52.4778787,"lon":-1.8989631},{"type":"node","id":8542014805,"lat":52.4778507,"lon":-1.8989753},{"type":"node","id":8542014806,"lat":52.4778204,"lon":-1.8989835},{"type":"node","id":8542014807,"lat":52.4776428,"lon":-1.8990379},{"type":"node","id":8542014808,"lat":52.4776097,"lon":-1.8990503},{"type":"node","id":8542014809,"lat":52.4776934,"lon":-1.8990257},{"type":"node","id":8542014810,"lat":52.4774627,"lon":-1.8991019},{"type":"node","id":9938710715,"lat":52.4772549,"lon":-1.9004195},{"type":"node","id":9938770772,"lat":52.4773406,"lon":-1.9003766},{"type":"node","id":9938770773,"lat":52.4773239,"lon":-1.9003878},{"type":"node","id":9938770774,"lat":52.4773066,"lon":-1.9004223},{"type":"node","id":9938770775,"lat":52.4772818,"lon":-1.9004894},{"type":"node","id":9938770776,"lat":52.477249,"lon":-1.9003339},{"type":"node","id":9938770777,"lat":52.4772657,"lon":-1.9003024},{"type":"node","id":9938770778,"lat":52.4772837,"lon":-1.900279},{"type":"node","id":9938770781,"lat":52.4773334,"lon":-1.900316},{"type":"node","id":9939257097,"lat":52.477299,"lon":-1.9002546},{"type":"node","id":9942495137,"lat":52.477317,"lon":-1.9002499},{"type":"node","id":9942495138,"lat":52.4773902,"lon":-1.9002306},{"type":"node","id":9942500239,"lat":52.4779398,"lon":-1.9000862},{"type":"node","id":12015192808,"lat":52.4775645,"lon":-1.8992772},{"type":"node","id":12029065323,"lat":52.4776517,"lon":-1.8998549},{"type":"node","id":12029065324,"lat":52.4776099,"lon":-1.8994286},{"type":"node","id":12029065325,"lat":52.4777246,"lon":-1.8993983},{"type":"node","id":12029065326,"lat":52.4777663,"lon":-1.8998246},{"type":"node","id":12029065327,"lat":52.477709,"lon":-1.8998398},{"type":"node","id":12029065328,"lat":52.4776673,"lon":-1.8994135},{"type":"node","id":12029065331,"lat":52.4779261,"lon":-1.8997742},{"type":"node","id":12029065333,"lat":52.4778829,"lon":-1.8993578},{"type":"node","id":12029065335,"lat":52.4779396,"lon":-1.899342},{"type":"node","id":12029065353,"lat":52.47785,"lon":-1.8984293},{"type":"node","id":12029065354,"lat":52.4777337,"lon":-1.8985221},{"type":"node","id":12029065355,"lat":52.4776122,"lon":-1.8986147},{"type":"node","id":12029065356,"lat":52.4776204,"lon":-1.8986909},{"type":"node","id":12029065357,"lat":52.477868,"lon":-1.8986255},{"type":"node","id":12029065358,"lat":52.4777439,"lon":-1.8986583},{"type":"node","id":12029065361,"lat":52.4778943,"lon":-1.8991976},{"type":"node","id":12029065362,"lat":52.4778882,"lon":-1.8991317},{"type":"node","id":12029065363,"lat":52.4775913,"lon":-1.8992102},{"type":"node","id":12029065364,"lat":52.4775977,"lon":-1.8992753},{"type":"node","id":12029065365,"lat":52.4777369,"lon":-1.8992381},{"type":"node","id":12029065366,"lat":52.4775031,"lon":-1.8988189},{"type":"node","id":12029065367,"lat":52.4774504,"lon":-1.8988332},{"type":"node","id":12029065368,"lat":52.4774833,"lon":-1.8991599},{"type":"node","id":12029079669,"lat":52.4775352,"lon":-1.8991458},{"type":"node","id":12029079676,"lat":52.477959,"lon":-1.8983504},{"type":"node","id":12029079679,"lat":52.4774964,"lon":-1.8987094},{"type":"node","id":12029079680,"lat":52.4775061,"lon":-1.8986975},{"type":"node","id":12029079681,"lat":52.47795,"lon":-1.8983514},{"type":"node","id":12029079682,"lat":52.4778236,"lon":-1.8998095},{"type":"node","id":12029079683,"lat":52.4777819,"lon":-1.8993832},{"type":"node","id":12029079684,"lat":52.4778262,"lon":-1.8993737},{"type":"node","id":12029079685,"lat":52.4777915,"lon":-1.8990896},{"type":"node","id":12029079686,"lat":52.4777568,"lon":-1.8991665},{"type":"node","id":12029079687,"lat":52.477798,"lon":-1.8991556},{"type":"node","id":12029079688,"lat":52.4777503,"lon":-1.8991003},{"type":"node","id":12029079689,"lat":52.4777241,"lon":-1.8991072},{"type":"node","id":12029079690,"lat":52.4778194,"lon":-1.8990822},{"type":"node","id":12029079692,"lat":52.4777261,"lon":-1.8991281},{"type":"node","id":12029079693,"lat":52.4775814,"lon":-1.8991655},{"type":"node","id":12029079696,"lat":52.4778209,"lon":-1.8990977},{"type":"node","id":312743197,"lat":52.4780758,"lon":-1.8998315},{"type":"node","id":313201320,"lat":52.4783934,"lon":-1.8999663},{"type":"node","id":313201325,"lat":52.4782957,"lon":-1.8999641},{"type":"node","id":747316074,"lat":52.4780897,"lon":-1.8999606},{"type":"node","id":747349570,"lat":52.4781209,"lon":-1.900181},{"type":"node","id":747349593,"lat":52.4780431,"lon":-1.9001736},{"type":"node","id":747349602,"lat":52.4780186,"lon":-1.8992912},{"type":"node","id":747349611,"lat":52.4781689,"lon":-1.9001775},{"type":"node","id":747349633,"lat":52.4779853,"lon":-1.9002214},{"type":"node","id":747349635,"lat":52.4779934,"lon":-1.8999888},{"type":"node","id":747349643,"lat":52.4779749,"lon":-1.8988327},{"type":"node","id":747349644,"lat":52.4780201,"lon":-1.9002131},{"type":"node","id":747349647,"lat":52.4781466,"lon":-1.9001829},{"type":"node","id":747405521,"lat":52.4780584,"lon":-1.8991062},{"type":"node","id":747405587,"lat":52.4780868,"lon":-1.8990938},{"type":"node","id":747405650,"lat":52.4781588,"lon":-1.8991671},{"type":"node","id":747418102,"lat":52.4781093,"lon":-1.8995759},{"type":"node","id":747418110,"lat":52.4780588,"lon":-1.899626},{"type":"node","id":747418114,"lat":52.4781934,"lon":-1.9001617},{"type":"node","id":747418135,"lat":52.4782823,"lon":-1.9002002},{"type":"node","id":747418138,"lat":52.4779712,"lon":-1.8995966},{"type":"node","id":747671926,"lat":52.478241,"lon":-1.8992945},{"type":"node","id":747671930,"lat":52.4781959,"lon":-1.8993531},{"type":"node","id":747671934,"lat":52.4779917,"lon":-1.8990413},{"type":"node","id":747671935,"lat":52.4780544,"lon":-1.8987889},{"type":"node","id":747671937,"lat":52.4781796,"lon":-1.8987542},{"type":"node","id":747671941,"lat":52.4781078,"lon":-1.8987697},{"type":"node","id":977366259,"lat":52.4783724,"lon":-1.9003294},{"type":"node","id":977366261,"lat":52.4783962,"lon":-1.9002674},{"type":"node","id":977366266,"lat":52.4783309,"lon":-1.9004481},{"type":"node","id":977366268,"lat":52.4783695,"lon":-1.9003664},{"type":"node","id":977366273,"lat":52.4783885,"lon":-1.9001987},{"type":"node","id":1014941510,"lat":52.478405,"lon":-1.8999675},{"type":"node","id":1312314668,"lat":52.4783448,"lon":-1.9004015},{"type":"node","id":1320263816,"lat":52.4783273,"lon":-1.9001397},{"type":"node","id":2284075934,"lat":52.4780809,"lon":-1.900016},{"type":"node","id":2284075942,"lat":52.4779928,"lon":-1.8985925},{"type":"node","id":2284078606,"lat":52.4781516,"lon":-1.9001208},{"type":"node","id":2284097704,"lat":52.4784583,"lon":-1.899119},{"type":"node","id":2291945876,"lat":52.4784954,"lon":-1.900262},{"type":"node","id":2291945878,"lat":52.4784709,"lon":-1.9001676},{"type":"node","id":2291945881,"lat":52.4781033,"lon":-1.8998532},{"type":"node","id":2291945887,"lat":52.4782743,"lon":-1.8999306},{"type":"node","id":2291945889,"lat":52.478247,"lon":-1.8999022},{"type":"node","id":2470441532,"lat":52.4779739,"lon":-1.899423},{"type":"node","id":2470441537,"lat":52.4779885,"lon":-1.8995553},{"type":"node","id":2470441545,"lat":52.4781647,"lon":-1.8994633},{"type":"node","id":2470441559,"lat":52.4782912,"lon":-1.8994255},{"type":"node","id":2470441572,"lat":52.4781902,"lon":-1.8996938},{"type":"node","id":2470441574,"lat":52.4779843,"lon":-1.8995172},{"type":"node","id":2470441590,"lat":52.4781547,"lon":-1.8993731},{"type":"node","id":2470441596,"lat":52.478169,"lon":-1.8995024},{"type":"node","id":2470441622,"lat":52.4780102,"lon":-1.8997509},{"type":"node","id":2470945279,"lat":52.4781687,"lon":-1.8998491},{"type":"node","id":2470945281,"lat":52.4780898,"lon":-1.8998687},{"type":"node","id":2470945282,"lat":52.4780418,"lon":-1.8994685},{"type":"node","id":2470945289,"lat":52.4782417,"lon":-1.899833},{"type":"node","id":2470945305,"lat":52.4781261,"lon":-1.8994467},{"type":"node","id":2470945318,"lat":52.4781933,"lon":-1.899427},{"type":"node","id":2470956413,"lat":52.478113,"lon":-1.8990902},{"type":"node","id":2470956427,"lat":52.4782344,"lon":-1.8987364},{"type":"node","id":2470956428,"lat":52.4782109,"lon":-1.8999111},{"type":"node","id":2470967698,"lat":52.4780244,"lon":-1.8996512},{"type":"node","id":2470967704,"lat":52.478087,"lon":-1.9001898},{"type":"node","id":2470967710,"lat":52.4781189,"lon":-1.9005432},{"type":"node","id":2471013688,"lat":52.4780787,"lon":-1.8987785},{"type":"node","id":2471075899,"lat":52.478284,"lon":-1.8996601},{"type":"node","id":2471134208,"lat":52.4781072,"lon":-1.8994805},{"type":"node","id":2471134209,"lat":52.4780898,"lon":-1.8993535},{"type":"node","id":2471187097,"lat":52.4783516,"lon":-1.8998708},{"type":"node","id":3751869922,"lat":52.4781478,"lon":-1.8974876},{"type":"node","id":3751869924,"lat":52.4780296,"lon":-1.8994057},{"type":"node","id":3751876125,"lat":52.4783615,"lon":-1.8980731},{"type":"node","id":3754517398,"lat":52.4781151,"lon":-1.9000427},{"type":"node","id":3757905905,"lat":52.4779757,"lon":-1.8995592},{"type":"node","id":3757905909,"lat":52.4779978,"lon":-1.8997547},{"type":"node","id":3757905913,"lat":52.4779718,"lon":-1.8992757},{"type":"node","id":3757905914,"lat":52.4780054,"lon":-1.8995501},{"type":"node","id":3757905917,"lat":52.4779901,"lon":-1.8994414},{"type":"node","id":3757905918,"lat":52.4780275,"lon":-1.8997456},{"type":"node","id":3757905919,"lat":52.4780392,"lon":-1.8995398},{"type":"node","id":3757905924,"lat":52.4780613,"lon":-1.8997353},{"type":"node","id":3757905929,"lat":52.4781725,"lon":-1.8975519},{"type":"node","id":3757905931,"lat":52.4781486,"lon":-1.8995066},{"type":"node","id":3757905932,"lat":52.4781546,"lon":-1.8992006},{"type":"node","id":3757905934,"lat":52.4781717,"lon":-1.8996995},{"type":"node","id":3757905935,"lat":52.4781743,"lon":-1.8993848},{"type":"node","id":3757905937,"lat":52.4781847,"lon":-1.8994962},{"type":"node","id":3757905942,"lat":52.4782064,"lon":-1.8996887},{"type":"node","id":3757905944,"lat":52.4782306,"lon":-1.8996812},{"type":"node","id":3757905947,"lat":52.4782569,"lon":-1.8991712},{"type":"node","id":3757905949,"lat":52.4782735,"lon":-1.8997041},{"type":"node","id":3757905950,"lat":52.4782765,"lon":-1.8993554},{"type":"node","id":3757905952,"lat":52.4782952,"lon":-1.8992774},{"type":"node","id":3757905953,"lat":52.4783003,"lon":-1.8993466},{"type":"node","id":3757905954,"lat":52.4783006,"lon":-1.8991536},{"type":"node","id":3757905955,"lat":52.4783016,"lon":-1.8997548},{"type":"node","id":3757905956,"lat":52.4783087,"lon":-1.8994581},{"type":"node","id":3757905957,"lat":52.4783316,"lon":-1.8997891},{"type":"node","id":3757905959,"lat":52.478336,"lon":-1.8996302},{"type":"node","id":3757905960,"lat":52.4783557,"lon":-1.8997966},{"type":"node","id":3757905962,"lat":52.4783837,"lon":-1.8992488},{"type":"node","id":3757905970,"lat":52.4784218,"lon":-1.8996111},{"type":"node","id":3757918349,"lat":52.4784883,"lon":-1.8999953},{"type":"node","id":3757918354,"lat":52.4780851,"lon":-1.899918},{"type":"node","id":3757918355,"lat":52.4780907,"lon":-1.8995575},{"type":"node","id":3757918357,"lat":52.4780417,"lon":-1.8990916},{"type":"node","id":3757918358,"lat":52.4784233,"lon":-1.8999743},{"type":"node","id":3757918359,"lat":52.4784335,"lon":-1.8999872},{"type":"node","id":3757918360,"lat":52.4785087,"lon":-1.8999921},{"type":"node","id":3757918361,"lat":52.4785332,"lon":-1.8999391},{"type":"node","id":3757918363,"lat":52.4785314,"lon":-1.8998285},{"type":"node","id":3757934945,"lat":52.4779826,"lon":-1.8993849},{"type":"node","id":3757934946,"lat":52.4781673,"lon":-1.8993304},{"type":"node","id":3758549104,"lat":52.4780531,"lon":-1.8993103},{"type":"node","id":3758549107,"lat":52.4781162,"lon":-1.8993485},{"type":"node","id":3758605209,"lat":52.4784268,"lon":-1.8987737},{"type":"node","id":3758674449,"lat":52.4780195,"lon":-1.8987559},{"type":"node","id":3758674466,"lat":52.4780362,"lon":-1.8989007},{"type":"node","id":3758674483,"lat":52.478065,"lon":-1.8991411},{"type":"node","id":3758708382,"lat":52.4783885,"lon":-1.8990554},{"type":"node","id":3758750517,"lat":52.4779793,"lon":-1.8990822},{"type":"node","id":3758957513,"lat":52.478305,"lon":-1.8998607},{"type":"node","id":3758957516,"lat":52.4782239,"lon":-1.8996768},{"type":"node","id":3761447438,"lat":52.4781049,"lon":-1.9000386},{"type":"node","id":3761447439,"lat":52.4781948,"lon":-1.8998711},{"type":"node","id":3761531774,"lat":52.4781586,"lon":-1.8990204},{"type":"node","id":3761531779,"lat":52.4782235,"lon":-1.8991337},{"type":"node","id":3761531780,"lat":52.4782656,"lon":-1.8990316},{"type":"node","id":3761531781,"lat":52.4782876,"lon":-1.8992311},{"type":"node","id":3761531783,"lat":52.4783115,"lon":-1.899462},{"type":"node","id":3761531787,"lat":52.4783481,"lon":-1.8997326},{"type":"node","id":3761531791,"lat":52.4784104,"lon":-1.9000929},{"type":"node","id":3761550923,"lat":52.4779681,"lon":-1.8997649},{"type":"node","id":3761550924,"lat":52.4784509,"lon":-1.8990425},{"type":"node","id":3761569967,"lat":52.4779994,"lon":-1.89938},{"type":"node","id":3761569968,"lat":52.4780203,"lon":-1.8993739},{"type":"node","id":3761569969,"lat":52.4780381,"lon":-1.8993687},{"type":"node","id":3761569970,"lat":52.4780553,"lon":-1.8993636},{"type":"node","id":3761569971,"lat":52.4780737,"lon":-1.8993582},{"type":"node","id":3761569973,"lat":52.4781055,"lon":-1.8993489},{"type":"node","id":3761569974,"lat":52.4781338,"lon":-1.8993407},{"type":"node","id":3761569975,"lat":52.4781493,"lon":-1.8993361},{"type":"node","id":3761656457,"lat":52.4780139,"lon":-1.8975243},{"type":"node","id":3762309797,"lat":52.4780468,"lon":-1.8995694},{"type":"node","id":3763940168,"lat":52.4779856,"lon":-1.8997589},{"type":"node","id":3763940169,"lat":52.4780547,"lon":-1.8999709},{"type":"node","id":3763940170,"lat":52.4780652,"lon":-1.8997342},{"type":"node","id":3763940171,"lat":52.4780764,"lon":-1.8999633},{"type":"node","id":3763940172,"lat":52.4781201,"lon":-1.8993447},{"type":"node","id":3763940173,"lat":52.4781793,"lon":-1.8996973},{"type":"node","id":3763940174,"lat":52.4781887,"lon":-1.8997846},{"type":"node","id":3763940175,"lat":52.4782047,"lon":-1.8999244},{"type":"node","id":3763940176,"lat":52.4783055,"lon":-1.8997477},{"type":"node","id":3763940177,"lat":52.4783796,"lon":-1.8982392},{"type":"node","id":3763940182,"lat":52.4784847,"lon":-1.8994185},{"type":"node","id":3763940185,"lat":52.4785162,"lon":-1.8997695},{"type":"node","id":3779614558,"lat":52.4780829,"lon":-1.8998971},{"type":"node","id":3957692472,"lat":52.478016,"lon":-1.8990446},{"type":"node","id":3957692500,"lat":52.4780788,"lon":-1.8995799},{"type":"node","id":3957692539,"lat":52.4782055,"lon":-1.8991447},{"type":"node","id":3957692552,"lat":52.4783041,"lon":-1.9000598},{"type":"node","id":8542014800,"lat":52.4781762,"lon":-1.8988759},{"type":"node","id":8542014801,"lat":52.478143,"lon":-1.8988853},{"type":"node","id":8542014802,"lat":52.4780396,"lon":-1.8989136},{"type":"node","id":8542014803,"lat":52.4780035,"lon":-1.8989231},{"type":"node","id":9938770779,"lat":52.478229,"lon":-1.9000208},{"type":"node","id":9938770780,"lat":52.4782425,"lon":-1.90016},{"type":"node","id":9939257098,"lat":52.4781159,"lon":-1.9000502},{"type":"node","id":9942495134,"lat":52.4780034,"lon":-1.9000701},{"type":"node","id":9942495135,"lat":52.4779683,"lon":-1.9000787},{"type":"node","id":9942495136,"lat":52.4783638,"lon":-1.8999789},{"type":"node","id":12015192803,"lat":52.477999,"lon":-1.8990757},{"type":"node","id":12015192804,"lat":52.4779823,"lon":-1.898916},{"type":"node","id":12015192805,"lat":52.4780049,"lon":-1.8991579},{"type":"node","id":12029065314,"lat":52.4784097,"lon":-1.898583},{"type":"node","id":12029065329,"lat":52.4781556,"lon":-1.8997057},{"type":"node","id":12029065330,"lat":52.4779828,"lon":-1.8997584},{"type":"node","id":12029065332,"lat":52.4780396,"lon":-1.8997425},{"type":"node","id":12029065334,"lat":52.4779964,"lon":-1.8993261},{"type":"node","id":12029065336,"lat":52.4780963,"lon":-1.8997266},{"type":"node","id":12029065349,"lat":52.4779991,"lon":-1.898657},{"type":"node","id":12029065350,"lat":52.4780361,"lon":-1.8986497},{"type":"node","id":12029065351,"lat":52.4780333,"lon":-1.8990057},{"type":"node","id":12029065352,"lat":52.478072,"lon":-1.8989962},{"type":"node","id":12029065359,"lat":52.4779649,"lon":-1.8991125},{"type":"node","id":12029065360,"lat":52.477971,"lon":-1.8991784},{"type":"node","id":12029079670,"lat":52.4780681,"lon":-1.8990585},{"type":"node","id":12029079671,"lat":52.4780759,"lon":-1.8989339},{"type":"node","id":12029079672,"lat":52.4780765,"lon":-1.8988221},{"type":"node","id":12029079673,"lat":52.478059,"lon":-1.8987084},{"type":"node","id":12029079674,"lat":52.4780181,"lon":-1.8986035},{"type":"node","id":12029079677,"lat":52.4779675,"lon":-1.8983583},{"type":"node","id":12029079678,"lat":52.4779705,"lon":-1.8983711},{"type":"node","id":12029079694,"lat":52.4779953,"lon":-1.8990513},{"type":"node","id":12029079695,"lat":52.4779765,"lon":-1.8990575}]}