{"version":0.6,"generator":"Overpass API 0.7.62.5 1bd436f1","osm3s":{"timestamp_osm_base":"2025-03-12T11:54:30Z","copyright":"The data included in this document is from www.openstreetmap.org. The data is made available under ODbL."},"elements":[{"type":"node","id":310674197,"lat":52.481209,"lon":-1.9011916,"tags":{"addr:city":"Birmingham","addr:housenumber":"1-3","addr:postcode":"B3 3NH","addr:street":"Newhall Street","amenity":"fast_food","brand":"Pret A Manger","brand:wikidata":"Q2109109","brand:wikipedia":"en:Pret a Manger","cuisine":"sandwich","fhrs:id":"1126830","name":"Pret A Manger","short_name":"Pret","source":"survey","takeaway":"yes"}},{"type":"node","id":1015060422,"lat":52.4811697,"lon":-1.900473,"tags":{"PMSA_ref":"WMbiBIxx079","artist_name":"Julius Alfred Chatwin","artwork:location":"the corners of the attic storey","artwork:material":"stone","artwork_type":"medallions (2)","name":"Ghiberti and Cellini","tourism":"artwork"}},{"type":"node","id":2129430481,"lat":52.4811216,"lon":-1.9005705,"tags":{"PMSA_ref":"WMbiBIxx079","artist_name":"Julius Alfred Chatwin","artwork:location":"the corners of the attic storey","artwork:material":"stone","artwork_type":"medallions (2)","name":"Ghiberti and Cellini","tourism":"artwork"}},{"type":"node","id":2526028766,"lat":52.4810569,"lon":-1.9009238,"tags":{"name":"Fawcett & Pattni","office":"lawyer"}},{"type":"node","id":2526028767,"lat":52.4811132,"lon":-1.9007484,"tags":{"name":"Fleetmilne Property","office":"estate_agent"}},{"type":"node","id":2526028787,"lat":52.4812437,"lon":-1.9012639,"tags":{"name":"Prime Time","office":"employment_agency"}},{"type":"node","id":3775130958,"lat":52.4810272,"lon":-1.9009546,"tags":{"name":"Reuben Colley","shop":"art"}},{"type":"node","id":3775130978,"lat":52.4812475,"lon":-1.9001955,"tags":{"amenity":"vending_machine","check_date":"2023-03-27","source":"survey","vending":"parking_tickets"}},{"type":"node","id":3775130980,"lat":52.4816091,"lon":-1.9008932,"tags":{"amenity":"vending_machine","source":"survey","vending":"parking_tickets"}},{"type":"node","id":6197917011,"lat":52.4810243,"lon":-1.9011706,"tags":{"emergency":"fire_hydrant","fire_hydrant:type":"underground","source":"survey"}},{"type":"node","id":6197917012,"lat":52.4810367,"lon":-1.9011887,"tags":{"emergency":"fire_hydrant","fire_hydrant:type":"underground","source":"survey"}},{"type":"node","id":10683342325,"lat":52.48121,"lon":-1.9012463,"tags":{"addr:city":"Birmingham","addr:housenumber":"1","addr:postcode":"B3 3NH","addr:street":"Newhall Street, 7th Floor","description":"MGAC is a global consultancy and quantity surveyor.","name":"MGAC Birmingham","office":"surveyor","opening_hours":"Mo-Fr 08:30-17:30","phone":"+44 121 456 1474","website":"https:\/\/www.mgac.com\/"}}]}