{"version":0.6,"generator":"Overpass API 0.7.62.5 1bd436f1","osm3s":{"timestamp_osm_base":"2025-03-12T11:53:30Z","copyright":"The data included in this document is from www.openstreetmap.org. The data is made available under ODbL."},"elements":[{"type":"node","id":312556773,"lat":52.481549,"lon":-1.8967077,"tags":{"name":"Druckers","shop":"confectionery","source":"survey","wheelchair":"limited"}},{"type":"node","id":367432622,"lat":52.4816472,"lon":-1.8959133,"tags":{"amenity":"bicycle_parking","bcc_ref":"47","bicycle_parking":"stands","capacity":"6","covered":"no","name":"Bull Street at The Minories","source":"survey"}},{"type":"node","id":367442202,"lat":52.4812423,"lon":-1.8958486,"tags":{"addr:city":"Birmingham","addr:housenumber":"85","addr:postcode":"B4 6AB","addr:street":"Bull Street","brand":"Costcutter","brand:wikidata":"Q5175072","brand:wikipedia":"en:Costcutter","contact:website":"https:\/\/store-locator.costcutter.co.uk\/costcutter-fd5e50ffa097","fhrs:id":"1170429","name":"Costcutter","shop":"supermarket","source":"survey"}},{"type":"node","id":955798267,"lat":52.4813303,"lon":-1.8964379,"tags":{"addr:city":"Birmingham","addr:housenumber":"9","addr:postcode":"B2 5LH","addr:street":"North Western Arcade","note":"Vacant shop","source":"visual survey; estimate","url":"http:\/\/www.chachachatealounge.com\/"}},{"type":"node","id":955798271,"lat":52.481018,"lon":-1.8960537,"tags":{"name":"The Money Shop","shop":"pawnbroker","source":"visual survey; estimate"}},{"type":"node","id":955798275,"lat":52.4810626,"lon":-1.8961086,"tags":{"addr:city":"Birmingham","addr:housenumber":"3","addr:postcode":"B2 5LH","addr:street":"North Western Arcade","amenity":"fast_food","brand":"Wrapchic","brand:wikidata":"Q20539361","cuisine":"indian;burrito","name":"Wrapchic","source":"visual survey; estimate","takeaway":"yes"}},{"type":"node","id":955798278,"lat":52.4811072,"lon":-1.8961635,"tags":{"addr:city":"Birmingham","addr:housenumber":"4","addr:postcode":"B2 5LH","addr:street":"North Western Arcade","note":"Vacant shop","source":"visual survey; estimate"}},{"type":"node","id":955801411,"lat":52.4812411,"lon":-1.8963282,"tags":{"addr:city":"Birmingham","addr:housenumber":"7","addr:postcode":"B2 5LH","addr:street":"North Western Arcade","name":"Quick Stitch","shop":"dry_cleaning","source":"visual survey; estimate"}},{"type":"node","id":955801415,"lat":52.4812857,"lon":-1.896383,"tags":{"addr:city":"Birmingham","addr:housenumber":"8","addr:postcode":"B2 5LH","addr:street":"North Western Arcade","name":"Unit 7","shop":"gift","source":"visual survey; estimate"}},{"type":"node","id":955805157,"lat":52.4811519,"lon":-1.8962184,"tags":{"addr:city":"Birmingham","addr:housenumber":"5","addr:postcode":"B2 5LH","addr:street":"North Western Arcade","note":"Vacant shop","source":"visual survey; estimate"}},{"type":"node","id":955805160,"lat":52.4811965,"lon":-1.8962733,"tags":{"addr:city":"Birmingham","addr:housenumber":"6","addr:postcode":"B2 5LH","addr:street":"North Western Arcade","name":"Christodoulous Hair & Beauty","shop":"hairdresser","source":"visual survey;estimate;website","url":"http:\/\/www.hairbeauty.me\/"}},{"type":"node","id":956009133,"lat":52.4813658,"lon":-1.895975,"tags":{"brand":"British Heart Foundation","brand:wikidata":"Q4970039","brand:wikipedia":"en:British Heart Foundation","name":"British Heart Foundation","opening_hours":"Mo-Sa 09:00-17:30; Su 10:00-16:00","shop":"charity","source":"visual survey; estimate","website":"https:\/\/www.bhf.org.uk\/what-we-do\/find-bhf-near-you\/birmingham-bhf-shop"}},{"type":"node","id":956009148,"lat":52.4811918,"lon":-1.8958405,"tags":{"beauty":"skin_clinic","disused:shop":"beauty","old_name":"SK:N","source":"visual survey; estimate"}},{"type":"node","id":956009155,"lat":52.4815243,"lon":-1.8961498,"tags":{"check_date":"2022-10-22","shop":"vacant","source":"visual survey;estimate"}},{"type":"node","id":956009160,"lat":52.4811224,"lon":-1.8958744,"tags":{"amenity":"bank","name":"Oakam","source":"visual survey; estimate"}},{"type":"node","id":956009161,"lat":52.4810551,"lon":-1.8959871,"tags":{"brand":"Scrivens","brand:wikidata":"Q79424133","name":"Scrivens","shop":"optician"}},{"type":"node","id":956009162,"lat":52.4810902,"lon":-1.895938,"tags":{"name":"1Aways","shop":"shoes","source":"visual survey; estimate"}},{"type":"node","id":956009163,"lat":52.4813236,"lon":-1.89593,"tags":{"name":"Color & Beauty","shop":"hairdresser","source":"visual survey; estimate"}},{"type":"node","id":956009164,"lat":52.4811468,"lon":-1.8958443,"tags":{"brand":"Ladbrokes","brand:wikidata":"Q1799875","brand:wikipedia":"en:Ladbrokes Coral","name":"Ladbrokes","shop":"bookmaker","source":"visual survey; estimate"}},{"type":"node","id":956009744,"lat":52.4815254,"lon":-1.8963063,"tags":{"addr:city":"Birmingham","addr:housename":"Temple Point","addr:housenumber":"1","addr:street":"Temple Row","bicycle":"no","entrance":"main","foot":"yes","source":"visual survey & estimate"}},{"type":"node","id":956010119,"lat":52.4816636,"lon":-1.8964521,"tags":{"amenity":"cafe","cuisine":"coffee_shop","name":"Offee","previous_name":"City Centre News","source":"visual survey;estimate"}},{"type":"node","id":1015535049,"lat":52.4815071,"lon":-1.8967514,"tags":{"PMSA_ref":"WMbiBIxx244","artist_name":"William Henry Ward","artwork:location":"above entrance to Great Western Arcade","artwork:material":"Stone, Darley Dale and Bath","artwork_type":"sculpture","heritage":"2","heritage:operator":"Historic England","listed_status":"Grade II","name":"Allegories of Science and Art","start_date":"1875-6","tourism":"artwork"}},{"type":"node","id":1837807287,"lat":52.4816082,"lon":-1.8966252,"tags":{"previous_name":"Roberts","shop":"vacant","source":"visual survey; estimate"}},{"type":"node","id":2448319447,"lat":52.4814935,"lon":-1.8968274,"tags":{"name":"Hair@16 18","shop":"hairdresser"}},{"type":"node","id":2448319455,"lat":52.4815881,"lon":-1.8967562,"tags":{"brand":"Timpson","brand:wikidata":"Q7807658","craft":"shoemaker","name":"Timpson"}},{"type":"node","id":2448319458,"lat":52.4816273,"lon":-1.8968047,"tags":{"name":"Un Mundo","shop":"clothes"}},{"type":"node","id":2519250873,"lat":52.481493,"lon":-1.8960992,"tags":{"name":"HRS Solicitors","office":"lawyer"}},{"type":"node","id":3464500415,"lat":52.4810511,"lon":-1.8957405,"tags":{"railway":"switch"}},{"type":"node","id":4552834794,"lat":52.4813877,"lon":-1.8967019,"tags":{"emergency":"fire_hydrant","fire_hydrant:diameter":"100","fire_hydrant:type":"underground","operator":"WMFS","source":"survey"}},{"type":"node","id":4713542493,"lat":52.4814251,"lon":-1.8959139,"tags":{"amenity":"bicycle_parking","capacity":"12"}},{"type":"node","id":6863876844,"lat":52.4816731,"lon":-1.8960943,"tags":{"railway":"tram_level_crossing"}},{"type":"node","id":8332475997,"lat":52.4816246,"lon":-1.896503,"tags":{"addr:city":"Birmingham","addr:housenumber":"12","addr:postcode":"B2 5HG","addr:street":"Temple Row","amenity":"cafe","cuisine":"coffee_shop","fhrs:id":"1399162","internet_access":"wlan","internet_access:fee":"customers","name":"The Coffee Bar","opening_hours":"Mo-Fr 07:30-17:30; Sa 10:00-18:00","opening_hours:covid19":"closed","outdoor_seating":"no","source:addr":"FHRS Open Data"}},{"type":"node","id":8333579401,"lat":52.4812912,"lon":-1.8958738,"tags":{"addr:city":"Birmingham","addr:housenumber":"84","addr:postcode":"B4 6AB","addr:street":"Bull Street","addr:suburb":"Ladywood","amenity":"fast_food","cuisine":"kebab","fhrs:id":"932146","name":"German Doner Kebab","operator":"German Doner Kebab","source:addr":"FHRS Open Data"}},{"type":"node","id":8333579402,"lat":52.4814125,"lon":-1.8960206,"tags":{"name":"DX Delivery","operator":"DX Delivery","shop":"yes"}},{"type":"node","id":8333579403,"lat":52.4814593,"lon":-1.8960671,"tags":{"name":"Totally Wicked","opening_hours":"Mo-Sa 09:00-17:30","operator":"Totally Wicked","shop":"e-cigarette"}},{"type":"node","id":10773528124,"lat":52.4816008,"lon":-1.8965814,"tags":{"addr:city":"Birmingham","addr:housenumber":"14","addr:postcode":"B2 5HG","addr:street":"Temple Row","amenity":"cafe","cuisine":"coffee_shop","fhrs:id":"1228713","name":"Morridge"}}]}