{"version":0.6,"generator":"Overpass API 0.7.62.5 1bd436f1","osm3s":{"timestamp_osm_base":"2025-03-12T11:53:30Z","copyright":"The data included in this document is from www.openstreetmap.org. The data is made available under ODbL."},"elements":[{"type":"way","id":10496355,"nodes":[90235394,4204911717,90235392],"tags":{"highway":"pedestrian","lit":"yes","name":"Warwick Passage","postal_code":"B2","surface":"paving_stones"}},{"type":"way","id":10496357,"nodes":[90235396,90235397,90235398,90235399,10762333873,26590997],"tags":{"highway":"pedestrian","lit":"yes","name":"Martineau Way","surface":"paving_stones"}},{"type":"way","id":17273349,"nodes":[90235393,90235392,10762333874,26590997],"tags":{"designation":"public_footpath","highway":"pedestrian","lit":"yes","name":"Union Passage","postal_code":"B2","prow_ref":"Birmingham FP 1317","source:prow_ref":"birmingham_city_council_prow_gis_data","surface":"paving_stones"}},{"type":"way","id":72875371,"nodes":[1744420713,1744420714,1744420717,1744420718,1744420721,1744420710,10762333876,4027013162,4027013139,1744420707,1744420708,1744420706,1153420766,1153420778,1744420709,1744420712,1744420713],"tags":{"addr:city":"Birmingham","addr:street":"Martineau Way","building":"retail","source":"cities_revealed_aerial_imagery"}},{"type":"way","id":72875373,"nodes":[864881284,4204911718,10762333872,864881275,313226500,26590997,1313055130,1313055124,955996365,10762333871,90235391],"tags":{"highway":"pedestrian","lit":"yes","name":"Union Street","postal_code":"B2","surface":"paving_stones"}},{"type":"way","id":72875380,"nodes":[1014937435,1153420781,864881752,4027013290,864882039,1014937484,1014937450,1014937445,1014937435],"tags":{"addr:city":"Birmingham","addr:country":"GB","addr:housenumber":"22","addr:postcode":"B2 4SW","addr:street":"Union Street","brand":"Superdrug","brand:wikidata":"Q7643261","brand:wikipedia":"en:Superdrug","building":"retail","building:levels":"6","contact:website":"https:\/\/www.superdrug.com\/store\/corporation-st-b%27ham","fhrs:id":"601005","name":"Superdrug","operator":"Superdrug Stores Plc","shop":"chemist","source":"cities_revealed_aerial_imagery"}},{"type":"way","id":82096286,"nodes":[956041320,955996342,4027013160,696842444,956060186,956080711,956080709,956080713,12004434604,696842445,956080710,956080706,955935290,955935280,956041320],"tags":{"addr:city":"Birmingham","addr:housenumber":"29","addr:postcode":"B2 4LR","addr:street":"Union Street","brand":"WHSmith","brand:wikidata":"Q1548712","brand:wikipedia":"en:WHSmith","building":"retail","fixme":"FIx shape","name":"WHSmith","opening_hours":"Mo-Sa 08:30-19:30; Su 11:00-17:00","shop":"newsagent","source":"visual survey;estimate"}},{"type":"way","id":82096288,"nodes":[956060186,956080714,956041320,956080705,956080712,956080707,956080711,956060186],"tags":{"addr:city":"Birmingham","addr:housename":"City Centre House","addr:housenumber":"30","addr:postcode":"B2 4AR","addr:street":"Union Street","building":"office","note":"I have BHS as 31-33 with 30 as a separate entrance","source":"survey","source:addr:postcode":"code-point_open","was:name":"BHS","was:shop":"department_store"}},{"type":"way","id":87290889,"nodes":[1153420794,1153420770,1153420772,864881581,2062867177,864882042,1014937429,1014937483,1014937435,1014937445,1014937450,1014937484,3246047516,1014937456,1153420794],"tags":{"addr:city":"Birmingham","addr:postcode":"B2 4TX","addr:street":"City Arcade","architect":"Newton and Cheadle","building":"retail","building:levels":"4","heritage":"2","heritage:operator":"Historic England","listed_status":"Grade II*","name":"City Arcade","source":"cities_revealed_aerial_imagery;Birmingham_City_Council","start_date":"1900"}},{"type":"way","id":99779638,"nodes":[1153377428,1153377488,1153377437,1153377423,733120827,1153377428],"tags":{"addr:city":"Birmingham","addr:housenumber":"47;49","addr:postcode":"B2 4LS","addr:street":"Corporation Street","brand":"EE","brand:wikidata":"Q5322942","brand:wikipedia":"en:EE Limited","building":"retail","height":"25","name":"EE","opening_hours":"Mo-Fr 09:30-18:00; Sa 09:00-17:30; PH,Su 10:30-16:30","shop":"mobile_phone","source":"OS_OpenData_StreetView","source:addr:postcode":"code-point_open","source:height":"emuanalytics"}},{"type":"way","id":99785904,"nodes":[1153420775,1153420778,1153420766,864881320,864881803,864881501,864881419,1153420775],"tags":{"addr:city":"Birmingham","addr:country":"GB","addr:housenumber":"1-4","addr:postcode":"B2 4UW","addr:street":"Martineau Place","brand":"Poundland","brand:wikidata":"Q1434528","brand:wikipedia":"en:Poundland","building":"retail","building:levels":"4","fhrs:id":"747377","name":"Poundland","opening_hours":"Mo-Sa 08:00-19:00; Su 11:00-17:00","payment:cash":"yes","shop":"variety_store","source":"cities_revealed_aerial_imagery","wheelchair":"yes"}},{"type":"way","id":99785909,"nodes":[1153420781,1014937435,1014937483,1014937429,1153420781],"tags":{"building":"retail","building:levels":"6","source":"cities_revealed_aerial_imagery"}},{"type":"way","id":99785911,"nodes":[1153420794,864881917,1153420772,1153420770,1153420794],"tags":{"addr:city":"Birmingham","addr:housenumber":"25","addr:postcode":"B2 4SQ","addr:street":"Union Street","architect":"Newton and Cheadle","atm":"yes","building":"retail","building:levels":"4","heritage":"2","heritage:operator":"Historic England","listed_status":"Grade II*","source":"cities_revealed_aerial_imagery;Birmingham_City_Council"}},{"type":"way","id":99870977,"nodes":[1154582897,1154582849,696842440,864881508,1154582868,3989019914,3989019915,3989019913,3989019916,1154582897],"tags":{"addr:city":"Birmingham","addr:housenumber":"16-28","addr:street":"Corporation Street","building":"yes","building:levels":"5","leisure":"fitness_centre","name":"EasyGym","source":"visual survey;estimate;OS_OpenData_StreetView"}},{"type":"way","id":110491693,"nodes":[1261722719,1261722733,1261722748,1261722704,1261722710,2519321017,4027013165,1261722734,1261722713,4027013185,1261722722,4027013169,1261722717,1261722746,8333476965,1261722712,1261722719],"tags":{"addr:city":"Birmingham","addr:street":"Martineau Way","building":"retail","source":"bing"}},{"type":"way","id":111816769,"nodes":[1273105175,1273105172,1273105173,1273105171,696842438,955996342,4027013160,696842444,956060186,956080711,956080709,956080713,12004434604,696842445,956080710,956080706,863896136,696842431,864881530,956041319,4027013158,2523807523,1273105175],"tags":{"building":"retail","building:layers":"3","loc_name":"Big Top Shopping Centre"}},{"type":"way","id":162580320,"nodes":[1744420715,1744420709,1153420778,1153420775,1744420715],"tags":{"addr:city":"Birmingham","addr:housenumber":"56-58","addr:street":"Corporation Street","building":"retail","shop":"vacant","source":"cities_revealed_aerial_imagery"}},{"type":"way","id":162580339,"nodes":[1744420707,864881645,1744420706,1744420708,1744420707],"tags":{"addr:city":"Birmingham","addr:country":"GB","addr:housenumber":"17","addr:postcode":"B2 4SJ","addr:street":"Union Street","building":"retail","shop":"vacant","source":"visual survey;estimate"}},{"type":"way","id":318209824,"nodes":[2062867177,3246047516],"tags":{"bicycle":"no","foot":"permissive","highway":"footway","lit":"yes","name":"City Arcade","source":"eyeball survey & estimate","surface":"tiles","tunnel":"building_passage"}},{"type":"way","id":318209828,"nodes":[3246047516,313226500],"tags":{"bicycle":"no","foot":"permissive","highway":"pedestrian","lit":"yes","name":"City Arcade","source":"eyeball survey & estimate","surface":"paving_stones"}},{"type":"way","id":378433438,"nodes":[3754517409,6957345569,3754517408,4204911711,4204911708,4204911706,4204911700,3464500421,3754517401,3754517402,6249629008,3464500420,11251425332,3464500419,4204911715,3464500418,3464500417,9938770795,3464500416,4204911719,7135760394,10608386988,3464500415,4204911725,3464500414,4204911726,3464500413,3464500412,8100471905,6863876844,4204911728,3881605977,4207929470,3464499729,7135760395,12004434594,3818484225,3883350329,3818484228,6863876843],"tags":{"electrified":"contact_line","frequency":"0","gauge":"1435","railway":"tram","voltage":"750","website":"https:\/\/nxbus.co.uk\/the-metro"}},{"type":"way","id":384805841,"nodes":[3946422786,2107829847,2107829845,2107829833,2107829820,2107829839,12345889456,12345889441,2306317478,3778386674,6863876840,2107829836,12345889440,2107829832,3778386672,4502789023,2107829834,2107829827,3883350334,6863876842,3818484229,2107829835,12004434595,12004434596,3883350328,2107829819,2107829828,4207929471,2107829840,4204911729,7135760390,8100471906,4710048694,2107829842,4204911727,2107829831,2107829848,4204911724,10608386990,2107829837,7471288343,2107829829,4204911721,6863876841,4204911718,4204911717,4216185185,2107829823,2107829825,4204911716,2107829826,2107829846,2107829841,2107829843,2107829817,7135760391,4204911699,2107829838,3754517400,2107829830,12428728033,8004015902,3616332640,12428728032,7135760392,4204911710,2107829821,3754517407,7135760393,3785138752],"tags":{"electrified":"contact_line","frequency":"0","gauge":"1435","railway":"tram","voltage":"750","website":"https:\/\/nxbus.co.uk\/the-metro"}},{"type":"way","id":396099330,"nodes":[696842440,864881508,1154582868,3989019914,3989019915,3989019913,3989019916,1154582897,1154582852,696842437,1154582880,1154582889,1154582900,696842436,1154582849,696842440],"tags":{"building":"former","name_former":"Beatties Department Store"}},{"type":"way","id":400071569,"nodes":[4027013176,864881501,864881803,864881320,1153420766,1744420706,864881645,10762333873,1261722713,4027013165,2519321017,1261722741,1261722727,1261722749,10762333871,696842445,12004434604,956080713,956080709,956080711,956060186,696842444,4027013160,10762333874,864881581,1153420772,864881917,1153420794,3246047516,1014937484,864882039,4027013290,4027013152,10762333872,4027013176],"tags":{"area":"yes","highway":"pedestrian","lit":"yes","surface":"paving_stones"}},{"type":"way","id":400071571,"nodes":[733120824,10075827587,313192445,3477051469,6094064493,6094063082,6094064488,6094064489,2364157225,313192440,4027013148,10075827589,312291254,956109065,312291259,7122334879,4027013291,10075827588,733120827,1153377423,1153377494,733120781,1153377477,1153377479,1153377516,1153377490,1126468925,1153377486,733120821,1154582844,1153377425,733120799,6936184714,733120822,1126441381,733120830,1154582839,1154582858,1154582847,1154582871,733120815,865055159,1154582828,865055046,10075827586,733120778,1083128209,865055016,1083128194,733120790,1083128178,1083128211,1975350458,1975350448,1975350460,1975350464,733120824],"tags":{"area":"yes","bicycle":"designated","highway":"pedestrian","lit":"yes","surface":"paving_stones"}},{"type":"way","id":400071572,"nodes":[4027013155,90235396,4027013169,1261722722,4027013185,1261722713,10762333873,864881645,1744420707,4027013139,4027013162,10762333876,1744420710,1261689279,4027013155],"tags":{"area":"yes","highway":"pedestrian","surface":"paving_stones"}},{"type":"way","id":418409178,"nodes":[273113460,10075827588,4204911719,21420270],"tags":{"bicycle":"dismount","highway":"pedestrian","lit":"yes","maxspeed":"20 mph","name":"Cherry Street","postal_code":"B2","source:maxspeed":"TRO","surface":"paving_stones"}},{"type":"way","id":420542647,"nodes":[4204868693,4204868691],"tags":{"bench":"yes","public_transport":"platform","railway":"platform","shelter":"yes","source":"survey"}},{"type":"way","id":420542649,"nodes":[21420270,6863876841,4204868692,4204911720,4204868694,8100471908,12530516718,2339547166],"tags":{"bicycle":"designated","foot":"designated","highway":"path","lit":"yes","segregated":"no","source":"survey","surface":"asphalt"}},{"type":"way","id":649320216,"nodes":[6094063077,6094064490,6094063079,6094064495,6094063077],"tags":{"building":"yes","height":"41"}},{"type":"way","id":649320218,"nodes":[6094063083,6094063081,6094064494,6094063080,6094064485,6094064487,6094064491,6094064486,6094064496,6094064492,6094063083],"tags":{"building":"yes","height":"38"}},{"type":"way","id":873001083,"nodes":[21420270,312292948,312291253,4204911722,4204911723,4027013181,4027013183,21420416,2556547866,12530516719,273113477],"tags":{"access":"delivery","bicycle":"yes","delivery":"yes","emergency":"yes","fixme":"Should this be highway=pedestrian or is service road correct? No access except for delivery (and trams but they're mapped separately). Only exit is via Upper Bull Street which is mapped as highway=pedestrian.","foot":"yes","gritting":"priority_3","highway":"service","lanes":"1","lit":"yes","maintenance":"gritting","motor_vehicle":"destination","name":"Corporation Street","oneway":"yes","oneway:emergency":"no","oneway:tram":"no","postal_code":"B2","surface":"concrete"}},{"type":"way","id":895325270,"nodes":[8322267571,90235394,864881284,21420270],"tags":{"access":"delivery","bicycle":"no","delivery":"yes","emergency":"yes","fixme":"Should this be highway=pedestrian or is service road correct? No access except for delivery (and trams but they're mapped separately). Only exit is via Upper Bull Street which is mapped as highway=pedestrian.","foot":"yes","gritting":"priority_3","highway":"service","lanes":"1","lit":"yes","maintenance":"gritting","motor_vehicle":"destination","name":"Corporation Street","oneway":"yes","oneway:emergency":"no","oneway:tram":"no","postal_code":"B2","surface":"concrete"}},{"type":"node","id":3754517407,"lat":52.4787195,"lon":-1.9005699},{"type":"node","id":3754517409,"lat":52.4787964,"lon":-1.9011902},{"type":"node","id":3785138752,"lat":52.4787652,"lon":-1.901199},{"type":"node","id":6957345569,"lat":52.4787893,"lon":-1.9010992},{"type":"node","id":7135760393,"lat":52.478764,"lon":-1.9011825},{"type":"node","id":21420270,"lat":52.4801968,"lon":-1.8966929},{"type":"node","id":21420416,"lat":52.4812264,"lon":-1.8956491},{"type":"node","id":26590997,"lat":52.4798246,"lon":-1.8959696},{"type":"node","id":90235391,"lat":52.4795345,"lon":-1.8946576},{"type":"node","id":90235392,"lat":52.4795405,"lon":-1.8963425},{"type":"node","id":90235393,"lat":52.4792196,"lon":-1.8966845},{"type":"node","id":90235394,"lat":52.4798269,"lon":-1.8971207},{"type":"node","id":90235396,"lat":52.4804531,"lon":-1.8951358},{"type":"node","id":90235397,"lat":52.4804108,"lon":-1.8952109},{"type":"node","id":90235398,"lat":52.480299,"lon":-1.8953626},{"type":"node","id":90235399,"lat":52.4801008,"lon":-1.8956221},{"type":"node","id":273113460,"lat":52.4804233,"lon":-1.8970611},{"type":"node","id":273113477,"lat":52.4813431,"lon":-1.8956895},{"type":"node","id":312291253,"lat":52.4808274,"lon":-1.8959601},{"type":"node","id":312291254,"lat":52.4809265,"lon":-1.8977263},{"type":"node","id":312291259,"lat":52.4803273,"lon":-1.8968237},{"type":"node","id":312292948,"lat":52.4806689,"lon":-1.8961604},{"type":"node","id":313192440,"lat":52.4808029,"lon":-1.8977792},{"type":"node","id":313192445,"lat":52.480126,"lon":-1.8976841},{"type":"node","id":313226500,"lat":52.4799773,"lon":-1.8963498},{"type":"node","id":696842431,"lat":52.4786792,"lon":-1.8952703},{"type":"node","id":696842436,"lat":52.4795081,"lon":-1.8971837},{"type":"node","id":696842437,"lat":52.4791961,"lon":-1.8967283},{"type":"node","id":696842438,"lat":52.4792676,"lon":-1.8965549},{"type":"node","id":696842440,"lat":52.479721,"lon":-1.8969664},{"type":"node","id":696842444,"lat":52.4797432,"lon":-1.8959926},{"type":"node","id":696842445,"lat":52.4795044,"lon":-1.8948359},{"type":"node","id":733120778,"lat":52.4792079,"lon":-1.8985746},{"type":"node","id":733120781,"lat":52.4803765,"lon":-1.8970765},{"type":"node","id":733120790,"lat":52.4796379,"lon":-1.8983678},{"type":"node","id":733120799,"lat":52.479761,"lon":-1.8973536},{"type":"node","id":733120815,"lat":52.4795399,"lon":-1.8982765},{"type":"node","id":733120821,"lat":52.4799275,"lon":-1.8977448},{"type":"node","id":733120822,"lat":52.4796724,"lon":-1.8974701},{"type":"node","id":733120824,"lat":52.4800704,"lon":-1.8977594},{"type":"node","id":733120827,"lat":52.4802187,"lon":-1.8967997},{"type":"node","id":733120830,"lat":52.4798509,"lon":-1.8978816},{"type":"node","id":863896136,"lat":52.478718,"lon":-1.8951521},{"type":"node","id":864881275,"lat":52.4800957,"lon":-1.8966246},{"type":"node","id":864881284,"lat":52.4801446,"lon":-1.896759},{"type":"node","id":864881320,"lat":52.4800934,"lon":-1.8964711},{"type":"node","id":864881419,"lat":52.4801709,"lon":-1.896516},{"type":"node","id":864881501,"lat":52.4801459,"lon":-1.8965347},{"type":"node","id":864881508,"lat":52.4797263,"lon":-1.8969166},{"type":"node","id":864881530,"lat":52.4786921,"lon":-1.8953351},{"type":"node","id":864881581,"lat":52.4796169,"lon":-1.8962914},{"type":"node","id":864881645,"lat":52.4798711,"lon":-1.8959623},{"type":"node","id":864881752,"lat":52.4798221,"lon":-1.8969054},{"type":"node","id":864881803,"lat":52.4801185,"lon":-1.8965198},{"type":"node","id":864881917,"lat":52.4798038,"lon":-1.8960705},{"type":"node","id":864882039,"lat":52.4800501,"lon":-1.8966471},{"type":"node","id":864882042,"lat":52.4796123,"lon":-1.8964187},{"type":"node","id":865055016,"lat":52.479528,"lon":-1.8984677},{"type":"node","id":865055046,"lat":52.4792144,"lon":-1.8984694},{"type":"node","id":865055159,"lat":52.4794953,"lon":-1.898325},{"type":"node","id":955935280,"lat":52.4792903,"lon":-1.8953696},{"type":"node","id":955935290,"lat":52.4792321,"lon":-1.8954006},{"type":"node","id":955996342,"lat":52.4795116,"lon":-1.8962414},{"type":"node","id":955996365,"lat":52.4797144,"lon":-1.8954713},{"type":"node","id":956041319,"lat":52.4787508,"lon":-1.8956992},{"type":"node","id":956041320,"lat":52.4794017,"lon":-1.8958937},{"type":"node","id":956060186,"lat":52.4796873,"lon":-1.8957403},{"type":"node","id":956080705,"lat":52.4793138,"lon":-1.8954523},{"type":"node","id":956080706,"lat":52.4791487,"lon":-1.8949765},{"type":"node","id":956080707,"lat":52.4795485,"lon":-1.8954401},{"type":"node","id":956080709,"lat":52.4796167,"lon":-1.8952831},{"type":"node","id":956080710,"lat":52.4792745,"lon":-1.8949248},{"type":"node","id":956080711,"lat":52.4796362,"lon":-1.8953924},{"type":"node","id":956080712,"lat":52.479528,"lon":-1.8953373},{"type":"node","id":956080713,"lat":52.4796001,"lon":-1.8952046},{"type":"node","id":956080714,"lat":52.4794582,"lon":-1.8958633},{"type":"node","id":956109065,"lat":52.4806681,"lon":-1.8973354},{"type":"node","id":1014937429,"lat":52.4796507,"lon":-1.8965057},{"type":"node","id":1014937435,"lat":52.4798074,"lon":-1.8966439},{"type":"node","id":1014937445,"lat":52.4799135,"lon":-1.8965361},{"type":"node","id":1014937450,"lat":52.479899,"lon":-1.8965017},{"type":"node","id":1014937456,"lat":52.479927,"lon":-1.8963511},{"type":"node","id":1014937483,"lat":52.479717,"lon":-1.8964301},{"type":"node","id":1014937484,"lat":52.4799603,"lon":-1.8964302},{"type":"node","id":1083128178,"lat":52.4796928,"lon":-1.898289},{"type":"node","id":1083128194,"lat":52.4796002,"lon":-1.8984101},{"type":"node","id":1083128209,"lat":52.4794244,"lon":-1.8985055},{"type":"node","id":1083128211,"lat":52.4798026,"lon":-1.8981318},{"type":"node","id":1126441381,"lat":52.4797942,"lon":-1.8977554},{"type":"node","id":1126468925,"lat":52.4801291,"lon":-1.8974673},{"type":"node","id":1153377423,"lat":52.4802713,"lon":-1.8969025},{"type":"node","id":1153377425,"lat":52.4798135,"lon":-1.8974824},{"type":"node","id":1153377428,"lat":52.4801306,"lon":-1.896919},{"type":"node","id":1153377437,"lat":52.4802301,"lon":-1.8969576},{"type":"node","id":1153377477,"lat":52.4803329,"lon":-1.8971471},{"type":"node","id":1153377479,"lat":52.4802879,"lon":-1.8972129},{"type":"node","id":1153377486,"lat":52.4800018,"lon":-1.8976409},{"type":"node","id":1153377488,"lat":52.4801851,"lon":-1.8970234},{"type":"node","id":1153377490,"lat":52.4801767,"lon":-1.8973879},{"type":"node","id":1153377494,"lat":52.4803299,"lon":-1.8969982},{"type":"node","id":1153377516,"lat":52.4802276,"lon":-1.8973037},{"type":"node","id":1153420766,"lat":52.4800018,"lon":-1.8962621},{"type":"node","id":1153420770,"lat":52.4797713,"lon":-1.8963121},{"type":"node","id":1153420772,"lat":52.4797269,"lon":-1.8961663},{"type":"node","id":1153420775,"lat":52.4803855,"lon":-1.896268},{"type":"node","id":1153420778,"lat":52.4802518,"lon":-1.8959665},{"type":"node","id":1153420781,"lat":52.4797411,"lon":-1.8967195},{"type":"node","id":1153420794,"lat":52.4799087,"lon":-1.8963098},{"type":"node","id":1154582828,"lat":52.4794407,"lon":-1.898363},{"type":"node","id":1154582839,"lat":52.4797767,"lon":-1.8979715},{"type":"node","id":1154582844,"lat":52.4798752,"lon":-1.8976254},{"type":"node","id":1154582847,"lat":52.4796734,"lon":-1.8981031},{"type":"node","id":1154582849,"lat":52.4796307,"lon":-1.8970633},{"type":"node","id":1154582852,"lat":52.479353,"lon":-1.8966145},{"type":"node","id":1154582858,"lat":52.4797248,"lon":-1.8980343},{"type":"node","id":1154582868,"lat":52.4796702,"lon":-1.8967514},{"type":"node","id":1154582871,"lat":52.4796086,"lon":-1.8981854},{"type":"node","id":1154582880,"lat":52.4792864,"lon":-1.8971124},{"type":"node","id":1154582889,"lat":52.4793422,"lon":-1.8973055},{"type":"node","id":1154582897,"lat":52.4794605,"lon":-1.8964865},{"type":"node","id":1154582900,"lat":52.4793505,"lon":-1.8973398},{"type":"node","id":1261689279,"lat":52.4805869,"lon":-1.8953938},{"type":"node","id":1261722704,"lat":52.4801706,"lon":-1.8952425},{"type":"node","id":1261722710,"lat":52.4799314,"lon":-1.895326},{"type":"node","id":1261722712,"lat":52.4803106,"lon":-1.8949253},{"type":"node","id":1261722713,"lat":52.4798625,"lon":-1.8958758},{"type":"node","id":1261722717,"lat":52.4804562,"lon":-1.8950668},{"type":"node","id":1261722719,"lat":52.4802723,"lon":-1.8948894},{"type":"node","id":1261722722,"lat":52.4804034,"lon":-1.8951617},{"type":"node","id":1261722727,"lat":52.4796646,"lon":-1.8948688},{"type":"node","id":1261722733,"lat":52.4802807,"lon":-1.8950473},{"type":"node","id":1261722734,"lat":52.4798333,"lon":-1.8957934},{"type":"node","id":1261722741,"lat":52.4797401,"lon":-1.8952663},{"type":"node","id":1261722746,"lat":52.4804109,"lon":-1.8950223},{"type":"node","id":1261722748,"lat":52.4801539,"lon":-1.8950885},{"type":"node","id":1261722749,"lat":52.4796953,"lon":-1.8947841},{"type":"node","id":1273105171,"lat":52.4792307,"lon":-1.8963549},{"type":"node","id":1273105172,"lat":52.4791747,"lon":-1.8960517},{"type":"node","id":1273105173,"lat":52.4792067,"lon":-1.8962251},{"type":"node","id":1273105175,"lat":52.4788396,"lon":-1.8962191},{"type":"node","id":1313055124,"lat":52.4797503,"lon":-1.8956337},{"type":"node","id":1313055130,"lat":52.4797874,"lon":-1.8958012},{"type":"node","id":1744420706,"lat":52.4799245,"lon":-1.8960794},{"type":"node","id":1744420707,"lat":52.4800863,"lon":-1.8957066},{"type":"node","id":1744420708,"lat":52.4801374,"lon":-1.8958274},{"type":"node","id":1744420709,"lat":52.4803386,"lon":-1.8958628},{"type":"node","id":1744420710,"lat":52.4805165,"lon":-1.8954965},{"type":"node","id":1744420712,"lat":52.4804237,"lon":-1.8957611},{"type":"node","id":1744420713,"lat":52.4804639,"lon":-1.895713},{"type":"node","id":1744420714,"lat":52.4804722,"lon":-1.8957031},{"type":"node","id":1744420715,"lat":52.4804722,"lon":-1.8961643},{"type":"node","id":1744420717,"lat":52.4804799,"lon":-1.8956939},{"type":"node","id":1744420718,"lat":52.4805257,"lon":-1.8956392},{"type":"node","id":1744420721,"lat":52.4805658,"lon":-1.8955875},{"type":"node","id":1975350448,"lat":52.4799156,"lon":-1.897934},{"type":"node","id":1975350458,"lat":52.47992,"lon":-1.8979695},{"type":"node","id":1975350460,"lat":52.4799302,"lon":-1.8979021},{"type":"node","id":1975350464,"lat":52.4799589,"lon":-1.8979137},{"type":"node","id":2062867177,"lat":52.4796147,"lon":-1.8963533},{"type":"node","id":2107829817,"lat":52.4785997,"lon":-1.8982439},{"type":"node","id":2107829819,"lat":52.4823034,"lon":-1.8967761},{"type":"node","id":2107829820,"lat":52.4836313,"lon":-1.8988098},{"type":"node","id":2107829821,"lat":52.4786806,"lon":-1.9000687},{"type":"node","id":2107829823,"lat":52.4793894,"lon":-1.8975988},{"type":"node","id":2107829825,"lat":52.4791804,"lon":-1.8977584},{"type":"node","id":2107829826,"lat":52.4790536,"lon":-1.897905},{"type":"node","id":2107829827,"lat":52.4827083,"lon":-1.8970855},{"type":"node","id":2107829828,"lat":52.4821934,"lon":-1.8966641},{"type":"node","id":2107829829,"lat":52.4809433,"lon":-1.8957951},{"type":"node","id":2107829830,"lat":52.4785179,"lon":-1.898521},{"type":"node","id":2107829831,"lat":52.4812285,"lon":-1.895632},{"type":"node","id":2107829832,"lat":52.4830779,"lon":-1.8976397},{"type":"node","id":2107829833,"lat":52.4842831,"lon":-1.8996207},{"type":"node","id":2107829834,"lat":52.4830307,"lon":-1.8974898},{"type":"node","id":2107829835,"lat":52.482438,"lon":-1.8968417},{"type":"node","id":2107829836,"lat":52.4831159,"lon":-1.8978907},{"type":"node","id":2107829837,"lat":52.4810541,"lon":-1.8956757},{"type":"node","id":2107829838,"lat":52.4785458,"lon":-1.8983275},{"type":"node","id":2107829839,"lat":52.4834676,"lon":-1.898601},{"type":"node","id":2107829840,"lat":52.4819303,"lon":-1.8963398},{"type":"node","id":2107829841,"lat":52.478845,"lon":-1.8981017},{"type":"node","id":2107829842,"lat":52.4813281,"lon":-1.8956548},{"type":"node","id":2107829843,"lat":52.4787118,"lon":-1.8981809},{"type":"node","id":2107829845,"lat":52.4843974,"lon":-1.8997588},{"type":"node","id":2107829846,"lat":52.4789713,"lon":-1.8980152},{"type":"node","id":2107829847,"lat":52.4844922,"lon":-1.8998822},{"type":"node","id":2107829848,"lat":52.4811532,"lon":-1.8956326},{"type":"node","id":2306317478,"lat":52.4831802,"lon":-1.8981903},{"type":"node","id":2339547166,"lat":52.4811632,"lon":-1.8954763},{"type":"node","id":2364157225,"lat":52.4805152,"lon":-1.8973421},{"type":"node","id":2519321017,"lat":52.4797628,"lon":-1.8953934},{"type":"node","id":2523807523,"lat":52.4788318,"lon":-1.8961725},{"type":"node","id":2556547866,"lat":52.4812822,"lon":-1.8956636},{"type":"node","id":3246047516,"lat":52.4799422,"lon":-1.8963896},{"type":"node","id":3464499729,"lat":52.482245,"lon":-1.8968015},{"type":"node","id":3464500412,"lat":52.4813377,"lon":-1.895713},{"type":"node","id":3464500413,"lat":52.4812736,"lon":-1.8956835},{"type":"node","id":3464500414,"lat":52.4811527,"lon":-1.8956781},{"type":"node","id":3464500415,"lat":52.4810511,"lon":-1.8957405},{"type":"node","id":3464500416,"lat":52.48005,"lon":-1.8969},{"type":"node","id":3464500417,"lat":52.4794036,"lon":-1.8976434},{"type":"node","id":3464500418,"lat":52.4791928,"lon":-1.8978085},{"type":"node","id":3464500419,"lat":52.478985,"lon":-1.8980733},{"type":"node","id":3464500420,"lat":52.4786141,"lon":-1.8982986},{"type":"node","id":3464500421,"lat":52.4785473,"lon":-1.8985134},{"type":"node","id":3477051469,"lat":52.4801399,"lon":-1.897659},{"type":"node","id":3616332640,"lat":52.4785939,"lon":-1.899246},{"type":"node","id":3754517400,"lat":52.4785249,"lon":-1.8984028},{"type":"node","id":3754517401,"lat":52.4785543,"lon":-1.8984534},{"type":"node","id":3754517402,"lat":52.4785694,"lon":-1.8984038},{"type":"node","id":3754517408,"lat":52.4787234,"lon":-1.9003193},{"type":"node","id":3778386672,"lat":52.4830694,"lon":-1.8975881},{"type":"node","id":3778386674,"lat":52.4831613,"lon":-1.8981255},{"type":"node","id":3818484225,"lat":52.482389,"lon":-1.8968753},{"type":"node","id":3818484228,"lat":52.4825538,"lon":-1.8970005},{"type":"node","id":3818484229,"lat":52.4825693,"lon":-1.8969578},{"type":"node","id":3881605977,"lat":52.4819149,"lon":-1.8963826},{"type":"node","id":3883350328,"lat":52.4823316,"lon":-1.8967999},{"type":"node","id":3883350329,"lat":52.482427,"lon":-1.8968922},{"type":"node","id":3883350334,"lat":52.4826415,"lon":-1.8970367},{"type":"node","id":3989019913,"lat":52.479529,"lon":-1.8964504},{"type":"node","id":3989019914,"lat":52.4795764,"lon":-1.8965079},{"type":"node","id":3989019915,"lat":52.4795555,"lon":-1.8964705},{"type":"node","id":3989019916,"lat":52.4795015,"lon":-1.8964485},{"type":"node","id":4027013139,"lat":52.4802859,"lon":-1.8954317},{"type":"node","id":4027013148,"lat":52.4808396,"lon":-1.8978506},{"type":"node","id":4027013152,"lat":52.4800421,"lon":-1.8967791},{"type":"node","id":4027013155,"lat":52.4804776,"lon":-1.8951795},{"type":"node","id":4027013158,"lat":52.4788253,"lon":-1.8961388},{"type":"node","id":4027013160,"lat":52.4795784,"lon":-1.8961619},{"type":"node","id":4027013162,"lat":52.4804045,"lon":-1.8956381},{"type":"node","id":4027013165,"lat":52.4798311,"lon":-1.8957807},{"type":"node","id":4027013169,"lat":52.4804304,"lon":-1.8951131},{"type":"node","id":4027013176,"lat":52.4801861,"lon":-1.8966033},{"type":"node","id":4027013181,"lat":52.4811034,"lon":-1.8956734},{"type":"node","id":4027013183,"lat":52.481153,"lon":-1.8956538},{"type":"node","id":4027013185,"lat":52.479956,"lon":-1.8957523},{"type":"node","id":4027013290,"lat":52.4800105,"lon":-1.896692},{"type":"node","id":4027013291,"lat":52.480276,"lon":-1.8967133},{"type":"node","id":4204868691,"lat":52.4799385,"lon":-1.8970728},{"type":"node","id":4204868692,"lat":52.4801787,"lon":-1.8966443},{"type":"node","id":4204868693,"lat":52.4801893,"lon":-1.8967831},{"type":"node","id":4204868694,"lat":52.4810481,"lon":-1.8956482},{"type":"node","id":4204911699,"lat":52.4785657,"lon":-1.8982881},{"type":"node","id":4204911700,"lat":52.4785905,"lon":-1.8989044},{"type":"node","id":4204911706,"lat":52.4786257,"lon":-1.8992366},{"type":"node","id":4204911708,"lat":52.4786697,"lon":-1.8996371},{"type":"node","id":4204911710,"lat":52.4786723,"lon":-1.8999947},{"type":"node","id":4204911711,"lat":52.4787021,"lon":-1.8999934},{"type":"node","id":4204911715,"lat":52.4790611,"lon":-1.8979656},{"type":"node","id":4204911716,"lat":52.479104,"lon":-1.8978449},{"type":"node","id":4204911717,"lat":52.4798113,"lon":-1.8970825},{"type":"node","id":4204911718,"lat":52.4801307,"lon":-1.896719},{"type":"node","id":4204911719,"lat":52.4802091,"lon":-1.8967177},{"type":"node","id":4204911720,"lat":52.4806461,"lon":-1.8961075},{"type":"node","id":4204911721,"lat":52.4806579,"lon":-1.8961363},{"type":"node","id":4204911722,"lat":52.4809969,"lon":-1.8957659},{"type":"node","id":4204911723,"lat":52.4810692,"lon":-1.8956938},{"type":"node","id":4204911724,"lat":52.4811006,"lon":-1.8956529},{"type":"node","id":4204911725,"lat":52.4811035,"lon":-1.8956938},{"type":"node","id":4204911726,"lat":52.4812292,"lon":-1.8956757},{"type":"node","id":4204911727,"lat":52.4812827,"lon":-1.8956462},{"type":"node","id":4204911728,"lat":52.4817467,"lon":-1.8961779},{"type":"node","id":4204911729,"lat":52.4817605,"lon":-1.8961363},{"type":"node","id":4207929470,"lat":52.4820063,"lon":-1.8964933},{"type":"node","id":4207929471,"lat":52.4820227,"lon":-1.8964537},{"type":"node","id":4216185185,"lat":52.4796964,"lon":-1.8972181},{"type":"node","id":4502789023,"lat":52.483057,"lon":-1.8975418},{"type":"node","id":4710048694,"lat":52.481346,"lon":-1.8956662},{"type":"node","id":6094063077,"lat":52.4797184,"lon":-1.8959493},{"type":"node","id":6094063079,"lat":52.4789747,"lon":-1.8961041},{"type":"node","id":6094063080,"lat":52.4801019,"lon":-1.8960343},{"type":"node","id":6094063081,"lat":52.4801509,"lon":-1.896155},{"type":"node","id":6094063082,"lat":52.4803757,"lon":-1.8972347},{"type":"node","id":6094063083,"lat":52.4802244,"lon":-1.8961175},{"type":"node","id":6094064485,"lat":52.4801509,"lon":-1.8959351},{"type":"node","id":6094064486,"lat":52.4806965,"lon":-1.8954523},{"type":"node","id":6094064487,"lat":52.4806116,"lon":-1.8954228},{"type":"node","id":6094064488,"lat":52.4804066,"lon":-1.8971785},{"type":"node","id":6094064489,"lat":52.4804271,"lon":-1.89721},{"type":"node","id":6094064490,"lat":52.4790172,"lon":-1.896324},{"type":"node","id":6094064491,"lat":52.4806818,"lon":-1.8953799},{"type":"node","id":6094064492,"lat":52.4806851,"lon":-1.8955837},{"type":"node","id":6094064493,"lat":52.4802417,"lon":-1.8974776},{"type":"node","id":6094064494,"lat":52.480133,"lon":-1.8960862},{"type":"node","id":6094064495,"lat":52.4796807,"lon":-1.8957238},{"type":"node","id":6094064496,"lat":52.4807325,"lon":-1.8955006},{"type":"node","id":6249629008,"lat":52.4786072,"lon":-1.8983149},{"type":"node","id":6863876840,"lat":52.4831435,"lon":-1.8980466},{"type":"node","id":6863876841,"lat":52.4801844,"lon":-1.8966596},{"type":"node","id":6863876842,"lat":52.4826302,"lon":-1.8970243},{"type":"node","id":6863876843,"lat":52.4826291,"lon":-1.8970655},{"type":"node","id":6863876844,"lat":52.4816731,"lon":-1.8960943},{"type":"node","id":6936184714,"lat":52.4797137,"lon":-1.8974171},{"type":"node","id":7122334879,"lat":52.4803117,"lon":-1.8968003},{"type":"node","id":7135760390,"lat":52.4816889,"lon":-1.8960565},{"type":"node","id":7135760391,"lat":52.4785876,"lon":-1.8982596},{"type":"node","id":7135760392,"lat":52.478657,"lon":-1.8998525},{"type":"node","id":7135760394,"lat":52.4808433,"lon":-1.8959826},{"type":"node","id":7135760395,"lat":52.4823122,"lon":-1.8968543},{"type":"node","id":7471288343,"lat":52.4810307,"lon":-1.8957009},{"type":"node","id":8004015902,"lat":52.4785927,"lon":-1.8992344},{"type":"node","id":8100471905,"lat":52.481352,"lon":-1.8957293},{"type":"node","id":8100471906,"lat":52.4813717,"lon":-1.8957033},{"type":"node","id":8100471908,"lat":52.481086,"lon":-1.8955918},{"type":"node","id":8322267571,"lat":52.4796609,"lon":-1.897314},{"type":"node","id":8333476965,"lat":52.4803608,"lon":-1.8949717},{"type":"node","id":9938770795,"lat":52.4796735,"lon":-1.897333},{"type":"node","id":10075827586,"lat":52.4792116,"lon":-1.8985147},{"type":"node","id":10075827587,"lat":52.480099,"lon":-1.8977207},{"type":"node","id":10075827588,"lat":52.48024,"lon":-1.8967676},{"type":"node","id":10075827589,"lat":52.4808917,"lon":-1.8977761},{"type":"node","id":10608386988,"lat":52.4810034,"lon":-1.895797},{"type":"node","id":10608386990,"lat":52.4810815,"lon":-1.8956622},{"type":"node","id":10762333871,"lat":52.479565,"lon":-1.8947995},{"type":"node","id":10762333872,"lat":52.4801175,"lon":-1.896687},{"type":"node","id":10762333873,"lat":52.4798668,"lon":-1.8959195},{"type":"node","id":10762333874,"lat":52.4796056,"lon":-1.8962535},{"type":"node","id":10762333876,"lat":52.4804265,"lon":-1.8956131},{"type":"node","id":11251425332,"lat":52.4787996,"lon":-1.898186},{"type":"node","id":12004434594,"lat":52.4823514,"lon":-1.8968676},{"type":"node","id":12004434595,"lat":52.48242,"lon":-1.8968341},{"type":"node","id":12004434596,"lat":52.482371,"lon":-1.896822},{"type":"node","id":12004434604,"lat":52.4795475,"lon":-1.8948855},{"type":"node","id":12345889440,"lat":52.4830922,"lon":-1.897742},{"type":"node","id":12345889441,"lat":52.4832088,"lon":-1.8982594},{"type":"node","id":12345889456,"lat":52.4832657,"lon":-1.8983494},{"type":"node","id":12428728032,"lat":52.4786356,"lon":-1.8996464},{"type":"node","id":12428728033,"lat":52.4785591,"lon":-1.8989141},{"type":"node","id":12530516718,"lat":52.4811516,"lon":-1.8954936},{"type":"node","id":12530516719,"lat":52.481305,"lon":-1.8956733},{"type":"node","id":3946422786,"lat":52.484557,"lon":-1.8999947}]}