{"version":0.6,"generator":"Overpass API 0.7.62.5 1bd436f1","osm3s":{"timestamp_osm_base":"2025-03-12T11:55:30Z","copyright":"The data included in this document is from www.openstreetmap.org. The data is made available under ODbL."},"elements":[{"type":"node","id":955996316,"lat":52.4795895,"lon":-1.8953563,"tags":{"name":"Fone Hub","old_name":"Kanoo Travel","shop":"mobile_phone","source":"visual survey; estimate"}},{"type":"node","id":955996323,"lat":52.4795352,"lon":-1.8949599,"tags":{"disused:shop":"yes","source":"visual survey; estimate"}},{"type":"node","id":955996329,"lat":52.4795284,"lon":-1.8951375,"tags":{"addr:city":"Birmingham","addr:postcode":"B2 4SR","addr:street":"Union Street","amenity":"fast_food","name":"Delhi Streets","source":"visual survey; estimate"}},{"type":"node","id":955996362,"lat":52.4794592,"lon":-1.8949481,"tags":{"addr:city":"Birmingham","addr:street":"High Street","brand":"The Fragrance Shop","brand:wikidata":"Q105337125","name":"The Fragrance Shop","shop":"perfumery"}},{"type":"node","id":955999937,"lat":52.4790114,"lon":-1.8951233,"tags":{"addr:city":"Birmingham","addr:street":"High Street","disused:shop":"mobile_phone","old_name":"EE","source":"visual survey; estimate"}},{"type":"node","id":955999940,"lat":52.4790672,"lon":-1.8951002,"tags":{"addr:city":"Birmingham","addr:street":"High Street","amenity":"bank","atm":"yes","brand":"Barclays","brand:wikidata":"Q245343","brand:wikipedia":"en:Barclays","name":"Barclays","note":"2 ATMs","operator":"Barclays Bank PLC","source":"visual survey; estimate","wheelchair":"yes"}},{"type":"node","id":955999960,"lat":52.4793675,"lon":-1.8949779,"tags":{"addr:city":"Birmingham","addr:street":"High Street","brand":"Card Factory","brand:wikidata":"Q5038192","brand:wikipedia":"en:Card Factory","name":"Card Factory","shop":"gift","source":"visual survey; estimate","wheelchair":"yes"}},{"type":"node","id":956002596,"lat":52.4791022,"lon":-1.8946496,"tags":{"addr:city":"Birmingham","addr:housenumber":"9","addr:postcode":"B2 5LH","addr:street":"North Western Arcade","brand":"Pandora","brand:wikidata":"Q2241604","brand:wikipedia":"en:Thorntons","check_date":"2023-01-11","name":"Pandora","opening_hours":"Mo-Sa 09:30-18:00 Su 11:00-17:00","shop":"jewelry","source":"visual survey;estimate","url":"http:\/\/www.chachachatealounge.com\/"}},{"type":"node","id":956050242,"lat":52.4796154,"lon":-1.8946836,"tags":{"amenity:removed":"bench","backrest":"yes","colour":"black","material":"metal","seats":"4","source":"visual survey; estimate"}},{"type":"node","id":956050245,"lat":52.4796151,"lon":-1.8947272,"tags":{"amenity:removed":"bench","backrest":"yes","colour":"black","material":"metal","seats":"4","source":"visual survey; estimate"}},{"type":"node","id":956050248,"lat":52.4796052,"lon":-1.8947779,"tags":{"information":"guidepost","source":"visual survey;estimate","tourism":"information"}},{"type":"node","id":956050251,"lat":52.4796284,"lon":-1.8947065,"tags":{"amenity:removed":"bench","backrest":"yes","colour":"black","material":"metal","seats":"3","source":"visual survey; estimate"}},{"type":"node","id":956050258,"lat":52.4796018,"lon":-1.8947044,"tags":{"amenity:removed":"bench","backrest":"yes","colour":"black","material":"metal","seats":"4","source":"visual survey; estimate"}},{"type":"node","id":956050263,"lat":52.4796159,"lon":-1.8947055,"tags":{"amenity:removed":"clock","check_date":"2024-04-14","display":"analog","name":"King's Head Clock","source":"visual survey; estimate","support":"pole","visibility":"street"}},{"type":"node","id":1402200763,"lat":52.4793915,"lon":-1.8946427,"tags":{"amenity":"bicycle_parking","bcc_ref":"64","bicycle_parking":"stands","capacity":"24","check_date":"2024-04-14","covered":"no","name":"High Street outside Marks and Spencer","source":"survey"}},{"type":"node","id":1981141781,"lat":52.4789624,"lon":-1.894652,"tags":{"check_date":"2022-09-26","disused:shop":"clothes","old_name":"Blue Star"}},{"type":"node","id":1981141800,"lat":52.4790291,"lon":-1.8946506,"tags":{"brand":"Three","brand:wikidata":"Q407009","brand:wikipedia":"en:3 (company)","contact:website":"https:\/\/locator.three.co.uk\/south\/birmingham\/38-high-street","name":"Three.","shop":"mobile_phone"}},{"type":"node","id":2519250936,"lat":52.4791303,"lon":-1.8950767,"tags":{"addr:city":"Birmingham","addr:street":"High Street","brand":"The Gym","brand:wikidata":"Q48815022","brand:wikipedia":"en:The Gym Group","contact:website":"https:\/\/www.thegymgroup.com\/find-a-gym\/birmingham-gyms\/birmingham-city-centre\/","leisure":"fitness_centre","level":"2","name":"The Gym","wheelchair":"limited"}},{"type":"node","id":2523807497,"lat":52.4793539,"lon":-1.8954791,"tags":{"brand":"Clintons","brand:wikidata":"Q5134299","brand:wikipedia":"en:Clintons","name":"Clintons","shop":"gift"}},{"type":"node","id":4592378560,"lat":52.4792126,"lon":-1.8949082,"tags":{"emergency":"fire_hydrant","fire_hydrant:diameter":"150","fire_hydrant:position":"sidewalk","fire_hydrant:type":"underground","operator":"WMFS","source":"survey"}},{"type":"node","id":4592378561,"lat":52.4789806,"lon":-1.894978,"tags":{"emergency":"fire_hydrant","fire_hydrant:diameter":"150","fire_hydrant:position":"sidewalk","fire_hydrant:type":"underground","operator":"WMFS","source":"survey"}},{"type":"node","id":4720101946,"lat":52.4790903,"lon":-1.8947521,"tags":{"age":"early-mature","constituency":"City Centre","height":"8","height:range":"7 to 7.99m","leaf_cycle":"deciduous","leaf_type":"broadleaved","natural":"tree","plot_number":"100002","ref:usrn":"2701781","site_name":"HIGH STREET","source":"bcc_dec_2016","species":"Carpinus betulus","species:wikidata":"Q158776","taxon":"Carpinus betulus fastigiata","tree_form":"natural","ward":"Ladywood"}},{"type":"node","id":7008878885,"lat":52.4795051,"lon":-1.8957155,"tags":{"addr:city":"Birmingham","addr:postcode":"B2 4AP","addr:street":"Union Street"}},{"type":"node","id":7008878886,"lat":52.4795424,"lon":-1.8957102,"tags":{"addr:city":"Birmingham","addr:postcode":"B2 4AG","addr:street":"Union Street"}},{"type":"node","id":7008878887,"lat":52.4795734,"lon":-1.8957058,"tags":{"addr:city":"Birmingham","addr:postcode":"B2 4AF","addr:street":"Union Street"}},{"type":"node","id":7008878888,"lat":52.4795931,"lon":-1.895703,"tags":{"addr:city":"Birmingham","addr:postcode":"B2 4AE","addr:street":"Union Street"}},{"type":"node","id":7008878889,"lat":52.4796177,"lon":-1.8956995,"tags":{"addr:city":"Birmingham","addr:postcode":"B2 4AD","addr:street":"Union Street"}},{"type":"node","id":7069312728,"lat":52.4790616,"lon":-1.8948288,"tags":{"emergency":"fire_hydrant","fire_hydrant:diameter":"150","fire_hydrant:position":"sidewalk","fire_hydrant:type":"underground","operator":"WMFS","source":"survey"}},{"type":"node","id":7069312729,"lat":52.4790705,"lon":-1.8948259,"tags":{"emergency":"fire_hydrant","fire_hydrant:diameter":"150","fire_hydrant:position":"sidewalk","fire_hydrant:type":"underground","operator":"WMFS","source":"survey"}},{"type":"node","id":8841772264,"lat":52.4789724,"lon":-1.8948439,"tags":{"access":"yes","advertising":"totem","amenity":"telephone","defibrillator:location":"Attached to an advertising totem and phone booth.","emergency":"defibrillator","indoor":"no","opening_hours":"24\/7","operator":"JCDecaux","ref:GB:the_circuit":"D50926AF-7AF6-46A4-9318-B04F012A1722","source":"survey"}},{"type":"node","id":12004434605,"lat":52.4792453,"lon":-1.8950209,"tags":{"addr:city":"Birmingham","addr:street":"High Street","disused:shop":"yes"}},{"type":"node","id":12004434608,"lat":52.479273,"lon":-1.8947232,"tags":{"advertising":"totem"}}]}