{"version":0.6,"generator":"Overpass API 0.7.62.5 1bd436f1","osm3s":{"timestamp_osm_base":"2025-03-12T11:54:30Z","copyright":"The data included in this document is from www.openstreetmap.org. The data is made available under ODbL."},"elements":[{"type":"node","id":347403833,"lat":52.4826733,"lon":-1.9011088,"tags":{"brand":"National Grid","brand:wikidata":"Q1465461","name":"Church Street City Substation","operator":"National Grid Electricity Distribution","operator:old":"Western Power Distribution","operator:wikidata":"Q7988183","owner":"National Grid Electricity Distribution (West Midlands) Plc","owner:wikidata":"Q114397791","power":"substation","ref":"725","source":"local_knowledge"}},{"type":"node","id":347403834,"lat":52.4827347,"lon":-1.9012087,"tags":{"brand":"National Grid","brand:wikidata":"Q1465461","name":"Rutland House Substation","operator":"National Grid Electricity Distribution","operator:old":"Western Power Distribution","operator:wikidata":"Q7988183","owner":"National Grid Electricity Distribution (West Midlands) Plc","owner:wikidata":"Q114397791","power":"substation","ref":"01451","source":"local_knowledge"}},{"type":"node","id":2049769973,"lat":52.4826171,"lon":-1.900832,"tags":{"artist_name":"Wolfgang Buttress","artwork:material":"bronze","artwork:size":"1500mm","artwork_type":"sculpture","name":"Umbra","source":"survey","start_date":"2012","tourism":"artwork"}},{"type":"node","id":2526028801,"lat":52.4827495,"lon":-1.9008246,"tags":{"name":"The Wilkes Partnership solicitors","office":"lawyer"}},{"type":"node","id":3764046060,"lat":52.4824218,"lon":-1.9003055,"tags":{"man_made":"street_cabinet","ref":"15"}},{"type":"node","id":3764046061,"lat":52.4824655,"lon":-1.9002304,"tags":{"man_made":"street_cabinet","operator":"Openreach","operator:wikidata":"Q7096543","street_cabinet":"telecom","utility":"telecom"}},{"type":"node","id":3796457307,"lat":52.4826053,"lon":-1.900965,"tags":{"amenity":"vending_machine","source":"survey","vending":"parking_tickets"}},{"type":"node","id":4490388062,"lat":52.4828754,"lon":-1.9012557,"tags":{"highway":"give_way","source":"survey"}},{"type":"node","id":4631508733,"lat":52.4823784,"lon":-1.9006311,"tags":{"emergency":"fire_hydrant","fire_hydrant:type":"underground","operator":"WMFS","source":"survey"}},{"type":"node","id":5609582595,"lat":52.4827635,"lon":-1.9010115,"tags":{"amenity":"bicycle_parking","bicycle_parking":"stands","capacity":"4","covered":"no","name":"Church Street","source":"bcc"}},{"type":"node","id":5611854424,"lat":52.4829252,"lon":-1.9011649,"tags":{"amenity":"bicycle_parking","bicycle_parking":"stands","capacity":"10","covered":"no","mapillary":"1384600921921613","name":"Cornwall Street","source":"bcc","survey:date":"2018-10-09"}},{"type":"node","id":7826512268,"lat":52.4823964,"lon":-1.9009486,"tags":{"addr:city":"Birmingham","addr:postcode":"B3 2JQ","addr:street":"Edmund Street"}},{"type":"node","id":7826512269,"lat":52.48242,"lon":-1.9009566,"tags":{"addr:city":"Birmingham","addr:postcode":"B3 2JA","addr:street":"Edmund Street"}},{"type":"node","id":7826512270,"lat":52.4824454,"lon":-1.9009741,"tags":{"addr:city":"Birmingham","addr:housename":"Rutland House","addr:postcode":"B3 2FD","addr:street":"Edmund Street"}}]}