{"version":0.6,"generator":"Overpass API 0.7.62.5 1bd436f1","osm3s":{"timestamp_osm_base":"2025-03-11T16:03:36Z","copyright":"The data included in this document is from www.openstreetmap.org. The data is made available under ODbL."},"elements":[{"type":"way","id":4612860,"nodes":[29217332,8895951836,3900136298,860252246,442649858,9755765798,860252212,29217340],"tags":{"bicycle":"use_sidepath","cycleway:left":"no","cycleway:right":"separate","foot":"use_sidepath","highway":"secondary","image":"https:\/\/commons.wikimedia.org\/wiki\/File:Kottbusser_Tor_Panorama.jpg","junction":"circular","lane_markings":"yes","lanes":"2","level":"0","lit":"yes","loc_name":"Kotti","maxheight":"default","maxspeed":"50","name":"Kottbusser Tor","name:etymology:wikidata":"Q3214","name:etymology:wikipedia":"de:Cottbus","name:ja":"\u30b3\u30c3\u30c8\u30d6\u30c3\u30b5\u30fc\u30c8\u30fc\u30a2","note":"Kein Kreisverkehr - Skalitzer Str. hat Vorfahrt","oneway":"yes","parking:both":"no","postal_code":"10999","sidewalk:left":"no","sidewalk:right":"separate","smoothness":"good","surface":"asphalt","wikidata":"Q316466","wikimedia_commons":"Category:Kottbusser Tor (Berlin-Kreuzberg)","wikipedia":"de:Kottbusser Tor"}},{"type":"way","id":4686299,"nodes":[29788946,8895430762,4606652417,3900136274,8078037465,3900136261,799000263,1440648462],"tags":{"highway":"living_street","lit":"yes","name":"Admiralstra\u00dfe","name:etymology:wikidata":"Q347939","name:etymology:wikipedia":"de:Adalbert von Preu\u00dfen (1811\u20131873)","oneway":"no","parking:both":"no","postal_code":"10999","surface":"paving_stones","wikidata":"Q102268821"}},{"type":"way","id":37739169,"nodes":[442649847,9755771319,8895430655,442649848,5213956487,442649849,442649850,442649851,3854467755,4256046876,3854467736,442649852,442649853,5213956485,442649854,442649855,442649856,442649857,442649847],"tags":{"addr:housename":"U Kottbusser Tor","building":"train_station","building:levels":"2","building:use":"railway","layer":"3"}},{"type":"way","id":37853306,"nodes":[443953066,1286990195,443953221,443953225,5260957188,5260957189,5260957190,443953219,443953068,443953066],"tags":{"addr:city":"Berlin","addr:country":"DE","addr:housenumber":"138","addr:postcode":"10999","addr:street":"Skalitzer Stra\u00dfe","addr:suburb":"Kreuzberg","building":"residential","building:levels":"11","name":"Inter Gida - \u0130stanbul Supermarkt","opening_hours":"Mo-Sa 09:00-20:00","shop":"supermarket","wheelchair":"yes"}},{"type":"way","id":52525489,"nodes":[667482273,667482282,11800112292,667482283,667482275,667482273],"tags":{"addr:city":"Berlin","addr:country":"DE","addr:housenumber":"1","addr:postcode":"10999","addr:street":"Kottbusser Stra\u00dfe","addr:suburb":"Kreuzberg","building":"apartments","building:levels":"11","wikidata":"Q105045288","wikimedia_commons":"Category:Kottbusser Stra\u00dfe 1\u20133 (Berlin)"}},{"type":"way","id":67524739,"nodes":[8895430654,8895430521,815343355,8895430655],"tags":{"crossing":"traffic_signals","crossing:markings":"dashes","footway":"crossing","highway":"footway","lit":"yes","surface":"asphalt"}},{"type":"way","id":68084763,"nodes":[442649846,3900136282,815343357,9755765801,9755765805,2677616770,29788946,9755765804,3359226554,2677616762,815343319,8895430535,29217340],"tags":{"cycleway:bicycle":"designated","cycleway:left":"no","cycleway:right":"lane","cycleway:right:lane":"advisory","cycleway:right:surface:colour":"red","dual_carriageway":"yes","foot":"use_sidepath","highway":"secondary","lane_markings":"yes","lanes":"2","lit":"yes","maxspeed":"30","name":"Skalitzer Stra\u00dfe","name:etymology:wikidata":"Q670005","oneway":"yes","parking:both":"no","parking:right:restriction":"no_stopping","postal_code":"10999","sidewalk:left":"no","sidewalk:right":"separate","surface":"asphalt","turn:lanes":"through|through;right","width:lanes":"3.6|3.6"}},{"type":"way","id":71292781,"nodes":[9625739328,848507648,1141303120,848507649,1141303155,848507650,1141303160,848507651,8019657244,1141303141,848507652,9625739336,9625739335,9625739334,9625739333,9625739332,9625739331,9625739330,9625739329,9625739328],"tags":{"landuse":"grass"}},{"type":"way","id":140553959,"nodes":[8817928108,8817928093,8817928106,8817928094,8817928105,8817928107,8817928104,1539749673],"tags":{"barrier":"bollard"}},{"type":"way","id":140553960,"nodes":[1539749688,8817928095,8026452865,1539749676,8817928103,1539749674],"tags":{"barrier":"bollard"}},{"type":"way","id":148359939,"nodes":[29217321,860252267,29217332],"tags":{"bicycle":"use_sidepath","cycleway:left":"no","cycleway:right":"separate","foot":"use_sidepath","highway":"secondary","image":"https:\/\/commons.wikimedia.org\/wiki\/File:Kottbusser_Tor_Panorama.jpg","junction":"circular","lane_markings":"yes","lane_markings:junction":"yes","lanes":"3","level":"0","lit":"yes","loc_name":"Kotti","maxspeed":"50","name":"Kottbusser Tor","name:etymology:wikidata":"Q3214","name:etymology:wikipedia":"de:Cottbus","name:ja":"\u30b3\u30c3\u30c8\u30d6\u30c3\u30b5\u30fc\u30c8\u30fc\u30a2","note":"Kein Kreisverkehr - Skalitzer Str. hat Vorfahrt","oneway":"yes","parking:both":"no","postal_code":"10999","sidewalk:left":"no","sidewalk:right":"separate","smoothness":"good","surface":"asphalt","wikidata":"Q316466","wikimedia_commons":"Category:Kottbusser Tor (Berlin-Kreuzberg)","wikipedia":"de:Kottbusser Tor"}},{"type":"way","id":155667522,"nodes":[3876481575,3854467725,2512591855,3854467717,3854467715,3854467716,29787640,3854467731,268470426,3854467730,3854468178,5213956486,3854468167,3854468165,3854468164,268469153,5213956476,268469148,3900136268,444840713],"tags":{"bridge":"viaduct","electrified":"rail","electrified:rail":"top","frequency":"0","gauge":"1435","height":"6","layer":"2","level":"1","loading_gauge":"Kleinprofil","name":"U1","operator":"Berliner Verkehrsbetriebe","railway":"subway","tunnel":"no","voltage":"750"}},{"type":"way","id":155667526,"nodes":[1232860274,3900136265,1232860257,3854468162,3854468163,1232860289,3854468160,3854468159,3854468158,5213956482,1232860217,5213956483,5213956484,2097818462,3881590698,1232860265,3854467710,3854467708,3854467709,3854467707,1232860246,1232860296,3854467712,3854467711,1232860280,3854467713,3854467714,2512591854,3854467724,3876481572],"tags":{"bridge":"viaduct","electrified":"rail","electrified:rail":"top","frequency":"0","gauge":"1435","height":"6","layer":"2","level":"1","loading_gauge":"Kleinprofil","name":"U1","operator":"Berliner Verkehrsbetriebe","railway":"subway","tunnel":"no","voltage":"750"}},{"type":"way","id":255928564,"nodes":[443953219,5260957190,5260957189,5260957188,443953225,1286990136,443953142,443953139,443953135,8078047494,443953129,8078047495,443953123,443953079,8078047481,443953076,443953085,443953087,443953229,11010181879,443953093,11010181878,10674953939,11010181877,443953095,11010181873,10674953941,443953101,11010181872,443953103,5260957213,443953033,11010181869,443953023,443953017,443952996,10674953943,443952992,443952988,443953108,10882843034,443952979,10882843033,443952974,10882843028,443952967,10882843027,443952960,10882843024,443952956,10882843023,443952954,7606199828,443953057,443953062,443953064,872318155,5260957193,443953068,443953219],"tags":{"landuse":"residential"}},{"type":"way","id":262115852,"nodes":[2677616762,8895430659,3359226555,8895430630,2677616763,8895430618,8895430718],"tags":{"crossing":"marked","crossing:markings":"dashes","cycleway":"crossing","highway":"cycleway","lit":"yes","oneway":"yes","surface":"paving_stones"}},{"type":"way","id":262115855,"nodes":[8895430705,2677616769,8895430688,8895951834,3900136286,2677616770],"tags":{"crossing":"marked","crossing:markings":"dashes","cycleway":"crossing","highway":"cycleway","lit":"yes","oneway":"yes","surface":"paving_stones","surface:colour":"red","width":"1.5"}},{"type":"way","id":381209264,"nodes":[3844501293,4340070636,5217808568,4340070638,5217808569,5217808570,5217808572,5217808571,4340070644,5217808573,4340070649,4606652444,4606652443,4340070652,5217808574,4606652441,4340070654,4606652438,4340070658,4340070662,5217808575,4606652435,5217808576,5217808577,5217808578,5217808579,4340070667,5217808580,4340070690,4340070693,4606652447,4340070702,4606652448,4606652450,4340070706,4606652452,5217808581,4714615146,4340070710,4714615147,4714615149,5217808582,5217808584,5217808583,5217808585,5217808603,4340070712,4340070717,5217808604,4340070718,5217808605,5217808606,4340070720,5217808607,5217808608,4340070722,4340070723,5217808609,4340070724,5217808610,4340070726,5217808612,5217808611,4340070727,5137136200,4340070728,5217808613,4340070730,5217808614,4340070732,5217808615,3844466810,5137137639,3844466963,3844467014,4340070736],"tags":{"electrified":"rail","electrified:rail":"bottom","frequency":"0","gauge":"1435","layer":"-2","level":"-2","loading_gauge":"Gro\u00dfprofil","name":"U8","operator":"Berliner Verkehrsbetriebe","railway":"subway","tunnel":"yes","voltage":"750"}},{"type":"way","id":381214594,"nodes":[3844466809,5217808588,129940802,5217808590,5217808589,940422479,5137136389,940422478,5217808591,940422491,5217808592,129940801,5217808593,5217808594,940422483,940422494,5217808596,5217808595,940422492,5217808598,5217808597,940422480,940422493,5217808599,5217808600,5217808601,5217808602,4714615148,5217808586,5217808587,4714615145,268469152,4606652453,4606652451,4606652446,4606652445,5217808551,5217808550,4077774874,5217808552,5217808553,5217808555,5217808554,5217808556,4340070666,4606652434,1237188086,4606652436,4340070657,4606652439,5217808557,318549158,4606652440,5217808558,318549157,5217808559,4606652442,5217808560,318549156,5217808561,5217808562,268468779,5217808563,5217808564,1237188095,3844501297],"tags":{"electrified":"rail","electrified:rail":"bottom","frequency":"0","gauge":"1435","layer":"-2","level":"-2","loading_gauge":"Gro\u00dfprofil","name":"U8","operator":"Berliner Verkehrsbetriebe","railway":"subway","tunnel":"yes","voltage":"750"}},{"type":"way","id":382253029,"nodes":[3854467747,3854468171,3854468172,3854468173,3854467746,3854467747],"tags":{"building":"train_station","building:levels":"2","nohousenumber":"yes","roof:shape":"flat"}},{"type":"way","id":386659466,"nodes":[3900136326,8842053188,3900136319],"tags":{"highway":"footway","layer":"-1","level":"-1","lit":"24\/7","surface":"paving_stones","tunnel":"yes"}},{"type":"way","id":386659468,"nodes":[3900136276,3900136338],"tags":{"fixme":"Treppen im Umbau ( M\u00e4rz 2015)","handrail":"yes","highway":"steps","incline":"up","level":"-1;0","lit":"yes","ramp":"no","surface":"paving_stones"}},{"type":"way","id":386659482,"nodes":[3900136318,3900136326],"tags":{"highway":"footway","layer":"-1","level":"-1","lit":"24\/7","surface":"paving_stones","tunnel":"yes"}},{"type":"way","id":386659486,"nodes":[1539749686,3900136338],"tags":{"footway":"link","highway":"footway","lit":"yes","surface":"paving_stones"}},{"type":"way","id":386659490,"nodes":[8895430718,2677616765,2677616766,4606652459,8895430519,2677616767],"tags":{"highway":"cycleway","lit":"yes","oneway":"yes","surface":"paving_stones","surface:colour":"red","width":"1.7"}},{"type":"way","id":426297583,"nodes":[667482282,4256046868,4256046869,667482263,667482273,667482282],"tags":{"building":"retail","building:levels":"1"}},{"type":"way","id":426297584,"nodes":[667482283,667482275,667482264,4256046870,12484239156,4256046871,667482283],"tags":{"addr:housenumber":"1","addr:street":"Kottbusser Stra\u00dfe","building":"retail","building:levels":"1","roof:shape":"flat"}},{"type":"way","id":426299680,"nodes":[4256067225,4256067226,4256067227,4256067228,4256067225],"tags":{"building":"hut","building:levels":"1","name":"Protest-Gecekondu am Kottbusser Tor","roof:shape":"gabled","website":"http:\/\/www.openberlin.org\/projekte\/160"}},{"type":"way","id":465740588,"nodes":[1555356707,11350559192,11350559191,8895430745,8895430743,8895430741,8895430744,4606652420,4606652417,8895430656,8895430753,8895430810,4606652411,8895430752,1539749675,4606652471,7444541666],"tags":{"footway":"sidewalk","highway":"footway","lit":"yes","surface":"paving_stones"}},{"type":"way","id":465740591,"nodes":[815343286,2677616765,4606652422,8895430693,4606652419,8895430694,10882843025,10882843037,10882843026,1555356796],"tags":{"footway":"sidewalk","highway":"footway","lit":"yes","surface":"paving_stones"}},{"type":"way","id":465740607,"nodes":[8895430752,4606652470,4606652457,11350559193,11350559195,11350559197,11350559194,9349373821],"tags":{"footway":"sidewalk","highway":"footway","lit":"yes","surface":"paving_stones"}},{"type":"way","id":478218179,"nodes":[4714615116,4714615115,4714615114],"tags":{"highway":"footway","level":"1","lit":"yes","surface":"paving_stones"}},{"type":"way","id":478218180,"nodes":[4714615170,4714615159,29217340],"tags":{"level":"0"}},{"type":"way","id":478218181,"nodes":[4714615117,4714615127],"tags":{"highway":"footway","level":"1","lit":"24\/7","surface":"asphalt"}},{"type":"way","id":478218182,"nodes":[4714615126,4714615127,4714615118],"tags":{"highway":"footway","level":"1","lit":"24\/7","surface":"asphalt"}},{"type":"way","id":478218183,"nodes":[4714615125,4714615126],"tags":{"handrail":"yes","highway":"steps","incline":"up","lit":"yes","ramp":"no","step_count":"12","width":"3.8"}},{"type":"way","id":478218184,"nodes":[4714615124,4714615125],"tags":{"highway":"footway","lit":"yes","surface":"concrete","width":"3.8"}},{"type":"way","id":478218185,"nodes":[4714615123,4714615124],"tags":{"handrail":"yes","highway":"steps","incline":"up","lit":"yes","ramp":"no","step_count":"15","surface":"concrete","tactile_paving":"yes","width":"3.8"}},{"type":"way","id":478218187,"nodes":[4714615128,4714615129],"tags":{"handrail":"yes","highway":"steps","incline":"up","level":"0;0.5","lit":"yes","ramp":"no","step_count":"17","surface":"concrete","tactile_paving":"yes","width":"3.4"}},{"type":"way","id":478218189,"nodes":[4714615129,4714615122,4714615121,4714615123],"tags":{"highway":"footway","level":"0.5","lit":"yes","surface":"concrete"}},{"type":"way","id":478218191,"nodes":[4714615133,4714615125,4714615132,4714615131,4714615126,4714615130,4714615133],"tags":{"level":"0.7;1","stairwell":"flight_of_stairs"}},{"type":"way","id":478218193,"nodes":[4714615135,4714615132,4714615125,4714615133,4714615134,4714615124,4714615135],"tags":{"level":"0.7","stairwell":"stair_landing"}},{"type":"way","id":478218194,"nodes":[4714615136,4714615123,4714615137,4714615135,4714615124,4714615134,4714615136],"tags":{"level":"0.5;0.7","stairwell":"flight_of_stairs"}},{"type":"way","id":478218197,"nodes":[4714615138,4714615140,4714615129,4714615142,4714615183,4714615137,4714615123,4714615136,4714615138],"tags":{"level":"0.5","stairwell":"stair_landing"}},{"type":"way","id":478218198,"nodes":[4714615141,4714615142,4714615129,4714615140,4714615139,4714615128,4714615141],"tags":{"level":"0;0.5","stairwell":"flight_of_stairs"}},{"type":"way","id":478218202,"nodes":[4714615144,4714615446],"tags":{"handrail":"yes","highway":"steps","incline":"up","level":"0;0.3","lit":"yes","ramp":"no","step_count":"15","surface":"concrete","width":"2.2"}},{"type":"way","id":478218204,"nodes":[4714615442,4714615441,4714634511,4714634510,4714615115,4714634509,4714634508,4714615170],"tags":{"highway":"footway","level":"1","lit":"24\/7","surface":"paving_stones"}},{"type":"way","id":478218206,"nodes":[4714615443,4714615442],"tags":{"handrail":"yes","highway":"steps","incline":"up","level":"0.7;1","lit":"yes","ramp":"no","step_count":"15","surface":"concrete","width":"2.2"}},{"type":"way","id":478218207,"nodes":[4714615444,4714615443],"tags":{"highway":"footway","level":"0.7","lit":"yes","surface":"concrete","width":"2.2"}},{"type":"way","id":478218208,"nodes":[4714615445,4714615444],"tags":{"handrail":"yes","highway":"steps","incline":"up","level":"0.3;0.7","lit":"yes","ramp":"no","step_count":"15","surface":"concrete","width":"2.2"}},{"type":"way","id":478218209,"nodes":[4714615446,4714615445],"tags":{"highway":"footway","level":"0.3","lit":"yes","surface":"concrete","width":"2.2"}},{"type":"way","id":478218214,"nodes":[4714615157,4714615169],"tags":{"highway":"footway","level":"-1","lit":"24\/7"}},{"type":"way","id":478218216,"nodes":[4714615158,4714615489],"tags":{"highway":"footway","level":"-2","lit":"24\/7"}},{"type":"way","id":478218217,"nodes":[4714615435,4714615158,4714615434],"tags":{"highway":"footway","level":"-2","lit":"24\/7"}},{"type":"way","id":478218218,"nodes":[4714615160,4714615159,4714615170],"tags":{"highway":"footway","level":"-2","lit":"24\/7"}},{"type":"way","id":478218219,"nodes":[12400347016,4714615162,4714615161,4714615492],"tags":{"highway":"footway","level":"-1","lit":"yes"}},{"type":"way","id":478218220,"nodes":[4714615188,4714615153,4714615154,4714615155,4714615156,4714615176,4714615162,4714615159,4714615170],"tags":{"highway":"footway","level":"-1","lit":"24\/7","tunnel":"yes"}},{"type":"way","id":478218221,"nodes":[4714615167,4714615164,4714615165,4714615166],"tags":{"highway":"footway","level":"-2","lit":"24\/7"}},{"type":"way","id":478218222,"nodes":[4714615165,4714615168],"tags":{"highway":"footway","level":"-2","lit":"24\/7"}},{"type":"way","id":478218223,"nodes":[4714615168,4714615169],"tags":{"conveying":"forward","highway":"steps","incline":"down","level":"-2;-1","lit":"24\/7","width":"1.5"}},{"type":"way","id":478218225,"nodes":[4714615172,4714615171],"tags":{"handrail":"yes","highway":"steps","incline":"up","level":"-0.7;0","lit":"yes","ramp":"no","step_count":"17","surface":"concrete","tactile_paving":"yes"}},{"type":"way","id":478218226,"nodes":[4714615173,4714615172],"tags":{"highway":"footway","level":"-0.7","lit":"yes","surface":"concrete"}},{"type":"way","id":478218227,"nodes":[4714615174,4714615173],"tags":{"handrail":"yes","highway":"steps","incline":"up","level":"-1;-0.7","lit":"yes","ramp":"no","step_count":"5","surface":"concrete","tactile_paving":"yes"}},{"type":"way","id":478218228,"nodes":[3900136276,12400300678,4714615163,4714615157,4714615176,4714615119,4714615174],"tags":{"highway":"footway","level":"-1","lit":"yes","surface":"concrete","tunnel":"yes"}},{"type":"way","id":478218229,"nodes":[4714615180,4714615173,4714615181,4714615179,4714615174,4714615137,4714615180],"tags":{"level":"-1;-0.7","stairwell":"flight_of_stairs"}},{"type":"way","id":478218230,"nodes":[4714615183,4714615172,4714615184,4714615181,4714615173,4714615180,4714615183],"tags":{"level":"-0.7","stairwell":"stair_landing"}},{"type":"way","id":478218231,"nodes":[4714615185,4714615184,4714615172,4714615183,4714615182,4714615171,4714615185],"tags":{"level":"-0.7;0","stairwell":"flight_of_stairs"}},{"type":"way","id":478218237,"nodes":[4714615490,4714615488,4714615493],"tags":{"highway":"footway","level":"-1.5","lit":"24\/7"}},{"type":"way","id":478218252,"nodes":[4714615449,4714615446,4714615450,4714615448,4714615144,4714615447,4714615449],"tags":{"level":"0;0.3","stairwell":"flight_of_stairs"}},{"type":"way","id":478218253,"nodes":[4714615451,4714615445,4714615452,4714615450,4714615446,4714615449,4714615451],"tags":{"level":"0.3","stairwell":"stair_landing"}},{"type":"way","id":478218254,"nodes":[4714615453,4714615444,4714615454,4714615452,4714615445,4714615451,4714615453],"tags":{"level":"0.3;0.7","stairwell":"flight_of_stairs"}},{"type":"way","id":478218255,"nodes":[4714615455,4714615443,4714615456,4714615454,4714615444,4714615453,4714615455],"tags":{"level":"0.7","stairwell":"stair_landing"}},{"type":"way","id":478218256,"nodes":[4714615458,4714615442,4714615457,4714615456,4714615443,4714615455,4714615458],"tags":{"level":"0.7;1","stairwell":"flight_of_stairs"}},{"type":"way","id":478218257,"nodes":[3854467747,4714615441,3854467746,4714615457,4714615442,4714615458,3854467747],"tags":{"indoor":"corridor","level":"1","note":"hilfslinie"}},{"type":"way","id":478218261,"nodes":[4714615479,4714615480,4714615482,4714615403,4714615479],"tags":{"indoor":"room","level":"-1","room":"shop","shop":"bakery"}},{"type":"way","id":478218262,"nodes":[4714615483,4714615132,4714615135,4714615137,4714615174,4714615179,4714615177,4714615404,4714615400,4714615402,4714615399,4714615397,4714615188,4714615396,4714615401,4714615479,4714615403,4714615482,4714615481,4714615507,4714615169,4714615508,4714615487,4714615509,4714615501,4714615491,4714615500,4714615499,4714615498,4714615492,4714615497,12400300664,4714615483],"tags":{"indoor":"corridor","level":"-1"}},{"type":"way","id":478218263,"nodes":[4714615487,4714615163,4714615491],"tags":{"highway":"footway","level":"-1","lit":"24\/7","tunnel":"yes"}},{"type":"way","id":478218264,"nodes":[4714615486,4714615487],"tags":{"handrail":"yes","highway":"steps","incline":"up","level":"-1.7;-1","lit":"24\/7","ramp":"no","step_count":"13","width":"2.2"}},{"type":"way","id":478218265,"nodes":[4714615485,4714615486],"tags":{"highway":"footway","level":"-1.7","lit":"24\/7","width":"2.2"}},{"type":"way","id":478218266,"nodes":[4714615484,4714615485],"tags":{"handrail":"yes","highway":"steps","incline":"up","level":"-2;-1.7","lit":"24\/7","ramp":"no","step_count":"8","width":"2.2"}},{"type":"way","id":478218267,"nodes":[4714615164,4714615484],"tags":{"highway":"footway","level":"-2","lit":"24\/7"}},{"type":"way","id":478218268,"nodes":[4714615489,4714615488],"tags":{"handrail":"yes","highway":"steps","incline":"up","level":"-2;-1.5","lit":"24\/7","ramp":"no","step_count":"13"}},{"type":"way","id":478218269,"nodes":[4714615490,4714615491],"tags":{"handrail":"yes","highway":"steps","incline":"up","ramp":"no","step_count":"8","surface":"concrete"}},{"type":"way","id":478218270,"nodes":[4714615493,4714615492],"tags":{"handrail":"yes","highway":"steps","incline":"up","ramp":"no","step_count":"8"}},{"type":"way","id":478218271,"nodes":[4714615497,4714615492,4714615498,4714615496,4714615493,4714615494,4714615497],"tags":{"level":"-1.5;-1","stairwell":"flight_of_stairs"}},{"type":"way","id":478218272,"nodes":[4714615502,4714615496,4714615498,4714615499,4714615500,4714615502],"tags":{"building:part":"elevator","level":"-2;-1;0;1"}},{"type":"way","id":478218273,"nodes":[4714615502,4714615500,4714615491,4714615501,4714615541,4714615490,4714615502],"tags":{"level":"-1.5;-1","stairwell":"flight_of_stairs"}},{"type":"way","id":478218274,"nodes":[4714615508,4714615169,4714615507,4714615510,4714615168,4714615511,4714615508],"tags":{"stairwell":"flight_of_stairs"}},{"type":"way","id":478218275,"nodes":[4714615512,4714615486,4714615513,4714615509,4714615487,4714615508,4714615512],"tags":{"stairwell":"flight_of_stairs"}},{"type":"way","id":478218276,"nodes":[4714615516,4714615485,4714615517,4714615513,4714615486,4714615512,4714615516],"tags":{"stairwell":"stair_landing"}},{"type":"way","id":478218277,"nodes":[4714615517,4714615485,4714615516,4714615515,4714615484,4714615514,4714615517],"tags":{"stairwell":"flight_of_stairs"}},{"type":"way","id":478218278,"nodes":[4714615520,4714615518,4714615519,4714615521,4714615520],"tags":{"indoor":"room","level":"-2","name":"KomplettKauf","room":"shop","shop":"kiosk"}},{"type":"way","id":478218281,"nodes":[4714615506,4714615505,4714615469,4714615167,4714615431,4714615435,4714615472,4714615440,4714615524,4714615466,4714615705,4714615426,4714615438,4714615473,4714615434,4714615160,4714615430,4714615166,4714615468,4714615506],"tags":{"bench":"yes","bin":"yes","description":"U8","level":"-2","lit":"yes","name":"Kottbusser Tor","name:ja":"\u30b3\u30c3\u30c8\u30d6\u30c3\u30b5\u30fc\u30c8\u30fc\u30a2","public_transport":"platform","railway":"platform","subway":"yes","tactile_paving":"yes","tunnel":"yes"}},{"type":"way","id":478218286,"nodes":[4714615542,4714615494,4714615493,4714615496,4714615502,4714615490,4714615541,4714615543,4714615488,4714615542],"tags":{"level":"-1.5","stairwell":"stair_landing"}},{"type":"way","id":478218287,"nodes":[4714615552,4714615542,4714615488,4714615543,4714615555,4714615489,4714615552],"tags":{"level":"-2;-1.5","stairwell":"flight_of_stairs"}},{"type":"way","id":478220569,"nodes":[4714615130,4714615133,4714615134,4714615124,4714615135,4714615132,4714615131],"tags":{"barrier":"fence","fence_type":"railing","level":"1"}},{"type":"way","id":478220570,"nodes":[4714615130,4714615133,4714615134,4714615124,4714615135,4714615132,4714615131,4714615126,4714615130],"tags":{"level":"0;1","stairwell":"yes"}},{"type":"way","id":731164213,"nodes":[6848429379,6848429380,6848429381,6848429382,6848429379],"tags":{"building":"commercial","building:levels":"1","nohousenumber":"yes","roof:levels":"0"}},{"type":"way","id":731164214,"nodes":[6848429384,6848448485,6848448486,6848448487,6848429384],"tags":{"access":"yes","amenity":"bicycle_parking","bicycle_parking":"stands","capacity":"16","covered":"yes","fee":"no"}},{"type":"way","id":735472127,"nodes":[6888684419,6888684420,6888684421,6888684422,6888684419],"tags":{"access":"yes","amenity":"bicycle_parking","bicycle_parking":"stands","capacity":"12","check_date:capacity":"2024-08-27","covered":"no","fee":"no"}},{"type":"way","id":735473628,"nodes":[4606652416,6888722385,8895430769,8895430772,6888722386,6888722387,8895430771,8895430770,4606652416],"tags":{"access":"yes","amenity":"bicycle_parking","bicycle_parking":"stands","bicycle_parking:position":"sidewalk","capacity":"12","covered":"no","fee":"no"}},{"type":"way","id":735473629,"nodes":[6848429381,6888722388,6888722389,6888722390,6848429382,6848429381],"tags":{"access":"yes","amenity":"bicycle_parking","bicycle_parking":"stands","capacity":"10","check_date:capacity":"2024-08-27","covered":"no","fee":"no"}},{"type":"way","id":860486226,"nodes":[8019657213,8019657215,8019657214],"tags":{"barrier":"fence","fence_type":"railing"}},{"type":"way","id":861202286,"nodes":[8026452856,8026452857],"tags":{"barrier":"fence"}},{"type":"way","id":861202289,"nodes":[848507652,1141303141,8019657244,848507651,1141303160,848507650,1141303155,848507649,1141303120,848507648,9625739328,8019657248,8019657247,9625739319,8019657246,8019657245,8019657241,8019657242,8019657239,9625739327,8019657243],"tags":{"barrier":"fence"}},{"type":"way","id":861202290,"nodes":[8026452866,8026452868,8895430764,8026452867],"tags":{"barrier":"fence"}},{"type":"way","id":902297512,"nodes":[29217340,860252214,2677599463,3359226553,268466879],"tags":{"bicycle":"use_sidepath","cycleway:left":"no","cycleway:right":"separate","foot":"use_sidepath","highway":"secondary","image":"https:\/\/commons.wikimedia.org\/wiki\/File:Kottbusser_Tor_Panorama.jpg","junction":"circular","lane_markings":"yes","lanes":"3","level":"0","lit":"yes","loc_name":"Kotti","maxspeed":"50","name":"Kottbusser Tor","name:etymology:wikidata":"Q3214","name:etymology:wikipedia":"de:Cottbus","name:ja":"\u30b3\u30c3\u30c8\u30d6\u30c3\u30b5\u30fc\u30c8\u30fc\u30a2","note":"Kein Kreisverkehr - Skalitzer Str. hat Vorfahrt","oneway":"yes","parking:both":"no","postal_code":"10999","sidewalk:left":"no","sidewalk:right":"separate","smoothness":"good","surface":"asphalt","turn:lanes":"left;through|through|right","wikidata":"Q316466","wikimedia_commons":"Category:Kottbusser Tor (Berlin-Kreuzberg)","wikipedia":"de:Kottbusser Tor"}},{"type":"way","id":959902753,"nodes":[8895430781,1539749675,7444541667,7444541668,4606652469,8895399416,7444541669],"tags":{"buffer:both":"no","description:covid19":"Pop-up-Radweg","highway":"cycleway","is_sidepath":"yes","is_sidepath:of":"secondary","is_sidepath:of:name":"Kottbusser Stra\u00dfe","lit":"yes","oneway":"yes","separation:both":"surface","separation:right":"kerb","smoothness":"intermediate","surface":"paving_stones","width":"1.2"}},{"type":"way","id":961646376,"nodes":[8895430717,8895430653,8895430652,8895430651,8895430650,8895430649,8895430648,8895430647,8895430646,8895430645,8895430637,8895430519,9755771322,8895430644,8895430643,8895430642,8895430641,8895430640,8895430639,8895430522,1286990136,1286990150,1286990162,1286990155,1286990175,1286990195,443953066,443953068,5260957193,8895430726,9755765808,8895430520,8895430725,8895430704,8895430722,8895430724,8895430721,8895430723,8895430709,8895430720,8895430719,8895430718,8895430716,8895430654,8895430717],"tags":{"landuse":"retail"}},{"type":"way","id":961646378,"nodes":[8895430781,8895430525],"tags":{"bicycle":"designated","highway":"cycleway","is_sidepath":"yes","is_sidepath:of":"secondary","is_sidepath:of:name":"Kottbusser Tor","lit":"yes","oneway":"yes","separation:left":"bollard","separation:right":"railing","surface":"asphalt","width":"1.5"}},{"type":"way","id":961646379,"nodes":[8895430608,8895430610,8895430611,8895430533],"tags":{"buffer:both":"no","cycleway":"lane","highway":"cycleway","is_sidepath":"yes","is_sidepath:of":"secondary","is_sidepath:of:name":"Kottbusser Tor","lit":"yes","oneway":"yes","separation:left":"dashed_line","separation:right":"kerb","surface":"asphalt","surface:colour":"red","traffic_sign":"DE:237","width":"1.5"}},{"type":"way","id":961646384,"nodes":[8895430530,8895430536,8895430535,8895430534,8895430529],"tags":{"buffer:both":"no","crossing":"traffic_signals","crossing:markings":"dashes","cycleway":"crossing","highway":"cycleway","is_sidepath":"yes","is_sidepath:of":"secondary","is_sidepath:of:name":"Kottbusser Tor","lit":"yes","oneway":"yes","separation:both":"dashed_line","surface":"asphalt","surface:colour":"red","width":"1.5"}},{"type":"way","id":961646385,"nodes":[8895430529,8895430528,8895430527,8895430526,8895430781],"tags":{"bicycle":"designated","highway":"cycleway","is_sidepath":"yes","is_sidepath:of":"secondary","is_sidepath:of:name":"Kottbusser Tor","lit":"yes","oneway":"yes","separation:left":"bollard","separation:right":"railing","surface":"asphalt","width":"1.5"}},{"type":"way","id":961646386,"nodes":[8895430533,8895430531,8895430532,8895430541],"tags":{"buffer:both":"no","crossing":"marked","crossing:markings":"dashes","cycleway":"crossing","highway":"cycleway","is_sidepath":"yes","is_sidepath:of":"secondary","is_sidepath:of:name":"Kottbusser Tor","lit":"yes","oneway":"yes","separation:both":"dashed_line","surface":"asphalt","surface:colour":"red","width":"1.5"}},{"type":"way","id":961646387,"nodes":[8895430541,8895430542,8895430539,8895430540,8895430537,8895430538,9755765786,8895430530],"tags":{"bicycle":"designated","buffer:both":"no","cycleway":"lane","highway":"cycleway","is_sidepath":"yes","is_sidepath:of":"secondary","is_sidepath:of:name":"Kottbusser Tor","lit":"yes","oneway":"yes","separation:left":"solid_line","separation:right":"kerb","surface":"asphalt","surface:colour":"red","width":"1.5"}},{"type":"way","id":961646388,"nodes":[29217332,3900136301,8895430532,815343355,2677616763,4606652428,2677599473,9755765810,2677616769,815343324],"tags":{"bicycle":"use_sidepath","cycleway:left":"no","cycleway:right":"separate","dual_carriageway":"yes","foot":"use_sidepath","highway":"secondary","lane_markings":"yes","lanes":"2","lit":"yes","maxspeed":"30","name":"Skalitzer Stra\u00dfe","name:etymology:wikidata":"Q670005","oneway":"yes","parking:both":"no","parking:right:restriction":"no_stopping","postal_code":"10999","sidewalk:left":"no","sidewalk:right":"separate","smoothness":"good","surface":"asphalt"}},{"type":"way","id":961646415,"nodes":[8895430533,8895430521,8895430620,8895430618,8895430619,8895430706],"tags":{"buffer:both":"no","cycleway":"lane","highway":"cycleway","is_sidepath":"yes","is_sidepath:of":"secondary","is_sidepath:of:name":"Skalitzer Stra\u00dfe","lit":"yes","oneway":"yes","separation:left":"dashed_line","separation:right":"kerb","surface":"asphalt","traffic_sign":"DE:237","width":"1.5"}},{"type":"way","id":961646418,"nodes":[8895430637,4606652458,815343286],"tags":{"footway":"sidewalk","highway":"footway","lit":"yes","surface":"paving_stones"}},{"type":"way","id":961646423,"nodes":[11010225111,11010225112,11010225113,11010225114,11010225115,11010225116,11010225117,11010225118,11010190398,11010190399,11010190400,11010190401,11010190402,11010190403,11010190404,11010205105,11010205106,11010190397,11010205107,11010205108,11010205110,11010190393,11010205111,11010205112,11010205113,11010205114,11010205115,11010205116,11010205117,11010205120,11010205119,11010205121,11010205122,11056960995,11010205118,11010205123,11010205124,11010205125,11010205126,11010205127,8895430701,8895430700,8895430699,8895430698,8895430697,8895430696,8895430726,9755765808,8895430520,8895430725,8895430704,8895430722,8895430724,8895430721,8895430723,8895430709,8895430720,8895430719,8895430718,8895430716,8895430654,8895430717,8895430653,8895430652,8895430651,8895430650,8895430649,8895430648,8895430647,8895430646,8895430645,8895430637,8895430519,9755771322,8895430644,8895430643,8895430642,8895430641,8895430640,8895430639],"tags":{"barrier":"kerb"}},{"type":"way","id":961646424,"nodes":[8895430657,1539749686,8895430656],"tags":{"footway":"sidewalk","highway":"footway","lit":"yes","surface":"paving_stones"}},{"type":"way","id":961646425,"nodes":[8895430655,1539749690,8895430658],"tags":{"footway":"sidewalk","highway":"footway","level":"0","lit":"yes","surface":"paving_stones"}},{"type":"way","id":961646426,"nodes":[8895430688,8895430691,9755765807,8895430687,8895430686,8895430685,8895430684,8895430682,8895430683,8895430681,8895430680,8895430679,8895430678,9755765814,8806813459,9755765802,3900136286,8895430677,9755771317,8895430659,8895430658,8895430676,8895430675,8895430674,8895430673,8895430672,8895430671,8895430670,8895430669,8895430668,8895430667,8895430666,8895430665,8895430664,8895430663,8895430662,8895430655,8895430630,9755771319,8895430661,9755765811,8895430688],"tags":{"barrier":"kerb"}},{"type":"way","id":961646427,"nodes":[8895430707,8895430660,8895430705],"tags":{"highway":"cycleway","lit":"yes","oneway":"yes","surface":"asphalt","width":"1.5"}},{"type":"way","id":961646428,"nodes":[8895430690,8895430689],"tags":{"barrier":"fence","fence_type":"railing"}},{"type":"way","id":961646430,"nodes":[8895430706,8895430708,8895430707,8895430702,8895430703,9755765809,815343324],"tags":{"buffer:left":"1.2","highway":"cycleway","is_sidepath":"yes","is_sidepath:of":"secondary","is_sidepath:of:name":"Skalitzer Stra\u00dfe","lit":"yes","oneway":"yes","separation:left":"kerb","separation:right":"railing","surface":"asphalt","traffic_sign":"DE:237","width":"1.5"}},{"type":"way","id":961646431,"nodes":[8895430711,8895430706,8895430720],"tags":{"barrier":"kerb","kerb":"flush"}},{"type":"way","id":961646432,"nodes":[8895430715,8895430705,9755765812,8895430714,8895430713,8895430712,8895430711],"tags":{"barrier":"kerb"}},{"type":"way","id":961646437,"nodes":[8171822471,8895992255,5600476898,8895430825,5352672166,8895399416,8895430820,8895430754,7450233028,9755771363,8895430821,7444541666,8895430822,5352673332,5352673333,8895430823,8895430755],"tags":{"barrier":"kerb"}},{"type":"way","id":961646438,"nodes":[5352673334,9755771364,2194959168,984238793,8895430824,8895430787,8895430788,8895430812],"tags":{"barrier":"kerb"}},{"type":"way","id":961646439,"nodes":[8895430756,8895430811,8895430789,8895430790,5352673335,5352673337,8895430657,8895430760,8895430757,8895430758,8895430759,8895430773,8895430761,5352673336,8895430774,8895430762,5352673338,9755765803,8895430763,8895430766,9755765813,8895430765,5352673339,984238771,8895430751,8895430746,8895430747,8895430748,8895430749,8895430750],"tags":{"barrier":"kerb"}},{"type":"way","id":961646440,"nodes":[8895430786,8895430785,8895430783,8895430775,8895430780,8895430782,8895430779,8895430776,8895430778,8895430777],"tags":{"barrier":"fence","fence_type":"railing"}},{"type":"way","id":961646441,"nodes":[8895430809,8895430808,8895430807,8895430806],"tags":{"barrier":"fence","fence_type":"railing"}},{"type":"way","id":961712014,"nodes":[8895951889,8895951888,8895951887,9755771324,8895951886,8895951885,8895951884,8895951883,8895951882,8895951881,8895951880,8895951879,8895951878,8895951877,8895951876,8895951875,8895951874,9755771318,8895951873,8895951872,8895951871,8895951870,8895951869,8895951868,9755765797,8895951867,8895951866,8895951865,9755765791,8895951864,8895951863,8895951862,8895951861,8895951860,8895951859,8895951858,8895951857,8895951856,9755771365,8895951855,8895951854,8895951853,8895951852,8895951851,8895951850,8895951849,8895951848,9755771345,8895951847,9755771342,8895951846,8895951845,8895951844,8895951843,8895951842,8895951841,8895951840,8895951839,8895951838,9755771326,8895951837,9755771325,8895951889],"tags":{"barrier":"kerb"}},{"type":"way","id":961712026,"nodes":[8895430812,8895430529,8895430811],"tags":{"barrier":"kerb","kerb":"flush"}},{"type":"way","id":1046763418,"nodes":[9625739327,8019657239,8019657242,8019657241,8019657245,8019657246,9625739319,9625739320,9625739321,9625739322,9625739323,9625739324,9625739325,9625739326,9625739327],"tags":{"landuse":"grass"}},{"type":"way","id":1061889501,"nodes":[4714615170,9755765796,9755765795,9755765794,9755765793,9755765792,8895951909],"tags":{"highway":"footway"}},{"type":"way","id":1061889502,"nodes":[8895430670,9755765786,9755765798,9755765797],"tags":{"crossing":"traffic_signals","footway":"crossing","highway":"footway","lit":"yes","surface":"asphalt"}},{"type":"way","id":1061889503,"nodes":[8895430725,9755765809,8895430715],"tags":{"barrier":"kerb","kerb":"flush"}},{"type":"way","id":1061889504,"nodes":[9755765811,8895430688,8895430691,9755765807,9755765806,9755765808,8895430520,8895430725,9755765809,8895430715,8895430705,9755765812,9755765810,9755765811],"tags":{"area:highway":"secondary","crossing":"traffic_signals"}},{"type":"way","id":1061889506,"nodes":[8895951865,8895951866,8895951867,9755765797,8895951868,8895951869,442649858,8895430669,8895430670,8895430671,8895430672,8895430673,8895430674,8895430675,8895430676,8895430658,8895430659,9755771317,3359226554,9755765816,9755765815,8895430760,8895430657,5352673337,5352673335,8895430790,8895430789,8895430811,8895430529,8895430812,8895951864,9755765791,8895951865],"tags":{"area:highway":"secondary","junction":"yes"}},{"type":"way","id":1061889507,"nodes":[8895951881,8895951880,8895951879,8895951878,8895951877,8895951876,8895951875,8895951874,9755771318,8895430665,8895430664,8895430663,8895430662,8895430655,8895430630,9755771319,4606652428,8895430711,8895430706,8895430720,8895430719,8895430718,8895430716,8895430654,8895430717,8895430653,8895430652,8895430651,8895430650,8895430649,8895430648,8895430647,8895430646,8895430645,8895430637,8895430519,9755771322,10882785039,9755771321,8895430636,8842053182,8842053179,5600476431,5600476432,8895430617,5600476433,9755771323,4543931143,8895951881],"tags":{"area:highway":"secondary","junction":"yes"}},{"type":"way","id":1182332931,"nodes":[8895430658,815343319,8895430657],"tags":{"crossing":"traffic_signals","crossing:markings":"dashes","footway":"crossing","highway":"footway","lit":"yes","surface":"asphalt"}},{"type":"way","id":1182332932,"nodes":[1539749690,8895430670],"tags":{"footway":"sidewalk","highway":"footway","lit":"yes","surface":"paving_stones"}},{"type":"way","id":1182332933,"nodes":[9755765797,9755765796],"tags":{"footway":"sidewalk","highway":"footway","lit":"yes","surface":"paving_stones"}},{"type":"way","id":1182332934,"nodes":[815343286,8895430654],"tags":{"footway":"sidewalk","highway":"footway","lit":"yes","surface":"paving_stones"}},{"type":"way","id":1304243624,"nodes":[12078295043,12078295042,6848429376,12078295041,12078295043],"tags":{"access":"yes","amenity":"bicycle_parking","bicycle_parking":"stands","bicycle_parking:position":"pedestrian_area","capacity":"8","covered":"no","fee":"no"}},{"type":"way","id":1304243625,"nodes":[12078295046,12078295044,6848429375,12078295045,12078295046],"tags":{"access":"yes","amenity":"bicycle_parking","bicycle_parking":"stands","bicycle_parking:position":"pedestrian_area","capacity":"8","covered":"no","fee":"no"}},{"type":"way","id":1340560529,"nodes":[4714615494,12400300666,12400300665,12400300664,4714615497,4714615494],"tags":{"brand":"Bl\u00fctenreich","indoor":"room","level":"-1","room":"shop","shop":"florist"}},{"type":"way","id":1340560530,"nodes":[3900136326,4714615161],"tags":{"highway":"footway","layer":"-1","level":"-1","lit":"24\/7","tunnel":"yes"}},{"type":"way","id":1340560532,"nodes":[12400347015,12400347016],"tags":{"highway":"footway","level":"-1","lit":"yes","surface":"concrete"}},{"type":"way","id":1340560535,"nodes":[12400347017,12400347014],"tags":{"conveying":"forward","highway":"steps","incline":"down","level":"-1;1"}},{"type":"way","id":1340560536,"nodes":[12400347015,12400347018],"tags":{"conveying":"forward","highway":"steps","incline":"up","level":"-1;1"}},{"type":"way","id":1340560537,"nodes":[12400347016,12400347014],"tags":{"highway":"footway","level":"-1","lit":"yes","surface":"concrete"}},{"type":"way","id":1349533760,"nodes":[12484239167,939103770,939103618,939103777,12484239166,8078047443,8078047442,12484239165,12484239164,8078047430,799000342,12484239163,12484239162,12484239161,12484239160,799000270,12484239159,12484239158,799000040,667482262,12484239157,4256046869,4256046868,667482282,11800112292,667482283,4256046871,12484239156,12484239155,12484239154,12484239153,667482281,667482277,8171822470,5830763364,5830763366,667482250,667482248,667482253,8171822477,667482251,667482240,667482238,667482226,667482227,667482228,667482224,1227712475,8078037467,1227712496,1227712506,1227712489,3997710469,1227712473,1227712480,1227712494,5830763135,5830763136,1227712478,5830763329,1227712503,12484239152,12484239151,12484239150,12484239149,12484239148,12484239147,8078047339,939103781,8078047345,871735574,8078047343,939103638,12484239167],"tags":{"landuse":"residential"}},{"type":"node","id":268468779,"lat":52.4954203,"lon":13.4207052},{"type":"node","id":318549156,"lat":52.4957235,"lon":13.4206427},{"type":"node","id":318549157,"lat":52.4959645,"lon":13.4205134},{"type":"node","id":318549158,"lat":52.4961575,"lon":13.4203483},{"type":"node","id":667482224,"lat":52.4966552,"lon":13.4189509},{"type":"node","id":667482226,"lat":52.4967586,"lon":13.4192319},{"type":"node","id":667482227,"lat":52.4965901,"lon":13.4193265},{"type":"node","id":667482228,"lat":52.4965642,"lon":13.4192808},{"type":"node","id":667482238,"lat":52.4971333,"lon":13.4190231},{"type":"node","id":667482240,"lat":52.4972614,"lon":13.4189517},{"type":"node","id":667482251,"lat":52.4974751,"lon":13.418831},{"type":"node","id":939103781,"lat":52.4975577,"lon":13.4155429},{"type":"node","id":1227712473,"lat":52.4970212,"lon":13.4175719},{"type":"node","id":1227712475,"lat":52.4966987,"lon":13.4187901},{"type":"node","id":1227712478,"lat":52.497211,"lon":13.4168476},{"type":"node","id":1227712480,"lat":52.4970847,"lon":13.41733},{"type":"node","id":1227712489,"lat":52.4969797,"lon":13.4177289},{"type":"node","id":1227712494,"lat":52.4971204,"lon":13.417193},{"type":"node","id":1227712496,"lat":52.4968507,"lon":13.4182177},{"type":"node","id":1227712503,"lat":52.4972316,"lon":13.416772},{"type":"node","id":1227712506,"lat":52.4969319,"lon":13.4179131},{"type":"node","id":1237188086,"lat":52.4967569,"lon":13.419546},{"type":"node","id":1237188095,"lat":52.4949445,"lon":13.4208447},{"type":"node","id":3844501293,"lat":52.4938898,"lon":13.4216074},{"type":"node","id":3844501297,"lat":52.4943057,"lon":13.4211868},{"type":"node","id":3997710469,"lat":52.4969887,"lon":13.4176971},{"type":"node","id":4340070636,"lat":52.4943273,"lon":13.4213365},{"type":"node","id":4340070638,"lat":52.4950316,"lon":13.4208985},{"type":"node","id":4340070644,"lat":52.4954929,"lon":13.4207594},{"type":"node","id":4340070649,"lat":52.4956878,"lon":13.4207252},{"type":"node","id":4340070652,"lat":52.4959283,"lon":13.4206165},{"type":"node","id":4340070654,"lat":52.496182,"lon":13.4204062},{"type":"node","id":4340070657,"lat":52.4963192,"lon":13.4201569},{"type":"node","id":4340070658,"lat":52.4963392,"lon":13.4202137},{"type":"node","id":4340070662,"lat":52.4967541,"lon":13.4196982},{"type":"node","id":4340070666,"lat":52.4969369,"lon":13.4193576},{"type":"node","id":4340070667,"lat":52.4971768,"lon":13.4193341},{"type":"node","id":4606652434,"lat":52.4968444,"lon":13.4194478},{"type":"node","id":4606652435,"lat":52.4968337,"lon":13.4196043},{"type":"node","id":4606652436,"lat":52.4966857,"lon":13.4196365},{"type":"node","id":4606652438,"lat":52.4962401,"lon":13.4203422},{"type":"node","id":4606652439,"lat":52.4962774,"lon":13.4202125},{"type":"node","id":4606652440,"lat":52.4960959,"lon":13.4204078},{"type":"node","id":4606652441,"lat":52.49609,"lon":13.4204949},{"type":"node","id":4606652442,"lat":52.4958467,"lon":13.4205867},{"type":"node","id":4606652443,"lat":52.4958429,"lon":13.4206636},{"type":"node","id":4606652444,"lat":52.4957754,"lon":13.4206943},{"type":"node","id":5217808554,"lat":52.4971641,"lon":13.4191925},{"type":"node","id":5217808555,"lat":52.4972673,"lon":13.4191399},{"type":"node","id":5217808556,"lat":52.4970486,"lon":13.4192656},{"type":"node","id":5217808557,"lat":52.4962184,"lon":13.420284},{"type":"node","id":5217808558,"lat":52.4960306,"lon":13.4204644},{"type":"node","id":5217808559,"lat":52.4958974,"lon":13.4205575},{"type":"node","id":5217808560,"lat":52.4957947,"lon":13.420613},{"type":"node","id":5217808561,"lat":52.4956528,"lon":13.4206657},{"type":"node","id":5217808562,"lat":52.495563,"lon":13.4206871},{"type":"node","id":5217808563,"lat":52.4952425,"lon":13.4207465},{"type":"node","id":5217808564,"lat":52.4950662,"lon":13.4208003},{"type":"node","id":5217808568,"lat":52.4949294,"lon":13.4209584},{"type":"node","id":5217808569,"lat":52.4951178,"lon":13.420856},{"type":"node","id":5217808570,"lat":52.495224,"lon":13.4208143},{"type":"node","id":5217808571,"lat":52.4954201,"lon":13.4207652},{"type":"node","id":5217808572,"lat":52.4953312,"lon":13.4207823},{"type":"node","id":5217808573,"lat":52.4956001,"lon":13.4207468},{"type":"node","id":5217808574,"lat":52.4959939,"lon":13.4205721},{"type":"node","id":5217808575,"lat":52.4967965,"lon":13.4196501},{"type":"node","id":5217808576,"lat":52.4968946,"lon":13.4195415},{"type":"node","id":5217808577,"lat":52.4969581,"lon":13.4194829},{"type":"node","id":5217808578,"lat":52.4970406,"lon":13.4194178},{"type":"node","id":5217808579,"lat":52.4970909,"lon":13.4193842},{"type":"node","id":5830763135,"lat":52.4971575,"lon":13.4170537},{"type":"node","id":5830763136,"lat":52.4971773,"lon":13.4169797},{"type":"node","id":5830763329,"lat":52.4972232,"lon":13.416803},{"type":"node","id":8078037467,"lat":52.4968455,"lon":13.4182374},{"type":"node","id":8078047339,"lat":52.4975433,"lon":13.4155977},{"type":"node","id":8171822477,"lat":52.4975406,"lon":13.4187948},{"type":"node","id":9349373821,"lat":52.4967196,"lon":13.4193139},{"type":"node","id":11350559194,"lat":52.4970176,"lon":13.4191236},{"type":"node","id":11350559197,"lat":52.4975476,"lon":13.4188294},{"type":"node","id":12484239147,"lat":52.4973625,"lon":13.4162825},{"type":"node","id":12484239148,"lat":52.4973858,"lon":13.4163765},{"type":"node","id":12484239151,"lat":52.4973174,"lon":13.4166312},{"type":"node","id":12484239152,"lat":52.4972586,"lon":13.4166688},{"type":"node","id":129940801,"lat":52.5019698,"lon":13.4097151},{"type":"node","id":129940802,"lat":52.5025926,"lon":13.4098287},{"type":"node","id":268469148,"lat":52.4985563,"lon":13.4145429},{"type":"node","id":443952974,"lat":52.4987945,"lon":13.4150779},{"type":"node","id":443952979,"lat":52.4987746,"lon":13.4149137},{"type":"node","id":443952988,"lat":52.4987565,"lon":13.4146584},{"type":"node","id":443952992,"lat":52.4989711,"lon":13.4145805},{"type":"node","id":443952996,"lat":52.4991103,"lon":13.4145293},{"type":"node","id":443953017,"lat":52.4992145,"lon":13.4144925},{"type":"node","id":443953023,"lat":52.4993272,"lon":13.4144521},{"type":"node","id":443953033,"lat":52.4994337,"lon":13.4144109},{"type":"node","id":443953076,"lat":52.4998786,"lon":13.415206},{"type":"node","id":443953085,"lat":52.4999348,"lon":13.4150178},{"type":"node","id":443953087,"lat":52.5000138,"lon":13.4147532},{"type":"node","id":443953093,"lat":52.499869,"lon":13.4146112},{"type":"node","id":443953095,"lat":52.4997112,"lon":13.4144933},{"type":"node","id":443953101,"lat":52.4996174,"lon":13.4144274},{"type":"node","id":443953103,"lat":52.4995443,"lon":13.4143741},{"type":"node","id":443953108,"lat":52.4987488,"lon":13.4146863},{"type":"node","id":443953229,"lat":52.500008,"lon":13.4147134},{"type":"node","id":444840713,"lat":52.4985231,"lon":13.4140562},{"type":"node","id":871735574,"lat":52.4976547,"lon":13.4151779},{"type":"node","id":939103618,"lat":52.4981037,"lon":13.4141644},{"type":"node","id":939103638,"lat":52.4977517,"lon":13.4148133},{"type":"node","id":939103770,"lat":52.4979596,"lon":13.4140623},{"type":"node","id":939103777,"lat":52.4981982,"lon":13.4142324},{"type":"node","id":940422478,"lat":52.5022691,"lon":13.4096865},{"type":"node","id":940422479,"lat":52.5023922,"lon":13.4097176},{"type":"node","id":940422480,"lat":52.5013944,"lon":13.4103071},{"type":"node","id":940422483,"lat":52.5017836,"lon":13.4098129},{"type":"node","id":940422491,"lat":52.5021097,"lon":13.4096831},{"type":"node","id":940422492,"lat":52.5015427,"lon":13.4100563},{"type":"node","id":940422493,"lat":52.5013534,"lon":13.4104003},{"type":"node","id":940422494,"lat":52.5017202,"lon":13.4098626},{"type":"node","id":1232860257,"lat":52.4985337,"lon":13.4145507},{"type":"node","id":1232860274,"lat":52.4984966,"lon":13.4140527},{"type":"node","id":1555356707,"lat":52.4983703,"lon":13.4143325},{"type":"node","id":1555356796,"lat":52.4986731,"lon":13.4143072},{"type":"node","id":3844466809,"lat":52.5029665,"lon":13.4101179},{"type":"node","id":3844466810,"lat":52.5030935,"lon":13.4103277},{"type":"node","id":3844466963,"lat":52.5036106,"lon":13.4107871},{"type":"node","id":3844467014,"lat":52.5041448,"lon":13.4111584},{"type":"node","id":3900136265,"lat":52.4985059,"lon":13.4142928},{"type":"node","id":3900136268,"lat":52.4985335,"lon":13.4142961},{"type":"node","id":4340070712,"lat":52.5010197,"lon":13.4117813},{"type":"node","id":4340070717,"lat":52.5013741,"lon":13.4104882},{"type":"node","id":4340070718,"lat":52.5014471,"lon":13.4103185},{"type":"node","id":4340070720,"lat":52.5016036,"lon":13.4100663},{"type":"node","id":4340070722,"lat":52.5017746,"lon":13.4098953},{"type":"node","id":4340070723,"lat":52.5018417,"lon":13.4098485},{"type":"node","id":4340070724,"lat":52.5019632,"lon":13.4097869},{"type":"node","id":4340070726,"lat":52.5020895,"lon":13.4097533},{"type":"node","id":4340070727,"lat":52.502308,"lon":13.4097617},{"type":"node","id":4340070728,"lat":52.5024493,"lon":13.4098124},{"type":"node","id":4340070730,"lat":52.5025691,"lon":13.4098869},{"type":"node","id":4340070732,"lat":52.5028443,"lon":13.4101076},{"type":"node","id":5137136200,"lat":52.5023785,"lon":13.4097825},{"type":"node","id":5137136389,"lat":52.5023213,"lon":13.4096968},{"type":"node","id":5137137639,"lat":52.5034034,"lon":13.4106168},{"type":"node","id":5217808588,"lat":52.5028369,"lon":13.4100174},{"type":"node","id":5217808589,"lat":52.5024772,"lon":13.4097559},{"type":"node","id":5217808590,"lat":52.5025283,"lon":13.409784},{"type":"node","id":5217808591,"lat":52.5021986,"lon":13.4096798},{"type":"node","id":5217808592,"lat":52.5020384,"lon":13.4096959},{"type":"node","id":5217808593,"lat":52.5019005,"lon":13.409744},{"type":"node","id":5217808594,"lat":52.5018501,"lon":13.4097713},{"type":"node","id":5217808595,"lat":52.501598,"lon":13.4099854},{"type":"node","id":5217808596,"lat":52.5016579,"lon":13.4099208},{"type":"node","id":5217808597,"lat":52.5014402,"lon":13.410218},{"type":"node","id":5217808598,"lat":52.5014903,"lon":13.4101331},{"type":"node","id":5217808599,"lat":52.5013308,"lon":13.4104613},{"type":"node","id":5217808600,"lat":52.5009761,"lon":13.411783},{"type":"node","id":5217808601,"lat":52.5005453,"lon":13.4132742},{"type":"node","id":5217808602,"lat":52.5000734,"lon":13.4148723},{"type":"node","id":5217808604,"lat":52.5014038,"lon":13.4104128},{"type":"node","id":5217808605,"lat":52.5014948,"lon":13.4102278},{"type":"node","id":5217808606,"lat":52.5015469,"lon":13.4101442},{"type":"node","id":5217808607,"lat":52.5016474,"lon":13.4100149},{"type":"node","id":5217808608,"lat":52.50171,"lon":13.4099506},{"type":"node","id":5217808609,"lat":52.5019105,"lon":13.4098103},{"type":"node","id":5217808610,"lat":52.5020344,"lon":13.4097644},{"type":"node","id":5217808611,"lat":52.5022342,"lon":13.4097489},{"type":"node","id":5217808612,"lat":52.5021626,"lon":13.4097462},{"type":"node","id":5217808613,"lat":52.5025187,"lon":13.4098518},{"type":"node","id":5217808614,"lat":52.5026989,"lon":13.4099895},{"type":"node","id":5217808615,"lat":52.5029547,"lon":13.4102073},{"type":"node","id":5260957213,"lat":52.4995165,"lon":13.4143784},{"type":"node","id":8078047343,"lat":52.4977367,"lon":13.4148723},{"type":"node","id":8078047442,"lat":52.4983126,"lon":13.4144897},{"type":"node","id":8078047443,"lat":52.4982845,"lon":13.4143625},{"type":"node","id":8895430699,"lat":52.4986643,"lon":13.4145303},{"type":"node","id":8895430700,"lat":52.498648,"lon":13.4143913},{"type":"node","id":8895430701,"lat":52.4986424,"lon":13.4143111},{"type":"node","id":8895430749,"lat":52.4984784,"lon":13.4148224},{"type":"node","id":8895430750,"lat":52.4984501,"lon":13.4146497},{"type":"node","id":10674953939,"lat":52.499789,"lon":13.4145514},{"type":"node","id":10674953941,"lat":52.4996298,"lon":13.4144361},{"type":"node","id":10674953943,"lat":52.4990402,"lon":13.4145551},{"type":"node","id":10882843026,"lat":52.4986853,"lon":13.4144456},{"type":"node","id":10882843033,"lat":52.4987783,"lon":13.4149442},{"type":"node","id":10882843034,"lat":52.498765,"lon":13.4148291},{"type":"node","id":10882843037,"lat":52.498709,"lon":13.4146421},{"type":"node","id":11010181869,"lat":52.4994064,"lon":13.4144215},{"type":"node","id":11010181872,"lat":52.4995896,"lon":13.4144071},{"type":"node","id":11010181873,"lat":52.4996458,"lon":13.4144473},{"type":"node","id":11010181877,"lat":52.499778,"lon":13.4145432},{"type":"node","id":11010181878,"lat":52.4998,"lon":13.4145596},{"type":"node","id":11010181879,"lat":52.4999087,"lon":13.4146404},{"type":"node","id":11010190393,"lat":52.4992521,"lon":13.4144027},{"type":"node","id":11010190397,"lat":52.499334,"lon":13.4143009},{"type":"node","id":11010190398,"lat":52.4996681,"lon":13.4142908},{"type":"node","id":11010190399,"lat":52.499436,"lon":13.4141277},{"type":"node","id":11010190400,"lat":52.4994268,"lon":13.4141231},{"type":"node","id":11010190401,"lat":52.4994152,"lon":13.4141243},{"type":"node","id":11010190402,"lat":52.4994054,"lon":13.4141318},{"type":"node","id":11010190403,"lat":52.4993966,"lon":13.414146},{"type":"node","id":11010190404,"lat":52.4993896,"lon":13.4141673},{"type":"node","id":11010205105,"lat":52.4993777,"lon":13.4142039},{"type":"node","id":11010205106,"lat":52.4993576,"lon":13.4142544},{"type":"node","id":11010205107,"lat":52.4993139,"lon":13.4143332},{"type":"node","id":11010205108,"lat":52.4992973,"lon":13.4143576},{"type":"node","id":11010205110,"lat":52.4992777,"lon":13.4143793},{"type":"node","id":11010205111,"lat":52.4992251,"lon":13.4144238},{"type":"node","id":11010205112,"lat":52.4991895,"lon":13.4144426},{"type":"node","id":11010205113,"lat":52.4991515,"lon":13.4144548},{"type":"node","id":11010205114,"lat":52.499117,"lon":13.4144574},{"type":"node","id":11010205115,"lat":52.4990767,"lon":13.4144558},{"type":"node","id":11010205116,"lat":52.4990506,"lon":13.4144505},{"type":"node","id":11010205117,"lat":52.499026,"lon":13.4144412},{"type":"node","id":11010205118,"lat":52.4986699,"lon":13.4142155},{"type":"node","id":11010205119,"lat":52.4989817,"lon":13.4144175},{"type":"node","id":11010205120,"lat":52.4990029,"lon":13.4144304},{"type":"node","id":11010205121,"lat":52.4986994,"lon":13.4142176},{"type":"node","id":11010205122,"lat":52.4986883,"lon":13.4142148},{"type":"node","id":11010205123,"lat":52.4986641,"lon":13.4142189},{"type":"node","id":11010205124,"lat":52.4986554,"lon":13.4142285},{"type":"node","id":11010205125,"lat":52.4986483,"lon":13.4142406},{"type":"node","id":11010205126,"lat":52.4986422,"lon":13.4142568},{"type":"node","id":11010205127,"lat":52.4986408,"lon":13.4142777},{"type":"node","id":11010225111,"lat":52.5000896,"lon":13.4146641},{"type":"node","id":11010225112,"lat":52.5000916,"lon":13.4146481},{"type":"node","id":11010225113,"lat":52.5000915,"lon":13.4146331},{"type":"node","id":11010225114,"lat":52.5000895,"lon":13.4146182},{"type":"node","id":11010225115,"lat":52.5000852,"lon":13.4146024},{"type":"node","id":11010225116,"lat":52.5000793,"lon":13.4145883},{"type":"node","id":11010225117,"lat":52.5000713,"lon":13.414577},{"type":"node","id":11010225118,"lat":52.5000613,"lon":13.4145683},{"type":"node","id":11056960995,"lat":52.4986793,"lon":13.414214},{"type":"node","id":11350559192,"lat":52.4983957,"lon":13.4144602},{"type":"node","id":12484239164,"lat":52.4983932,"lon":13.4146353},{"type":"node","id":12484239165,"lat":52.4983467,"lon":13.4146492},{"type":"node","id":12484239166,"lat":52.498266,"lon":13.4142792},{"type":"node","id":12484239167,"lat":52.4979543,"lon":13.414058},{"type":"node","id":29217321,"lat":52.4992068,"lon":13.4178596},{"type":"node","id":29217332,"lat":52.4991511,"lon":13.4178148},{"type":"node","id":29217340,"lat":52.4988153,"lon":13.4180092},{"type":"node","id":29788946,"lat":52.498842,"lon":13.4173773},{"type":"node","id":268466879,"lat":52.4987854,"lon":13.4183808},{"type":"node","id":268469152,"lat":52.4991859,"lon":13.4173776},{"type":"node","id":268469153,"lat":52.4989182,"lon":13.4170759},{"type":"node","id":268470426,"lat":52.4990978,"lon":13.4195807},{"type":"node","id":442649846,"lat":52.4988229,"lon":13.4169747},{"type":"node","id":442649847,"lat":52.4989984,"lon":13.4174916},{"type":"node","id":442649848,"lat":52.4990403,"lon":13.417883},{"type":"node","id":442649849,"lat":52.4990899,"lon":13.4185524},{"type":"node","id":442649850,"lat":52.4991023,"lon":13.418801},{"type":"node","id":442649851,"lat":52.4991138,"lon":13.4192649},{"type":"node","id":442649852,"lat":52.4989818,"lon":13.419286},{"type":"node","id":442649853,"lat":52.4989482,"lon":13.4189857},{"type":"node","id":442649854,"lat":52.4989062,"lon":13.4184484},{"type":"node","id":442649855,"lat":52.4988924,"lon":13.418133},{"type":"node","id":442649856,"lat":52.4988839,"lon":13.4178543},{"type":"node","id":442649857,"lat":52.4988825,"lon":13.4175196},{"type":"node","id":442649858,"lat":52.4989273,"lon":13.4178384},{"type":"node","id":443952954,"lat":52.4989007,"lon":13.4159218},{"type":"node","id":443952956,"lat":52.498873,"lon":13.4157039},{"type":"node","id":443952960,"lat":52.4988472,"lon":13.4154948},{"type":"node","id":443952967,"lat":52.4988217,"lon":13.4152876},{"type":"node","id":443953057,"lat":52.4989348,"lon":13.4161894},{"type":"node","id":443953062,"lat":52.4989819,"lon":13.4165769},{"type":"node","id":443953064,"lat":52.4990062,"lon":13.4167631},{"type":"node","id":443953066,"lat":52.4991854,"lon":13.4169336},{"type":"node","id":443953068,"lat":52.4990592,"lon":13.4169716},{"type":"node","id":443953079,"lat":52.499762,"lon":13.4155933},{"type":"node","id":443953123,"lat":52.499705,"lon":13.4157865},{"type":"node","id":443953129,"lat":52.499649,"lon":13.4159801},{"type":"node","id":443953135,"lat":52.4995958,"lon":13.4161631},{"type":"node","id":443953139,"lat":52.499542,"lon":13.4163442},{"type":"node","id":443953142,"lat":52.4994871,"lon":13.4165293},{"type":"node","id":443953219,"lat":52.4990838,"lon":13.4171918},{"type":"node","id":443953221,"lat":52.4993228,"lon":13.4168922},{"type":"node","id":443953225,"lat":52.4993385,"lon":13.4170325},{"type":"node","id":667482248,"lat":52.4978136,"lon":13.4186442},{"type":"node","id":667482250,"lat":52.4979619,"lon":13.4185608},{"type":"node","id":667482253,"lat":52.4976646,"lon":13.4187262},{"type":"node","id":667482262,"lat":52.4983463,"lon":13.4173531},{"type":"node","id":667482263,"lat":52.4983252,"lon":13.4177411},{"type":"node","id":667482264,"lat":52.4983263,"lon":13.4179394},{"type":"node","id":667482273,"lat":52.4984642,"lon":13.4177388},{"type":"node","id":667482275,"lat":52.4984671,"lon":13.4179406},{"type":"node","id":667482277,"lat":52.4982604,"lon":13.4183943},{"type":"node","id":667482281,"lat":52.4983311,"lon":13.4183333},{"type":"node","id":667482282,"lat":52.4985975,"lon":13.4177348},{"type":"node","id":667482283,"lat":52.4985994,"lon":13.4179376},{"type":"node","id":799000040,"lat":52.4982352,"lon":13.4172765},{"type":"node","id":799000263,"lat":52.4982763,"lon":13.4171161},{"type":"node","id":799000270,"lat":52.498277,"lon":13.4170064},{"type":"node","id":799000342,"lat":52.4986648,"lon":13.416446},{"type":"node","id":815343286,"lat":52.4991454,"lon":13.41757},{"type":"node","id":815343319,"lat":52.4988378,"lon":13.4177333},{"type":"node","id":815343324,"lat":52.4989727,"lon":13.4170877},{"type":"node","id":815343355,"lat":52.4990602,"lon":13.4176254},{"type":"node","id":815343357,"lat":52.4988319,"lon":13.417116},{"type":"node","id":848507648,"lat":52.4990573,"lon":13.4178744},{"type":"node","id":848507649,"lat":52.4991913,"lon":13.4179471},{"type":"node","id":848507650,"lat":52.4992731,"lon":13.4181359},{"type":"node","id":848507651,"lat":52.499271,"lon":13.4183676},{"type":"node","id":848507652,"lat":52.4991162,"lon":13.4186057},{"type":"node","id":860252212,"lat":52.4988727,"lon":13.4178985},{"type":"node","id":860252214,"lat":52.4987885,"lon":13.4181037},{"type":"node","id":860252246,"lat":52.4989892,"lon":13.4178006},{"type":"node","id":860252267,"lat":52.4991798,"lon":13.4178347},{"type":"node","id":872318155,"lat":52.4990237,"lon":13.416896},{"type":"node","id":984238771,"lat":52.4987671,"lon":13.4168723},{"type":"node","id":984238793,"lat":52.4987247,"lon":13.4181923},{"type":"node","id":1141303120,"lat":52.49912,"lon":13.4178932},{"type":"node","id":1141303141,"lat":52.4991859,"lon":13.4185524},{"type":"node","id":1141303155,"lat":52.4992414,"lon":13.4180308},{"type":"node","id":1141303160,"lat":52.4992833,"lon":13.418252},{"type":"node","id":1232860217,"lat":52.4989193,"lon":13.4181308},{"type":"node","id":1232860246,"lat":52.4990508,"lon":13.4200108},{"type":"node","id":1232860265,"lat":52.4990341,"lon":13.4195722},{"type":"node","id":1232860289,"lat":52.4988819,"lon":13.4170705},{"type":"node","id":1232860296,"lat":52.4990632,"lon":13.4204986},{"type":"node","id":1286990136,"lat":52.4994567,"lon":13.4166306},{"type":"node","id":1286990150,"lat":52.4994036,"lon":13.416588},{"type":"node","id":1286990155,"lat":52.4992805,"lon":13.4167782},{"type":"node","id":1286990162,"lat":52.4993352,"lon":13.4165969},{"type":"node","id":1286990175,"lat":52.4993025,"lon":13.4167955},{"type":"node","id":1286990195,"lat":52.4992688,"lon":13.4169085},{"type":"node","id":1440648462,"lat":52.4982241,"lon":13.4171207},{"type":"node","id":1539749673,"lat":52.4984813,"lon":13.417305},{"type":"node","id":1539749674,"lat":52.4983599,"lon":13.4171247},{"type":"node","id":1539749675,"lat":52.4986716,"lon":13.4182489},{"type":"node","id":1539749676,"lat":52.4986868,"lon":13.4173355},{"type":"node","id":1539749686,"lat":52.4987679,"lon":13.417726},{"type":"node","id":1539749688,"lat":52.4987735,"lon":13.4173034},{"type":"node","id":1539749690,"lat":52.4988942,"lon":13.4177383},{"type":"node","id":2097818462,"lat":52.4989749,"lon":13.4189795},{"type":"node","id":2194959168,"lat":52.498722,"lon":13.4182331},{"type":"node","id":2677599463,"lat":52.4987753,"lon":13.4182054},{"type":"node","id":2677599473,"lat":52.4990176,"lon":13.4174445},{"type":"node","id":2677616762,"lat":52.4988403,"lon":13.4176805},{"type":"node","id":2677616763,"lat":52.4990448,"lon":13.417584},{"type":"node","id":2677616765,"lat":52.4991178,"lon":13.4175387},{"type":"node","id":2677616766,"lat":52.4991574,"lon":13.4175005},{"type":"node","id":2677616767,"lat":52.4992742,"lon":13.4176629},{"type":"node","id":2677616769,"lat":52.4989921,"lon":13.4172311},{"type":"node","id":2677616770,"lat":52.4988404,"lon":13.4172843},{"type":"node","id":3359226553,"lat":52.4987761,"lon":13.4183065},{"type":"node","id":3359226554,"lat":52.4988412,"lon":13.4176404},{"type":"node","id":3359226555,"lat":52.4989027,"lon":13.4176779},{"type":"node","id":3854467707,"lat":52.499044,"lon":13.4197537},{"type":"node","id":3854467708,"lat":52.4990403,"lon":13.4196525},{"type":"node","id":3854467709,"lat":52.4990423,"lon":13.4196967},{"type":"node","id":3854467710,"lat":52.4990366,"lon":13.4196053},{"type":"node","id":3854467711,"lat":52.4990672,"lon":13.4208854},{"type":"node","id":3854467712,"lat":52.499065,"lon":13.4205916},{"type":"node","id":3854467730,"lat":52.4990869,"lon":13.4192667},{"type":"node","id":3854467731,"lat":52.4991162,"lon":13.4204256},{"type":"node","id":3854467736,"lat":52.4990216,"lon":13.419274},{"type":"node","id":3854467746,"lat":52.4989225,"lon":13.4175159},{"type":"node","id":3854467747,"lat":52.498959,"lon":13.4175063},{"type":"node","id":3854467755,"lat":52.4990735,"lon":13.4192676},{"type":"node","id":3854468158,"lat":52.4989094,"lon":13.4175193},{"type":"node","id":3854468159,"lat":52.4988958,"lon":13.4172449},{"type":"node","id":3854468160,"lat":52.4988901,"lon":13.4171571},{"type":"node","id":3854468162,"lat":52.498828,"lon":13.4165898},{"type":"node","id":3854468163,"lat":52.4988591,"lon":13.416852},{"type":"node","id":3854468164,"lat":52.4989719,"lon":13.4174993},{"type":"node","id":3854468165,"lat":52.4990137,"lon":13.4178906},{"type":"node","id":3854468167,"lat":52.4990392,"lon":13.4181784},{"type":"node","id":3854468171,"lat":52.4989409,"lon":13.4172858},{"type":"node","id":3854468172,"lat":52.4989115,"lon":13.4172932},{"type":"node","id":3854468173,"lat":52.4989143,"lon":13.4175189},{"type":"node","id":3854468178,"lat":52.4990755,"lon":13.4188046},{"type":"node","id":3881590698,"lat":52.4990083,"lon":13.419278},{"type":"node","id":3900136261,"lat":52.4984214,"lon":13.4172156},{"type":"node","id":3900136274,"lat":52.4986725,"lon":13.4173773},{"type":"node","id":3900136276,"lat":52.498766,"lon":13.4178451},{"type":"node","id":3900136282,"lat":52.4988284,"lon":13.4170539},{"type":"node","id":3900136286,"lat":52.4988718,"lon":13.4172611},{"type":"node","id":3900136298,"lat":52.4990516,"lon":13.4177876},{"type":"node","id":3900136301,"lat":52.4990889,"lon":13.4176958},{"type":"node","id":3900136318,"lat":52.4993477,"lon":13.4185469},{"type":"node","id":3900136319,"lat":52.499364,"lon":13.4178695},{"type":"node","id":3900136326,"lat":52.4990626,"lon":13.4180785},{"type":"node","id":3900136338,"lat":52.4987672,"lon":13.4177733},{"type":"node","id":4077774874,"lat":52.4982791,"lon":13.4186172},{"type":"node","id":4256046868,"lat":52.4985982,"lon":13.4176682},{"type":"node","id":4256046869,"lat":52.4983532,"lon":13.4175986},{"type":"node","id":4256046870,"lat":52.4983526,"lon":13.4180831},{"type":"node","id":4256046871,"lat":52.498601,"lon":13.4180116},{"type":"node","id":4256046876,"lat":52.4990469,"lon":13.4192709},{"type":"node","id":4256067225,"lat":52.498575,"lon":13.4175212},{"type":"node","id":4256067226,"lat":52.49852,"lon":13.4175784},{"type":"node","id":4256067227,"lat":52.4984836,"lon":13.4174842},{"type":"node","id":4256067228,"lat":52.4985387,"lon":13.4174269},{"type":"node","id":4340070690,"lat":52.4983702,"lon":13.4187817},{"type":"node","id":4340070693,"lat":52.4984681,"lon":13.4187167},{"type":"node","id":4340070702,"lat":52.4986458,"lon":13.4185391},{"type":"node","id":4340070706,"lat":52.4990051,"lon":13.4180328},{"type":"node","id":4340070710,"lat":52.4993579,"lon":13.4174241},{"type":"node","id":4543931143,"lat":52.4992404,"lon":13.4179007},{"type":"node","id":4606652411,"lat":52.4986873,"lon":13.4181287},{"type":"node","id":4606652416,"lat":52.4987659,"lon":13.4174767},{"type":"node","id":4606652417,"lat":52.4987367,"lon":13.4173824},{"type":"node","id":4606652419,"lat":52.4990265,"lon":13.4170723},{"type":"node","id":4606652420,"lat":52.49876,"lon":13.4171329},{"type":"node","id":4606652422,"lat":52.4990919,"lon":13.4175014},{"type":"node","id":4606652428,"lat":52.4990285,"lon":13.4175127},{"type":"node","id":4606652445,"lat":52.4984708,"lon":13.4184441},{"type":"node","id":4606652446,"lat":52.4986793,"lon":13.4181542},{"type":"node","id":4606652447,"lat":52.49855,"lon":13.4186493},{"type":"node","id":4606652448,"lat":52.4988199,"lon":13.4183056},{"type":"node","id":4606652450,"lat":52.4988617,"lon":13.4182435},{"type":"node","id":4606652451,"lat":52.4987938,"lon":13.4179881},{"type":"node","id":4606652452,"lat":52.4990605,"lon":13.4179486},{"type":"node","id":4606652453,"lat":52.4990054,"lon":13.4176657},{"type":"node","id":4606652457,"lat":52.4983768,"lon":13.4183829},{"type":"node","id":4606652458,"lat":52.4992057,"lon":13.4176382},{"type":"node","id":4606652459,"lat":52.4992214,"lon":13.4175852},{"type":"node","id":4606652469,"lat":52.498567,"lon":13.4183792},{"type":"node","id":4606652470,"lat":52.4984523,"lon":13.4183462},{"type":"node","id":4606652471,"lat":52.4986708,"lon":13.4183497},{"type":"node","id":4714615114,"lat":52.4989235,"lon":13.4177286},{"type":"node","id":4714615115,"lat":52.4989359,"lon":13.4177267},{"type":"node","id":4714615116,"lat":52.4989822,"lon":13.4177195},{"type":"node","id":4714615117,"lat":52.4990106,"lon":13.4180066},{"type":"node","id":4714615118,"lat":52.498929,"lon":13.4180198},{"type":"node","id":4714615119,"lat":52.4989394,"lon":13.4181617},{"type":"node","id":4714615121,"lat":52.4989803,"lon":13.4182039},{"type":"node","id":4714615122,"lat":52.4990163,"lon":13.4181988},{"type":"node","id":4714615123,"lat":52.4989789,"lon":13.418176},{"type":"node","id":4714615124,"lat":52.4989753,"lon":13.4181085},{"type":"node","id":4714615125,"lat":52.4989744,"lon":13.4180907},{"type":"node","id":4714615126,"lat":52.4989717,"lon":13.4180396},{"type":"node","id":4714615127,"lat":52.4989704,"lon":13.4180132},{"type":"node","id":4714615128,"lat":52.499022,"lon":13.4183086},{"type":"node","id":4714615129,"lat":52.4990181,"lon":13.4182326},{"type":"node","id":4714615130,"lat":52.4989888,"lon":13.4180371},{"type":"node","id":4714615131,"lat":52.4989548,"lon":13.4180419},{"type":"node","id":4714615132,"lat":52.4989575,"lon":13.4180931},{"type":"node","id":4714615133,"lat":52.4989915,"lon":13.4180883},{"type":"node","id":4714615134,"lat":52.4989925,"lon":13.4181061},{"type":"node","id":4714615135,"lat":52.4989584,"lon":13.4181109},{"type":"node","id":4714615136,"lat":52.498996,"lon":13.4181736},{"type":"node","id":4714615137,"lat":52.498962,"lon":13.4181784},{"type":"node","id":4714615138,"lat":52.4990301,"lon":13.4181687},{"type":"node","id":4714615139,"lat":52.4990372,"lon":13.4183065},{"type":"node","id":4714615140,"lat":52.4990334,"lon":13.4182304},{"type":"node","id":4714615141,"lat":52.4990068,"lon":13.4183104},{"type":"node","id":4714615142,"lat":52.4990028,"lon":13.4182348},{"type":"node","id":4714615144,"lat":52.498914,"lon":13.417143},{"type":"node","id":4714615145,"lat":52.4993044,"lon":13.4171808},{"type":"node","id":4714615146,"lat":52.499262,"lon":13.4176023},{"type":"node","id":4714615147,"lat":52.4994087,"lon":13.4173231},{"type":"node","id":4714615148,"lat":52.4996097,"lon":13.4164366},{"type":"node","id":4714615149,"lat":52.4994622,"lon":13.4171829},{"type":"node","id":4714615153,"lat":52.4988321,"lon":13.4187694},{"type":"node","id":4714615154,"lat":52.4988199,"lon":13.4184865},{"type":"node","id":4714615155,"lat":52.4988142,"lon":13.4182625},{"type":"node","id":4714615156,"lat":52.498815,"lon":13.4182062},{"type":"node","id":4714615157,"lat":52.4988863,"lon":13.4180157},{"type":"node","id":4714615158,"lat":52.4990303,"lon":13.4178429},{"type":"node","id":4714615159,"lat":52.4989692,"lon":13.4179919},{"type":"node","id":4714615160,"lat":52.4989961,"lon":13.4180163},{"type":"node","id":4714615161,"lat":52.4989842,"lon":13.4180067},{"type":"node","id":4714615162,"lat":52.4989713,"lon":13.4180225},{"type":"node","id":4714615163,"lat":52.4988759,"lon":13.4179895},{"type":"node","id":4714615164,"lat":52.4987368,"lon":13.4181402},{"type":"node","id":4714615165,"lat":52.4987467,"lon":13.4181665},{"type":"node","id":4714615166,"lat":52.4988109,"lon":13.4182892},{"type":"node","id":4714615167,"lat":52.4987267,"lon":13.4181156},{"type":"node","id":4714615168,"lat":52.4987703,"lon":13.4181422},{"type":"node","id":4714615169,"lat":52.4988384,"lon":13.4180684},{"type":"node","id":4714615170,"lat":52.4989648,"lon":13.4179366},{"type":"node","id":4714615171,"lat":52.4989478,"lon":13.4183188},{"type":"node","id":4714615172,"lat":52.4989439,"lon":13.4182431},{"type":"node","id":4714615173,"lat":52.4989417,"lon":13.4181988},{"type":"node","id":4714615174,"lat":52.4989408,"lon":13.4181814},{"type":"node","id":4714615176,"lat":52.4989156,"lon":13.4180902},{"type":"node","id":4714615177,"lat":52.4989176,"lon":13.41814},{"type":"node","id":4714615179,"lat":52.4989198,"lon":13.4181843},{"type":"node","id":4714615180,"lat":52.4989629,"lon":13.4181958},{"type":"node","id":4714615181,"lat":52.4989207,"lon":13.4182018},{"type":"node","id":4714615182,"lat":52.4989692,"lon":13.4183157},{"type":"node","id":4714615183,"lat":52.4989652,"lon":13.4182401},{"type":"node","id":4714615184,"lat":52.4989229,"lon":13.4182461},{"type":"node","id":4714615185,"lat":52.4989269,"lon":13.4183217},{"type":"node","id":4714615188,"lat":52.4988288,"lon":13.4188251},{"type":"node","id":4714615396,"lat":52.4988189,"lon":13.4188197},{"type":"node","id":4714615397,"lat":52.4988386,"lon":13.4188305},{"type":"node","id":4714615399,"lat":52.4988443,"lon":13.4187725},{"type":"node","id":4714615400,"lat":52.498837,"lon":13.4184814},{"type":"node","id":4714615401,"lat":52.498805,"lon":13.4184898},{"type":"node","id":4714615402,"lat":52.4988494,"lon":13.4187717},{"type":"node","id":4714615403,"lat":52.4988017,"lon":13.4182246},{"type":"node","id":4714615404,"lat":52.4988318,"lon":13.4182353},{"type":"node","id":4714615426,"lat":52.4993478,"lon":13.4174094},{"type":"node","id":4714615430,"lat":52.4988527,"lon":13.418227},{"type":"node","id":4714615431,"lat":52.4988027,"lon":13.4180047},{"type":"node","id":4714615434,"lat":52.4990671,"lon":13.4179047},{"type":"node","id":4714615435,"lat":52.4989787,"lon":13.4177365},{"type":"node","id":4714615438,"lat":52.4992519,"lon":13.4175876},{"type":"node","id":4714615440,"lat":52.4991953,"lon":13.4173935},{"type":"node","id":4714615441,"lat":52.4989411,"lon":13.417511},{"type":"node","id":4714615442,"lat":52.4989315,"lon":13.4173794},{"type":"node","id":4714615443,"lat":52.4989269,"lon":13.4173174},{"type":"node","id":4714615444,"lat":52.4989255,"lon":13.417298},{"type":"node","id":4714615445,"lat":52.4989205,"lon":13.41723},{"type":"node","id":4714615446,"lat":52.498919,"lon":13.4172109},{"type":"node","id":4714615447,"lat":52.4989228,"lon":13.4171412},{"type":"node","id":4714615448,"lat":52.498905,"lon":13.4171448},{"type":"node","id":4714615449,"lat":52.4989279,"lon":13.4172091},{"type":"node","id":4714615450,"lat":52.4989101,"lon":13.4172127},{"type":"node","id":4714615451,"lat":52.4989293,"lon":13.4172282},{"type":"node","id":4714615452,"lat":52.4989115,"lon":13.4172318},{"type":"node","id":4714615453,"lat":52.4989344,"lon":13.4172962},{"type":"node","id":4714615454,"lat":52.4989166,"lon":13.4172998},{"type":"node","id":4714615455,"lat":52.4989358,"lon":13.4173156},{"type":"node","id":4714615456,"lat":52.4989181,"lon":13.4173192},{"type":"node","id":4714615457,"lat":52.4989227,"lon":13.4173812},{"type":"node","id":4714615458,"lat":52.4989405,"lon":13.4173776},{"type":"node","id":4714615466,"lat":52.4993803,"lon":13.4172818},{"type":"node","id":4714615468,"lat":52.498638,"lon":13.4185209},{"type":"node","id":4714615469,"lat":52.4986882,"lon":13.4181708},{"type":"node","id":4714615472,"lat":52.4990146,"lon":13.4176819},{"type":"node","id":4714615473,"lat":52.4991557,"lon":13.4177587},{"type":"node","id":4714615479,"lat":52.4987991,"lon":13.4182692},{"type":"node","id":4714615480,"lat":52.4987635,"lon":13.418182},{"type":"node","id":4714615481,"lat":52.498846,"lon":13.4180877},{"type":"node","id":4714615482,"lat":52.4987784,"lon":13.4181649},{"type":"node","id":4714615483,"lat":52.4990143,"lon":13.4180245},{"type":"node","id":4714615484,"lat":52.4987687,"lon":13.4181074},{"type":"node","id":4714615485,"lat":52.4987853,"lon":13.4180893},{"type":"node","id":4714615486,"lat":52.4988041,"lon":13.4180689},{"type":"node","id":4714615487,"lat":52.4988281,"lon":13.4180429},{"type":"node","id":4714615488,"lat":52.4989862,"lon":13.4178905},{"type":"node","id":4714615489,"lat":52.4990099,"lon":13.4178648},{"type":"node","id":4714615490,"lat":52.4989631,"lon":13.4178928},{"type":"node","id":4714615491,"lat":52.4989503,"lon":13.4179064},{"type":"node","id":4714615492,"lat":52.4989795,"lon":13.4179565},{"type":"node","id":4714615493,"lat":52.4989783,"lon":13.4179305},{"type":"node","id":4714615494,"lat":52.4989836,"lon":13.4179312},{"type":"node","id":4714615496,"lat":52.498973,"lon":13.4179312},{"type":"node","id":4714615497,"lat":52.4989849,"lon":13.4179558},{"type":"node","id":4714615498,"lat":52.4989743,"lon":13.4179573},{"type":"node","id":4714615499,"lat":52.4989573,"lon":13.4179597},{"type":"node","id":4714615500,"lat":52.498955,"lon":13.417916},{"type":"node","id":4714615501,"lat":52.4989459,"lon":13.4178959},{"type":"node","id":4714615502,"lat":52.498972,"lon":13.4179136},{"type":"node","id":4714615505,"lat":52.4984795,"lon":13.418461},{"type":"node","id":4714615506,"lat":52.4985422,"lon":13.4186312},{"type":"node","id":4714615507,"lat":52.4988431,"lon":13.4180803},{"type":"node","id":4714615508,"lat":52.4988334,"lon":13.4180562},{"type":"node","id":4714615509,"lat":52.4988226,"lon":13.4180294},{"type":"node","id":4714615510,"lat":52.4987751,"lon":13.4181541},{"type":"node","id":4714615511,"lat":52.4987655,"lon":13.4181301},{"type":"node","id":4714615512,"lat":52.4988095,"lon":13.4180822},{"type":"node","id":4714615513,"lat":52.4987987,"lon":13.4180554},{"type":"node","id":4714615514,"lat":52.4987632,"lon":13.4180939},{"type":"node","id":4714615515,"lat":52.498774,"lon":13.4181208},{"type":"node","id":4714615516,"lat":52.4987907,"lon":13.4181026},{"type":"node","id":4714615517,"lat":52.4987799,"lon":13.4180758},{"type":"node","id":4714615518,"lat":52.498829,"lon":13.4181214},{"type":"node","id":4714615519,"lat":52.4987959,"lon":13.4180404},{"type":"node","id":4714615520,"lat":52.498859,"lon":13.4180888},{"type":"node","id":4714615521,"lat":52.4988258,"lon":13.4180078},{"type":"node","id":4714615524,"lat":52.499314,"lon":13.4171964},{"type":"node","id":4714615541,"lat":52.4989586,"lon":13.4178821},{"type":"node","id":4714615542,"lat":52.4989971,"lon":13.4179176},{"type":"node","id":4714615543,"lat":52.4989755,"lon":13.4178638},{"type":"node","id":4714615552,"lat":52.4990208,"lon":13.4178918},{"type":"node","id":4714615555,"lat":52.4989992,"lon":13.417838},{"type":"node","id":4714615705,"lat":52.4993983,"lon":13.417309},{"type":"node","id":4714634508,"lat":52.49896,"lon":13.4178591},{"type":"node","id":4714634509,"lat":52.4989437,"lon":13.4178618},{"type":"node","id":4714634510,"lat":52.4989314,"lon":13.4175832},{"type":"node","id":4714634511,"lat":52.4989448,"lon":13.4175798},{"type":"node","id":5213956476,"lat":52.4988512,"lon":13.4165691},{"type":"node","id":5213956482,"lat":52.4989108,"lon":13.417852},{"type":"node","id":5213956483,"lat":52.4989331,"lon":13.4184452},{"type":"node","id":5213956484,"lat":52.4989542,"lon":13.4187411},{"type":"node","id":5213956485,"lat":52.4989276,"lon":13.4187473},{"type":"node","id":5213956486,"lat":52.4990631,"lon":13.418556},{"type":"node","id":5213956487,"lat":52.499066,"lon":13.4181739},{"type":"node","id":5217808550,"lat":52.4983466,"lon":13.4185678},{"type":"node","id":5217808551,"lat":52.4983935,"lon":13.4185255},{"type":"node","id":5217808552,"lat":52.4979732,"lon":13.4187903},{"type":"node","id":5217808553,"lat":52.4977674,"lon":13.418899},{"type":"node","id":5217808580,"lat":52.4979388,"lon":13.418989},{"type":"node","id":5217808581,"lat":52.4991653,"lon":13.4177743},{"type":"node","id":5217808582,"lat":52.4994965,"lon":13.4170818},{"type":"node","id":5217808583,"lat":52.4995627,"lon":13.4168422},{"type":"node","id":5217808584,"lat":52.4995276,"lon":13.4169775},{"type":"node","id":5217808585,"lat":52.4996188,"lon":13.4165941},{"type":"node","id":5217808586,"lat":52.4995766,"lon":13.4165405},{"type":"node","id":5217808587,"lat":52.4994539,"lon":13.4168708},{"type":"node","id":5217808603,"lat":52.4996601,"lon":13.4164298},{"type":"node","id":5260957188,"lat":52.4993445,"lon":13.4170864},{"type":"node","id":5260957189,"lat":52.4993074,"lon":13.4170976},{"type":"node","id":5260957190,"lat":52.4993103,"lon":13.4171237},{"type":"node","id":5260957193,"lat":52.4990348,"lon":13.416982},{"type":"node","id":5352672166,"lat":52.4984313,"lon":13.41843},{"type":"node","id":5352673332,"lat":52.4986997,"lon":13.4183773},{"type":"node","id":5352673333,"lat":52.4987019,"lon":13.4183611},{"type":"node","id":5352673334,"lat":52.498721,"lon":13.4182963},{"type":"node","id":5352673335,"lat":52.4987787,"lon":13.4178873},{"type":"node","id":5352673336,"lat":52.4987867,"lon":13.4175467},{"type":"node","id":5352673337,"lat":52.4987839,"lon":13.4178281},{"type":"node","id":5352673338,"lat":52.4987883,"lon":13.4172513},{"type":"node","id":5352673339,"lat":52.4987776,"lon":13.4169682},{"type":"node","id":5600476431,"lat":52.4992835,"lon":13.4177874},{"type":"node","id":5600476432,"lat":52.4993024,"lon":13.4178158},{"type":"node","id":5600476433,"lat":52.4992839,"lon":13.4178404},{"type":"node","id":5600476898,"lat":52.4983881,"lon":13.4184472},{"type":"node","id":5830763364,"lat":52.4982121,"lon":13.418422},{"type":"node","id":5830763366,"lat":52.4981315,"lon":13.4184654},{"type":"node","id":6848429375,"lat":52.498655,"lon":13.417811},{"type":"node","id":6848429376,"lat":52.4986567,"lon":13.4179304},{"type":"node","id":6848429379,"lat":52.4987421,"lon":13.4178654},{"type":"node","id":6848429380,"lat":52.4987693,"lon":13.4178785},{"type":"node","id":6848429381,"lat":52.4987586,"lon":13.4179387},{"type":"node","id":6848429382,"lat":52.4987313,"lon":13.4179256},{"type":"node","id":6848429384,"lat":52.498926,"lon":13.4171192},{"type":"node","id":6848448485,"lat":52.498942,"lon":13.4171142},{"type":"node","id":6848448486,"lat":52.4989539,"lon":13.4172169},{"type":"node","id":6848448487,"lat":52.4989378,"lon":13.4172219},{"type":"node","id":6888684419,"lat":52.4986806,"lon":13.4174754},{"type":"node","id":6888684420,"lat":52.4986874,"lon":13.4174474},{"type":"node","id":6888684421,"lat":52.4985933,"lon":13.417386},{"type":"node","id":6888684422,"lat":52.4985865,"lon":13.417414},{"type":"node","id":6888722385,"lat":52.4987889,"lon":13.417477},{"type":"node","id":6888722386,"lat":52.4987734,"lon":13.4176204},{"type":"node","id":6888722387,"lat":52.49875,"lon":13.417619},{"type":"node","id":6888722388,"lat":52.498752,"lon":13.4179748},{"type":"node","id":6888722389,"lat":52.4987259,"lon":13.4179866},{"type":"node","id":6888722390,"lat":52.4987271,"lon":13.4179489},{"type":"node","id":7444541666,"lat":52.4986765,"lon":13.418411},{"type":"node","id":7444541667,"lat":52.4986509,"lon":13.4182616},{"type":"node","id":7444541668,"lat":52.4986026,"lon":13.418326},{"type":"node","id":7444541669,"lat":52.4985269,"lon":13.4184449},{"type":"node","id":7450233028,"lat":52.4986401,"lon":13.418427},{"type":"node","id":7606199828,"lat":52.4989266,"lon":13.4161247},{"type":"node","id":8019657213,"lat":52.4986942,"lon":13.4182692},{"type":"node","id":8019657214,"lat":52.4986985,"lon":13.4183543},{"type":"node","id":8019657215,"lat":52.4986963,"lon":13.4183121},{"type":"node","id":8019657239,"lat":52.4989011,"lon":13.418517},{"type":"node","id":8019657241,"lat":52.4988322,"lon":13.4182953},{"type":"node","id":8019657242,"lat":52.498855,"lon":13.4184159},{"type":"node","id":8019657243,"lat":52.4989651,"lon":13.4185869},{"type":"node","id":8019657244,"lat":52.4992374,"lon":13.4184712},{"type":"node","id":8019657245,"lat":52.4988352,"lon":13.4181692},{"type":"node","id":8019657246,"lat":52.4988637,"lon":13.4180519},{"type":"node","id":8019657247,"lat":52.4989144,"lon":13.417957},{"type":"node","id":8019657248,"lat":52.4989815,"lon":13.4178955},{"type":"node","id":8026452856,"lat":52.4992158,"lon":13.417703},{"type":"node","id":8026452857,"lat":52.4991488,"lon":13.4176158},{"type":"node","id":8026452865,"lat":52.498736,"lon":13.4173359},{"type":"node","id":8026452866,"lat":52.4987783,"lon":13.4172917},{"type":"node","id":8026452867,"lat":52.4987808,"lon":13.4171714},{"type":"node","id":8026452868,"lat":52.4987822,"lon":13.4172613},{"type":"node","id":8078037465,"lat":52.4986039,"lon":13.4173448},{"type":"node","id":8078047345,"lat":52.4976392,"lon":13.4152372},{"type":"node","id":8078047430,"lat":52.498619,"lon":13.4164597},{"type":"node","id":8078047481,"lat":52.4997709,"lon":13.4155638},{"type":"node","id":8078047494,"lat":52.4996019,"lon":13.4161419},{"type":"node","id":8078047495,"lat":52.499698,"lon":13.4158107},{"type":"node","id":8171822470,"lat":52.4982422,"lon":13.4184047},{"type":"node","id":8171822471,"lat":52.4978937,"lon":13.4187267},{"type":"node","id":8806813459,"lat":52.498867,"lon":13.4171077},{"type":"node","id":8817928093,"lat":52.4987749,"lon":13.4174499},{"type":"node","id":8817928094,"lat":52.4987509,"lon":13.417429},{"type":"node","id":8817928095,"lat":52.4987486,"lon":13.4173293},{"type":"node","id":8817928103,"lat":52.4985939,"lon":13.4172898},{"type":"node","id":8817928104,"lat":52.4985941,"lon":13.417386},{"type":"node","id":8817928105,"lat":52.4987387,"lon":13.4174281},{"type":"node","id":8817928106,"lat":52.498764,"lon":13.4174379},{"type":"node","id":8817928107,"lat":52.4986718,"lon":13.4174228},{"type":"node","id":8817928108,"lat":52.4987832,"lon":13.4174688},{"type":"node","id":8842053179,"lat":52.4992792,"lon":13.4177713},{"type":"node","id":8842053182,"lat":52.4992791,"lon":13.4177556},{"type":"node","id":8842053188,"lat":52.4993371,"lon":13.417851},{"type":"node","id":8895399416,"lat":52.4985359,"lon":13.4184302},{"type":"node","id":8895430519,"lat":52.4992521,"lon":13.4176303},{"type":"node","id":8895430520,"lat":52.4990082,"lon":13.4170775},{"type":"node","id":8895430521,"lat":52.4991067,"lon":13.4175952},{"type":"node","id":8895430522,"lat":52.4994945,"lon":13.4166614},{"type":"node","id":8895430525,"lat":52.4987057,"lon":13.4182969},{"type":"node","id":8895430526,"lat":52.4987145,"lon":13.4181529},{"type":"node","id":8895430527,"lat":52.4987243,"lon":13.418108},{"type":"node","id":8895430528,"lat":52.4987389,"lon":13.4180607},{"type":"node","id":8895430529,"lat":52.4987608,"lon":13.4180015},{"type":"node","id":8895430530,"lat":52.4988801,"lon":13.4178189},{"type":"node","id":8895430531,"lat":52.499122,"lon":13.4176408},{"type":"node","id":8895430532,"lat":52.49908,"lon":13.417674},{"type":"node","id":8895430533,"lat":52.4991279,"lon":13.4176361},{"type":"node","id":8895430534,"lat":52.4987846,"lon":13.4179499},{"type":"node","id":8895430535,"lat":52.4988266,"lon":13.4178859},{"type":"node","id":8895430536,"lat":52.4988606,"lon":13.4178405},{"type":"node","id":8895430537,"lat":52.4989302,"lon":13.4177728},{"type":"node","id":8895430538,"lat":52.4989047,"lon":13.4177952},{"type":"node","id":8895430539,"lat":52.4989676,"lon":13.4177497},{"type":"node","id":8895430540,"lat":52.4989504,"lon":13.4177594},{"type":"node","id":8895430541,"lat":52.4990106,"lon":13.417729},{"type":"node","id":8895430542,"lat":52.4989881,"lon":13.4177396},{"type":"node","id":8895430608,"lat":52.4992155,"lon":13.4177317},{"type":"node","id":8895430610,"lat":52.4991921,"lon":13.4177104},{"type":"node","id":8895430611,"lat":52.4991578,"lon":13.4176789},{"type":"node","id":8895430617,"lat":52.4992972,"lon":13.4178227},{"type":"node","id":8895430618,"lat":52.499088,"lon":13.4175572},{"type":"node","id":8895430619,"lat":52.4990793,"lon":13.417529},{"type":"node","id":8895430620,"lat":52.4990947,"lon":13.4175722},{"type":"node","id":8895430630,"lat":52.4990108,"lon":13.4176051},{"type":"node","id":8895430636,"lat":52.4992854,"lon":13.4177339},{"type":"node","id":8895430637,"lat":52.4992386,"lon":13.4176753},{"type":"node","id":8895430639,"lat":52.4994735,"lon":13.4167328},{"type":"node","id":8895430640,"lat":52.4994937,"lon":13.4167497},{"type":"node","id":8895430641,"lat":52.4994988,"lon":13.4167579},{"type":"node","id":8895430642,"lat":52.4995018,"lon":13.4167659},{"type":"node","id":8895430643,"lat":52.499503,"lon":13.4167807},{"type":"node","id":8895430644,"lat":52.4995008,"lon":13.4167962},{"type":"node","id":8895430645,"lat":52.4992324,"lon":13.4176963},{"type":"node","id":8895430646,"lat":52.4992291,"lon":13.4177056},{"type":"node","id":8895430647,"lat":52.4992251,"lon":13.4177103},{"type":"node","id":8895430648,"lat":52.4992213,"lon":13.4177124},{"type":"node","id":8895430649,"lat":52.4992164,"lon":13.4177127},{"type":"node","id":8895430650,"lat":52.4992124,"lon":13.4177105},{"type":"node","id":8895430651,"lat":52.4991495,"lon":13.417627},{"type":"node","id":8895430652,"lat":52.4991431,"lon":13.4176234},{"type":"node","id":8895430653,"lat":52.4991373,"lon":13.4176241},{"type":"node","id":8895430654,"lat":52.4991133,"lon":13.4175909},{"type":"node","id":8895430655,"lat":52.4990162,"lon":13.4176543},{"type":"node","id":8895430656,"lat":52.4987169,"lon":13.41772},{"type":"node","id":8895430657,"lat":52.4987874,"lon":13.4177282},{"type":"node","id":8895430658,"lat":52.49887,"lon":13.4177369},{"type":"node","id":8895430659,"lat":52.4988718,"lon":13.4176829},{"type":"node","id":8895430660,"lat":52.4990229,"lon":13.417225},{"type":"node","id":8895430661,"lat":52.4989922,"lon":13.4174429},{"type":"node","id":8895430662,"lat":52.499019,"lon":13.4176784},{"type":"node","id":8895430663,"lat":52.4990189,"lon":13.4176959},{"type":"node","id":8895430664,"lat":52.4990176,"lon":13.4177054},{"type":"node","id":8895430665,"lat":52.4990087,"lon":13.4177184},{"type":"node","id":8895430666,"lat":52.4989862,"lon":13.4177289},{"type":"node","id":8895430667,"lat":52.4989654,"lon":13.4177393},{"type":"node","id":8895430668,"lat":52.4989482,"lon":13.417749},{"type":"node","id":8895430669,"lat":52.4989237,"lon":13.4177664},{"type":"node","id":8895430670,"lat":52.4988982,"lon":13.4177882},{"type":"node","id":8895430671,"lat":52.4988814,"lon":13.4178029},{"type":"node","id":8895430672,"lat":52.4988764,"lon":13.4178035},{"type":"node","id":8895430673,"lat":52.4988726,"lon":13.4178021},{"type":"node","id":8895430674,"lat":52.4988697,"lon":13.4177974},{"type":"node","id":8895430675,"lat":52.4988683,"lon":13.4177903},{"type":"node","id":8895430676,"lat":52.4988686,"lon":13.4177822},{"type":"node","id":8895430677,"lat":52.4988739,"lon":13.417476},{"type":"node","id":8895430678,"lat":52.4988635,"lon":13.4170466},{"type":"node","id":8895430679,"lat":52.4988625,"lon":13.4170334},{"type":"node","id":8895430680,"lat":52.4988631,"lon":13.4170268},{"type":"node","id":8895430681,"lat":52.4988661,"lon":13.4170202},{"type":"node","id":8895430682,"lat":52.4988952,"lon":13.4170123},{"type":"node","id":8895430683,"lat":52.4988698,"lon":13.4170187},{"type":"node","id":8895430684,"lat":52.4989225,"lon":13.4170038},{"type":"node","id":8895430685,"lat":52.498928,"lon":13.4170058},{"type":"node","id":8895430686,"lat":52.4989316,"lon":13.4170104},{"type":"node","id":8895430687,"lat":52.4989336,"lon":13.4170179},{"type":"node","id":8895430688,"lat":52.4989671,"lon":13.4172373},{"type":"node","id":8895430689,"lat":52.4990781,"lon":13.4174563},{"type":"node","id":8895430690,"lat":52.4990485,"lon":13.4172325},{"type":"node","id":8895430691,"lat":52.4989455,"lon":13.417096},{"type":"node","id":8895430693,"lat":52.4990565,"lon":13.4172308},{"type":"node","id":8895430694,"lat":52.4989379,"lon":13.4163539},{"type":"node","id":8895430696,"lat":52.4988921,"lon":13.4161366},{"type":"node","id":8895430697,"lat":52.4988159,"lon":13.4155176},{"type":"node","id":8895430698,"lat":52.4987926,"lon":13.4153659},{"type":"node","id":8895430702,"lat":52.4990297,"lon":13.4172102},{"type":"node","id":8895430703,"lat":52.4990209,"lon":13.4171899},{"type":"node","id":8895430704,"lat":52.4990225,"lon":13.4171746},{"type":"node","id":8895430705,"lat":52.4990171,"lon":13.4172243},{"type":"node","id":8895430706,"lat":52.4990711,"lon":13.417493},{"type":"node","id":8895430707,"lat":52.499037,"lon":13.4172333},{"type":"node","id":8895430708,"lat":52.4990617,"lon":13.4174257},{"type":"node","id":8895430709,"lat":52.4990683,"lon":13.4174234},{"type":"node","id":8895430711,"lat":52.4990596,"lon":13.4174985},{"type":"node","id":8895430712,"lat":52.4990476,"lon":13.417444},{"type":"node","id":8895430713,"lat":52.4990404,"lon":13.4174046},{"type":"node","id":8895430714,"lat":52.4990307,"lon":13.4173362},{"type":"node","id":8895430715,"lat":52.4990122,"lon":13.417184},{"type":"node","id":8895430716,"lat":52.4990999,"lon":13.417565},{"type":"node","id":8895430717,"lat":52.4991321,"lon":13.417627},{"type":"node","id":8895430718,"lat":52.4990943,"lon":13.4175533},{"type":"node","id":8895430719,"lat":52.4990852,"lon":13.417524},{"type":"node","id":8895430720,"lat":52.4990776,"lon":13.4174899},{"type":"node","id":8895430721,"lat":52.4990407,"lon":13.4172171},{"type":"node","id":8895430722,"lat":52.4990263,"lon":13.4171835},{"type":"node","id":8895430723,"lat":52.4990436,"lon":13.417231},{"type":"node","id":8895430724,"lat":52.4990352,"lon":13.4172038},{"type":"node","id":8895430725,"lat":52.4990186,"lon":13.4171596},{"type":"node","id":8895430726,"lat":52.4989974,"lon":13.4169927},{"type":"node","id":8895430741,"lat":52.4987058,"lon":13.4165549},{"type":"node","id":8895430743,"lat":52.4986764,"lon":13.416304},{"type":"node","id":8895430744,"lat":52.4987555,"lon":13.4169805},{"type":"node","id":8895430745,"lat":52.4986667,"lon":13.4162211},{"type":"node","id":8895430746,"lat":52.4986983,"lon":13.4162974},{"type":"node","id":8895430747,"lat":52.4986476,"lon":13.4158818},{"type":"node","id":8895430748,"lat":52.4985793,"lon":13.4154287},{"type":"node","id":8895430751,"lat":52.4987454,"lon":13.4166827},{"type":"node","id":8895430752,"lat":52.4986764,"lon":13.4182123},{"type":"node","id":8895430753,"lat":52.4987134,"lon":13.4177743},{"type":"node","id":8895430754,"lat":52.4986286,"lon":13.4184289},{"type":"node","id":8895430755,"lat":52.4986983,"lon":13.4182714},{"type":"node","id":8895430756,"lat":52.4987488,"lon":13.4180144},{"type":"node","id":8895430757,"lat":52.4987816,"lon":13.4176781},{"type":"node","id":8895430758,"lat":52.498777,"lon":13.4176689},{"type":"node","id":8895430759,"lat":52.4987759,"lon":13.417655},{"type":"node","id":8895430760,"lat":52.498789,"lon":13.4176817},{"type":"node","id":8895430761,"lat":52.4987796,"lon":13.41758},{"type":"node","id":8895430762,"lat":52.4987902,"lon":13.4173798},{"type":"node","id":8895430763,"lat":52.4987849,"lon":13.417127},{"type":"node","id":8895430764,"lat":52.4987827,"lon":13.4172338},{"type":"node","id":8895430765,"lat":52.4987815,"lon":13.4170153},{"type":"node","id":8895430766,"lat":52.4987839,"lon":13.41709},{"type":"node","id":8895430769,"lat":52.4987884,"lon":13.4175206},{"type":"node","id":8895430770,"lat":52.4987653,"lon":13.4175149},{"type":"node","id":8895430771,"lat":52.4987513,"lon":13.4175805},{"type":"node","id":8895430772,"lat":52.4987742,"lon":13.4175893},{"type":"node","id":8895430773,"lat":52.4987771,"lon":13.4175958},{"type":"node","id":8895430774,"lat":52.4987923,"lon":13.4175241},{"type":"node","id":8895430775,"lat":52.4987162,"lon":13.4180915},{"type":"node","id":8895430776,"lat":52.4987667,"lon":13.4179308},{"type":"node","id":8895430777,"lat":52.4987779,"lon":13.4178512},{"type":"node","id":8895430778,"lat":52.4987731,"lon":13.4178937},{"type":"node","id":8895430779,"lat":52.498758,"lon":13.4179679},{"type":"node","id":8895430780,"lat":52.4987284,"lon":13.4180509},{"type":"node","id":8895430781,"lat":52.4987054,"lon":13.4182282},{"type":"node","id":8895430782,"lat":52.4987468,"lon":13.418001},{"type":"node","id":8895430783,"lat":52.4987092,"lon":13.4181198},{"type":"node","id":8895430785,"lat":52.4987,"lon":13.4181734},{"type":"node","id":8895430786,"lat":52.4986968,"lon":13.418203},{"type":"node","id":8895430787,"lat":52.4987372,"lon":13.4181122},{"type":"node","id":8895430788,"lat":52.498749,"lon":13.4180722},{"type":"node","id":8895430789,"lat":52.498763,"lon":13.4179677},{"type":"node","id":8895430790,"lat":52.4987725,"lon":13.4179273},{"type":"node","id":8895430806,"lat":52.4987548,"lon":13.4177727},{"type":"node","id":8895430807,"lat":52.4987535,"lon":13.4178445},{"type":"node","id":8895430808,"lat":52.4987785,"lon":13.4178457},{"type":"node","id":8895430809,"lat":52.4987797,"lon":13.4177739},{"type":"node","id":8895430810,"lat":52.498675,"lon":13.417889},{"type":"node","id":8895430811,"lat":52.498755,"lon":13.4179961},{"type":"node","id":8895430812,"lat":52.4987716,"lon":13.4180117},{"type":"node","id":8895430820,"lat":52.4985849,"lon":13.4184297},{"type":"node","id":8895430821,"lat":52.4986665,"lon":13.4184177},{"type":"node","id":8895430822,"lat":52.4986943,"lon":13.4183895},{"type":"node","id":8895430823,"lat":52.4986989,"lon":13.4182972},{"type":"node","id":8895430824,"lat":52.4987302,"lon":13.4181495},{"type":"node","id":8895430825,"lat":52.4984147,"lon":13.4184336},{"type":"node","id":8895951834,"lat":52.4988837,"lon":13.4172581},{"type":"node","id":8895951836,"lat":52.4990929,"lon":13.4177915},{"type":"node","id":8895951837,"lat":52.4992889,"lon":13.4182817},{"type":"node","id":8895951838,"lat":52.4992783,"lon":13.4183703},{"type":"node","id":8895951839,"lat":52.4992693,"lon":13.418407},{"type":"node","id":8895951840,"lat":52.4992601,"lon":13.4184387},{"type":"node","id":8895951841,"lat":52.4992427,"lon":13.4184822},{"type":"node","id":8895951842,"lat":52.4992234,"lon":13.4185192},{"type":"node","id":8895951843,"lat":52.4991913,"lon":13.4185638},{"type":"node","id":8895951844,"lat":52.4991618,"lon":13.4185923},{"type":"node","id":8895951845,"lat":52.4991222,"lon":13.4186169},{"type":"node","id":8895951846,"lat":52.4991043,"lon":13.4186238},{"type":"node","id":8895951847,"lat":52.4990574,"lon":13.4186302},{"type":"node","id":8895951848,"lat":52.4990197,"lon":13.4186241},{"type":"node","id":8895951849,"lat":52.4989934,"lon":13.4186143},{"type":"node","id":8895951850,"lat":52.4989655,"lon":13.4185977},{"type":"node","id":8895951851,"lat":52.4989408,"lon":13.4185761},{"type":"node","id":8895951852,"lat":52.4989187,"lon":13.4185519},{"type":"node","id":8895951853,"lat":52.4988919,"lon":13.418513},{"type":"node","id":8895951854,"lat":52.4988772,"lon":13.4184864},{"type":"node","id":8895951855,"lat":52.4988657,"lon":13.4184618},{"type":"node","id":8895951856,"lat":52.4988452,"lon":13.4184019},{"type":"node","id":8895951857,"lat":52.4988363,"lon":13.4183664},{"type":"node","id":8895951858,"lat":52.4988295,"lon":13.4183266},{"type":"node","id":8895951859,"lat":52.4988259,"lon":13.4182888},{"type":"node","id":8895951860,"lat":52.4988245,"lon":13.4182358},{"type":"node","id":8895951861,"lat":52.4988275,"lon":13.4181838},{"type":"node","id":8895951862,"lat":52.4988319,"lon":13.4181488},{"type":"node","id":8895951863,"lat":52.4988383,"lon":13.4181148},{"type":"node","id":8895951864,"lat":52.4988468,"lon":13.4180833},{"type":"node","id":8895951865,"lat":52.4988696,"lon":13.4180214},{"type":"node","id":8895951866,"lat":52.4988819,"lon":13.4179959},{"type":"node","id":8895951867,"lat":52.4988989,"lon":13.4179665},{"type":"node","id":8895951868,"lat":52.4989185,"lon":13.4179414},{"type":"node","id":8895951869,"lat":52.4989363,"lon":13.4179219},{"type":"node","id":8895951870,"lat":52.4989542,"lon":13.4179062},{"type":"node","id":8895951871,"lat":52.4989696,"lon":13.4178943},{"type":"node","id":8895951872,"lat":52.4989846,"lon":13.417886},{"type":"node","id":8895951873,"lat":52.4990029,"lon":13.4178774},{"type":"node","id":8895951874,"lat":52.499048,"lon":13.4178676},{"type":"node","id":8895951875,"lat":52.4990696,"lon":13.4178676},{"type":"node","id":8895951876,"lat":52.4990894,"lon":13.4178707},{"type":"node","id":8895951877,"lat":52.4991072,"lon":13.4178761},{"type":"node","id":8895951878,"lat":52.4991292,"lon":13.4178864},{"type":"node","id":8895951879,"lat":52.4991503,"lon":13.4178997},{"type":"node","id":8895951880,"lat":52.4991726,"lon":13.4179178},{"type":"node","id":8895951881,"lat":52.4991972,"lon":13.4179446},{"type":"node","id":8895951882,"lat":52.4992128,"lon":13.4179659},{"type":"node","id":8895951883,"lat":52.4992295,"lon":13.4179936},{"type":"node","id":8895951884,"lat":52.4992418,"lon":13.4180182},{"type":"node","id":8895951885,"lat":52.4992529,"lon":13.4180437},{"type":"node","id":8895951886,"lat":52.4992648,"lon":13.4180787},{"type":"node","id":8895951887,"lat":52.4992802,"lon":13.4181438},{"type":"node","id":8895951888,"lat":52.4992851,"lon":13.4181781},{"type":"node","id":8895951889,"lat":52.4992879,"lon":13.4182079},{"type":"node","id":8895951909,"lat":52.4990049,"lon":13.4185873},{"type":"node","id":8895992255,"lat":52.4982643,"lon":13.4185173},{"type":"node","id":9625739319,"lat":52.4988689,"lon":13.4180421},{"type":"node","id":9625739320,"lat":52.498881,"lon":13.4180906},{"type":"node","id":9625739321,"lat":52.4988826,"lon":13.4181526},{"type":"node","id":9625739322,"lat":52.4988751,"lon":13.4182086},{"type":"node","id":9625739323,"lat":52.4988734,"lon":13.4182575},{"type":"node","id":9625739324,"lat":52.4988747,"lon":13.4183514},{"type":"node","id":9625739325,"lat":52.498891,"lon":13.4184285},{"type":"node","id":9625739326,"lat":52.4989196,"lon":13.4184882},{"type":"node","id":9625739327,"lat":52.4989314,"lon":13.4185501},{"type":"node","id":9625739328,"lat":52.4990278,"lon":13.4178826},{"type":"node","id":9625739329,"lat":52.4990469,"lon":13.4180671},{"type":"node","id":9625739330,"lat":52.4990788,"lon":13.4181415},{"type":"node","id":9625739331,"lat":52.4990988,"lon":13.4181952},{"type":"node","id":9625739332,"lat":52.4991041,"lon":13.4182428},{"type":"node","id":9625739333,"lat":52.4991049,"lon":13.4183152},{"type":"node","id":9625739334,"lat":52.4991024,"lon":13.418397},{"type":"node","id":9625739335,"lat":52.4991029,"lon":13.4185043},{"type":"node","id":9625739336,"lat":52.4991095,"lon":13.4186068},{"type":"node","id":9755765786,"lat":52.4988992,"lon":13.4178005},{"type":"node","id":9755765791,"lat":52.4988578,"lon":13.4180496},{"type":"node","id":9755765792,"lat":52.498945,"lon":13.4185303},{"type":"node","id":9755765793,"lat":52.4989105,"lon":13.4183556},{"type":"node","id":9755765794,"lat":52.4989029,"lon":13.4182409},{"type":"node","id":9755765795,"lat":52.4989136,"lon":13.4180594},{"type":"node","id":9755765796,"lat":52.4989131,"lon":13.4179698},{"type":"node","id":9755765797,"lat":52.4989113,"lon":13.4179503},{"type":"node","id":9755765798,"lat":52.4989014,"lon":13.4178632},{"type":"node","id":9755765801,"lat":52.4988339,"lon":13.4171528},{"type":"node","id":9755765802,"lat":52.4988682,"lon":13.4171447},{"type":"node","id":9755765803,"lat":52.4987859,"lon":13.4171641},{"type":"node","id":9755765804,"lat":52.4988426,"lon":13.4174945},{"type":"node","id":9755765805,"lat":52.498836,"lon":13.4171893},{"type":"node","id":9755765806,"lat":52.498968,"lon":13.4170504},{"type":"node","id":9755765807,"lat":52.4989399,"lon":13.4170593},{"type":"node","id":9755765808,"lat":52.4990033,"lon":13.4170394},{"type":"node","id":9755765809,"lat":52.4990143,"lon":13.4171759},{"type":"node","id":9755765810,"lat":52.4989953,"lon":13.4172576},{"type":"node","id":9755765811,"lat":52.4989706,"lon":13.4172661},{"type":"node","id":9755765812,"lat":52.4990201,"lon":13.4172491},{"type":"node","id":9755765813,"lat":52.4987831,"lon":13.4170634},{"type":"node","id":9755765814,"lat":52.4988659,"lon":13.417081},{"type":"node","id":9755765815,"lat":52.4988058,"lon":13.4176822},{"type":"node","id":9755765816,"lat":52.4988061,"lon":13.4176393},{"type":"node","id":9755771317,"lat":52.4988722,"lon":13.4176414},{"type":"node","id":9755771318,"lat":52.499025,"lon":13.4178705},{"type":"node","id":9755771319,"lat":52.4990016,"lon":13.4175249},{"type":"node","id":9755771321,"lat":52.499301,"lon":13.4176803},{"type":"node","id":9755771322,"lat":52.4992542,"lon":13.4176233},{"type":"node","id":9755771323,"lat":52.4992885,"lon":13.4178485},{"type":"node","id":9755771324,"lat":52.4992739,"lon":13.418112},{"type":"node","id":9755771325,"lat":52.4992891,"lon":13.4182462},{"type":"node","id":9755771326,"lat":52.4992857,"lon":13.4183253},{"type":"node","id":9755771342,"lat":52.4990796,"lon":13.4186288},{"type":"node","id":9755771345,"lat":52.4990368,"lon":13.4186284},{"type":"node","id":9755771363,"lat":52.4986551,"lon":13.4184225},{"type":"node","id":9755771364,"lat":52.4987211,"lon":13.4182906},{"type":"node","id":9755771365,"lat":52.4988538,"lon":13.4184298},{"type":"node","id":10882785039,"lat":52.4992775,"lon":13.4176517},{"type":"node","id":10882843023,"lat":52.4988766,"lon":13.4157323},{"type":"node","id":10882843024,"lat":52.4988702,"lon":13.4156815},{"type":"node","id":10882843025,"lat":52.4989093,"lon":13.4161307},{"type":"node","id":10882843027,"lat":52.4988249,"lon":13.4153136},{"type":"node","id":10882843028,"lat":52.4988182,"lon":13.4152603},{"type":"node","id":11350559191,"lat":52.4985325,"lon":13.4152921},{"type":"node","id":11350559193,"lat":52.4982491,"lon":13.4184399},{"type":"node","id":11350559195,"lat":52.4978597,"lon":13.4186561},{"type":"node","id":11800112292,"lat":52.4985984,"lon":13.4178347},{"type":"node","id":12078295041,"lat":52.4986371,"lon":13.4179309},{"type":"node","id":12078295042,"lat":52.498656,"lon":13.4178546},{"type":"node","id":12078295043,"lat":52.4986364,"lon":13.4178551},{"type":"node","id":12078295044,"lat":52.4986543,"lon":13.4177336},{"type":"node","id":12078295045,"lat":52.4986354,"lon":13.4178115},{"type":"node","id":12078295046,"lat":52.4986347,"lon":13.4177341},{"type":"node","id":12400300664,"lat":52.4989985,"lon":13.4179876},{"type":"node","id":12400300665,"lat":52.4990233,"lon":13.4179581},{"type":"node","id":12400300666,"lat":52.4990033,"lon":13.417911},{"type":"node","id":12400300678,"lat":52.4987732,"lon":13.4179368},{"type":"node","id":12400347014,"lat":52.4989644,"lon":13.4180583},{"type":"node","id":12400347015,"lat":52.4989819,"lon":13.4180556},{"type":"node","id":12400347016,"lat":52.4989727,"lon":13.4180567},{"type":"node","id":12400347017,"lat":52.4989886,"lon":13.4184866},{"type":"node","id":12400347018,"lat":52.4990057,"lon":13.4184845},{"type":"node","id":12484239149,"lat":52.4981233,"lon":13.4168972},{"type":"node","id":12484239150,"lat":52.498055,"lon":13.4171512},{"type":"node","id":12484239153,"lat":52.4983277,"lon":13.4183058},{"type":"node","id":12484239154,"lat":52.4983892,"lon":13.418285},{"type":"node","id":12484239155,"lat":52.4984939,"lon":13.4181957},{"type":"node","id":12484239156,"lat":52.498476,"lon":13.4180476},{"type":"node","id":12484239157,"lat":52.4983028,"lon":13.4175838},{"type":"node","id":12484239158,"lat":52.4981656,"lon":13.4172289},{"type":"node","id":12484239159,"lat":52.4982332,"lon":13.4169756},{"type":"node","id":12484239160,"lat":52.4986319,"lon":13.417258},{"type":"node","id":12484239161,"lat":52.4987151,"lon":13.4172296},{"type":"node","id":12484239162,"lat":52.4986487,"lon":13.4167044},{"type":"node","id":12484239163,"lat":52.4987041,"lon":13.4167429},{"type":"node","id":4340070736,"lat":52.5044411,"lon":13.411394},{"type":"node","id":29787640,"lat":52.4991367,"lon":13.4221138},{"type":"node","id":1232860280,"lat":52.4990801,"lon":13.4220129},{"type":"node","id":2512591854,"lat":52.4991017,"lon":13.4227543},{"type":"node","id":2512591855,"lat":52.4991313,"lon":13.4227346},{"type":"node","id":3854467713,"lat":52.499088,"lon":13.4223637},{"type":"node","id":3854467714,"lat":52.4990966,"lon":13.4225609},{"type":"node","id":3854467715,"lat":52.4991346,"lon":13.4224185},{"type":"node","id":3854467716,"lat":52.499137,"lon":13.4222669},{"type":"node","id":3854467717,"lat":52.4991319,"lon":13.4225761},{"type":"node","id":3854467724,"lat":52.4991342,"lon":13.4253111},{"type":"node","id":3854467725,"lat":52.4991614,"lon":13.4252656},{"type":"node","id":3876481572,"lat":52.4991979,"lon":13.4271718},{"type":"node","id":3876481575,"lat":52.4992257,"lon":13.4271612}]}