{"version":0.6,"generator":"Overpass API 0.7.62.5 1bd436f1","osm3s":{"timestamp_osm_base":"2025-03-12T11:56:32Z","copyright":"The data included in this document is from www.openstreetmap.org. The data is made available under ODbL."},"elements":[{"type":"node","id":252956634,"lat":52.4832017,"lon":-1.8985698,"tags":{"abandoned:railway":"tram_stop","name":"Snow Hill"}},{"type":"node","id":2269442860,"lat":52.4834844,"lon":-1.8984727,"tags":{"entrance":"yes","source":"visual survey; estimate"}},{"type":"node","id":2526028775,"lat":52.4834818,"lon":-1.8982544,"tags":{"brand":"KPMG","brand:wikidata":"Q493751","brand:wikipedia":"en:KPMG","name":"KPMG","office":"consulting"}},{"type":"node","id":2526028802,"lat":52.4832947,"lon":-1.8988304,"tags":{"level":"0","name":"Thorough Bread","shop":"convenience"}},{"type":"node","id":2526028824,"lat":52.4832326,"lon":-1.8989883,"tags":{"level":"0","shop":"ticket","ticket":"train"}},{"type":"node","id":2636547690,"lat":52.4836065,"lon":-1.8982962,"tags":{"name":"DWF","office":"lawyer"}},{"type":"node","id":2714636541,"lat":52.4830798,"lon":-1.898202,"tags":{"alt_name":"GWR Mosaic","artist_name":"Oliver Budd, after Kenneth Budd","artwork_type":"mosaic","name":"Snow Hill Mural","source":"survey;estimate;signatue","tourism":"artwork"}},{"type":"node","id":2740368965,"lat":52.4830453,"lon":-1.8980052,"tags":{"alt_name":"GWR Mosaic","artist_name":"Oliver Budd, after Kenneth Budd","artwork_type":"mosaic","name":"Snow Hill Mural","source":"survey;estimate;signatue","tourism":"artwork"}},{"type":"node","id":2846361438,"lat":52.4832789,"lon":-1.899042,"tags":{"artwork:location":"bottom of wall opposite ticket barrier","artwork:material":"tile","artwork_type":"glazed tile","level":"0","name":"The Station Cat","source":"survey","tourism":"artwork"}},{"type":"node","id":3225052074,"lat":52.4833398,"lon":-1.8982567,"tags":{"addr:city":"Birmingham","addr:postcode":"B4 6GH","addr:street":"Snow Hill Queensway","amenity":"bar","disused":"yes","fhrs:id":"777633","fixme:addr3":"Birmingham","name":"Bar Opus","source":"survey"}},{"type":"node","id":3830364721,"lat":52.4832623,"lon":-1.8988232,"tags":{"amenity":"vending_machine","level":"0","vending":"tickets"}},{"type":"node","id":3830364722,"lat":52.4833235,"lon":-1.8990194,"tags":{"amenity":"cafe"}},{"type":"node","id":4038486132,"lat":52.4833613,"lon":-1.8988974,"tags":{"highway":"elevator","source":"estimate"}},{"type":"node","id":4038486133,"lat":52.483372,"lon":-1.8989474,"tags":{"door":"no","level":"0"}},{"type":"node","id":4038486134,"lat":52.483385,"lon":-1.8989188,"tags":{"door":"no","level":"0"}},{"type":"node","id":4223776425,"lat":52.4836337,"lon":-1.8987464,"tags":{"amenity":"bench","source":"visual survey; estimate"}},{"type":"node","id":4223776426,"lat":52.4836795,"lon":-1.8987733,"tags":{"natural":"tree","source":"visual survey; estimate"}},{"type":"node","id":5379394713,"lat":52.483169,"lon":-1.8990535,"tags":{"amenity":"bicycle_parking","bicycle_parking":"stands","capacity":"36","covered":"yes","level":"0","source":"bcc"}},{"type":"node","id":5461779476,"lat":52.4831767,"lon":-1.8990432,"tags":{"amenity":"bicycle_repair_station","level":"0","source":"survey"}},{"type":"node","id":6863876839,"lat":52.4831114,"lon":-1.898062,"tags":{"railway":"tram_crossing"}},{"type":"node","id":6863876840,"lat":52.4831435,"lon":-1.8980466,"tags":{"railway":"tram_crossing"}},{"type":"node","id":7033831826,"lat":52.4835577,"lon":-1.8981256,"tags":{"addr:city":"Birmingham","addr:postcode":"B4 6GH","addr:street":"Snow Hill Queensway"}},{"type":"node","id":7033831827,"lat":52.4835888,"lon":-1.8981671,"tags":{"addr:city":"Birmingham","addr:postcode":"B4 6GB","addr:street":"Snow Hill Queensway"}},{"type":"node","id":8032170434,"lat":52.483695,"lon":-1.89843,"tags":{"addr:city":"Birmingham","addr:postcode":"B4 6FG","addr:street":"Snow Hill Queensway"}},{"type":"node","id":9605287461,"lat":52.4832496,"lon":-1.8989277,"tags":{"access":"customers","barrier":"turnstile","horse":"no","motor_vehicle":"no","wheelchair":"yes"}}]}