{"version":0.6,"generator":"Overpass API 0.7.62.5 1bd436f1","osm3s":{"timestamp_osm_base":"2025-03-12T11:56:32Z","copyright":"The data included in this document is from www.openstreetmap.org. The data is made available under ODbL."},"elements":[{"type":"way","id":17269646,"nodes":[178928487,178928727],"tags":{"emergency":"yes","highway":"pedestrian","lit":"yes","name":"Pinfold Street","smoothness":"excellent","surface":"paving_stones"}},{"type":"way","id":23364072,"nodes":[9605287473,252972889,12536974766,1083838611,1273082046,4600224337,252972890,1273082019,1273082044,252972891,1126468936,7116174851,178928727,3785139557,310675207,1753953457,310689036,365939040,1753953446,865174285,252972892,1753953451,365939038,1335373250,9605287470,252972893,9605287471,442338763,622138548,310648873,6792082378,310648872,272888876,1335375091,622137827,1335375101,1335375097,1335375089,1335375088,622137828,1335375094,2495096240,11486980207,622133297,11486980211,11486980212,11486980213,11486980214,11486980216,11486980208,9850453690,11486980210,9605287473],"tags":{"area":"yes","area:highway":"pedestrian"}},{"type":"way","id":25077944,"nodes":[272884497,272884498],"tags":{"designation":"public_footpath","highway":"footway","lit":"yes","prow_ref":"Birmingham FP 2249","smoothness":"excellent","source:prow_ref":"birmingham_city_council_prow_gis_data","surface":"paving_stones"}},{"type":"way","id":25078013,"nodes":[272885440,21392370],"tags":{"highway":"footway","lit":"yes","surface":"paving_stones"}},{"type":"way","id":25078183,"nodes":[272888218,1083838596,272888219,1083838615,865140420,5653884187,1273082046,1083838611,272888218],"tags":{"addr:city":"Birmingham","addr:housenumber":"71","addr:postcode":"B2 4DU","addr:street":"New Street","building":"yes","building:levels":"5","height":"41","name":"Waterloo House","source":"visual survey; estimate","source:height":"emuanalytics"}},{"type":"way","id":27816294,"nodes":[4600224337,272884498,1753953461,21392370],"tags":{"bicycle":"designated","emergency":"yes","highway":"pedestrian","incline":"slight","lit":"yes","name":"New Street","postal_code":"B2","smoothness":"excellent","surface":"paving_stones","wheelchair":"yes","wikidata":"Q7011971","wikipedia":"en:New Street, Birmingham"}},{"type":"way","id":28514978,"nodes":[1753953425,365939041,3453844622,3453844621,428506393,1753953437,365939042,1753953433,865173966,865174245,1753953412,1753953404,1753953410,1753953402,865173957,865174289,1753953425],"tags":{"addr:city":"Birmingham","addr:housenumber":"1","addr:postcode":"B2 4AA","addr:street":"Pinfold Street","amenity":"post_office","brand":"Post Office","brand:wikidata":"Q1783168","building":"yes","check_date:opening_hours":"2024-08-23","fhrs:id":"598457","height":"35","induction_loop":"yes","name":"Birmingham Post Office","opening_hours":"Mo,We-Fr 09:00-18:00; Tu 09:30-18:00; Sa 09:00-17:30","ref:pol_id":"17912","source":"visual survey;cities_revealed_aerial_ imagery","source:height":"emuanalytics","source:opening_hours":"pol_branch_list_2018-02","source:post_office":"pol_branch_list_2018-01","website":"https:\/\/www.postoffice.co.uk\/branch-finder\/0132012\/birmingham","wheelchair":"yes"}},{"type":"way","id":30927178,"nodes":[178928727,5115387001],"tags":{"access":"no","bicycle":"no","emergency":"yes","foot":"yes","gritting":"priority_3","highway":"pedestrian","lane_markings":"no","lit":"yes","maintenance":"gritting","maxspeed":"20 mph","name":"Pinfold Street","note":"trams only","postal_code":"B2","sidewalk":"both","sidewalk:both:surface":"paving_stones","smoothness":"good","source":"survey","surface":"paving_stones"}},{"type":"way","id":72894533,"nodes":[1126468937,1126468928,1126468947,865174134,7237585841,865174192,7237585842,1126468937],"tags":{"addr:city":"Birmingham","addr:housenumber":"92;93","addr:postcode":"B2 4BA","addr:street":"New Street","amenity":"restaurant","building":"retail","building:levels":"4","fhrs:id":"1493793","height":"26","heritage":"2","heritage:operator":"Historic England","name":"Fat Burgers","source:height":"emuanalytics"}},{"type":"way","id":86684466,"nodes":[865173966,1753953433,365939042,365939044,4010944371,1753953438,4010944372,1753953439,4010944373,365939049,4010944374,1753953442,4010944375,1753953443,4010944376,365939046,4010944377,1753953447,4010944378,365939047,4010944379,1753953445,4010944380,365939045,4010944381,365939043,1753953457,310689036,365939040,1753953446,865174285,252972892,1753953441,313225962,1753953428,1753953426,1753953422,865174334,1753953420,1753953421,1753953424,865173966],"tags":{"addr:city":"Birmingham","addr:postcode":"B2 4DN","addr:street":"Victoria Square","architect":"Sir Henry Tanner","building":"heritage","height":"35","heritage":"2","heritage:operator":"Historic England","listed_status":"Grade II","name":"Victoria Square House","previous_name":"Head Post Office","source":"visual survey;cities_revealed_aerial_imagery;Birmingham_Civic_Society","source:height":"emuanalytics","start_date":"1891","wikidata":"Q15976642","wikipedia":"en:Victoria Square House"}},{"type":"way","id":89722211,"nodes":[2560024838,865140463,865140242,1273082014,8015435061,1272977519,7237585846,1272977550,2560024838],"tags":{"addr:city":"Birmingham","addr:housenumber":"66-68","addr:postcode":"B2 4DU","addr:street":"New Street","building":"apartments","building:levels":"5","name":"New Street Chambers"}},{"type":"way","id":97246693,"nodes":[1126468919,1126468928,1126468947,865174013,865174119,1126468919],"tags":{"addr:city":"Birmingham","addr:housenumber":"3-17","addr:postcode":"B2 4BG","addr:street":"Ethel Street","building":"retail","height":"26","heritage":"2","heritage:operator":"Historic England","listed_status":"Grade II","source":"visual survey;cities_revealed_aerial_imagery","source:height":"emuanalytics"}},{"type":"way","id":97246696,"nodes":[4012474783,1126468921,1126468930,1273082039,4012474783],"tags":{"addr:city":"Birmingham","addr:housenumber":"87","addr:postcode":"B2 4BA","addr:street":"New Street","amenity":"social_facility","building":"retail","building:levels":"4","height":"26","heritage":"2","heritage:operator":"Historic England","listed_status":"Grade II","name":"Pop In","operator":"Royal British Legion","social_facility":"armed services veterans","source":"visual survey;cities_revealed_aerial_imagery","source:height":"emuanalytics","website":"https:\/\/www.britishlegion.org.uk\/"}},{"type":"way","id":97246697,"nodes":[1126468937,1126468928,1126468919,1126468923,1273082027,1126468930,1126468921,7237585844,7237585845,1126468937],"tags":{"addr:city":"Birmingham","addr:housenumber":"88-91","addr:postcode":"B2 4BA","addr:street":"New Street","building":"retail","building:levels":"4","check_date":"2021-09-04","disused:shop":"supermarket","height":"26","heritage":"2","heritage:operator":"Historic England","listed_status":"Grade II","source":"visual survey;cities_revealed_aerial_imagery","source:height":"emuanalytics"}},{"type":"way","id":97246699,"nodes":[1273082027,1126468923,1272977527,1273082027],"tags":{"addr:city":"Birmingham","addr:housenumber":"45","addr:postcode":"B2 4AY","addr:street":"Pinfold Street","building":"retail","building:levels":"4","height":"26","heritage":"2","heritage:operator":"Historic England","name":"Yun Ling Herbal & Natural Care","opening_hours":"Mo-Sa 10:00-19:00; PH 11:00-16:00","roof:levels":"1","shop":"herbalist","source:height":"emuanalytics"}},{"type":"way","id":111813629,"nodes":[1273082039,1126468930,1273082027,1272977527,1272977516,1273082033,1273082039],"tags":{"addr:city":"Birmingham","addr:housenumber":"47","addr:postcode":"B2 4AY","addr:street":"Pinfold Street","building":"retail","height":"26","heritage":"2","heritage:operator":"Historic England","listed_status":"Grade II","name":"Ethos","shop":"florist","source":"visual survey;cities_revealed_aerial_imagery","source:height":"emuanalytics"}},{"type":"way","id":111813630,"nodes":[1273082044,1273082019,3205042343,1126468917,1273082009,1273082044],"tags":{"addr:city":"Birmingham","addr:housenumber":"82-83","addr:postcode":"B2 4BA","addr:street":"New Street","addr:suburb":"Ladywood","amenity":"fast_food","building":"retail","building:levels":"4","disused:shop":"yes","fhrs:id":"1430481","height":"26","heritage":"2","heritage:operator":"Historic England","name":"Tortilla","source:addr":"FHRS Open Data","source:height":"emuanalytics"}},{"type":"way","id":111813631,"nodes":[1273081998,1126468945,1273082011,1272977560,1272977536,1273081998],"tags":{"addr:city":"Birmingham","addr:housenumber":"49","addr:postcode":"B2 4AY","addr:street":"Pinfold Street","building":"retail","height":"26","heritage":"2","heritage:operator":"Historic England","leisure":"tanning_salon","listed_status":"Grade II","name":"The Tanning Shop","opening_hours":"Mo-Fr 10:00-19:00; Sa 09:00-18:00; Su 11:00-18:00","phone":"+44 121 643 8281","smoking":"no","source":"visual survey;cities_revealed_aerial_imagery","source:height":"emuanalytics","website":"https:\/\/thetanningshop.co.uk\/birmingham\/"}},{"type":"way","id":111813633,"nodes":[1126468917,3205042343,1273081998,1272977536,1272977503,1126468917],"tags":{"addr:city":"Birmingham","addr:housenumber":"50","addr:postcode":"B2 4AY","addr:street":"Pinfold Street","building":"retail","building:levels":"5","disused:shop":"yes","height":"26","heritage":"2","heritage:operator":"Historic England","roof:levels":"1","source:height":"emuanalytics"}},{"type":"way","id":111813637,"nodes":[1272977503,4012489466,1126468936,1273082009,1126468917,1272977503],"tags":{"addr:city":"Birmingham","addr:housenumber":"51","addr:postcode":"B2 4AY","addr:street":"Pinfold Street","building":"retail","building:levels":"5","height":"26","heritage":"2","heritage:operator":"Historic England","listed_status":"Grade II","roof:levels":"1","source":"visual survey;cities_revealed_aerial_imagery","source:height":"emuanalytics"}},{"type":"way","id":111813638,"nodes":[3205042343,1273082019,252972890,4012485305,1126468945,1273081998,3205042343],"tags":{"addr:city":"Birmingham","addr:housenumber":"84","addr:postcode":"B2 4BA","addr:street":"New Street","building":"retail","building:levels":"4","disused:shop":"yes","height":"26","heritage":"2","heritage:operator":"Historic England","source:height":"emuanalytics"}},{"type":"way","id":111813640,"nodes":[1273082009,1126468936,252972891,5570555032,1273082044,1273082009],"tags":{"addr:city":"Birmingham","addr:housenumber":"80;81","addr:postcode":"B2 4BA","addr:street":"New Street","building":"retail","building:levels":"4","height":"26","heritage":"2","heritage:operator":"Historic England","listed_status":"Grade II","shop":"vacant","source":"visual survey;cities_revealed_aerial_imagery","source:height":"emuanalytics","was:name":"Supercuts","was:shop":"hairdresser"}},{"type":"way","id":135907302,"nodes":[1273082011,4012485305,4012485308,4012485306,4012485307,1273082039,1273082033,1272977516,1272977560,1273082011],"tags":{"addr:city":"Birmingham","addr:housenumber":"84","addr:postcode":"B2 4BA","addr:street":"New Street","addr:suburb":"Ladywood","amenity":"pub","building":"yes","fhrs:id":"1699168","height":"26","heritage":"2","heritage:operator":"Historic England","indoor_seating":"yes","listed_status":"Grade II","name":"Post Office Vaults","outdoor_seating":"no","source":"visual survey;cities_revealed_aerial_imagery","source:addr":"FHRS Open Data","source:height":"emuanalytics"}},{"type":"way","id":163717081,"nodes":[865174289,865174250,865174126,865174338,865173957,1753953402,1753953410,1753953404,313225965,11491326366,865174027,9939074832,1312314642,1312314635,11491326365,313225954,1753953425,865174289],"tags":{"addr:city":"Birmingham","addr:housename":"Victoria Square House","addr:postcode":"B2 4BU","addr:street":"Victoria Square","building":"office","building:levels":"6","height":"35","name":"Victoria Square House","roof:levels":"1","source":"cities_revealed_aerial_imagery;visual survey;cities_revealed_aerial_ imagery","source:height":"emuanalytics","wikidata":"Q15976642"}},{"type":"way","id":163717113,"nodes":[1753953475,1753953470,1753953461],"tags":{"highway":"footway","lit":"yes","smoothness":"excellent","source":"survey","surface":"paving_stones"}},{"type":"way","id":249394708,"nodes":[865140463,2560024838,865140420,1083838615,865140463],"tags":{"addr:city":"Birmingham","addr:housenumber":"69","addr:postcode":"B2 4DU","addr:street":"New Street","building":"apartments","building:levels":"4","heritage":"6","heritage:operator":"Birmingham City Council","listed_status":"local_grade_B","name":"New Street Chambers"}},{"type":"way","id":375125196,"nodes":[3785138752,3785138754,3785138755,3785138756],"tags":{"electrified":"no","railway":"tram","source":"WMCA"}},{"type":"way","id":398496680,"nodes":[1273082039,4012474783,4012485306,4012485307,1273082039],"tags":{"addr:city":"Birmingham","addr:housenumber":"85","addr:postcode":"B2 4BA","addr:street":"New Street","amenity":"fast_food","brand":"Greggs","brand:wikidata":"Q3403981","brand:wikipedia":"en:Greggs","building":"retail","building:levels":"4","contact:website":"https:\/\/www.greggs.co.uk\/shop-finder?shop-code=1196","cuisine":"sandwich;bakery","fhrs:id":"598471","height":"26","heritage":"2","heritage:operator":"Historic England","listed_status":"Grade II","name":"Greggs","opening_hours":"Mo-Sa 06:30-20:00; Su 07:30-17:00","source":"visual survey;cities_revealed_aerial_imagery","source:height":"emuanalytics","takeaway":"yes"}},{"type":"way","id":418409180,"nodes":[5179337126,5179337127,5179337128,4188380213,1273082021,865140217,1273082036,865140045,865139973,1273082028,9605287467,865140281,1272977496,1272977533,1272977531,1272977518,8754355067,1273082014,7237585846,2560024838,865140420,5653884187,1273082046,4600224337,252972890,4012485305,4012485306,4012474783,1126468921,1126468937,7237585842,865174192,7237585841,865174134,1126468947,865174013,9605287466,5118393797,865174235,1154582830,865174071,2517583494,1154582851,1154582867,1154582817,5179337126],"tags":{"area":"yes","bicycle":"designated","highway":"pedestrian","lit":"yes","surface":"paving_stones"}},{"type":"way","id":464988307,"nodes":[21693258,5179337128,305428729,308390084,4600224338,4600224337],"tags":{"bicycle":"designated","emergency":"yes","highway":"pedestrian","incline":"slight","lit":"yes","maxspeed":"20 mph","name":"New Street","postal_code":"B2","smoothness":"excellent","source:maxspeed":"TRO","surface":"paving_stones","wheelchair":"yes","wikidata":"Q7011971","wikipedia":"en:New Street, Birmingham"}},{"type":"way","id":533145511,"nodes":[3785138756,3785139557,3785139558,3785139559,3785139561,3785139562,3785139563,3785139567,3785139568,9605287468,8064476487,3785139569],"tags":{"electrified":"no","railway":"tram","source":"WMCA"}},{"type":"way","id":843178530,"nodes":[6957345555,11491326357,6957345557,6957345560,6957345563,6957345564,7116174851,6957345568,6957345567,6957345566,3754517409],"tags":{"electrified":"no","railway":"tram"}},{"type":"way","id":843178531,"nodes":[21392370,11491326356,11491326355,11491326354,11491326353,272885610,1753953465],"tags":{"bicycle":"designated","highway":"footway","lit":"yes","segregated":"no","smoothness":"excellent","source":"survey","surface":"paving_stones"}},{"type":"way","id":843178532,"nodes":[21392370,6957345563,178928487,9605287469,11491326358,11491326360,11491326359,8651392377,208087],"tags":{"emergency":"yes","highway":"pedestrian","incline":"slight","lit":"yes","name":"New Street","postal_code":"B2","smoothness":"excellent","surface":"paving_stones","wheelchair":"yes","wikidata":"Q7011971","wikipedia":"en:New Street, Birmingham"}},{"type":"node","id":208087,"lat":52.479403,"lon":-1.9030014},{"type":"node","id":21392370,"lat":52.4794098,"lon":-1.90214},{"type":"node","id":178928487,"lat":52.4794154,"lon":-1.9024893},{"type":"node","id":178928727,"lat":52.4793553,"lon":-1.9023684},{"type":"node","id":252972889,"lat":52.4798815,"lon":-1.9017562},{"type":"node","id":252972890,"lat":52.4793502,"lon":-1.9019328},{"type":"node","id":252972891,"lat":52.4793664,"lon":-1.9022227},{"type":"node","id":252972892,"lat":52.4792567,"lon":-1.9028224},{"type":"node","id":252972893,"lat":52.4793485,"lon":-1.9031808},{"type":"node","id":272884497,"lat":52.4797963,"lon":-1.901903},{"type":"node","id":272884498,"lat":52.479406,"lon":-1.9019766},{"type":"node","id":272885440,"lat":52.4796084,"lon":-1.9023853},{"type":"node","id":272885610,"lat":52.4795049,"lon":-1.9029098},{"type":"node","id":272888218,"lat":52.4798492,"lon":-1.9016553},{"type":"node","id":272888219,"lat":52.4797151,"lon":-1.9016888},{"type":"node","id":272888876,"lat":52.4798605,"lon":-1.9032964},{"type":"node","id":305428729,"lat":52.4793336,"lon":-1.900746},{"type":"node","id":308390084,"lat":52.4793521,"lon":-1.9010273},{"type":"node","id":310648872,"lat":52.4799193,"lon":-1.9033782},{"type":"node","id":310648873,"lat":52.4798585,"lon":-1.9036859},{"type":"node","id":310675207,"lat":52.4793463,"lon":-1.9024156},{"type":"node","id":310689036,"lat":52.4793831,"lon":-1.9025357},{"type":"node","id":313225954,"lat":52.478762,"lon":-1.9014155},{"type":"node","id":313225962,"lat":52.4791495,"lon":-1.9027167},{"type":"node","id":313225965,"lat":52.4788764,"lon":-1.9025011},{"type":"node","id":365939038,"lat":52.4792127,"lon":-1.9030089},{"type":"node","id":365939040,"lat":52.4793658,"lon":-1.9025489},{"type":"node","id":365939041,"lat":52.4792348,"lon":-1.902273},{"type":"node","id":365939042,"lat":52.4791924,"lon":-1.9023972},{"type":"node","id":365939043,"lat":52.4793409,"lon":-1.9024905},{"type":"node","id":365939044,"lat":52.4792651,"lon":-1.9024481},{"type":"node","id":365939045,"lat":52.4793006,"lon":-1.9024583},{"type":"node","id":365939046,"lat":52.479305,"lon":-1.9023794},{"type":"node","id":365939047,"lat":52.4793157,"lon":-1.9024188},{"type":"node","id":365939049,"lat":52.4792666,"lon":-1.9023822},{"type":"node","id":428506393,"lat":52.4792234,"lon":-1.9023064},{"type":"node","id":442338763,"lat":52.4793911,"lon":-1.9032105},{"type":"node","id":622133297,"lat":52.4803361,"lon":-1.9022824},{"type":"node","id":622137827,"lat":52.4798783,"lon":-1.9031547},{"type":"node","id":622137828,"lat":52.4800686,"lon":-1.9027106},{"type":"node","id":622138548,"lat":52.4794336,"lon":-1.9032538},{"type":"node","id":865139973,"lat":52.4794162,"lon":-1.900689},{"type":"node","id":865140242,"lat":52.4796802,"lon":-1.9011854},{"type":"node","id":865140281,"lat":52.4794181,"lon":-1.9007678},{"type":"node","id":865140420,"lat":52.4794836,"lon":-1.9017325},{"type":"node","id":865140463,"lat":52.4797012,"lon":-1.9015412},{"type":"node","id":865173957,"lat":52.4790067,"lon":-1.9023496},{"type":"node","id":865173966,"lat":52.4790921,"lon":-1.9026347},{"type":"node","id":865174013,"lat":52.4788436,"lon":-1.9012144},{"type":"node","id":865174027,"lat":52.4787107,"lon":-1.9023287},{"type":"node","id":865174071,"lat":52.4792656,"lon":-1.9009263},{"type":"node","id":865174119,"lat":52.4788481,"lon":-1.901308},{"type":"node","id":865174126,"lat":52.4787787,"lon":-1.9018629},{"type":"node","id":865174134,"lat":52.4792843,"lon":-1.9011653},{"type":"node","id":865174192,"lat":52.4793071,"lon":-1.9011877},{"type":"node","id":865174235,"lat":52.478857,"lon":-1.9009978},{"type":"node","id":865174245,"lat":52.4790794,"lon":-1.9026755},{"type":"node","id":865174250,"lat":52.4788494,"lon":-1.9019228},{"type":"node","id":865174285,"lat":52.4792974,"lon":-1.9028076},{"type":"node","id":865174289,"lat":52.4790318,"lon":-1.9022597},{"type":"node","id":865174334,"lat":52.4791211,"lon":-1.9027045},{"type":"node","id":865174338,"lat":52.4787126,"lon":-1.90211},{"type":"node","id":1083838596,"lat":52.4797454,"lon":-1.9015742},{"type":"node","id":1083838611,"lat":52.4797865,"lon":-1.9018347},{"type":"node","id":1083838615,"lat":52.4796651,"lon":-1.9016987},{"type":"node","id":1126468917,"lat":52.4793172,"lon":-1.9020619},{"type":"node","id":1126468919,"lat":52.4789322,"lon":-1.9014643},{"type":"node","id":1126468921,"lat":52.4793312,"lon":-1.9016967},{"type":"node","id":1126468923,"lat":52.4790823,"lon":-1.9017456},{"type":"node","id":1126468928,"lat":52.4792375,"lon":-1.9014123},{"type":"node","id":1126468930,"lat":52.4792299,"lon":-1.9017169},{"type":"node","id":1126468936,"lat":52.4793431,"lon":-1.9022447},{"type":"node","id":1126468937,"lat":52.4793161,"lon":-1.9013989},{"type":"node","id":1126468945,"lat":52.4792786,"lon":-1.9019008},{"type":"node","id":1126468947,"lat":52.4792249,"lon":-1.9011719},{"type":"node","id":1154582830,"lat":52.4791315,"lon":-1.9009536},{"type":"node","id":1154582851,"lat":52.4792458,"lon":-1.9006822},{"type":"node","id":1154582867,"lat":52.4792377,"lon":-1.9005823},{"type":"node","id":1272977496,"lat":52.4794217,"lon":-1.9008216},{"type":"node","id":1272977503,"lat":52.4792725,"lon":-1.902109},{"type":"node","id":1272977516,"lat":52.4791478,"lon":-1.9018707},{"type":"node","id":1272977518,"lat":52.4794396,"lon":-1.9010918},{"type":"node","id":1272977519,"lat":52.4794602,"lon":-1.9013953},{"type":"node","id":1272977527,"lat":52.4791174,"lon":-1.9018126},{"type":"node","id":1272977531,"lat":52.4794313,"lon":-1.9009668},{"type":"node","id":1272977533,"lat":52.479427,"lon":-1.9009011},{"type":"node","id":1272977536,"lat":52.4792162,"lon":-1.9020014},{"type":"node","id":1272977550,"lat":52.4794692,"lon":-1.901524},{"type":"node","id":1272977560,"lat":52.4791862,"lon":-1.9019419},{"type":"node","id":1273081998,"lat":52.4792853,"lon":-1.9019895},{"type":"node","id":1273082009,"lat":52.4793242,"lon":-1.9021225},{"type":"node","id":1273082011,"lat":52.4792052,"lon":-1.9019156},{"type":"node","id":1273082014,"lat":52.4794492,"lon":-1.9012357},{"type":"node","id":1273082019,"lat":52.4793531,"lon":-1.9019779},{"type":"node","id":1273082027,"lat":52.4791634,"lon":-1.9017298},{"type":"node","id":1273082028,"lat":52.4794231,"lon":-1.900689},{"type":"node","id":1273082033,"lat":52.4791936,"lon":-1.9018077},{"type":"node","id":1273082039,"lat":52.4792365,"lon":-1.901802},{"type":"node","id":1273082044,"lat":52.4793614,"lon":-1.9021049},{"type":"node","id":1273082046,"lat":52.4795098,"lon":-1.9019064},{"type":"node","id":1312314635,"lat":52.4786717,"lon":-1.9016657},{"type":"node","id":1312314642,"lat":52.4785444,"lon":-1.902104},{"type":"node","id":1335373250,"lat":52.4792304,"lon":-1.9030872},{"type":"node","id":1335375088,"lat":52.4800102,"lon":-1.9028128},{"type":"node","id":1335375089,"lat":52.4800435,"lon":-1.9028639},{"type":"node","id":1335375091,"lat":52.4798619,"lon":-1.9032363},{"type":"node","id":1335375094,"lat":52.4801197,"lon":-1.9026209},{"type":"node","id":1335375097,"lat":52.4799254,"lon":-1.9030699},{"type":"node","id":1335375101,"lat":52.4799023,"lon":-1.9031101},{"type":"node","id":1753953402,"lat":52.4789835,"lon":-1.9024152},{"type":"node","id":1753953404,"lat":52.479007,"lon":-1.9026197},{"type":"node","id":1753953410,"lat":52.4790452,"lon":-1.9024642},{"type":"node","id":1753953412,"lat":52.4790454,"lon":-1.9026492},{"type":"node","id":1753953420,"lat":52.4791201,"lon":-1.9026914},{"type":"node","id":1753953421,"lat":52.4791254,"lon":-1.9026775},{"type":"node","id":1753953422,"lat":52.4791254,"lon":-1.9027195},{"type":"node","id":1753953424,"lat":52.4791337,"lon":-1.9026689},{"type":"node","id":1753953425,"lat":52.4791346,"lon":-1.9021044},{"type":"node","id":1753953426,"lat":52.4791346,"lon":-1.9027269},{"type":"node","id":1753953428,"lat":52.4791448,"lon":-1.9027254},{"type":"node","id":1753953433,"lat":52.4791761,"lon":-1.9023803},{"type":"node","id":1753953437,"lat":52.4792068,"lon":-1.9023549},{"type":"node","id":1753953438,"lat":52.4792579,"lon":-1.9024215},{"type":"node","id":1753953439,"lat":52.4792599,"lon":-1.9023984},{"type":"node","id":1753953441,"lat":52.4792502,"lon":-1.9027947},{"type":"node","id":1753953442,"lat":52.4792787,"lon":-1.9023707},{"type":"node","id":1753953443,"lat":52.4792937,"lon":-1.9023702},{"type":"node","id":1753953445,"lat":52.479312,"lon":-1.9024397},{"type":"node","id":1753953446,"lat":52.4792926,"lon":-1.9027751},{"type":"node","id":1753953447,"lat":52.4793137,"lon":-1.902399},{"type":"node","id":1753953451,"lat":52.4792455,"lon":-1.902864},{"type":"node","id":1753953457,"lat":52.4793646,"lon":-1.9024777},{"type":"node","id":1753953461,"lat":52.4794082,"lon":-1.902028},{"type":"node","id":1753953465,"lat":52.4794856,"lon":-1.9030936},{"type":"node","id":1753953470,"lat":52.479534,"lon":-1.9020579},{"type":"node","id":1753953475,"lat":52.4797482,"lon":-1.9021152},{"type":"node","id":2495096240,"lat":52.4801321,"lon":-1.9026399},{"type":"node","id":2517583494,"lat":52.4792563,"lon":-1.9008114},{"type":"node","id":2560024838,"lat":52.4794735,"lon":-1.9015868},{"type":"node","id":3205042343,"lat":52.4793119,"lon":-1.9019841},{"type":"node","id":3453844621,"lat":52.4792263,"lon":-1.9022977},{"type":"node","id":3453844622,"lat":52.4792294,"lon":-1.9022888},{"type":"node","id":3754517409,"lat":52.4787964,"lon":-1.9011902},{"type":"node","id":3785138752,"lat":52.4787652,"lon":-1.901199},{"type":"node","id":3785138754,"lat":52.4788049,"lon":-1.9013571},{"type":"node","id":3785138755,"lat":52.4788431,"lon":-1.9014348},{"type":"node","id":3785138756,"lat":52.4793107,"lon":-1.9023262},{"type":"node","id":3785139557,"lat":52.47935,"lon":-1.9023962},{"type":"node","id":3785139558,"lat":52.479381,"lon":-1.9024556},{"type":"node","id":3785139559,"lat":52.4794018,"lon":-1.9025271},{"type":"node","id":3785139561,"lat":52.4794189,"lon":-1.9025911},{"type":"node","id":3785139562,"lat":52.4794308,"lon":-1.9026539},{"type":"node","id":3785139563,"lat":52.4794342,"lon":-1.902774},{"type":"node","id":3785139567,"lat":52.4794262,"lon":-1.9028605},{"type":"node","id":3785139568,"lat":52.4794106,"lon":-1.9029492},{"type":"node","id":3785139569,"lat":52.4793647,"lon":-1.9030779},{"type":"node","id":4010944371,"lat":52.4792602,"lon":-1.9024357},{"type":"node","id":4010944372,"lat":52.479258,"lon":-1.9024097},{"type":"node","id":4010944373,"lat":52.4792627,"lon":-1.9023898},{"type":"node","id":4010944374,"lat":52.4792722,"lon":-1.9023752},{"type":"node","id":4010944375,"lat":52.4792862,"lon":-1.9023688},{"type":"node","id":4010944376,"lat":52.4792996,"lon":-1.9023738},{"type":"node","id":4010944377,"lat":52.4793101,"lon":-1.9023883},{"type":"node","id":4010944378,"lat":52.4793154,"lon":-1.9024087},{"type":"node","id":4010944379,"lat":52.4793146,"lon":-1.9024296},{"type":"node","id":4010944380,"lat":52.4793071,"lon":-1.9024503},{"type":"node","id":4010944381,"lat":52.4792914,"lon":-1.9024634},{"type":"node","id":4012474783,"lat":52.4793378,"lon":-1.9017811},{"type":"node","id":4012485305,"lat":52.4793458,"lon":-1.9018872},{"type":"node","id":4012485306,"lat":52.4793449,"lon":-1.901873},{"type":"node","id":4012485307,"lat":52.4792436,"lon":-1.9018928},{"type":"node","id":4012485308,"lat":52.4793453,"lon":-1.9018803},{"type":"node","id":4012489466,"lat":52.4793371,"lon":-1.9022324},{"type":"node","id":4600224337,"lat":52.4794025,"lon":-1.9019217},{"type":"node","id":4600224338,"lat":52.4793818,"lon":-1.9015203},{"type":"node","id":5115387001,"lat":52.478808,"lon":-1.9013256},{"type":"node","id":5118393797,"lat":52.4788336,"lon":-1.9010049},{"type":"node","id":5570555032,"lat":52.4793624,"lon":-1.9021285},{"type":"node","id":5653884187,"lat":52.4794966,"lon":-1.9018693},{"type":"node","id":6792082378,"lat":52.4798856,"lon":-1.903577},{"type":"node","id":6957345555,"lat":52.479477,"lon":-1.9027582},{"type":"node","id":6957345557,"lat":52.4794599,"lon":-1.9025552},{"type":"node","id":6957345560,"lat":52.4794436,"lon":-1.9024834},{"type":"node","id":6957345563,"lat":52.4794198,"lon":-1.9024345},{"type":"node","id":6957345564,"lat":52.4793785,"lon":-1.902368},{"type":"node","id":6957345566,"lat":52.4788081,"lon":-1.9012678},{"type":"node","id":6957345567,"lat":52.4788263,"lon":-1.9013321},{"type":"node","id":6957345568,"lat":52.4792082,"lon":-1.9020625},{"type":"node","id":7116174851,"lat":52.4793541,"lon":-1.9023242},{"type":"node","id":7237585841,"lat":52.4792957,"lon":-1.9011765},{"type":"node","id":7237585842,"lat":52.4793116,"lon":-1.9012929},{"type":"node","id":7237585844,"lat":52.4793251,"lon":-1.901556},{"type":"node","id":7237585845,"lat":52.479319,"lon":-1.9014344},{"type":"node","id":7237585846,"lat":52.4794653,"lon":-1.9014679},{"type":"node","id":8015435061,"lat":52.4794545,"lon":-1.9013125},{"type":"node","id":8064476487,"lat":52.479378,"lon":-1.9030407},{"type":"node","id":8651392377,"lat":52.4794329,"lon":-1.9029118},{"type":"node","id":8754355067,"lat":52.4794435,"lon":-1.9011502},{"type":"node","id":9605287466,"lat":52.4788378,"lon":-1.901093},{"type":"node","id":9605287467,"lat":52.4794199,"lon":-1.9007391},{"type":"node","id":9605287468,"lat":52.4793943,"lon":-1.9029951},{"type":"node","id":9605287469,"lat":52.4794451,"lon":-1.902611},{"type":"node","id":9605287470,"lat":52.4793322,"lon":-1.9031679},{"type":"node","id":9605287471,"lat":52.4793656,"lon":-1.9031927},{"type":"node","id":9605287473,"lat":52.4798971,"lon":-1.9018241},{"type":"node","id":9850453690,"lat":52.4800686,"lon":-1.9023463},{"type":"node","id":9939074832,"lat":52.4785463,"lon":-1.9021187},{"type":"node","id":11486980207,"lat":52.4802121,"lon":-1.9025013},{"type":"node","id":11486980208,"lat":52.4800907,"lon":-1.9023561},{"type":"node","id":11486980210,"lat":52.4800429,"lon":-1.9023031},{"type":"node","id":11486980211,"lat":52.4802578,"lon":-1.9021858},{"type":"node","id":11486980212,"lat":52.4801992,"lon":-1.9022946},{"type":"node","id":11486980213,"lat":52.480158,"lon":-1.9023407},{"type":"node","id":11486980214,"lat":52.4801263,"lon":-1.9023598},{"type":"node","id":11486980216,"lat":52.4801106,"lon":-1.9023582},{"type":"node","id":11491326353,"lat":52.4795118,"lon":-1.902791},{"type":"node","id":11491326354,"lat":52.4795164,"lon":-1.902682},{"type":"node","id":11491326355,"lat":52.4795062,"lon":-1.9025635},{"type":"node","id":11491326356,"lat":52.4794903,"lon":-1.9024024},{"type":"node","id":11491326357,"lat":52.4794705,"lon":-1.9026443},{"type":"node","id":11491326358,"lat":52.479455,"lon":-1.9026944},{"type":"node","id":11491326359,"lat":52.479447,"lon":-1.9028287},{"type":"node","id":11491326360,"lat":52.4794532,"lon":-1.9027829},{"type":"node","id":11491326365,"lat":52.4787394,"lon":-1.9014782},{"type":"node","id":11491326366,"lat":52.4787743,"lon":-1.9023687},{"type":"node","id":12536974766,"lat":52.479863,"lon":-1.9017715},{"type":"node","id":21693258,"lat":52.4792846,"lon":-1.9002121},{"type":"node","id":865140045,"lat":52.4793967,"lon":-1.9004342},{"type":"node","id":865140217,"lat":52.4794046,"lon":-1.9004009},{"type":"node","id":1154582817,"lat":52.4792253,"lon":-1.9004291},{"type":"node","id":1273082021,"lat":52.4794185,"lon":-1.9003983},{"type":"node","id":1273082036,"lat":52.4794052,"lon":-1.9004276},{"type":"node","id":4188380213,"lat":52.4794226,"lon":-1.9003367},{"type":"node","id":5179337126,"lat":52.4792127,"lon":-1.9002735},{"type":"node","id":5179337127,"lat":52.4792505,"lon":-1.9003602},{"type":"node","id":5179337128,"lat":52.4792972,"lon":-1.9003538}]}