{"version":0.6,"generator":"Overpass API 0.7.62.5 1bd436f1","osm3s":{"timestamp_osm_base":"2025-03-12T11:55:30Z","copyright":"The data included in this document is from www.openstreetmap.org. The data is made available under ODbL."},"elements":[{"type":"way","id":4041159,"nodes":[21392372,4204911715,6249629006,1014970614,310650876,312743308,273113471,1154584302,273113456,5179337124,273113454],"tags":{"bicycle":"yes","highway":"pedestrian","lit":"yes","maxspeed":"20 mph","name":"New Street","postal_code":"B2","source:maxspeed":"TRO","surface":"paving_stones","wikidata":"Q7011971","wikipedia":"en:New Street, Birmingham"}},{"type":"way","id":25094465,"nodes":[313192430,273113466,696415327,10075827586,273113471],"tags":{"bicycle":"yes","highway":"pedestrian","lit":"yes","maxspeed":"20 mph","name":"Cannon Street","oneway":"yes","oneway:bicycle":"no","postal_code":"B2","source":"bing","source:maxspeed":"TRO","surface":"paving_stones"}},{"type":"way","id":28288643,"nodes":[310650880,310763659,1083128271,10075827585,273113456],"tags":{"highway":"pedestrian","lit":"yes","maxspeed":"20 mph","motor_vehicle":"no","name":"Needless Alley","postal_code":"B2","smoothness":"excellent","source":"survey","source:maxspeed":"TRO","surface":"paving_stones"}},{"type":"way","id":93418825,"nodes":[1083128289,1083128260,1204463332,1083128263,733120810,1083128195,1083128179,1083128289],"tags":{"building":"yes","source":"OS_OpenData_StreetView"}},{"type":"way","id":93418827,"nodes":[1083128179,1083128178,733120790,1083128194,1083128289,1083128179],"tags":{"addr:city":"Birmingham","addr:housenumber":"36-38","addr:street":"Cannon Street","building":"yes","source":"OS_OpenData_StreetView"}},{"type":"way","id":93418828,"nodes":[1083128194,865055016,1083128209,1083128260,1083128289,1083128194],"tags":{"addr:city":"Birmingham","addr:housenumber":"39;41;42","addr:postcode":"B2 5AE","addr:street":"Cannon Street","building":"yes","heritage":"2","heritage:operator":"Historic England","listed_status":"Grade II","source":"OS_OpenData_StreetView"}},{"type":"way","id":93418830,"nodes":[1083128260,1083128209,733120778,7256251125,1083128275,1204463296,1204463322,1083128260],"tags":{"addr:city":"Birmingham","addr:housenumber":"43;44;45","addr:postcode":"B2 5EE","addr:street":"Cannon Street","building":"yes","building:levels":"5","heritage":"2","heritage:operator":"Historic England","listed_status":"Grade II","source":"OS_OpenData_StreetView"}},{"type":"way","id":93418834,"nodes":[1204463332,1083128260,1204463322,1204463300,1204463317,1204463327,733120809,1083128263,1204463332],"tags":{"addr:city":"Birmingham","addr:housenumber":"42a","addr:postcode":"B2 4EG","addr:street":"New Street","building":"yes","building:levels":"5","heritage":"2","heritage:operator":"Historic England","listed_status":"Grade II","source":"visual survey;bing;Birmingham_City_Council"}},{"type":"way","id":97247437,"nodes":[862884645,733120819,733120816,1126475234,1014970593,1126475237,1273082040,862884645],"tags":{"addr:city":"Birmingham","addr:housenumber":"128","addr:postcode":"B2 4JH","addr:street":"New Street","architect":"Edward Holmes","brand":"Apple Store","brand:wikidata":"Q421253","brand:wikipedia":"en:Apple Store","building":"retail","building:levels":"2","check_date":"2024-10-05","check_date:opening_hours":"2024-10-05","height":"31","heritage":"2","heritage:operator":"Historic England","listed_status":"Grade II","name":"Apple Birmingham","opening_hours":"Mo-Sa 09:00-19:00; Su 11:00-17:00","phone":"+44 121 224 2100","shop":"electronics","short_name":"Apple","source":"OS_OpenData_StreetView;cities_revealed_aerial_imagery;Birmingham_City_Council","source:addr:postcode":"code-point_open","source:height":"emuanalytics","start_date":"1867-69","toilets:wheelchair":"yes","website":"https:\/\/www.apple.com\/uk\/retail\/birmingham","wheelchair":"yes"}},{"type":"way","id":99870972,"nodes":[733120815,1154582871,1154582832,1154582866,733120815],"tags":{"addr:city":"Birmingham","addr:housename":"Unit 14 Caxton Gate","addr:housenumber":"4","addr:postcode":"B2 5EP","addr:street":"Cannon Street","brand":"MAC Cosmetics","brand:wikidata":"Q2624442","building":"retail","height":"24","name":"MAC Cosmetics","shop":"cosmetics","short_name":"M\u00b7A\u00b7C","source":"cities_revealed_aerial_imagery","source:height":"emuanalytics"}},{"type":"way","id":99870980,"nodes":[1154582847,1154582858,1154582894,1154582846,1204463290,1154582888,1154582832,1154582853,1154582847],"tags":{"addr:city":"Birmingham","addr:housename":"Unit 11 Caxton Gate","addr:housenumber":"7","addr:postcode":"B2 5EP","addr:street":"Cannon Street","amenity":"venue","building":"yes","height":"24","name":"The Studio Business Centre","source":"visual survey;cities_revealed_aerial_imagery;estimate","source:height":"emuanalytics","url":"http:\/\/www.studiovenues.co.uk\/conference-venues\/birmingham\/","wheelchair":"yes"}},{"type":"way","id":99870988,"nodes":[1154582828,1154582834,733120794,865055046,1154582828],"tags":{"addr:city":"Birmingham","addr:housenumber":"38","addr:postcode":"B2 4EG","addr:street":"New Street","brand":"Wellgosh","building":"retail","building:levels":"4","height":"24","name":"Wellgosh","shop":"clothes","source":"cities_revealed_aerial_imagery","source:height":"emuanalytics"}},{"type":"way","id":99870991,"nodes":[1154582871,1154582847,1154582853,1154582832,1154582871],"tags":{"addr:city":"Birmingham","addr:housename":"Unit 13 Caxton Gate","addr:housenumber":"5","addr:postcode":"B2 5EP","addr:street":"Cannon Street","brand":"Toni & Guy","brand:wikidata":"Q324784","brand:wikipedia":"en:Toni & Guy","building":"retail","height":"24","name":"Toni & Guy","shop":"hairdresser","source":"cities_revealed_aerial_imagery","source:height":"emuanalytics"}},{"type":"way","id":99870997,"nodes":[1154582866,1154582834,1154582828,865055159,733120815,1154582866],"tags":{"addr:city":"Birmingham","addr:housenumber":"3","addr:postcode":"B2 5EP","addr:street":"Cannon Street","brand":"Slaters","brand:wikidata":"Q7538912","brand:wikipedia":"en:Slater Menswear","building":"retail","clothes":"suits","height":"24","name":"Slaters","shop":"clothes","source":"cities_revealed_aerial_imagery","source:height":"emuanalytics"}},{"type":"way","id":99871020,"nodes":[1154584302,5430089807],"tags":{"highway":"footway","lit":"yes","source":"survey","surface":"paving_stones"}},{"type":"way","id":100620805,"nodes":[1163259939,733120802,7239760700,7239760699,428604025,4027013141,2152012830,1163259943,1163259939],"tags":{"addr:city":"Birmingham","addr:housename":"Caxton Gate","addr:housenumber":"43-49","addr:postcode":"B2 4EG","addr:street":"New Street","brand":"Tesco Express","brand:wikidata":"Q98456772","fhrs:id":"601915","height":"38","level":"0;1","name":"Tesco Express","not:addr:postcode":"B2 4LL","note":"Postcode is New Street, B2 4EG (code-point open). It's not B2 5BG because that's the postcode for Temple House, Temple Street. It's not B2 5AE (web site) because that's the postcode for Needless Alley. It's not B2 4LL (FHRS) because that's obsolete.","opening_hours":"Mo-Sa 06:00-22:00; Su 12:00-18:00","payment:cash":"yes","payment:mastercard":"yes","payment:visa":"yes","phone":"+44 345 6779850","shop":"convenience","source":"cities_revealed_aerial_imagery","source:addr:postcode":"code-point_open","source:height":"emuanalytics","website":"https:\/\/www.tesco.com\/store-locator\/birmingham\/caxton-gate","wheelchair":"yes"}},{"type":"way","id":104396768,"nodes":[1204463296,1083128275,2519250908,1204463327,1204463317,1204463296],"tags":{"addr:city":"Birmingham","addr:housenumber":"42","addr:postcode":"B2 4EG","addr:street":"New Street","building":"yes","building:levels":"6","heritage":"2","heritage:operator":"Historic England","listed_status":"Grade II","source":"visual survey;bing;Birmingham_City_Council"}},{"type":"way","id":104396769,"nodes":[1752500001,865055095,733120831,10075827584,10075827583,1204463330,1204463318,865055089,1752500001],"tags":{"building":"yes","building:levels":"8","height":"38","name":"Imperial House","source":"cities_revealed_aerial_imagery","source:height":"emuanalytics"}},{"type":"way","id":104396770,"nodes":[865055089,1204463318,1204463283,1204463320,1204463303,1204463293,10075827582,10075827581,865055089],"tags":{"addr:city":"Birmingham","addr:postcode":"B2 5DB","addr:street":"Temple Street","building":"yes","building:levels":"5","height":"38","source":"cities_revealed_aerial_imagery","source:height":"emuanalytics"}},{"type":"way","id":104396934,"nodes":[1204463290,1154582888,1154582832,1154582866,733120789,1204471657,1204463290],"tags":{"addr:city":"Birmingham","addr:housename":"Unit 6 Caxton Gate","addr:postcode":"B2 4RN","addr:street":"Corporation Street","amenity":"bank","atm":"yes","brand":"Santander","brand:wikidata":"Q7420065","brand:wikipedia":"en:Santander UK","building":"retail","building:levels":"4","height":"24","heritage":"2","heritage:operator":"Historic England","listed_status":"Grade II","name":"Santander","opening_hours":"Mo-Fr 09:30-15:00; Sa 09:30-12:30","opening_hours:covid19":"Mo-Fr 10:00-14:00","operator":"Santander","source":"streetlevel imagery;local knowledge","source:height":"emuanalytics"}},{"type":"way","id":104396937,"nodes":[1154582834,1154582866,733120789,733120771,1204570822,1154582834],"tags":{"addr:city":"Birmingham","addr:housename":"Units 4-5 Caxton Gate","addr:housenumber":"5-7","addr:postcode":"B2 4LP","addr:street":"Corporation Street","brand":"Urban Outfitters","brand:wikidata":"Q3552193","brand:wikipedia":"en:Urban Outfitters","building":"retail","building:levels":"4","height":"24","heritage":"2","heritage:operator":"Historic England","listed_status":"Grade II","name":"Urban Outfitters","opening_hours":"Mo-Sa 10:00-19:00; Su 11:00-17:00","shop":"clothes","source":"cities_revealed_aerial_imagery;Birmingham_City_Council","source:height":"emuanalytics"}},{"type":"way","id":104402450,"nodes":[1204570825,1204570821,1204570822,733120771,733120807,865055141,2152012829,1204570825],"tags":{"HE_ref":"1392542","addr:city":"Birmingham","addr:housenumber":"1-3","addr:postcode":"B2 4LP","addr:street":"Corporation Street","amenity":"bank","brand":"Lloyds Bank","brand:wikidata":"Q1152847","brand:wikipedia":"en:Lloyds Bank","building":"retail","building:levels":"4","contact:website":"https:\/\/branches.lloydsbank.com\/birmingham\/units-2-3-caxton-gate","height":"24","heritage":"2","heritage:operator":"Historic England","listed_status":"Grade II","name":"Lloyds Bank","source":"cities_revealed_aerial_imagery","source:height":"emuanalytics","website":"https:\/\/branches.lloydsbank.com\/birmingham\/caxton-gate"}},{"type":"way","id":104402451,"nodes":[1204570821,733120794,1154582834,1204570822,1204570821],"tags":{"addr:city":"Birmingham","addr:housename":"Unit 1B Caxton Gate","addr:housenumber":"38","addr:postcode":"B2 4EG","addr:street":"New Street","brand":"claire's","brand:wikidata":"Q2974996","brand:wikipedia":"en:Claire's","building":"retail","building:levels":"4","contact:website":"https:\/\/stores.claires.com\/gb-bir\/birmingham\/2309.html","height":"24","name":"claire's","opening_hours":"Mo-Sa 08:00-20:00; Su 10:00-18:00","phone":"+44 121 6434056","shop":"fashion_accessories","source":"cities_revealed_aerial_imagery","source:height":"emuanalytics"}},{"type":"way","id":111805298,"nodes":[1154582818,1272977515],"tags":{"source":"OS_OpenData_StreetView;cities_revealed_aerial_imagery"}},{"type":"way","id":219922349,"nodes":[6249629006,7259218438,6249629007,9807298536,6249629008,1014970600,4204911699,2290519236],"tags":{"highway":"footway","lit":"yes","surface":"paving_stones"}},{"type":"way","id":378433438,"nodes":[3754517409,6957345569,3754517408,4204911711,4204911708,4204911706,4204911700,3464500421,3754517401,3754517402,6249629008,3464500420,11251425332,3464500419,4204911715,3464500418,3464500417,9938770795,3464500416,4204911719,7135760394,10608386988,3464500415,4204911725,3464500414,4204911726,3464500413,3464500412,8100471905,6863876844,4204911728,3881605977,4207929470,3464499729,7135760395,12004434594,3818484225,3883350329,3818484228,6863876843],"tags":{"electrified":"contact_line","frequency":"0","gauge":"1435","railway":"tram","voltage":"750","website":"https:\/\/nxbus.co.uk\/the-metro"}},{"type":"way","id":384805841,"nodes":[3946422786,2107829847,2107829845,2107829833,2107829820,2107829839,12345889456,12345889441,2306317478,3778386674,6863876840,2107829836,12345889440,2107829832,3778386672,4502789023,2107829834,2107829827,3883350334,6863876842,3818484229,2107829835,12004434595,12004434596,3883350328,2107829819,2107829828,4207929471,2107829840,4204911729,7135760390,8100471906,4710048694,2107829842,4204911727,2107829831,2107829848,4204911724,10608386990,2107829837,7471288343,2107829829,4204911721,6863876841,4204911718,4204911717,4216185185,2107829823,2107829825,4204911716,2107829826,2107829846,2107829841,2107829843,2107829817,7135760391,4204911699,2107829838,3754517400,2107829830,12428728033,8004015902,3616332640,12428728032,7135760392,4204911710,2107829821,3754517407,7135760393,3785138752],"tags":{"electrified":"contact_line","frequency":"0","gauge":"1435","railway":"tram","voltage":"750","website":"https:\/\/nxbus.co.uk\/the-metro"}},{"type":"way","id":400071571,"nodes":[733120824,10075827587,313192445,3477051469,6094064493,6094063082,6094064488,6094064489,2364157225,313192440,4027013148,10075827589,312291254,956109065,312291259,7122334879,4027013291,10075827588,733120827,1153377423,1153377494,733120781,1153377477,1153377479,1153377516,1153377490,1126468925,1153377486,733120821,1154582844,1153377425,733120799,6936184714,733120822,1126441381,733120830,1154582839,1154582858,1154582847,1154582871,733120815,865055159,1154582828,865055046,10075827586,733120778,1083128209,865055016,1083128194,733120790,1083128178,1083128211,1975350458,1975350448,1975350460,1975350464,733120824],"tags":{"area":"yes","bicycle":"designated","highway":"pedestrian","lit":"yes","surface":"paving_stones"}},{"type":"way","id":418409179,"nodes":[4188380215,1154582818,1272977515,1272977511,1272977498,5430089807,1273082025,862884645,733120819,7259218437,1014970614,7259218439,1204570825,1204570821,733120794,865055046,10075827586,733120778,1083128275,1204463327,733120809,10075827585,733120802,7239760700,7239760699,428604025,4027013141,5179337124,4188380215],"tags":{"area":"yes","bicycle":"designated","highway":"pedestrian","lit":"yes","surface":"paving_stones"}},{"type":"way","id":563477850,"nodes":[5430089807,2517583488],"tags":{"covered":"arcade","highway":"footway","indoor":"yes","name":"Burlington Arcade","source":"survey"}},{"type":"way","id":667468130,"nodes":[4204911702,11251425333,21392375,21392372],"tags":{"access":"delivery","bicycle":"no","delivery":"yes","emergency":"yes","fixme":"Should this be highway=pedestrian or is service road correct? No access except for delivery (and trams but they're mapped separately). Only exit is via Upper Bull Street which is mapped as highway=pedestrian.","foot":"no","gritting":"priority_3","highway":"service","lanes":"1","lit":"yes","maintenance":"gritting","maxspeed":"20 mph","motor_vehicle":"destination","name":"Stephenson Place","oneway":"yes","oneway:emergency":"no","oneway:tram":"no","surface":"asphalt"}},{"type":"way","id":777554196,"nodes":[1272977557,1272977529,1154582818],"tags":{"source":"OS_OpenData_StreetView;cities_revealed_aerial_imagery"}},{"type":"way","id":777838123,"nodes":[7259218438,7259218437,310650876],"tags":{"highway":"footway","lit":"yes","surface":"paving_stones","width":"1"}},{"type":"way","id":777838124,"nodes":[310650876,7259218439,6249629006],"tags":{"highway":"footway","lit":"yes","surface":"paving_stones","width":"1"}},{"type":"way","id":1100939498,"nodes":[10075827581,10075827582,10075827583,10075827584,1163259939,733120802,7239760700,7239760699,428604025,4027013141,2152012830,1163259943,10110601164,10075827581],"tags":{"addr:city":"Birmingham","addr:flats":"1-52","addr:housenumber":"24","addr:postcode":"B2 5BG","addr:street":"Temple Street","building":"apartments","building:levels":"8","name":"Temple House","source:addr:postcode":"code-point_open"}},{"type":"node","id":3754517407,"lat":52.4787195,"lon":-1.9005699},{"type":"node","id":3754517409,"lat":52.4787964,"lon":-1.9011902},{"type":"node","id":3785138752,"lat":52.4787652,"lon":-1.901199},{"type":"node","id":6957345569,"lat":52.4787893,"lon":-1.9010992},{"type":"node","id":7135760393,"lat":52.478764,"lon":-1.9011825},{"type":"node","id":21392372,"lat":52.4790582,"lon":-1.8979309},{"type":"node","id":21392375,"lat":52.4789742,"lon":-1.8980445},{"type":"node","id":273113454,"lat":52.4792049,"lon":-1.8994527},{"type":"node","id":273113456,"lat":52.4791565,"lon":-1.8989349},{"type":"node","id":273113466,"lat":52.4797154,"lon":-1.8981381},{"type":"node","id":273113471,"lat":52.4791209,"lon":-1.8985497},{"type":"node","id":310650876,"lat":52.4790826,"lon":-1.8981744},{"type":"node","id":310650880,"lat":52.4798239,"lon":-1.8986969},{"type":"node","id":310763659,"lat":52.4795678,"lon":-1.8988192},{"type":"node","id":312291254,"lat":52.4809265,"lon":-1.8977263},{"type":"node","id":312291259,"lat":52.4803273,"lon":-1.8968237},{"type":"node","id":312743308,"lat":52.4791091,"lon":-1.8984216},{"type":"node","id":313192430,"lat":52.4799201,"lon":-1.8978565},{"type":"node","id":313192440,"lat":52.4808029,"lon":-1.8977792},{"type":"node","id":313192445,"lat":52.480126,"lon":-1.8976841},{"type":"node","id":428604025,"lat":52.4792876,"lon":-1.8993506},{"type":"node","id":696415327,"lat":52.4795161,"lon":-1.8983974},{"type":"node","id":733120771,"lat":52.4792483,"lon":-1.8978833},{"type":"node","id":733120778,"lat":52.4792079,"lon":-1.8985746},{"type":"node","id":733120781,"lat":52.4803765,"lon":-1.8970765},{"type":"node","id":733120789,"lat":52.479353,"lon":-1.8977936},{"type":"node","id":733120790,"lat":52.4796379,"lon":-1.8983678},{"type":"node","id":733120794,"lat":52.4791924,"lon":-1.8983376},{"type":"node","id":733120799,"lat":52.479761,"lon":-1.8973536},{"type":"node","id":733120802,"lat":52.4792474,"lon":-1.8989861},{"type":"node","id":733120807,"lat":52.4791464,"lon":-1.8979366},{"type":"node","id":733120809,"lat":52.4792434,"lon":-1.8988926},{"type":"node","id":733120810,"lat":52.479679,"lon":-1.8987298},{"type":"node","id":733120815,"lat":52.4795399,"lon":-1.8982765},{"type":"node","id":733120816,"lat":52.4786267,"lon":-1.8983903},{"type":"node","id":733120819,"lat":52.4789806,"lon":-1.8981873},{"type":"node","id":733120821,"lat":52.4799275,"lon":-1.8977448},{"type":"node","id":733120822,"lat":52.4796724,"lon":-1.8974701},{"type":"node","id":733120824,"lat":52.4800704,"lon":-1.8977594},{"type":"node","id":733120827,"lat":52.4802187,"lon":-1.8967997},{"type":"node","id":733120830,"lat":52.4798509,"lon":-1.8978816},{"type":"node","id":733120831,"lat":52.4796832,"lon":-1.8988522},{"type":"node","id":862884645,"lat":52.4790369,"lon":-1.8984616},{"type":"node","id":865055016,"lat":52.479528,"lon":-1.8984677},{"type":"node","id":865055046,"lat":52.4792144,"lon":-1.8984694},{"type":"node","id":865055089,"lat":52.4797565,"lon":-1.8992428},{"type":"node","id":865055095,"lat":52.4799232,"lon":-1.8986919},{"type":"node","id":865055141,"lat":52.4791383,"lon":-1.8980051},{"type":"node","id":865055159,"lat":52.4794953,"lon":-1.898325},{"type":"node","id":956109065,"lat":52.4806681,"lon":-1.8973354},{"type":"node","id":1014970593,"lat":52.4786221,"lon":-1.8986871},{"type":"node","id":1014970600,"lat":52.4785864,"lon":-1.8982973},{"type":"node","id":1014970614,"lat":52.4790754,"lon":-1.8981046},{"type":"node","id":1083128178,"lat":52.4796928,"lon":-1.898289},{"type":"node","id":1083128179,"lat":52.4797446,"lon":-1.898405},{"type":"node","id":1083128194,"lat":52.4796002,"lon":-1.8984101},{"type":"node","id":1083128195,"lat":52.4798544,"lon":-1.8986188},{"type":"node","id":1083128209,"lat":52.4794244,"lon":-1.8985055},{"type":"node","id":1083128211,"lat":52.4798026,"lon":-1.8981318},{"type":"node","id":1083128260,"lat":52.4794424,"lon":-1.8986352},{"type":"node","id":1083128263,"lat":52.4794668,"lon":-1.8988121},{"type":"node","id":1083128271,"lat":52.4793758,"lon":-1.8988868},{"type":"node","id":1083128275,"lat":52.4792236,"lon":-1.8987013},{"type":"node","id":1083128289,"lat":52.4796394,"lon":-1.8985544},{"type":"node","id":1126441381,"lat":52.4797942,"lon":-1.8977554},{"type":"node","id":1126468925,"lat":52.4801291,"lon":-1.8974673},{"type":"node","id":1126475234,"lat":52.4786065,"lon":-1.8984501},{"type":"node","id":1126475237,"lat":52.4786436,"lon":-1.898677},{"type":"node","id":1153377423,"lat":52.4802713,"lon":-1.8969025},{"type":"node","id":1153377425,"lat":52.4798135,"lon":-1.8974824},{"type":"node","id":1153377477,"lat":52.4803329,"lon":-1.8971471},{"type":"node","id":1153377479,"lat":52.4802879,"lon":-1.8972129},{"type":"node","id":1153377486,"lat":52.4800018,"lon":-1.8976409},{"type":"node","id":1153377490,"lat":52.4801767,"lon":-1.8973879},{"type":"node","id":1153377494,"lat":52.4803299,"lon":-1.8969982},{"type":"node","id":1153377516,"lat":52.4802276,"lon":-1.8973037},{"type":"node","id":1154582818,"lat":52.4791066,"lon":-1.8990982},{"type":"node","id":1154582828,"lat":52.4794407,"lon":-1.898363},{"type":"node","id":1154582832,"lat":52.4795628,"lon":-1.8980832},{"type":"node","id":1154582834,"lat":52.4794121,"lon":-1.8982312},{"type":"node","id":1154582839,"lat":52.4797767,"lon":-1.8979715},{"type":"node","id":1154582844,"lat":52.4798752,"lon":-1.8976254},{"type":"node","id":1154582846,"lat":52.4796193,"lon":-1.8978008},{"type":"node","id":1154582847,"lat":52.4796734,"lon":-1.8981031},{"type":"node","id":1154582853,"lat":52.4796228,"lon":-1.8979999},{"type":"node","id":1154582858,"lat":52.4797248,"lon":-1.8980343},{"type":"node","id":1154582866,"lat":52.4794934,"lon":-1.8981656},{"type":"node","id":1154582871,"lat":52.4796086,"lon":-1.8981854},{"type":"node","id":1154582888,"lat":52.4795046,"lon":-1.8979517},{"type":"node","id":1154582894,"lat":52.4796681,"lon":-1.8979081},{"type":"node","id":1154584302,"lat":52.4791357,"lon":-1.8987047},{"type":"node","id":1163259939,"lat":52.479474,"lon":-1.8989238},{"type":"node","id":1163259943,"lat":52.4795188,"lon":-1.8993171},{"type":"node","id":1204463283,"lat":52.4796834,"lon":-1.8991236},{"type":"node","id":1204463290,"lat":52.4795498,"lon":-1.8978872},{"type":"node","id":1204463293,"lat":52.4796079,"lon":-1.8991482},{"type":"node","id":1204463296,"lat":52.4793263,"lon":-1.8986703},{"type":"node","id":1204463300,"lat":52.4793903,"lon":-1.8987506},{"type":"node","id":1204463303,"lat":52.4795986,"lon":-1.8990697},{"type":"node","id":1204463317,"lat":52.4793354,"lon":-1.8987689},{"type":"node","id":1204463318,"lat":52.4797402,"lon":-1.8991054},{"type":"node","id":1204463320,"lat":52.4796741,"lon":-1.8990455},{"type":"node","id":1204463322,"lat":52.4793766,"lon":-1.8986551},{"type":"node","id":1204463327,"lat":52.4792336,"lon":-1.8988015},{"type":"node","id":1204463330,"lat":52.4797266,"lon":-1.8990004},{"type":"node","id":1204463332,"lat":52.4794571,"lon":-1.8987245},{"type":"node","id":1204471657,"lat":52.479474,"lon":-1.8976951},{"type":"node","id":1204570821,"lat":52.4791664,"lon":-1.8981922},{"type":"node","id":1204570822,"lat":52.479346,"lon":-1.8980993},{"type":"node","id":1204570825,"lat":52.4791418,"lon":-1.8980468},{"type":"node","id":1272977498,"lat":52.4790753,"lon":-1.8987808},{"type":"node","id":1272977511,"lat":52.4790859,"lon":-1.8988832},{"type":"node","id":1272977515,"lat":52.4790975,"lon":-1.8989936},{"type":"node","id":1272977529,"lat":52.4789758,"lon":-1.8991366},{"type":"node","id":1272977557,"lat":52.4789669,"lon":-1.8990297},{"type":"node","id":1273082025,"lat":52.4790643,"lon":-1.8986846},{"type":"node","id":1273082040,"lat":52.4789303,"lon":-1.8985175},{"type":"node","id":1752500001,"lat":52.4799833,"lon":-1.8991711},{"type":"node","id":1975350448,"lat":52.4799156,"lon":-1.897934},{"type":"node","id":1975350458,"lat":52.47992,"lon":-1.8979695},{"type":"node","id":1975350460,"lat":52.4799302,"lon":-1.8979021},{"type":"node","id":1975350464,"lat":52.4799589,"lon":-1.8979137},{"type":"node","id":2107829817,"lat":52.4785997,"lon":-1.8982439},{"type":"node","id":2107829819,"lat":52.4823034,"lon":-1.8967761},{"type":"node","id":2107829820,"lat":52.4836313,"lon":-1.8988098},{"type":"node","id":2107829821,"lat":52.4786806,"lon":-1.9000687},{"type":"node","id":2107829823,"lat":52.4793894,"lon":-1.8975988},{"type":"node","id":2107829825,"lat":52.4791804,"lon":-1.8977584},{"type":"node","id":2107829826,"lat":52.4790536,"lon":-1.897905},{"type":"node","id":2107829827,"lat":52.4827083,"lon":-1.8970855},{"type":"node","id":2107829828,"lat":52.4821934,"lon":-1.8966641},{"type":"node","id":2107829829,"lat":52.4809433,"lon":-1.8957951},{"type":"node","id":2107829830,"lat":52.4785179,"lon":-1.898521},{"type":"node","id":2107829831,"lat":52.4812285,"lon":-1.895632},{"type":"node","id":2107829832,"lat":52.4830779,"lon":-1.8976397},{"type":"node","id":2107829833,"lat":52.4842831,"lon":-1.8996207},{"type":"node","id":2107829834,"lat":52.4830307,"lon":-1.8974898},{"type":"node","id":2107829835,"lat":52.482438,"lon":-1.8968417},{"type":"node","id":2107829836,"lat":52.4831159,"lon":-1.8978907},{"type":"node","id":2107829837,"lat":52.4810541,"lon":-1.8956757},{"type":"node","id":2107829838,"lat":52.4785458,"lon":-1.8983275},{"type":"node","id":2107829839,"lat":52.4834676,"lon":-1.898601},{"type":"node","id":2107829840,"lat":52.4819303,"lon":-1.8963398},{"type":"node","id":2107829841,"lat":52.478845,"lon":-1.8981017},{"type":"node","id":2107829842,"lat":52.4813281,"lon":-1.8956548},{"type":"node","id":2107829843,"lat":52.4787118,"lon":-1.8981809},{"type":"node","id":2107829845,"lat":52.4843974,"lon":-1.8997588},{"type":"node","id":2107829846,"lat":52.4789713,"lon":-1.8980152},{"type":"node","id":2107829847,"lat":52.4844922,"lon":-1.8998822},{"type":"node","id":2107829848,"lat":52.4811532,"lon":-1.8956326},{"type":"node","id":2152012829,"lat":52.4791394,"lon":-1.8980195},{"type":"node","id":2152012830,"lat":52.4793475,"lon":-1.8993741},{"type":"node","id":2290519236,"lat":52.4784206,"lon":-1.8982278},{"type":"node","id":2306317478,"lat":52.4831802,"lon":-1.8981903},{"type":"node","id":2364157225,"lat":52.4805152,"lon":-1.8973421},{"type":"node","id":2517583488,"lat":52.4788335,"lon":-1.8988174},{"type":"node","id":2519250908,"lat":52.4792285,"lon":-1.8987507},{"type":"node","id":3464499729,"lat":52.482245,"lon":-1.8968015},{"type":"node","id":3464500412,"lat":52.4813377,"lon":-1.895713},{"type":"node","id":3464500413,"lat":52.4812736,"lon":-1.8956835},{"type":"node","id":3464500414,"lat":52.4811527,"lon":-1.8956781},{"type":"node","id":3464500415,"lat":52.4810511,"lon":-1.8957405},{"type":"node","id":3464500416,"lat":52.48005,"lon":-1.8969},{"type":"node","id":3464500417,"lat":52.4794036,"lon":-1.8976434},{"type":"node","id":3464500418,"lat":52.4791928,"lon":-1.8978085},{"type":"node","id":3464500419,"lat":52.478985,"lon":-1.8980733},{"type":"node","id":3464500420,"lat":52.4786141,"lon":-1.8982986},{"type":"node","id":3464500421,"lat":52.4785473,"lon":-1.8985134},{"type":"node","id":3477051469,"lat":52.4801399,"lon":-1.897659},{"type":"node","id":3616332640,"lat":52.4785939,"lon":-1.899246},{"type":"node","id":3754517400,"lat":52.4785249,"lon":-1.8984028},{"type":"node","id":3754517401,"lat":52.4785543,"lon":-1.8984534},{"type":"node","id":3754517402,"lat":52.4785694,"lon":-1.8984038},{"type":"node","id":3754517408,"lat":52.4787234,"lon":-1.9003193},{"type":"node","id":3778386672,"lat":52.4830694,"lon":-1.8975881},{"type":"node","id":3778386674,"lat":52.4831613,"lon":-1.8981255},{"type":"node","id":3818484225,"lat":52.482389,"lon":-1.8968753},{"type":"node","id":3818484228,"lat":52.4825538,"lon":-1.8970005},{"type":"node","id":3818484229,"lat":52.4825693,"lon":-1.8969578},{"type":"node","id":3881605977,"lat":52.4819149,"lon":-1.8963826},{"type":"node","id":3883350328,"lat":52.4823316,"lon":-1.8967999},{"type":"node","id":3883350329,"lat":52.482427,"lon":-1.8968922},{"type":"node","id":3883350334,"lat":52.4826415,"lon":-1.8970367},{"type":"node","id":4027013141,"lat":52.4792933,"lon":-1.8993925},{"type":"node","id":4027013148,"lat":52.4808396,"lon":-1.8978506},{"type":"node","id":4027013291,"lat":52.480276,"lon":-1.8967133},{"type":"node","id":4188380215,"lat":52.4791429,"lon":-1.8994358},{"type":"node","id":4204911699,"lat":52.4785657,"lon":-1.8982881},{"type":"node","id":4204911700,"lat":52.4785905,"lon":-1.8989044},{"type":"node","id":4204911702,"lat":52.4786031,"lon":-1.898271},{"type":"node","id":4204911706,"lat":52.4786257,"lon":-1.8992366},{"type":"node","id":4204911708,"lat":52.4786697,"lon":-1.8996371},{"type":"node","id":4204911710,"lat":52.4786723,"lon":-1.8999947},{"type":"node","id":4204911711,"lat":52.4787021,"lon":-1.8999934},{"type":"node","id":4204911715,"lat":52.4790611,"lon":-1.8979656},{"type":"node","id":4204911716,"lat":52.479104,"lon":-1.8978449},{"type":"node","id":4204911717,"lat":52.4798113,"lon":-1.8970825},{"type":"node","id":4204911718,"lat":52.4801307,"lon":-1.896719},{"type":"node","id":4204911719,"lat":52.4802091,"lon":-1.8967177},{"type":"node","id":4204911721,"lat":52.4806579,"lon":-1.8961363},{"type":"node","id":4204911724,"lat":52.4811006,"lon":-1.8956529},{"type":"node","id":4204911725,"lat":52.4811035,"lon":-1.8956938},{"type":"node","id":4204911726,"lat":52.4812292,"lon":-1.8956757},{"type":"node","id":4204911727,"lat":52.4812827,"lon":-1.8956462},{"type":"node","id":4204911728,"lat":52.4817467,"lon":-1.8961779},{"type":"node","id":4204911729,"lat":52.4817605,"lon":-1.8961363},{"type":"node","id":4207929470,"lat":52.4820063,"lon":-1.8964933},{"type":"node","id":4207929471,"lat":52.4820227,"lon":-1.8964537},{"type":"node","id":4216185185,"lat":52.4796964,"lon":-1.8972181},{"type":"node","id":4502789023,"lat":52.483057,"lon":-1.8975418},{"type":"node","id":4710048694,"lat":52.481346,"lon":-1.8956662},{"type":"node","id":5179337124,"lat":52.4792029,"lon":-1.8994184},{"type":"node","id":5430089807,"lat":52.4790699,"lon":-1.8987299},{"type":"node","id":6094063082,"lat":52.4803757,"lon":-1.8972347},{"type":"node","id":6094064488,"lat":52.4804066,"lon":-1.8971785},{"type":"node","id":6094064489,"lat":52.4804271,"lon":-1.89721},{"type":"node","id":6094064493,"lat":52.4802417,"lon":-1.8974776},{"type":"node","id":6249629006,"lat":52.479072,"lon":-1.898071},{"type":"node","id":6249629007,"lat":52.4786711,"lon":-1.8983066},{"type":"node","id":6249629008,"lat":52.4786072,"lon":-1.8983149},{"type":"node","id":6863876840,"lat":52.4831435,"lon":-1.8980466},{"type":"node","id":6863876841,"lat":52.4801844,"lon":-1.8966596},{"type":"node","id":6863876842,"lat":52.4826302,"lon":-1.8970243},{"type":"node","id":6863876843,"lat":52.4826291,"lon":-1.8970655},{"type":"node","id":6863876844,"lat":52.4816731,"lon":-1.8960943},{"type":"node","id":6936184714,"lat":52.4797137,"lon":-1.8974171},{"type":"node","id":7122334879,"lat":52.4803117,"lon":-1.8968003},{"type":"node","id":7135760390,"lat":52.4816889,"lon":-1.8960565},{"type":"node","id":7135760391,"lat":52.4785876,"lon":-1.8982596},{"type":"node","id":7135760392,"lat":52.478657,"lon":-1.8998525},{"type":"node","id":7135760394,"lat":52.4808433,"lon":-1.8959826},{"type":"node","id":7135760395,"lat":52.4823122,"lon":-1.8968543},{"type":"node","id":7239760699,"lat":52.4792837,"lon":-1.8993037},{"type":"node","id":7239760700,"lat":52.4792776,"lon":-1.8992456},{"type":"node","id":7256251125,"lat":52.4792164,"lon":-1.8986435},{"type":"node","id":7259218437,"lat":52.4790008,"lon":-1.8981697},{"type":"node","id":7259218438,"lat":52.4789924,"lon":-1.8981178},{"type":"node","id":7259218439,"lat":52.4791162,"lon":-1.8980691},{"type":"node","id":7471288343,"lat":52.4810307,"lon":-1.8957009},{"type":"node","id":8004015902,"lat":52.4785927,"lon":-1.8992344},{"type":"node","id":8100471905,"lat":52.481352,"lon":-1.8957293},{"type":"node","id":8100471906,"lat":52.4813717,"lon":-1.8957033},{"type":"node","id":9807298536,"lat":52.4786391,"lon":-1.8983108},{"type":"node","id":9938770795,"lat":52.4796735,"lon":-1.897333},{"type":"node","id":10075827581,"lat":52.4795621,"lon":-1.899305},{"type":"node","id":10075827582,"lat":52.4795464,"lon":-1.8991695},{"type":"node","id":10075827583,"lat":52.4795347,"lon":-1.899069},{"type":"node","id":10075827584,"lat":52.4795181,"lon":-1.8989117},{"type":"node","id":10075827585,"lat":52.4792432,"lon":-1.8989303},{"type":"node","id":10075827586,"lat":52.4792116,"lon":-1.8985147},{"type":"node","id":10075827587,"lat":52.480099,"lon":-1.8977207},{"type":"node","id":10075827588,"lat":52.48024,"lon":-1.8967676},{"type":"node","id":10075827589,"lat":52.4808917,"lon":-1.8977761},{"type":"node","id":10110601164,"lat":52.4795401,"lon":-1.8993112},{"type":"node","id":10608386988,"lat":52.4810034,"lon":-1.895797},{"type":"node","id":10608386990,"lat":52.4810815,"lon":-1.8956622},{"type":"node","id":11251425332,"lat":52.4787996,"lon":-1.898186},{"type":"node","id":11251425333,"lat":52.4788623,"lon":-1.8981128},{"type":"node","id":12004434594,"lat":52.4823514,"lon":-1.8968676},{"type":"node","id":12004434595,"lat":52.48242,"lon":-1.8968341},{"type":"node","id":12004434596,"lat":52.482371,"lon":-1.896822},{"type":"node","id":12345889440,"lat":52.4830922,"lon":-1.897742},{"type":"node","id":12345889441,"lat":52.4832088,"lon":-1.8982594},{"type":"node","id":12345889456,"lat":52.4832657,"lon":-1.8983494},{"type":"node","id":12428728032,"lat":52.4786356,"lon":-1.8996464},{"type":"node","id":12428728033,"lat":52.4785591,"lon":-1.8989141},{"type":"node","id":3946422786,"lat":52.484557,"lon":-1.8999947}]}