{"version":0.6,"generator":"Overpass API 0.7.62.5 1bd436f1","osm3s":{"timestamp_osm_base":"2025-03-12T11:54:30Z","copyright":"The data included in this document is from www.openstreetmap.org. The data is made available under ODbL."},"elements":[{"type":"node","id":1098115333,"lat":52.4823573,"lon":-1.8966218,"tags":{"addr:city":"Birmingham","addr:postcode":"B4 6AF","addr:street":"Bull Street","source":"Visual survey; estimate"}},{"type":"node","id":1098115351,"lat":52.4824144,"lon":-1.896638,"tags":{"addr:city":"Birmingham","addr:postcode":"B4 6AF","addr:street":"Bull Street","name":"BK","office":"estate_agent","source":"Visual survey; estimate"}},{"type":"node","id":1579616022,"lat":52.4826573,"lon":-1.8957835,"tags":{"brand":"National Grid","brand:wikidata":"Q1465461","operator":"National Grid Electricity Distribution","operator:old":"Western Power Distribution","operator:wikidata":"Q7988183","owner":"National Grid Electricity Distribution (West Midlands) Plc","owner:wikidata":"Q114397791","power":"substation","ref":"01050","source":"survey"}},{"type":"node","id":4734608421,"lat":52.4829244,"lon":-1.8958898,"tags":{"bench":"yes","bin":"yes","bus":"yes","highway":"bus_stop","lit":"yes","name":"PQ5","naptan:AtcoCode":"43000208504","naptan:Bearing":"NW","naptan:BusStopType":"MKD","naptan:CommonName":"Colmore Circus","naptan:Indicator":"Stop PQ5","naptan:NaptanCode":"nwmwgtda","naptan:Status":"ACT","naptan:StopType":"BCT","naptan:Street":"THE PRIORY QUEENSWAY","naptan:Towards":"City Hospital","public_transport":"platform","route_ref":"16;16A;16W;424;424E","shelter":"no","source":"WMCA","tactile_paving":"yes"}},{"type":"node","id":5160308739,"lat":52.4825507,"lon":-1.8963352,"tags":{"addr:city":"Birmingham","addr:postcode":"B4 6AJ","addr:street":"Colmore Circus Queensway","name":"DTZ","office":"estate_agent"}},{"type":"node","id":7033831818,"lat":52.4824837,"lon":-1.8963191,"tags":{"addr:city":"Birmingham","addr:postcode":"B4 6HT","addr:street":"Colmore Square"}},{"type":"node","id":7033831819,"lat":52.482523,"lon":-1.8963164,"tags":{"addr:city":"Birmingham","addr:postcode":"B4 6HQ","addr:street":"Colmore Square"}},{"type":"node","id":7033831820,"lat":52.4825826,"lon":-1.8963204,"tags":{"addr:city":"Birmingham","addr:postcode":"B4 6AA","addr:street":"Colmore Square"}},{"type":"node","id":8863100675,"lat":52.4827369,"lon":-1.8958014,"tags":{"man_made":"surveillance","source":"survey"}},{"type":"node","id":8863100676,"lat":52.482621,"lon":-1.8957558,"tags":{"entrance":"yes"}},{"type":"node","id":9483416205,"lat":52.4827361,"lon":-1.8966517,"tags":{"artist_name":"Luke Perry","artwork_type":"sculpture","name":"Forward Together","source":"survey","tourism":"artwork"}},{"type":"node","id":12493973861,"lat":52.4830196,"lon":-1.8961647,"tags":{"amenity":"bench","armrest":"no","backrest":"no"}},{"type":"node","id":12493973862,"lat":52.4829774,"lon":-1.8961996,"tags":{"amenity":"bench","armrest":"no","backrest":"no"}},{"type":"node","id":12493973863,"lat":52.4829308,"lon":-1.896246,"tags":{"amenity":"bench","armrest":"no","backrest":"no"}}]}