{"version":0.6,"generator":"Overpass API 0.7.62.5 1bd436f1","osm3s":{"timestamp_osm_base":"2025-03-12T12:10:49Z","copyright":"The data included in this document is from www.openstreetmap.org. The data is made available under ODbL."},"elements":[{"type":"way","id":4041181,"nodes":[21392706,181306846,584984398,1455025510],"tags":{"electrified":"no","gauge":"1435","maxspeed":"30 mph","name":"Didcot and Chester Line","railway":"rail","ref":"DCL","source":"survey","usage":"main"}},{"type":"way","id":10364525,"nodes":[268603476,1455180571,268601643,1744420739,908592240,1744420734,1744420726,908592241,159540357,178916275,7117546478,21392706],"tags":{"electrified":"no","gauge":"1435","layer":"-2","maxspeed":"20 mph","name":"Snow Hill Tunnel","passenger_lines":"2","railway":"rail","ref":"DCL","source":"OS-OpenData_StreetView","tunnel":"yes","tunnel:name":"Snow Hill Tunnel","usage":"main"}},{"type":"way","id":10476453,"nodes":[1827336143,9135599703,1834185690,9135599704,9135599705,3724594246,5505854508],"tags":{"crossing":"unmarked","crossing:markings":"no","footway":"crossing","highway":"footway","lit":"yes","surface":"paving_stones"}},{"type":"way","id":10479594,"nodes":[82699604,5505854512,90052951],"tags":{"cycleway:both":"no","gritting":"priority_3","highway":"unclassified","lane_markings":"no","lit":"yes","maintenance":"gritting","maxspeed":"20 mph","motor_vehicle":"destination","name":"Carrs Lane","sidewalk":"both","surface":"asphalt"}},{"type":"way","id":10595460,"nodes":[90052951,9135599700,5505854514,310651596,1153441440,90067490],"tags":{"bicycle":"yes","bus":"yes","foot":"yes","gritting":"priority_3","highway":"unclassified","lane_markings":"yes","lanes":"2","lit":"yes","maintenance":"gritting","maxspeed":"20 mph","motor_vehicle":"destination","name":"Carrs Lane","note":"restrictions as per TRO 3787308 https:\/\/www.thegazette.co.uk\/notice\/3787308","oneway":"yes","psv":"yes","shoulder":"no","source":"survey","source:maxspeed":"survey","surface":"asphalt"}},{"type":"way","id":17272404,"nodes":[558624864,4374771556,178952078,7103336581,558701900,7103336580,4374771571,4374771570,7103336579,560829486,560829484,4374771552,560829487,560829485,1755901993,178952069,178960725,866143103,866142997,3824137571,558624869,1453899135,1453899139,3463638219,3463638220,1453899133,1453899137,3463638221,3463638222,3463638229,4007749529,7109109986,4374771543,4007749530,1755898651,4007749531,3463638230,3463638231,3463638232,9504553007,9504553008,90268161,9938988096,9938988087,9504587119,1461415128,1474682469,3463638228,3463638224,3463638225,3463638226,3463638227,3463638223,1453899131,558624864],"tags":{"architect":"Walter Young Armstrong","building":"train_station","height":"10","heritage":"2","heritage:operator":"Historic England","layer":"2","listed_status":"Grade II","name":"Birmingham Moor Street","restored_date":"2003","source":"cities_revealed_aerial_imagery;Birmingham_Civic_Society;survey","start_date":"1909","wikidata":"Q800533","wikipedia":"en:Birmingham Moor Street railway station"}},{"type":"way","id":28511015,"nodes":[313191022,313191023,313191024,313191025,863896111,313191017,308572882,313191022],"tags":{"addr:city":"Birmingham","addr:housenumber":"42","addr:postcode":"B4 7SS","addr:street":"High Street","architect":"James M Munro & Son","building":"retail","building:levels":"4","height":"13","old_name":"Marks & Spencer","shop":"vacant","start_date":"1956","toilets":"yes","wheelchair":"yes"}},{"type":"way","id":43925538,"nodes":[558625694,9135599704,1833191767,9682341299,9682341300,9682341305,9682341304,9682341303,9135599713,558625692,1828646332,9135599705,3724594251,9682341307,9682341306,2440612197,2440612178,6437277488,2440612200,4287521915,4287521916,4287521914,4287521913,6437277489,558625694],"tags":{"area":"yes","highway":"pedestrian","lit":"yes","source":"visual survey;estimate","surface":"asphalt"}},{"type":"way","id":72765514,"nodes":[863884522,863884632,863884524,863884675,1828731143,863884428,863884587,1828731144,863884712,863884448,863884522],"tags":{"addr:city":"Birmingham","addr:postcode":"B4 7SX","addr:street":"Carrs Lane","amenity":"place_of_worship","architect":"Denys Hinton & Partners","building":"church","height":"13","name":"Carrs Lane Church Centre","religion":"christian","source":"cities_revealed_aerial_imagery","start_date":"1968","wheelchair":"yes","wikidata":"Q19391132","wikipedia":"en:Carrs Lane Church, Birmingham"}},{"type":"way","id":97238830,"nodes":[1126389002,1975383212,6249629009,1975383194,6034972697,1975375864,1975375865,863896101,863896139,313191021,1126389003,313191020,313191019,6410985130,6410985129,6464915489,6410985131,6464915490,6410985132,313191017,308572882,6441628607,313191015,313191014,6410985128,1126389002],"tags":{"addr:city":"Birmingham","addr:country":"GB","addr:housenumber":"38","addr:postcode":"B4 7SL","addr:street":"High Street","alt_name":"Primark Bullring;Primark Birmingham High Street","architect":"Chapman Taylor Partners","brand":"Primark","brand:wikidata":"Q137023","brand:wikipedia":"en:Primark","building":"retail","building:levels":"5","fhrs:id":"1157098","name":"Primark","opening_hours":"Mo-Sa 08:00-21:00; Su 11:00-17:00","shop":"clothes","source":"eyeball survey & estimate","start_date":"1986","website":"https:\/\/www.primark.com\/en-gb\/stores\/birmingham\/38-high-street"}},{"type":"way","id":132239456,"nodes":[1455177634,7117546477,1455180572,7117546480,1455180570,1827309440,1455180568,7117546479,1827309442,1827309427,1455180573,1455180569],"tags":{"electrified":"no","gauge":"1435","layer":"-2","maxspeed":"20 mph","name":"Snow Hill Tunnel","passenger_lines":"2","railway":"rail","ref":"DCL","source":"OS-OpenData_StreetView","tunnel":"yes","tunnel:name":"Snow Hill Tunnel","usage":"main"}},{"type":"way","id":144508162,"nodes":[1580643691,1580645688,1580645687,1683193631,1580645684,1580643689,1580643691],"tags":{"leisure":"park","source":"visual survey;bing"}},{"type":"way","id":150802143,"nodes":[1455177634,4374771555,3463650030,1455177620,1455177599,1455177649,4374771549,1455177646,1455177609,1455177589],"tags":{"electrified":"no","gauge":"1435","maxspeed":"30 mph","name":"Didcot and Chester Line","railway":"rail","railway:signal:direction":"backward","ref":"DCL","usage":"main"}},{"type":"way","id":155995010,"nodes":[1828646329,11497892160,11497892159,1832004504],"tags":{"bicycle":"yes","cycleway:left":"no","emergency":"yes","foot":"no","highway":"unclassified","lanes":"1","lit":"yes","motor_vehicle":"destination","name":"Moor Street Queensway","note":"Signage indicates bus and taxi only except for access to Moor Street Station and side roads","oneway":"yes","psv":"yes","source":"visual survey,estimate","surface":"asphalt"}},{"type":"way","id":155995011,"nodes":[1683186488,9682341301,1683186490,1683186487,9682341302,82699604],"tags":{"bicycle":"yes","foot":"yes","highway":"unclassified","lanes":"1","lit":"yes","maxspeed":"20 mph","motor_vehicle":"destination","name":"Moor Street Queensway","oneway":"yes","psv":"yes","source":"visual survey,estimate","surface":"asphalt","taxi":"yes"}},{"type":"way","id":163927479,"nodes":[178952073,1755898657,1755898668,1755898669,2528036932,1755898661,4007749531,1755898651,178952073],"tags":{"building":"yes","source":"visual survey,estimate"}},{"type":"way","id":163927480,"nodes":[1755898670,1755898668,1755898659,1755898655,1755898644,1755898641,1755898640,1755898649,1755898647],"tags":{"highway":"footway","layer":"-1","source":"survey"}},{"type":"way","id":163927481,"nodes":[1755898659,1755898653,1755898647],"tags":{"handrail":"yes","highway":"steps","source":"survey"}},{"type":"way","id":171752870,"nodes":[6249656078,1827336143,1755898670],"tags":{"footway":"sidewalk","highway":"footway","lit":"yes","source":"survey","surface":"paving_stones"}},{"type":"way","id":172246487,"nodes":[232140,12530516728,12530516735,11155875906,1834185701,1827335702,1834185690,1683186488],"tags":{"bicycle":"yes","foot":"yes","gritting":"priority_2","highway":"unclassified","lanes":"2","lit":"yes","maintenance":"gritting","maxspeed":"20 mph","motor_vehicle":"destination","name":"Moor Street Queensway","oneway":"yes","postal_code":"B7","psv":"yes","ref":"B4100","source:maxspeed":"survey","surface":"asphalt","taxi":"yes"}},{"type":"way","id":172278796,"nodes":[1828646329,3724594243,82699604],"tags":{"access":"no","bicycle":"yes","emergency":"yes","foot":"yes","goods":"no","gritting":"priority_2","highway":"service","lanes":"2","lanes:psv":"1","lit":"yes","maintenance":"gritting","maxspeed":"20 mph","motor_vehicle":"no","name":"Moor Street Queensway","note":"bus gate","oneway":"yes","psv":"yes","ref":"B4100","source:maxspeed":"survey","surface":"asphalt","taxi":"yes","tourist_bus":"no"}},{"type":"way","id":172413539,"nodes":[1683186488,3724594242,11498023626],"tags":{"access":"no","bicycle":"yes","emergency":"yes","foot":"yes","goods":"no","gritting":"priority_2","highway":"service","hov":"no","lanes":"2","lit":"yes","maintenance":"gritting","maxspeed":"20 mph","motor_vehicle":"no","name":"Moor Street Queensway","note":"bus gate","oneway":"yes","postal_code":"B7","psv":"yes","ref":"B4100","source:maxspeed":"survey","surface":"asphalt","taxi":"yes","tourist_bus":"no"}},{"type":"way","id":223188213,"nodes":[1832004504,11498023624,2321150385,11497892157,11498023625,11498023626],"tags":{"bicycle":"yes","cycleway:left":"no","emergency":"yes","foot":"no","highway":"unclassified","lanes":"1","lit":"yes","motor_vehicle":"destination","name":"Moor Street Queensway","note":"Signage indicates bus and taxi only except for access to Moor Street Station and side roads","oneway":"yes","psv":"yes","source":"visual survey,estimate","surface":"asphalt"}},{"type":"way","id":245134690,"nodes":[863884551,9135599702,2523807527],"tags":{"highway":"service","name":"New Meeting Street","source":"survey;cities_revealed_aerial_imagery","surface":"asphalt"}},{"type":"way","id":294036068,"nodes":[2976042591,2976042593,2976042592,2976042590,2976042591],"tags":{"building":"yes","kiosk":"news","name":"Moor St Kiosk","shop":"kiosk"}},{"type":"way","id":324113242,"nodes":[273036406,90052953,2520425393,90052954,863896138,90052951],"tags":{"access":"yes","highway":"service","level":"1","lit":"yes","maxspeed":"20 mph","source":"cities_revealed_aerial_imagery","source:maxspeed":"TRO","surface":"asphalt"}},{"type":"way","id":429592339,"nodes":[82699604,3724594246],"tags":{"bicycle":"yes","cycleway:left":"share_busway","foot":"yes","gritting":"priority_2","highway":"unclassified","lanes":"2","lanes:psv":"1","lit":"yes","maintenance":"gritting","maxspeed":"20 mph","motor_vehicle":"no","name":"Moor Street Queensway","oneway":"yes","psv":"yes","ref":"B4100","sidewalk":"left","source:maxspeed":"survey","surface":"asphalt","taxi":"yes"}},{"type":"way","id":439796340,"nodes":[4374771559,4374771549,3463638227,3463638222,3463638229,5550508728,4374771543,7109109986,4007749529,3463638232,9504553007,9504553008,90268161,9938988096,9938988087,9504587119,1461415128,1474682469,3463638228,3463638226,4374771541,8863042578,90046231,11479633005,4374771553,4374771566,2071633019,98144859,4374771544,4374771559],"tags":{"area":"yes","bench":"yes","departures_board":"realtime","name":"Platform 1","public_transport":"platform","railway":"platform","ref":"1","shelter":"yes","train":"yes","wheelchair":"yes"}},{"type":"way","id":439796343,"nodes":[4374771542,4374771567,560829493,560829492,4374771558,4374771556,7109109985,3463638220,1453899133,4374771540,4374771551,1453899137,3463638221,1453899131,558624864,4374771557,4374771542],"tags":{"area":"yes","bench":"yes","bin":"no","departures_board":"realtime","name":"Platform 2","public_transport":"platform","railway":"platform","ref":"2","shelter":"yes","train":"yes","wheelchair":"yes"}},{"type":"way","id":573201906,"nodes":[5505854508,9135599709,5505854507,5505854513],"tags":{"footway":"sidewalk","highway":"footway","lit":"yes","surface":"paving_stones"}},{"type":"way","id":573201907,"nodes":[5505854515,5505854513],"tags":{"footway":"sidewalk","highway":"footway","lit":"yes","source":"bing","surface":"paving_stones"}},{"type":"way","id":573201909,"nodes":[1153441440,5505854516,2523807528,5505854515],"tags":{"footway":"sidewalk","highway":"footway","lit":"yes","source":"bing","surface":"paving_stones"}},{"type":"way","id":580418233,"nodes":[1755898670,5556317144],"tags":{"highway":"footway","lit":"yes","source":"survey","surface":"paving_stones"}},{"type":"way","id":580893996,"nodes":[5505854511,5559461878,6410990438,273113282],"tags":{"footway":"sidewalk","highway":"footway","lit":"yes","source":"bing","surface":"paving_stones"}},{"type":"way","id":582936587,"nodes":[5573796736,5556317144],"tags":{"highway":"footway","lit":"yes","source":"survey","surface":"paving_stones"}},{"type":"way","id":686740187,"nodes":[863902267,5801519329,7688733474,1755898669,1755898670,1827336144,9135599703,6437277485,864416042,4287521921,863902267],"tags":{"area":"yes","highway":"pedestrian","lit":"yes","source":"visual survey;cities_revealed_aerial_imagery","surface":"paving_stones"}},{"type":"way","id":823535330,"nodes":[1446879784,7688733479,9504587144,9504587146,9504587129,7688733478,7688733477,9504553003,9504553002,356726056,9504587151,9504553004,7688733476,7688733475,1755898661,2528036932,1755898669,7688733474,863902267,1695947243,11479633006,1695947252,11479633007,1695947249,4287521923,11479633015,11479633014,11479633013,11479633012,7688733472,2064987998,11479633011,11479633010,11479633009,11479633008,5688530781,2421467350,2064988043,9483416207,2421467348,2421467343,2421467342,2064988029,1446879784],"tags":{"landuse":"construction","name":"HS2 Curzon Street Station","opening_date":"2030"}},{"type":"way","id":988350281,"nodes":[5556317144,3724594242,9135599697],"tags":{"crossing":"unmarked","crossing:markings":"no","footway":"crossing","highway":"footway","lit":"yes","source":"survey;bing","surface":"paving_stones"}},{"type":"way","id":988350282,"nodes":[9135599698,9135599697],"tags":{"highway":"footway","lit":"yes","source":"bing","surface":"paving_stones"}},{"type":"way","id":988350283,"nodes":[9682394772,3724594243,9135599698],"tags":{"crossing":"unmarked","crossing:markings":"no","footway":"crossing","highway":"footway","lit":"yes","source":"bing","surface":"paving_stones"}},{"type":"way","id":988350284,"nodes":[9135599699,5505854511],"tags":{"footway":"sidewalk","highway":"footway","lit":"yes","source":"bing","surface":"paving_stones"}},{"type":"way","id":988350285,"nodes":[5505854513,5505854512,9135599699],"tags":{"crossing":"unmarked","crossing:markings":"no","footway":"crossing","highway":"footway","lit":"yes","source":"bing","surface":"paving_stones"}},{"type":"way","id":988350286,"nodes":[9135599700,5505854515,2523807527],"tags":{"highway":"service","lit":"yes","source":"bing","surface":"paving_stones"}},{"type":"way","id":988350289,"nodes":[9135599706,9135599707,312291261,9135599708,9135599709],"tags":{"footway":"sidewalk","highway":"footway","surface":"paving_stones"}},{"type":"way","id":1053584414,"nodes":[9682341308,9682341309,9682341310,9682341311,9682341312,9135599697,9682341313,9682341314,9682341315,9682341316,9682394717,9682394718,9682394719,9682394720,9682394721,9135599698,9682341308],"tags":{"area":"yes","highway":"pedestrian"}},{"type":"way","id":1053584420,"nodes":[6464915490,9682394763,9682394764,9682394765,9682394766,9682394767,9682394768,9135599699,9682394769,9682394770,9682394771,9682394772,9682394773,9682394774,9682394775,9682394776,9682394777,9682394778,9682394779,9682394780,9682394781,9682394782,9682394785,9682394784,9682394783,9682394786,6464915489,6410985131,6464915490],"tags":{"area":"yes","highway":"pedestrian","surface":"paving_stones"}},{"type":"way","id":1053584421,"nodes":[5505854511,9682394772],"tags":{"footway":"sidewalk","highway":"footway","lit":"yes","source":"bing","surface":"paving_stones"}},{"type":"node","id":90067490,"lat":52.4797795,"lon":-1.8945229},{"type":"node","id":159540357,"lat":52.4799352,"lon":-1.8943678},{"type":"node","id":268601643,"lat":52.4823736,"lon":-1.8978072},{"type":"node","id":268603476,"lat":52.4828867,"lon":-1.8984597},{"type":"node","id":308572882,"lat":52.4793227,"lon":-1.8942632},{"type":"node","id":313191014,"lat":52.4791749,"lon":-1.894652},{"type":"node","id":313191015,"lat":52.479133,"lon":-1.8943394},{"type":"node","id":313191021,"lat":52.4784141,"lon":-1.8944734},{"type":"node","id":313191022,"lat":52.4793688,"lon":-1.8945776},{"type":"node","id":313191023,"lat":52.4796876,"lon":-1.8944329},{"type":"node","id":863896101,"lat":52.4784677,"lon":-1.8945658},{"type":"node","id":863896139,"lat":52.4784671,"lon":-1.8945337},{"type":"node","id":908592240,"lat":52.4811968,"lon":-1.8963743},{"type":"node","id":908592241,"lat":52.4804042,"lon":-1.8952044},{"type":"node","id":1126389002,"lat":52.4787478,"lon":-1.8947979},{"type":"node","id":1126389003,"lat":52.4784774,"lon":-1.8942676},{"type":"node","id":1153441440,"lat":52.4797527,"lon":-1.8944326},{"type":"node","id":1455180568,"lat":52.4809556,"lon":-1.8959773},{"type":"node","id":1455180569,"lat":52.4829019,"lon":-1.8984106},{"type":"node","id":1455180570,"lat":52.4804203,"lon":-1.8951725},{"type":"node","id":1455180571,"lat":52.482865,"lon":-1.8984321},{"type":"node","id":1455180573,"lat":52.4828032,"lon":-1.8982901},{"type":"node","id":1744420726,"lat":52.4806541,"lon":-1.8956219},{"type":"node","id":1744420734,"lat":52.480931,"lon":-1.8959989},{"type":"node","id":1744420739,"lat":52.4813902,"lon":-1.8966493},{"type":"node","id":1827309427,"lat":52.482275,"lon":-1.897636},{"type":"node","id":1827309440,"lat":52.4806737,"lon":-1.895578},{"type":"node","id":1827309442,"lat":52.4815991,"lon":-1.8968425},{"type":"node","id":1975375864,"lat":52.478439,"lon":-1.8946622},{"type":"node","id":1975375865,"lat":52.4784497,"lon":-1.8945789},{"type":"node","id":1975383194,"lat":52.4785638,"lon":-1.8946978},{"type":"node","id":1975383212,"lat":52.4787206,"lon":-1.8946456},{"type":"node","id":5505854516,"lat":52.4797937,"lon":-1.8944214},{"type":"node","id":6034972697,"lat":52.478502,"lon":-1.8946955},{"type":"node","id":6249629009,"lat":52.4786425,"lon":-1.8946715},{"type":"node","id":6410985128,"lat":52.4788605,"lon":-1.8947567},{"type":"node","id":6441628607,"lat":52.479287,"lon":-1.8942776},{"type":"node","id":7117546479,"lat":52.4812197,"lon":-1.8963484},{"type":"node","id":7117546480,"lat":52.4799551,"lon":-1.8943268},{"type":"node","id":232140,"lat":52.4805344,"lon":-1.8916049},{"type":"node","id":21392706,"lat":52.47914,"lon":-1.8925466},{"type":"node","id":82699604,"lat":52.4793653,"lon":-1.8928785},{"type":"node","id":90046231,"lat":52.4786877,"lon":-1.8910904},{"type":"node","id":90052951,"lat":52.4794255,"lon":-1.8930894},{"type":"node","id":90052953,"lat":52.4785948,"lon":-1.8937959},{"type":"node","id":90052954,"lat":52.4791832,"lon":-1.8934171},{"type":"node","id":90268161,"lat":52.4790032,"lon":-1.8919607},{"type":"node","id":98144859,"lat":52.4781449,"lon":-1.8896398},{"type":"node","id":178916275,"lat":52.4796662,"lon":-1.8938089},{"type":"node","id":178952069,"lat":52.4786202,"lon":-1.8929311},{"type":"node","id":178952073,"lat":52.4792104,"lon":-1.8924576},{"type":"node","id":178952078,"lat":52.4785001,"lon":-1.8913613},{"type":"node","id":178960725,"lat":52.478663,"lon":-1.8929011},{"type":"node","id":181306846,"lat":52.4789265,"lon":-1.8919731},{"type":"node","id":273036406,"lat":52.4785568,"lon":-1.8938362},{"type":"node","id":273113282,"lat":52.4787093,"lon":-1.8935418},{"type":"node","id":310651596,"lat":52.4796519,"lon":-1.8939411},{"type":"node","id":312291261,"lat":52.4799193,"lon":-1.8925594},{"type":"node","id":313191017,"lat":52.4792353,"lon":-1.893496},{"type":"node","id":313191019,"lat":52.4786181,"lon":-1.8938562},{"type":"node","id":313191020,"lat":52.4785626,"lon":-1.8939454},{"type":"node","id":313191024,"lat":52.4795567,"lon":-1.8938847},{"type":"node","id":313191025,"lat":52.4794152,"lon":-1.8933521},{"type":"node","id":356726056,"lat":52.479358,"lon":-1.8906704},{"type":"node","id":558624864,"lat":52.4786419,"lon":-1.8912433},{"type":"node","id":558624869,"lat":52.479015,"lon":-1.8925957},{"type":"node","id":558625692,"lat":52.4794617,"lon":-1.8926884},{"type":"node","id":558625694,"lat":52.4798437,"lon":-1.8922201},{"type":"node","id":558701900,"lat":52.4787549,"lon":-1.8923116},{"type":"node","id":560829484,"lat":52.4782511,"lon":-1.8908136},{"type":"node","id":560829485,"lat":52.4786032,"lon":-1.8924222},{"type":"node","id":560829486,"lat":52.4786548,"lon":-1.8923867},{"type":"node","id":560829487,"lat":52.4781887,"lon":-1.8908548},{"type":"node","id":560829492,"lat":52.4783718,"lon":-1.8906813},{"type":"node","id":560829493,"lat":52.4783357,"lon":-1.8905629},{"type":"node","id":584984398,"lat":52.4788414,"lon":-1.8917381},{"type":"node","id":863884428,"lat":52.4795156,"lon":-1.8929946},{"type":"node","id":863884448,"lat":52.4797308,"lon":-1.8931884},{"type":"node","id":863884522,"lat":52.4797528,"lon":-1.893102},{"type":"node","id":863884524,"lat":52.4796643,"lon":-1.8928593},{"type":"node","id":863884551,"lat":52.480019,"lon":-1.8930178},{"type":"node","id":863884587,"lat":52.4795393,"lon":-1.8931437},{"type":"node","id":863884632,"lat":52.4797142,"lon":-1.8929009},{"type":"node","id":863884675,"lat":52.4795846,"lon":-1.8928882},{"type":"node","id":863884712,"lat":52.479626,"lon":-1.893259},{"type":"node","id":863896111,"lat":52.4793673,"lon":-1.8933395},{"type":"node","id":863896138,"lat":52.4793268,"lon":-1.8932371},{"type":"node","id":863902267,"lat":52.4804294,"lon":-1.8915055},{"type":"node","id":864416042,"lat":52.4804167,"lon":-1.8916039},{"type":"node","id":866142997,"lat":52.4787182,"lon":-1.8927834},{"type":"node","id":866143103,"lat":52.4787349,"lon":-1.8928571},{"type":"node","id":1453899131,"lat":52.4787962,"lon":-1.8916688},{"type":"node","id":1453899133,"lat":52.4790183,"lon":-1.8924055},{"type":"node","id":1453899135,"lat":52.4789605,"lon":-1.8923673},{"type":"node","id":1453899137,"lat":52.4790545,"lon":-1.8923795},{"type":"node","id":1453899139,"lat":52.4789468,"lon":-1.89237},{"type":"node","id":1455025510,"lat":52.4781127,"lon":-1.8897779},{"type":"node","id":1455177589,"lat":52.4781393,"lon":-1.8897564},{"type":"node","id":1455177599,"lat":52.4786661,"lon":-1.8911545},{"type":"node","id":1455177609,"lat":52.4782635,"lon":-1.890095},{"type":"node","id":1455177620,"lat":52.4788181,"lon":-1.8915809},{"type":"node","id":1455177634,"lat":52.4791677,"lon":-1.8925298},{"type":"node","id":1455177646,"lat":52.4783901,"lon":-1.8904209},{"type":"node","id":1455177649,"lat":52.4785395,"lon":-1.8908119},{"type":"node","id":1455180572,"lat":52.4796928,"lon":-1.8937909},{"type":"node","id":1461415128,"lat":52.4789483,"lon":-1.8918054},{"type":"node","id":1474682469,"lat":52.4789286,"lon":-1.8917497},{"type":"node","id":1580643689,"lat":52.4796799,"lon":-1.8936774},{"type":"node","id":1580643691,"lat":52.4800354,"lon":-1.8934762},{"type":"node","id":1580645684,"lat":52.4795898,"lon":-1.8933745},{"type":"node","id":1580645687,"lat":52.4799996,"lon":-1.893102},{"type":"node","id":1580645688,"lat":52.4800651,"lon":-1.8934426},{"type":"node","id":1683186487,"lat":52.4793455,"lon":-1.8927834},{"type":"node","id":1683186488,"lat":52.4794619,"lon":-1.8924835},{"type":"node","id":1683186490,"lat":52.4793741,"lon":-1.892633},{"type":"node","id":1683193631,"lat":52.4797585,"lon":-1.8932567},{"type":"node","id":1695947243,"lat":52.4806328,"lon":-1.8909528},{"type":"node","id":1695947249,"lat":52.4807718,"lon":-1.8901996},{"type":"node","id":1695947252,"lat":52.4807758,"lon":-1.8904181},{"type":"node","id":1755898640,"lat":52.4790789,"lon":-1.8920266},{"type":"node","id":1755898641,"lat":52.4790946,"lon":-1.8920123},{"type":"node","id":1755898644,"lat":52.4791346,"lon":-1.892134},{"type":"node","id":1755898647,"lat":52.4791915,"lon":-1.8923945},{"type":"node","id":1755898649,"lat":52.4792062,"lon":-1.8923801},{"type":"node","id":1755898651,"lat":52.4792065,"lon":-1.8924469},{"type":"node","id":1755898653,"lat":52.4792188,"lon":-1.8924668},{"type":"node","id":1755898655,"lat":52.4792108,"lon":-1.8923413},{"type":"node","id":1755898657,"lat":52.4792253,"lon":-1.8924997},{"type":"node","id":1755898659,"lat":52.4792476,"lon":-1.8924401},{"type":"node","id":1755898661,"lat":52.4792467,"lon":-1.8924084},{"type":"node","id":1755898668,"lat":52.479257,"lon":-1.8924734},{"type":"node","id":1755898669,"lat":52.4792656,"lon":-1.8924688},{"type":"node","id":1755898670,"lat":52.4792885,"lon":-1.8925414},{"type":"node","id":1755901993,"lat":52.4785256,"lon":-1.8924765},{"type":"node","id":1827335702,"lat":52.4798831,"lon":-1.8921395},{"type":"node","id":1827336143,"lat":52.479549,"lon":-1.8923138},{"type":"node","id":1827336144,"lat":52.4792932,"lon":-1.8925561},{"type":"node","id":1828646329,"lat":52.4789492,"lon":-1.8932173},{"type":"node","id":1828646332,"lat":52.4795871,"lon":-1.892571},{"type":"node","id":1828731143,"lat":52.4795412,"lon":-1.8929178},{"type":"node","id":1828731144,"lat":52.4795703,"lon":-1.8932893},{"type":"node","id":1832004504,"lat":52.4789755,"lon":-1.8930456},{"type":"node","id":1833191767,"lat":52.4795188,"lon":-1.8924966},{"type":"node","id":1834185690,"lat":52.4795692,"lon":-1.892394},{"type":"node","id":1834185701,"lat":52.4801572,"lon":-1.8919058},{"type":"node","id":2064987998,"lat":52.4812349,"lon":-1.8889015},{"type":"node","id":2064988043,"lat":52.4818099,"lon":-1.887529},{"type":"node","id":2071633019,"lat":52.4781759,"lon":-1.8897257},{"type":"node","id":2321150385,"lat":52.4789464,"lon":-1.8929521},{"type":"node","id":2421467350,"lat":52.4816174,"lon":-1.8885341},{"type":"node","id":2440612178,"lat":52.4799595,"lon":-1.8922045},{"type":"node","id":2440612197,"lat":52.4798253,"lon":-1.8922983},{"type":"node","id":2440612200,"lat":52.4802189,"lon":-1.8919974},{"type":"node","id":2520425393,"lat":52.4790708,"lon":-1.8934894},{"type":"node","id":2523807527,"lat":52.4796152,"lon":-1.8933062},{"type":"node","id":2523807528,"lat":52.4796514,"lon":-1.8937055},{"type":"node","id":2528036932,"lat":52.4792566,"lon":-1.8924382},{"type":"node","id":2976042590,"lat":52.4790626,"lon":-1.8925968},{"type":"node","id":2976042591,"lat":52.4790692,"lon":-1.8926201},{"type":"node","id":2976042592,"lat":52.4790893,"lon":-1.8925764},{"type":"node","id":2976042593,"lat":52.4790959,"lon":-1.8925996},{"type":"node","id":3463638219,"lat":52.4789266,"lon":-1.8922807},{"type":"node","id":3463638220,"lat":52.4789645,"lon":-1.8922347},{"type":"node","id":3463638221,"lat":52.47882,"lon":-1.8917342},{"type":"node","id":3463638222,"lat":52.4788535,"lon":-1.8916312},{"type":"node","id":3463638223,"lat":52.4788314,"lon":-1.8915747},{"type":"node","id":3463638224,"lat":52.4789239,"lon":-1.8916345},{"type":"node","id":3463638225,"lat":52.4788076,"lon":-1.8913374},{"type":"node","id":3463638226,"lat":52.4787512,"lon":-1.8912071},{"type":"node","id":3463638227,"lat":52.4787098,"lon":-1.8912404},{"type":"node","id":3463638228,"lat":52.4789074,"lon":-1.89169},{"type":"node","id":3463638229,"lat":52.4791047,"lon":-1.8923274},{"type":"node","id":3463638230,"lat":52.4791567,"lon":-1.8922781},{"type":"node","id":3463638231,"lat":52.4790734,"lon":-1.8920409},{"type":"node","id":3463638232,"lat":52.479042,"lon":-1.8920705},{"type":"node","id":3463650030,"lat":52.4789482,"lon":-1.8919443},{"type":"node","id":3724594242,"lat":52.4791294,"lon":-1.892729},{"type":"node","id":3724594243,"lat":52.4792606,"lon":-1.8929742},{"type":"node","id":3724594246,"lat":52.4796421,"lon":-1.8925956},{"type":"node","id":3724594251,"lat":52.4797043,"lon":-1.8924628},{"type":"node","id":3824137571,"lat":52.4788436,"lon":-1.8927067},{"type":"node","id":4007749529,"lat":52.4791245,"lon":-1.8923079},{"type":"node","id":4007749530,"lat":52.4791804,"lon":-1.8924772},{"type":"node","id":4007749531,"lat":52.4792145,"lon":-1.8924389},{"type":"node","id":4287521913,"lat":52.4802003,"lon":-1.8919187},{"type":"node","id":4287521914,"lat":52.4802182,"lon":-1.8919148},{"type":"node","id":4287521915,"lat":52.4802265,"lon":-1.8919591},{"type":"node","id":4287521916,"lat":52.4802293,"lon":-1.891937},{"type":"node","id":4287521921,"lat":52.4804417,"lon":-1.8915307},{"type":"node","id":4287521923,"lat":52.4808756,"lon":-1.8902011},{"type":"node","id":4374771540,"lat":52.4790639,"lon":-1.8925479},{"type":"node","id":4374771541,"lat":52.4787242,"lon":-1.891188},{"type":"node","id":4374771542,"lat":52.4780625,"lon":-1.889737},{"type":"node","id":4374771543,"lat":52.4791557,"lon":-1.8924024},{"type":"node","id":4374771544,"lat":52.4781319,"lon":-1.8896039},{"type":"node","id":4374771549,"lat":52.4784819,"lon":-1.8906611},{"type":"node","id":4374771551,"lat":52.479108,"lon":-1.8925077},{"type":"node","id":4374771552,"lat":52.4782266,"lon":-1.8908297},{"type":"node","id":4374771553,"lat":52.4783411,"lon":-1.8901703},{"type":"node","id":4374771555,"lat":52.4791292,"lon":-1.8924258},{"type":"node","id":4374771556,"lat":52.4786105,"lon":-1.8912695},{"type":"node","id":4374771557,"lat":52.4780821,"lon":-1.8897316},{"type":"node","id":4374771558,"lat":52.4784228,"lon":-1.8907362},{"type":"node","id":4374771559,"lat":52.4781067,"lon":-1.8896216},{"type":"node","id":4374771566,"lat":52.4782847,"lon":-1.8900266},{"type":"node","id":4374771567,"lat":52.4781998,"lon":-1.8901554},{"type":"node","id":4374771570,"lat":52.4786736,"lon":-1.8923726},{"type":"node","id":4374771571,"lat":52.4787208,"lon":-1.8923372},{"type":"node","id":5505854507,"lat":52.4794895,"lon":-1.8928778},{"type":"node","id":5505854508,"lat":52.4796708,"lon":-1.8926901},{"type":"node","id":5505854511,"lat":52.4792861,"lon":-1.8930964},{"type":"node","id":5505854512,"lat":52.4793993,"lon":-1.8930093},{"type":"node","id":5505854513,"lat":52.4794617,"lon":-1.8929596},{"type":"node","id":5505854514,"lat":52.4795467,"lon":-1.8935162},{"type":"node","id":5505854515,"lat":52.4795642,"lon":-1.8933512},{"type":"node","id":5550508728,"lat":52.4791347,"lon":-1.8924228},{"type":"node","id":5556317144,"lat":52.4791186,"lon":-1.8926743},{"type":"node","id":5559461878,"lat":52.4791799,"lon":-1.8932533},{"type":"node","id":5573796736,"lat":52.4786468,"lon":-1.8929713},{"type":"node","id":5688530781,"lat":52.4815811,"lon":-1.8886926},{"type":"node","id":5801519329,"lat":52.4795703,"lon":-1.8922207},{"type":"node","id":6249656078,"lat":52.4801274,"lon":-1.8918071},{"type":"node","id":6410985129,"lat":52.4788344,"lon":-1.8936959},{"type":"node","id":6410985130,"lat":52.4786956,"lon":-1.8937831},{"type":"node","id":6410985131,"lat":52.4788786,"lon":-1.8935423},{"type":"node","id":6410985132,"lat":52.4790018,"lon":-1.8936047},{"type":"node","id":6410990438,"lat":52.4788514,"lon":-1.8934674},{"type":"node","id":6437277485,"lat":52.4801385,"lon":-1.8918468},{"type":"node","id":6437277488,"lat":52.4801922,"lon":-1.8920203},{"type":"node","id":6437277489,"lat":52.480169,"lon":-1.8919464},{"type":"node","id":6464915489,"lat":52.4788099,"lon":-1.8935765},{"type":"node","id":6464915490,"lat":52.4789847,"lon":-1.8934894},{"type":"node","id":7103336579,"lat":52.4786631,"lon":-1.8923795},{"type":"node","id":7103336580,"lat":52.4787408,"lon":-1.8923233},{"type":"node","id":7103336581,"lat":52.4787118,"lon":-1.8921537},{"type":"node","id":7109109985,"lat":52.4788822,"lon":-1.8920104},{"type":"node","id":7109109986,"lat":52.4791412,"lon":-1.8923585},{"type":"node","id":7117546477,"lat":52.4794793,"lon":-1.8933136},{"type":"node","id":7117546478,"lat":52.4794518,"lon":-1.8933267},{"type":"node","id":7688733472,"lat":52.4811075,"lon":-1.8891121},{"type":"node","id":7688733474,"lat":52.4793105,"lon":-1.8924447},{"type":"node","id":7688733475,"lat":52.4790969,"lon":-1.8919823},{"type":"node","id":7688733476,"lat":52.4790628,"lon":-1.8920092},{"type":"node","id":7688733477,"lat":52.479482,"lon":-1.8903831},{"type":"node","id":7688733478,"lat":52.4797862,"lon":-1.8894059},{"type":"node","id":8863042578,"lat":52.4787155,"lon":-1.8911642},{"type":"node","id":9135599697,"lat":52.4791553,"lon":-1.8927913},{"type":"node","id":9135599698,"lat":52.4792352,"lon":-1.8928991},{"type":"node","id":9135599699,"lat":52.4793548,"lon":-1.8930429},{"type":"node","id":9135599700,"lat":52.4795133,"lon":-1.8933984},{"type":"node","id":9135599702,"lat":52.4797473,"lon":-1.8932118},{"type":"node","id":9135599703,"lat":52.4795548,"lon":-1.8923366},{"type":"node","id":9135599704,"lat":52.4795835,"lon":-1.8924335},{"type":"node","id":9135599705,"lat":52.4796212,"lon":-1.8925378},{"type":"node","id":9135599706,"lat":52.4800326,"lon":-1.8924183},{"type":"node","id":9135599707,"lat":52.4800441,"lon":-1.8924712},{"type":"node","id":9135599708,"lat":52.4796367,"lon":-1.8927794},{"type":"node","id":9135599709,"lat":52.4796251,"lon":-1.8927374},{"type":"node","id":9135599713,"lat":52.4793856,"lon":-1.8927573},{"type":"node","id":9504553002,"lat":52.4793393,"lon":-1.8905269},{"type":"node","id":9504553003,"lat":52.4794594,"lon":-1.8904599},{"type":"node","id":9504553004,"lat":52.4793708,"lon":-1.8907688},{"type":"node","id":9504553007,"lat":52.4790241,"lon":-1.8920196},{"type":"node","id":9504553008,"lat":52.4790233,"lon":-1.8920174},{"type":"node","id":9504587119,"lat":52.4789747,"lon":-1.8918799},{"type":"node","id":9504587129,"lat":52.4798583,"lon":-1.889131},{"type":"node","id":9504587144,"lat":52.4800613,"lon":-1.8883128},{"type":"node","id":9504587146,"lat":52.4800552,"lon":-1.8883376},{"type":"node","id":9504587151,"lat":52.4793691,"lon":-1.8907557},{"type":"node","id":9682341299,"lat":52.4794845,"lon":-1.8925817},{"type":"node","id":9682341300,"lat":52.4794033,"lon":-1.8926544},{"type":"node","id":9682341301,"lat":52.4794078,"lon":-1.8925756},{"type":"node","id":9682341302,"lat":52.4793474,"lon":-1.8927927},{"type":"node","id":9682341303,"lat":52.4793792,"lon":-1.8927389},{"type":"node","id":9682341304,"lat":52.4793817,"lon":-1.8927114},{"type":"node","id":9682341305,"lat":52.4793869,"lon":-1.8926868},{"type":"node","id":9682341306,"lat":52.4797473,"lon":-1.8923778},{"type":"node","id":9682341307,"lat":52.4797301,"lon":-1.892408},{"type":"node","id":9682341308,"lat":52.4790003,"lon":-1.8930983},{"type":"node","id":9682341309,"lat":52.4790003,"lon":-1.8930588},{"type":"node","id":9682341310,"lat":52.4789902,"lon":-1.8930204},{"type":"node","id":9682341311,"lat":52.4789699,"lon":-1.8929705},{"type":"node","id":9682341312,"lat":52.4789573,"lon":-1.8929455},{"type":"node","id":9682341313,"lat":52.4793294,"lon":-1.8926556},{"type":"node","id":9682341314,"lat":52.4793357,"lon":-1.8926608},{"type":"node","id":9682341315,"lat":52.4793383,"lon":-1.8926754},{"type":"node","id":9682341316,"lat":52.4793281,"lon":-1.8927097},{"type":"node","id":9682394717,"lat":52.479318,"lon":-1.8927439},{"type":"node","id":9682394718,"lat":52.4793136,"lon":-1.8927803},{"type":"node","id":9682394719,"lat":52.479313,"lon":-1.8928063},{"type":"node","id":9682394720,"lat":52.4793035,"lon":-1.8928344},{"type":"node","id":9682394721,"lat":52.479287,"lon":-1.8928551},{"type":"node","id":9682394763,"lat":52.4792546,"lon":-1.8932833},{"type":"node","id":9682394764,"lat":52.4792677,"lon":-1.8932324},{"type":"node","id":9682394765,"lat":52.4793522,"lon":-1.8931542},{"type":"node","id":9682394766,"lat":52.479367,"lon":-1.893137},{"type":"node","id":9682394767,"lat":52.4793757,"lon":-1.8931042},{"type":"node","id":9682394768,"lat":52.4793713,"lon":-1.8930741},{"type":"node","id":9682394769,"lat":52.4793449,"lon":-1.8930244},{"type":"node","id":9682394770,"lat":52.4793346,"lon":-1.8930119},{"type":"node","id":9682394771,"lat":52.4793108,"lon":-1.8930119},{"type":"node","id":9682394772,"lat":52.4792729,"lon":-1.893033},{"type":"node","id":9682394773,"lat":52.4792276,"lon":-1.8930732},{"type":"node","id":9682394774,"lat":52.4791973,"lon":-1.8931406},{"type":"node","id":9682394775,"lat":52.4789293,"lon":-1.8933873},{"type":"node","id":9682394776,"lat":52.4788012,"lon":-1.8934866},{"type":"node","id":9682394777,"lat":52.4787386,"lon":-1.8934937},{"type":"node","id":9682394778,"lat":52.4787019,"lon":-1.8935102},{"type":"node","id":9682394779,"lat":52.4785856,"lon":-1.893586},{"type":"node","id":9682394780,"lat":52.4785229,"lon":-1.8936224},{"type":"node","id":9682394781,"lat":52.4784846,"lon":-1.8936747},{"type":"node","id":9682394782,"lat":52.4784948,"lon":-1.8937768},{"type":"node","id":9682394783,"lat":52.4785586,"lon":-1.8937102},{"type":"node","id":9682394784,"lat":52.4785035,"lon":-1.8937892},{"type":"node","id":9682394785,"lat":52.4784993,"lon":-1.8937831},{"type":"node","id":9682394786,"lat":52.4785756,"lon":-1.8937012},{"type":"node","id":9938988087,"lat":52.4789862,"lon":-1.8919126},{"type":"node","id":9938988096,"lat":52.4789893,"lon":-1.8919212},{"type":"node","id":11155875906,"lat":52.4804007,"lon":-1.8917158},{"type":"node","id":11479633005,"lat":52.4786621,"lon":-1.8910223},{"type":"node","id":11479633006,"lat":52.4806501,"lon":-1.8909487},{"type":"node","id":11479633007,"lat":52.4807328,"lon":-1.8904076},{"type":"node","id":11479633008,"lat":52.4815161,"lon":-1.8886921},{"type":"node","id":11479633009,"lat":52.4814524,"lon":-1.8887066},{"type":"node","id":11479633010,"lat":52.481377,"lon":-1.8887422},{"type":"node","id":11479633011,"lat":52.4813006,"lon":-1.8888073},{"type":"node","id":11479633012,"lat":52.481103,"lon":-1.889207},{"type":"node","id":11479633013,"lat":52.4810338,"lon":-1.8894076},{"type":"node","id":11479633014,"lat":52.4810727,"lon":-1.8896142},{"type":"node","id":11479633015,"lat":52.4809521,"lon":-1.8899049},{"type":"node","id":11497892157,"lat":52.478931,"lon":-1.8929327},{"type":"node","id":11497892159,"lat":52.478973,"lon":-1.8930976},{"type":"node","id":11497892160,"lat":52.47897,"lon":-1.8931453},{"type":"node","id":11498023624,"lat":52.4789663,"lon":-1.8929935},{"type":"node","id":11498023625,"lat":52.4789123,"lon":-1.8929195},{"type":"node","id":11498023626,"lat":52.4788862,"lon":-1.8929085},{"type":"node","id":12530516728,"lat":52.4805243,"lon":-1.8916133},{"type":"node","id":12530516735,"lat":52.4804844,"lon":-1.8916463},{"type":"node","id":1446879784,"lat":52.4814779,"lon":-1.8868162},{"type":"node","id":2064988029,"lat":52.4814918,"lon":-1.8868814},{"type":"node","id":2421467342,"lat":52.4815166,"lon":-1.8869985},{"type":"node","id":2421467343,"lat":52.4815236,"lon":-1.8871182},{"type":"node","id":2421467348,"lat":52.4816033,"lon":-1.8871132},{"type":"node","id":7688733479,"lat":52.48041,"lon":-1.8873659},{"type":"node","id":9483416207,"lat":52.4818876,"lon":-1.8870985}]}