{"version":0.6,"generator":"Overpass API 0.7.62.5 1bd436f1","osm3s":{"timestamp_osm_base":"2025-03-12T12:08:45Z","copyright":"The data included in this document is from www.openstreetmap.org. The data is made available under ODbL."},"elements":[{"type":"node","id":312286093,"lat":52.4819407,"lon":-1.9031639,"tags":{"addr:city":"Birmingham","addr:housenumber":"58","addr:postcode":"B3 3RJ","addr:street":"Newhall Street","amenity":"cafe","fhrs:id":"603229","name":"Caf\u00e9 Costes","previous_name":"Charlie's No 1","source":"survey"}},{"type":"node","id":355918830,"lat":52.4818228,"lon":-1.9026317,"tags":{"internet_access":"wlan","operator":"BT","service":"Birmingham FIZ","source":"survey"}},{"type":"node","id":356731415,"lat":52.4822078,"lon":-1.90336,"tags":{"internet_access":"wlan","man_made":"surveillance","note":"two services on one lamppost","operator":"BT","service":"Birmingham FIZ","source":"survey"}},{"type":"node","id":367682745,"lat":52.4821179,"lon":-1.9031522,"tags":{"bench":"no","bin":"no","bus":"yes","highway":"bus_stop","lit":"no","name":"NH2","naptan:AtcoCode":"43000284502","naptan:Bearing":"SE","naptan:BusStopType":"MKD","naptan:CommonName":"Great Charles St","naptan:Indicator":"Stop NH2","naptan:NaptanCode":"nwmwgpmw","naptan:PlusbusZoneRef":"West Midlands","naptan:Status":"ACT","naptan:StopType":"BCT","naptan:Street":"NEWHALL ST","naptan:Towards":"City Centre","naptan:verified":"no","public_transport":"platform","route_ref":"101","shelter":"no","source":"WMCA","tactile_paving":"no"}},{"type":"node","id":625827536,"lat":52.48185,"lon":-1.902557,"tags":{"man_made":"surveillance","source":"visual survey & estimate"}},{"type":"node","id":630662514,"lat":52.481846,"lon":-1.9033828,"tags":{"source":"visual survey & estimate"}},{"type":"node","id":630662515,"lat":52.4821495,"lon":-1.9034718,"tags":{"source":"visual survey & estimate"}},{"type":"node","id":630662516,"lat":52.4820823,"lon":-1.9033412,"tags":{"source":"visual survey & estimate"}},{"type":"node","id":866021610,"lat":52.4823439,"lon":-1.9029098,"tags":{"man_made":"tower","source":"visual survey; estimate","tower:type":"communication"}},{"type":"node","id":866021731,"lat":52.4822443,"lon":-1.9030353,"tags":{"man_made":"tower","source":"visual survey; estimate","tower:type":"communication"}},{"type":"node","id":1112011049,"lat":52.4822099,"lon":-1.9034433,"tags":{"highway":"traffic_signals","ref":"E0115","source":"survey"}},{"type":"node","id":1112011055,"lat":52.4823418,"lon":-1.9034022,"tags":{"highway":"traffic_signals","ref":"E0115","source":"survey"}},{"type":"node","id":1112024636,"lat":52.4823402,"lon":-1.9032137,"tags":{"man_made":"tower","source":"visual survey; estimate","tower:type":"communication"}},{"type":"node","id":1343951487,"lat":52.4822676,"lon":-1.9032834,"tags":{"amenity":"bar","disused":"yes","name":"Cogs"}},{"type":"node","id":1585877151,"lat":52.4822914,"lon":-1.9031321,"tags":{"man_made":"tower","source":"visual survey; estimate","tower:type":"communication"}},{"type":"node","id":2526028752,"lat":52.4818516,"lon":-1.9024426,"tags":{"name":"Capsticks","office":"lawyer"}},{"type":"node","id":2526028761,"lat":52.4821505,"lon":-1.9030207,"tags":{"amenity":"dentist","healthcare":"dentist","name":"Dental Practice"}},{"type":"node","id":2526028769,"lat":52.4819087,"lon":-1.9030703,"tags":{"name":"Grove Tompkins Bosworth","office":"lawyer"}},{"type":"node","id":2526028774,"lat":52.4822179,"lon":-1.9031515,"tags":{"amenity":"restaurant","cuisine":"nepalese","name":"Jojolapa"}},{"type":"node","id":2526028796,"lat":52.4821038,"lon":-1.9034561,"tags":{"addr:city":"Birmingham","addr:housenumber":"64","addr:postcode":"B3 3RJ","addr:street":"Newhall Street","amenity":"restaurant","cuisine":"pizza","name":"Mediterranean Pizza","old_name":"Subway"}},{"type":"node","id":3796457303,"lat":52.4817458,"lon":-1.9026939,"tags":{"man_made":"street_cabinet","operator":"Orange","utility":"telecom"}},{"type":"node","id":3796457304,"lat":52.481763,"lon":-1.9026818,"tags":{"communication:mobile_phone":"yes","man_made":"mast","operator":"EE","operator:wikidata":"Q5322942","tower:type":"communication"}},{"type":"node","id":4467824517,"lat":52.4821848,"lon":-1.9023796,"tags":{"amenity":"vending_machine","source":"survey","vending":"parking_tickets"}},{"type":"node","id":4490388060,"lat":52.481812,"lon":-1.9028234,"tags":{"highway":"give_way","source":"survey"}},{"type":"node","id":4490388061,"lat":52.481892,"lon":-1.9026974,"tags":{"highway":"give_way","source":"survey"}},{"type":"node","id":4652931127,"lat":52.4823046,"lon":-1.9033785,"tags":{"emergency":"fire_hydrant","fire_hydrant:position":"sidewalk","fire_hydrant:type":"underground","source":"survey"}},{"type":"node","id":4734615572,"lat":52.4816967,"lon":-1.9025805,"tags":{"name":"NH7","naptan:AtcoCode":"43000284503","naptan:Bearing":"NW","naptan:BusStopType":"MKD","naptan:CommonName":"Great Charles St","naptan:Indicator":"Stop NH7","naptan:NaptanCode":"nwmagpwj","naptan:Status":"ACT","naptan:StopType":"BCT","naptan:Street":"NEWHALL ST","naptan:Towards":"Newtown and Perry Common","naptan_refresh":"query","source":"WMCA"}},{"type":"node","id":4737593837,"lat":52.4822566,"lon":-1.9034322,"tags":{"emergency":"fire_hydrant","fire_hydrant:type":"underground","source":"survey"}},{"type":"node","id":4737593838,"lat":52.4822419,"lon":-1.9034027,"tags":{"emergency":"fire_hydrant","fire_hydrant:type":"underground","source":"survey"}},{"type":"node","id":4737593839,"lat":52.4819242,"lon":-1.902775,"tags":{"emergency":"fire_hydrant","fire_hydrant:type":"underground","source":"survey"}},{"type":"node","id":4737593842,"lat":52.4817323,"lon":-1.9024518,"tags":{"emergency":"fire_hydrant","fire_hydrant:type":"underground","operator":"WMFS","source":"survey"}},{"type":"node","id":5431631802,"lat":52.4822119,"lon":-1.9031357,"tags":{"addr:city":"Birmingham","addr:housename":"Avebury House","addr:housenumber":"55","addr:postcode":"B3 3RB","addr:street":"Newhall Street","email":"hello@ecommercedesign.agency","name":"eCommerce Agency","office":"yes","phone":"+44121 371 0435","website":"https:\/\/ecommercedesign.agency\/"}},{"type":"node","id":10870613552,"lat":52.481948,"lon":-1.9026418,"tags":{"amenity":"bicycle_parking","bicycle_parking":"stands","capacity":"4","name":"Cornwall Street"}}]}