{"version":0.6,"generator":"Overpass API 0.7.62.5 1bd436f1","osm3s":{"timestamp_osm_base":"2025-03-11T16:21:15Z","copyright":"The data included in this document is from www.openstreetmap.org. The data is made available under ODbL."},"elements":[{"type":"node","id":433728002,"lat":52.4987216,"lon":13.4165502,"tags":{"bench":"no","bin":"yes","bus":"yes","highway":"bus_stop","lit":"no","name":"U Kottbusser Tor","shelter":"no","tactile_paving":"no"}},{"type":"node","id":799000082,"lat":52.4986179,"lon":13.4165594,"tags":{"addr:city":"Berlin","addr:country":"DE","addr:housenumber":"6","addr:postcode":"10999","addr:street":"Skalitzer Stra\u00dfe","addr:suburb":"Kreuzberg","amenity":"community_centre","check_date":"2025-02-26","community_centre":"cultural_centre","email":"narrativ@suedblock.org","internet_access":"wlan","internet_access:fee":"no","internet_access:ssid":"aquarium_gast","level":"0","name":"Aquarium","operator:type":"community","payment:cards":"no","payment:cash":"yes","payment:credit_cards":"no","payment:debit_cards":"no","source":"survey","toilets:wheelchair":"yes","website":"https:\/\/www.suedblock.org\/wp\/aquarium\/","wheelchair":"yes"}},{"type":"node","id":815343324,"lat":52.4989727,"lon":13.4170877,"tags":{"button_operated":"yes","crossing":"traffic_signals","crossing:markings":"dashes","highway":"crossing","tactile_paving":"yes","traffic_signals:sound":"yes","traffic_signals:vibration":"yes"}},{"type":"node","id":815343357,"lat":52.4988319,"lon":13.417116,"tags":{"button_operated":"no","crossing":"traffic_signals","highway":"crossing","tactile_paving":"yes","traffic_signals:sound":"yes","traffic_signals:vibration":"yes"}},{"type":"node","id":871713143,"lat":52.4990122,"lon":13.416665,"tags":{"disused:amenity":"bank","name":"Oyak Anker Bank"}},{"type":"node","id":871720980,"lat":52.4990334,"lon":13.4168609,"tags":{"addr:city":"Berlin","addr:country":"DE","addr:housenumber":"139","addr:postcode":"10999","addr:street":"Skalitzer Stra\u00dfe","addr:suburb":"Kreuzberg"}},{"type":"node","id":872308121,"lat":52.4990514,"lon":13.4169291,"tags":{"addr:city":"Berlin","addr:country":"DE","addr:postcode":"10999","addr:street":"Skalitzer Stra\u00dfe","addr:suburb":"Kreuzberg","amenity":"driving_school","check_date":"2023-05-30","contact:website":"http:\/\/www.fahrschule-kotti.de\/","name":"Fahrschule Kotti","opening_hours":"Mo-Fr 12:00-18:00, Sa 10:00-15:00","wheelchair":"no"}},{"type":"node","id":872318155,"lat":52.4990237,"lon":13.416896,"tags":{"addr:city":"Berlin","addr:country":"DE","addr:housenumber":"139","addr:postcode":"10999","addr:street":"Skalitzer Stra\u00dfe","addr:suburb":"Kreuzberg","amenity":"atm","brand":"\u0130\u015fbank","brand:wikidata":"Q2607251","cash_in":"no","check_date":"2022-11-16","currency:EUR":"yes","drive_through":"no","level":"0","operator":"\u0130\u015fbank","operator:wikidata":"Q2607251","wheelchair":"limited"}},{"type":"node","id":1224377707,"lat":52.4989249,"lon":13.4163575,"tags":{"bench":"no","bin":"yes","bus":"yes","highway":"bus_stop","lit":"yes","name":"U Kottbusser Tor","shelter":"no","tactile_paving":"no"}},{"type":"node","id":1286990143,"lat":52.4989994,"lon":13.4162683,"tags":{"addr:city":"Berlin","addr:country":"DE","addr:housenumber":"141a","addr:postcode":"10999","addr:street":"Skalitzer Stra\u00dfe","addr:suburb":"Kreuzberg"}},{"type":"node","id":1286990209,"lat":52.4990162,"lon":13.4164766,"tags":{"addr:city":"Berlin","addr:country":"DE","addr:housenumber":"141","addr:postcode":"10999","addr:street":"Skalitzer Stra\u00dfe","addr:suburb":"Kreuzberg","contact:facebook":"https:\/\/www.facebook.com\/Cutbusser","contact:phone":"+49 30 92253505","female:signed":"no","male:signed":"no","name":"Cutbusser","opening_hours":"Mo-Sa 10:00-19:00","shop":"hairdresser"}},{"type":"node","id":1440648483,"lat":52.4985839,"lon":13.4162575,"tags":{"barrier":"gate","bicycle":"yes","foot":"yes"}},{"type":"node","id":3880652816,"lat":52.4987784,"lon":13.4165933,"tags":{"bus":"yes","name":"U Kottbusser Tor","public_transport":"stop_position","ref:BVG":"102453","website":"https:\/\/qr.bvg.de\/h102453"}},{"type":"node","id":3880652817,"lat":52.498886,"lon":13.4163988,"tags":{"bus":"yes","name":"U Kottbusser Tor","public_transport":"stop_position","ref:BVG":"102413","website":"https:\/\/qr.bvg.de\/h102413"}},{"type":"node","id":3900136282,"lat":52.4988284,"lon":13.4170539,"tags":{"highway":"traffic_signals"}},{"type":"node","id":4034592725,"lat":52.499004,"lon":13.4163673,"tags":{"addr:city":"Berlin","addr:country":"DE","addr:housenumber":"141","addr:postcode":"10999","addr:street":"Skalitzer Stra\u00dfe","addr:suburb":"Kreuzberg","brand":"NORMA","brand:wikidata":"Q450180","brand:wikipedia":"de:Norma (Supermarkt)","name":"NORMA","opening_hours":"Mo-Sa 07:00-21:00","ref:vatin":"DE132748925","shop":"supermarket","wheelchair":"yes"}},{"type":"node","id":4714615144,"lat":52.498914,"lon":13.417143,"tags":{"name":"Skalitzer Stra\u00dfe\/Wassertorplatz","railway":"subway_entrance","ref":"B","wheelchair":"no"}},{"type":"node","id":7606199828,"lat":52.4989266,"lon":13.4161247,"tags":{"barrier":"gate"}},{"type":"node","id":7945331225,"lat":52.4987614,"lon":13.4168987,"tags":{"highway":"street_lamp"}},{"type":"node","id":8026452874,"lat":52.4989494,"lon":13.4164988,"tags":{"highway":"street_lamp"}},{"type":"node","id":8806813459,"lat":52.498867,"lon":13.4171077,"tags":{"barrier":"kerb","kerb":"lowered","tactile_paving":"yes"}},{"type":"node","id":8895430520,"lat":52.4990082,"lon":13.4170775,"tags":{"barrier":"kerb","kerb":"lowered","tactile_paving":"yes"}},{"type":"node","id":8895430691,"lat":52.4989455,"lon":13.417096,"tags":{"barrier":"kerb","kerb":"lowered","tactile_paving":"yes"}},{"type":"node","id":8895430692,"lat":52.4990021,"lon":13.4169634,"tags":{"highway":"street_lamp"}},{"type":"node","id":8895430763,"lat":52.4987849,"lon":13.417127,"tags":{"barrier":"kerb","kerb":"lowered","tactile_paving":"yes"}},{"type":"node","id":9755765809,"lat":52.4990143,"lon":13.4171759,"tags":{"barrier":"kerb","kerb":"flush"}},{"type":"node","id":10188735078,"lat":52.4987421,"lon":13.4166656,"tags":{"amenity":"waste_basket","colour":"orange","waste":"trash;dog_excrement;cigarettes"}},{"type":"node","id":10882843016,"lat":52.4989486,"lon":13.4165022,"tags":{"amenity":"waste_basket"}},{"type":"node","id":11249087233,"lat":52.4985899,"lon":13.4167587,"tags":{"artwork_type":"mural","image":"https:\/\/photos.app.goo.gl\/ZCVCGRTBP5dsjPeo8","tourism":"artwork"}},{"type":"node","id":12047986636,"lat":52.4991069,"lon":13.4171763,"tags":{"addr:floor":"0","addr:housenumber":"138","addr:street":"Skalitzer Stra\u00dfe","amenity":"atm","brand":"Euronet","brand:wikidata":"Q5412010","cash_in":"no","check_date":"2024-07-11","covered":"no","currency:EUR":"yes","drive_through":"no","indoor":"no","level":"0","opening_hours":"24\/7","operator":"Euronet","operator:wikidata":"Q5412010","source":"survey"}},{"type":"node","id":12078295035,"lat":52.4985361,"lon":13.4171632,"tags":{"leaf_cycle":"deciduous","leaf_type":"broadleaved","natural":"tree"}},{"type":"node","id":12078295037,"lat":52.4987268,"lon":13.4169683,"tags":{"leaf_cycle":"deciduous","leaf_type":"broadleaved","natural":"tree"}},{"type":"node","id":12078295038,"lat":52.4986477,"lon":13.417102,"tags":{"leaf_cycle":"deciduous","leaf_type":"broadleaved","natural":"tree"}},{"type":"node","id":12078295039,"lat":52.4986133,"lon":13.417161,"tags":{"leaf_cycle":"deciduous","leaf_type":"broadleaved","natural":"tree"}},{"type":"node","id":12140906734,"lat":52.4990642,"lon":13.4170571,"tags":{"addr:floor":"0","addr:housenumber":"138","addr:street":"Skalitzer Stra\u00dfe","amenity":"parcel_locker","brand":"Amazon Hub","brand:wikidata":"Q100274430","check_date":"2024-08-27","colour":"darkgrey","covered":"yes","indoor":"no","level":"0","opening_hours":"24\/7","operator":"Amazon","ref":"alva","source":"survey","surveillance":"outdoor"}},{"type":"node","id":12585101417,"lat":52.49886,"lon":13.4168761,"tags":{"amenity":"vending_machine","currency:EUR":"yes","payment:coins":"yes","payment:handyparken":"yes","vending":"parking_tickets"}}]}