{"version":0.6,"generator":"Overpass API 0.7.62.5 1bd436f1","osm3s":{"timestamp_osm_base":"2025-03-12T12:08:45Z","copyright":"The data included in this document is from www.openstreetmap.org. The data is made available under ODbL."},"elements":[{"type":"node","id":17861291,"lat":52.4796992,"lon":-1.9026911,"tags":{"alt_name":"Brummagem","alt_name:ar":"\u0628\u0631\u0645\u0646\u063a\u0647\u0627\u0645;\u0628\u0631\u0645\u0646\u063a\u0647\u0627\u0645 (\u0625\u0646\u062c\u0644\u062a\u0631\u0627)","ele":"140","is_in":"West Midlands, England, United Kingdom","is_in:country":"United Kingdom","is_in:country_code":"GB","is_in:county":"West Midlands","loc_name":"Brum","name":"Birmingham","name:af":"Birmingham","name:am":"\u1260\u122d\u121a\u1295\u130d\u1203\u121d","name:an":"Birmingham","name:ang":"Beormingah\u0101m","name:ar":"\u0628\u0631\u0645\u0646\u0647\u0627\u0645","name:arz":"\u0628\u0631\u0645\u0646\u062c\u0647\u0627\u0645","name:ast":"Birmingham","name:ay":"Birmingham","name:az":"Birmingem","name:azb":"\u0628\u06cc\u0631\u0645\u06cc\u0646\u06af\u0627\u0645","name:ba":"\u0411\u0438\u0440\u043c\u0438\u043d\u0433\u0435\u043c","name:bat-smg":"B\u0117rmingams","name:be":"\u0411\u0456\u0440\u043c\u0456\u043d\u0433\u0435\u043c","name:be-tarask":"\u0411\u0456\u0440\u043c\u0456\u043d\u0433\u0433\u044d\u043c","name:bg":"\u0411\u0438\u0440\u043c\u0438\u043d\u0433\u0430\u043c","name:bn":"\u09ac\u09be\u09b0\u09cd\u09ae\u09bf\u0982\u09b9\u09be\u09ae","name:br":"Birmingham","name:bs":"Birmingham","name:ca":"Birmingham","name:ce":"\u0411\u0438\u0440\u043c\u0438\u043d\u0433\u0435\u043c","name:ceb":"Birmingham","name:ckb":"\u0628\u06ce\u0631\u0645\u06cc\u0646\u06af\u0627\u0645","name:co":"Birmingham","name:cs":"Birmingham","name:cv":"\u0411\u0438\u0440\u043c\u0438\u043d\u0433\u0435\u043c","name:cy":"Birmingham","name:da":"Birmingham","name:de":"Birmingham","name:diq":"Birmingham","name:el":"\u039c\u03c0\u03ad\u03c1\u03bc\u03b9\u03b3\u03c7\u03b1\u03bc","name:en":"Birmingham","name:en:ipa":"\/\u02c8b\u025c\u02d0rm\u026a\u014b\u0259m\/","name:es":"Birmingham","name:et":"Birmingham","name:eu":"Birmingham","name:fa":"\u0628\u06cc\u0631\u0645\u0646\u06af\u0627\u0645","name:fi":"Birmingham","name:fo":"Birmingham","name:fr":"Birmingham","name:frr":"Birmingham","name:fy":"Birmingham","name:ga":"Birmingham","name:gd":"Birmingham","name:gl":"Birmingham","name:glk":"\u0628\u06cc\u0631\u0645\u0646\u06af\u0627\u0645","name:gn":"Birmingham","name:gsw":"B\u00ebrmingham","name:gu":"\u0aac\u0ab0\u0acd\u0aae\u0abf\u0a82\u0a97\u0ab9\u0abe\u0aae","name:gv":"Birmingham","name:ha":"Birmingham","name:hak":"Birmingham","name:he":"\u05d1\u05e8\u05de\u05d9\u05e0\u05d2\u05d4\u05d0\u05dd","name:hi":"\u092c\u0930\u094d\u092e\u093f\u0902\u0918\u092e","name:hr":"Birmingham","name:hsb":"Birmingham","name:hu":"Birmingham","name:hy":"\u0532\u056b\u0580\u0574\u056b\u0576\u0563\u0570\u0565\u0574","name:ia":"Birmingham","name:id":"Birmingham","name:ie":"Birmingham","name:io":"Birmingham","name:is":"Birmingham","name:it":"Birmingham","name:ja":"\u30d0\u30fc\u30df\u30f3\u30ac\u30e0","name:jv":"Birmingham","name:ka":"\u10d1\u10d8\u10e0\u10db\u10d8\u10dc\u10d2\u10d4\u10db\u10d8","name:kaa":"Birmingem","name:kk":"\u0411\u0438\u0440\u043c\u0438\u043d\u0433\u0435\u043c","name:kn":"\u0cac\u0cb0\u0ccd\u0cae\u0cbf\u0c82\u0c97\u0ccd\u0cb9\u0ccd\u0caf\u0cbe\u0cae\u0ccd","name:ko":"\ubc84\ubc0d\uc5c4","name:ku":"Birmingham","name:kw":"Birmingham","name:ky":"\u0411\u0438\u0440\u043c\u0438\u043d\u0433\u0435\u043c","name:la":"Birminghamia","name:li":"Birmingham","name:lt":"Birmingamas","name:lv":"Birmingema","name:mk":"\u0411\u0438\u0440\u043c\u0438\u043d\u0433\u0435\u043c","name:ml":"\u0d2c\u0d3f\u0d7c\u0d2e\u0d3f\u0d19\u0d4d\u0d39\u0d3e\u0d02","name:mn":"\u0411\u0438\u0440\u043c\u0438\u043d\u0433\u0435\u043c","name:mni":"\uabd5\uabd4\uabc3\uabe4\uabe1\uabd8\uabdd","name:mr":"\u092c\u0930\u094d\u092e\u093f\u0902\u0917\u0939\u0945\u092e","name:ms":"Birmingham","name:my":"\u1018\u102c\u1019\u1004\u103a\u1002\u1019\u103a\u1019\u103c\u102d\u102f\u1037","name:mzn":"\u0628\u06cc\u0631\u0645\u0646\u06af\u0627\u0645","name:nl":"Birmingham","name:nn":"Birmingham","name:no":"Birmingham","name:nov":"Birmingham","name:oc":"Birmingham","name:os":"\u0411\u0438\u0440\u043c\u0438\u043d\u0433\u0435\u043c","name:pa":"\u0a2c\u0a30\u0a2e\u0a3f\u0a70\u0a18\u0a2e","name:pcd":"Birmingham","name:pl":"Birmingham","name:pms":"Birmingham","name:pnb":"\u0628\u0631\u0645\u0646\u06af\u0645","name:pt":"Birmingham","name:qu":"Birmingham","name:ro":"Birmingham","name:ru":"\u0411\u0438\u0440\u043c\u0438\u043d\u0433\u0435\u043c","name:sa":"\u092c\u0930\u094d\u092e\u093f\u0919\u094d\u0918\u092e\u094d","name:sc":"Birmingham","name:scn":"Birmingham","name:sco":"Birmingham","name:sh":"Birmingham","name:sk":"Birmingham","name:sl":"Birmingham","name:so":"Birmingham","name:sr":"\u0411\u0438\u0440\u043c\u0438\u043d\u0433\u0435\u043c","name:stq":"Birmingham","name:sv":"Birmingham","name:sw":"Birmingham","name:szl":"Birmingham","name:ta":"\u0baa\u0bb0\u0bcd\u0bae\u0bbf\u0b99\u0bcd\u0b95\u0bbe\u0bae\u0bcd (\u0b90\u0b95\u0bcd\u0b95\u0bbf\u0baf \u0b87\u0bb0\u0bbe\u0b9a\u0bcd\u0b9a\u0bbf\u0baf\u0bae\u0bcd)","name:te":"\u0c2c\u0c30\u0c4d\u0c2e\u0c3f\u0c02\u0c17\u0c4d\u200c\u0c39\u0c3e\u0c2e\u0c4d","name:tg":"\u0411\u0438\u0440\u043c\u0438\u043d\u0433\u0435\u043c","name:th":"\u0e40\u0e1a\u0e2d\u0e23\u0e4c\u0e21\u0e34\u0e07\u0e41\u0e2e\u0e21","name:tl":"Birmingham","name:tr":"Birmingham","name:tt":"\u0411\u04e9\u0440\u043c\u0438\u04a3\u0435\u043c","name:tum":"Birmingham","name:tw":"Birmingham","name:ug":"Birmin'gxam","name:uk":"\u0411\u0456\u0440\u043c\u0456\u043d\u0433\u0435\u043c","name:ur":"\u0628\u0631\u0645\u0646\u06af\u06be\u0645","name:uz":"Birmingem","name:vep":"B\u00f6rmingem","name:vi":"Birmingham","name:vo":"Birmingham","name:war":"Birmingham","name:wuu":"\u4f2f\u660e\u7ff0","name:yi":"\u05d1\u05d9\u05e8\u05de\u05d9\u05e0\u05d2\u05d4\u05d0\u05dd","name:yue":"\u4f2f\u660e\u7ff0","name:zh":"\u4f2f\u660e\u7ff0","name:zh-Hans":"\u4f2f\u660e\u7ff0","name:zh-Hant":"\u4f2f\u660e\u7ff0","old_name":"Beormingah\u0101m","place":"city","population":"1036878","source:name:br":"wikidata","source:name:oc":"Lo Congr\u00e8s","source:population":"Council tax bill 2012","wikidata":"Q2256","wikipedia":"en:Birmingham"}},{"type":"node","id":355918831,"lat":52.4797417,"lon":-1.9033037,"tags":{"man_made":"surveillance","source":"survey"}},{"type":"node","id":434729574,"lat":52.4800841,"lon":-1.9026852,"tags":{"historic":"memorial","name":"Birmingham Design Initiative: Renaissance Award 1994"}},{"type":"node","id":622137827,"lat":52.4798783,"lon":-1.9031547,"tags":{"entrance":"yes","operator":"Birmingham City Council","source":"survey;estimate","wheelchair":"yes"}},{"type":"node","id":622137828,"lat":52.4800686,"lon":-1.9027106,"tags":{"entrance":"main","foot":"yes","operator":"Birmingham City Council","source":"survey;estimate","wheelchair":"no"}},{"type":"node","id":950348332,"lat":52.4796426,"lon":-1.9030116,"tags":{"PMSA_ref":"WMbiBIxx020","artist_name":"Thomas Brock","artwork_type":"statue","mapillary":"913410369225197","name":"Queen Victoria","note":"Also artwork 'Ebony'","operator":"Birmingham City Council","source":"visual survey; estimate; website","start_date":"1901-01-10","survey:date":"2018-12-31","tourism":"artwork","url":"http:\/\/www.birmingham.gov.uk\/cs\/Satellite?c=Page&childpagename=WT-General%2FPageLayout&cid=1223092626187&pagename=BCC%2FCommon%2FWrapper%2FWrapper","wheelchair":"yes","wikidata":"Q47460184"}},{"type":"node","id":966122380,"lat":52.4800777,"lon":-1.9027286,"tags":{"PMSA_ref":"WMbiBIxx160","artist_name":"John Roddis","layer":"2","name":"Britannia and Manufacturers, Union of the Arts and Sciences, Literature, and Commerce","source":"PMSA","tourism":"artwork"}},{"type":"node","id":1753953498,"lat":52.4802799,"lon":-1.9029923,"tags":{"access":"private","amenity":"parking","capacity:disabled":"7","parking":"blue_badge","source":"bing"}},{"type":"node","id":2495096234,"lat":52.4798087,"lon":-1.9024078,"tags":{"PMSA_ref":"WMbiBIxx177","amenity":"fountain","artist_name":"Dhruva Mistry","artwork_type":"sculpture","loc_name":"The Floozie in the Jacuzzi","name":"The River","operator":"Birmingham City Council","tourism":"artwork","url":"http:\/\/www.birmingham.gov.uk\/floozie","wheelchair":"yes","wikidata":"Q7760985","wikipedia":"en:The River (artwork)"}},{"type":"node","id":2495096236,"lat":52.4800859,"lon":-1.9024056,"tags":{"barrier":"bollard"}},{"type":"node","id":2521041823,"lat":52.479772,"lon":-1.9033737,"tags":{"name":"Imperial Measure","source":"visual survey","tourism":"artwork"}},{"type":"node","id":4081298787,"lat":52.480232,"lon":-1.9034578,"tags":{"amenity":"toilets","fee":"no","level":"2","male":"yes","source":"survey","wheelchair":"yes"}},{"type":"node","id":11491922977,"lat":52.4797917,"lon":-1.9026242,"tags":{"barrier":"block","material":"stone","shape":"spherical"}},{"type":"node","id":11491922978,"lat":52.4798275,"lon":-1.90259,"tags":{"barrier":"block","material":"stone","shape":"spherical"}},{"type":"node","id":11491922979,"lat":52.4798537,"lon":-1.9025596,"tags":{"barrier":"block","material":"stone","shape":"spherical"}},{"type":"node","id":11491922980,"lat":52.4798739,"lon":-1.9025293,"tags":{"barrier":"block","material":"stone","shape":"spherical"}},{"type":"node","id":11491922981,"lat":52.4798918,"lon":-1.9024941,"tags":{"barrier":"block","material":"stone","shape":"spherical"}},{"type":"node","id":11491922982,"lat":52.4799061,"lon":-1.9024521,"tags":{"barrier":"block","material":"stone","shape":"spherical"}},{"type":"node","id":11491922983,"lat":52.4799197,"lon":-1.9024003,"tags":{"barrier":"block","material":"stone","shape":"spherical"}}]}