{"version":0.6,"generator":"Overpass API 0.7.62.5 1bd436f1","osm3s":{"timestamp_osm_base":"2025-03-12T11:57:36Z","copyright":"The data included in this document is from www.openstreetmap.org. The data is made available under ODbL."},"elements":[{"type":"node","id":310672096,"lat":52.4812667,"lon":-1.8936703,"tags":{"amenity":"nightclub","name":"The Forum","source":"survey"}},{"type":"node","id":863884563,"lat":52.4812014,"lon":-1.8944104,"tags":{"entrance":"shop"}},{"type":"node","id":1153441413,"lat":52.4814437,"lon":-1.89406,"tags":{"amenity":"clock","check_date":"2021-04-14","source":"visual survey; estimate"}},{"type":"node","id":2315799402,"lat":52.4811152,"lon":-1.8943717,"tags":{"amenity":"bicycle_parking","bcc_ref":"562","bicycle_parking":"stands","capacity":"8","covered":"yes","name":"Priory Square","source":"visual estimate"}},{"type":"node","id":2460819490,"lat":52.4813044,"lon":-1.8941395,"tags":{"name":"OSI","shop":"clothes"}},{"type":"node","id":2519320967,"lat":52.4815525,"lon":-1.8941012,"tags":{"note":"Vacant store","shop":"vacant"}},{"type":"node","id":2519320976,"lat":52.4810521,"lon":-1.8943227,"tags":{"addr:city":"Birmingham","addr:housename":"The Square Shopping Centre","addr:postcode":"B4 7LG","addr:street":"The Priory Queensway","amenity":"cafe","brand":"Coffee Time","brand:wikidata":"Q5140932","brand:wikipedia":"en:Coffee Time","cuisine":"coffee_shop","fhrs:id":"1243110","name":"Coffee Time","source:addr":"FHRS Open Data","takeaway":"yes"}},{"type":"node","id":2519320980,"lat":52.4814076,"lon":-1.8940367,"tags":{"craft":"shoemaker","name":"Douglas"}},{"type":"node","id":2519320987,"lat":52.4814572,"lon":-1.8942146,"tags":{"note":"Vacant shop","shop":"vacant"}},{"type":"node","id":2519320990,"lat":52.4815108,"lon":-1.893934,"tags":{"name":"Hoet","shop":"hairdresser"}},{"type":"node","id":2519320997,"lat":52.4815049,"lon":-1.8941579,"tags":{"addr:city":"Birmingham","addr:postcode":"B4 7LJ","addr:street":"Priory Walk","fhrs:id":"600763","name":"Priory News","shop":"newsagent"}},{"type":"node","id":2519321001,"lat":52.4816478,"lon":-1.8939878,"tags":{"name":"Simply Gifted","shop":"gift"}},{"type":"node","id":2519321008,"lat":52.4816002,"lon":-1.8940445,"tags":{"name":"The Card Shop","shop":"card"}},{"type":"node","id":2519321011,"lat":52.4814096,"lon":-1.8942713,"tags":{"note":"Vacant shop"}},{"type":"node","id":2519321025,"lat":52.4813619,"lon":-1.894328,"tags":{"note":"Alternative entrance to The Oasis"}},{"type":"node","id":2519321026,"lat":52.481614,"lon":-1.8938312,"tags":{"name":"Simply Gifted","shop":"gift"}},{"type":"node","id":2520425364,"lat":52.4812666,"lon":-1.8944414,"tags":{"name":"B.H","shop":"variety_store"}},{"type":"node","id":2520425367,"lat":52.4810122,"lon":-1.8945883,"tags":{"check_date":"2023-04-19","name":"Centre Management Office","office":"yes"}},{"type":"node","id":2520425377,"lat":52.4813143,"lon":-1.8943847,"tags":{"name":"Harvies","shop":"clothes"}},{"type":"node","id":2520425388,"lat":52.4811559,"lon":-1.8940082,"tags":{"leisure":"adult_gaming_centre","name":"Quicksilver"}},{"type":"node","id":3234602471,"lat":52.4810552,"lon":-1.8939185,"tags":{"brand":"B&M Bargains","brand:wikidata":"Q4836931","brand:wikipedia":"en:B&M","check_date":"2024-09-09","check_date:opening_hours":"2024-09-09","contact:website":"https:\/\/www.bmstores.co.uk\/stores\/birmingham-queensway-391","name":"B&M Bargains","opening_hours":"Mo-Sa 08:00-18:00; Su 11:00-17:00","phone":"+44 330 838 9391","shop":"variety_store"}},{"type":"node","id":3234602479,"lat":52.4811088,"lon":-1.8939749,"tags":{"name":"The Priory Square","shop":"mobile_phone"}},{"type":"node","id":4524488434,"lat":52.481109,"lon":-1.8935989,"tags":{"enforcement:maxheight":"2.8","man_made":"monitoring_station","maxheight":"2.8","monitoring":"max_height"}},{"type":"node","id":7143321785,"lat":52.4811381,"lon":-1.8937438,"tags":{"addr:city":"Birmingham","addr:housenumber":"56","addr:postcode":"B4 7LS","addr:street":"Dale End","amenity":"restaurant","cuisine":"international","email":"hello@ngopi.co.uk","fhrs:id":"1393206","name":"Ngopi","opening_hours":"Mo-Sa 09:30-16:30","phone":"+44 121 448 2870","website":"https:\/\/www.ngopi.co.uk\/menu"}},{"type":"node","id":8354846226,"lat":52.4815469,"lon":-1.8944362,"tags":{"addr:city":"Birmingham","addr:postcode":"B4 7LD","addr:street":"Dalton Way"}}]}