{"version":0.6,"generator":"Overpass API 0.7.62.5 1bd436f1","osm3s":{"timestamp_osm_base":"2025-03-12T11:58:39Z","copyright":"The data included in this document is from www.openstreetmap.org. The data is made available under ODbL."},"elements":[{"type":"way","id":28081610,"nodes":[308390084,9605287466,9807298530,6957345569,308390086],"tags":{"highway":"pedestrian","lit":"yes","name":"Ethel Street","postal_code":"B2","surface":"paving_stones"}},{"type":"way","id":60168251,"nodes":[2471013688,2470956413,2470441572,2470956428,2470956424,2470956414,747349614,747349619,1320263834,747418114,2470945279,2470945305,747405587,747671935,2471013688],"tags":{"area":"yes","layer":"-1","level":"0","public_transport":"platform","railway":"platform","ref":"3b","source":"visual survey;estimate","wheelchair":"yes"}},{"type":"way","id":60168254,"nodes":[178948800,747671930,3761531774,8542014801],"tags":{"electrified":"contact_line","frequency":"50","gauge":"1435","layer":"-1","level":"0","maxspeed":"10 mph","name":"Rugby Birmingham and Stafford Line","railway":"rail","railway:aws":"no","railway:etcs":"no","railway:lzb":"no","railway:pzb":"no","ref":"RBS2","tunnel":"yes","usage":"main","voltage":"25000"}},{"type":"way","id":72894536,"nodes":[1171718081,1171718098,1171718068,1171718079,1171718081],"tags":{"addr:city":"Birmingham","addr:housenumber":"37","addr:postcode":"B2 4DG","addr:street":"Pinfold Street","building":"yes","height":"22","source":"cities_revealed_aerial_imagery","source:height":"emuanalytics"}},{"type":"way","id":76564495,"nodes":[902499803,2470956433,5136932584,902499804,9939057312,902499806,2470956416,1320263782,1981132736,1981132766,1981132763,1320263821,902499808,902499803],"tags":{"building":"yes","generator:method":"photovoltaic","generator:output:electricity":"yes","generator:source":"solar","generator:type":"solar_photovoltaic_panel","power":"generator","source":"visual survey;estimate"}},{"type":"way","id":83997818,"nodes":[2284100105,4003025030,4003025021,4003025019,4003025027,1481802988,4003025017,4003025022,4003025018,4003025032,4003025024,4003025031,4003025028,4003025016,4003025026,4003025025,4003025020,4003025023,9938770768,977366266,1312314668,977366268,977366259,977366261,977366273,977366282,977366269,3761543501,2284100104,2284100105],"tags":{"building":"yes","layer":"1","level":"1","source":"visual survey;cities_revealed_aerial_ imagery"}},{"type":"way","id":83997820,"nodes":[977366268,5136932583,977366281,2284107298],"tags":{"bridge":"yes","covered":"yes","highway":"footway","level":"1","lit":"yes","surface":"paving_stones"}},{"type":"way","id":97246693,"nodes":[1126468919,1126468928,1126468947,865174013,865174119,1126468919],"tags":{"addr:city":"Birmingham","addr:housenumber":"3-17","addr:postcode":"B2 4BG","addr:street":"Ethel Street","building":"retail","height":"26","heritage":"2","heritage:operator":"Historic England","listed_status":"Grade II","source":"visual survey;cities_revealed_aerial_imagery","source:height":"emuanalytics"}},{"type":"way","id":99870992,"nodes":[1154582882,310679133,865174169,865173937,865174235,1201617945,1154582830,1154582891,2517583493,1154582899,7466814949,1154582865,1154582856,1154582882],"tags":{"building":"retail","height":"45","source":"cities_revealed_aerial_imagery","source:height":"emuanalytics"}},{"type":"way","id":101482994,"nodes":[1171718095,1171718112,1171718069,1171718076,1171718095],"tags":{"addr:city":"Birmingham","addr:country":"GB","addr:housenumber":"33","addr:postcode":"B2 4BH","addr:street":"Stephenson Street","building":"yes","fhrs:id":"638880","height":"22","name":"All Greek","shop":"deli","source":"cities_revealed_aerial_imagery","source:height":"emuanalytics"}},{"type":"way","id":101482995,"nodes":[1171718076,1171718069,1171718109,1171718104,1171718064,1171718097,1171718071,1171718076],"tags":{"addr:city":"Birmingham","addr:housenumber":"34","addr:postcode":"B2 4BH","addr:street":"Stephenson Street","building":"yes","height":"22","source":"cities_revealed_aerial_imagery","source:height":"emuanalytics"}},{"type":"way","id":101482996,"nodes":[1171718068,865174272,865174181,1171718093,1171718079,1171718068],"tags":{"addr:city":"Birmingham","addr:country":"GB","addr:housenumber":"29,30","addr:postcode":"B2 4BH","addr:street":"Stephenson Street","amenity":"cafe","building":"yes","cuisine":"coffee_shop","fhrs:id":"1106310","height":"22","name":"Yorks Bakery Cafe","note":"Former Prowler","source":"cities_revealed_aerial_imagery","source:height":"emuanalytics"}},{"type":"way","id":101482997,"nodes":[1171718074,1171718096,1171718059,1171718110,865174078,865174063,865173942,1171718074],"tags":{"addr:city":"Birmingham","addr:country":"GB","addr:housenumber":"10,11","addr:postcode":"B2 4BS","addr:street":"Navigation Street","amenity":"cafe","brand":"Costa","brand:wikidata":"Q608845","brand:wikipedia":"en:Costa Coffee","building":"yes","cuisine":"coffee_shop","fhrs:id":"1126809","height":"22","name":"Costa","opening_hours":"Mo-Fr 07:00-18:30; Sa 08:00-18:30; Su 08:00-17:00","source":"cities_revealed_aerial_imagery","source:height":"emuanalytics","takeaway":"yes"}},{"type":"way","id":101482998,"nodes":[1171718075,1171718057,1171718090,1171718102,865173975,1171718075],"tags":{"addr:city":"Birmingham","addr:housenumber":"35","addr:postcode":"B2 4DG","addr:street":"Pinfold Street","building":"yes","height":"22","name":"Pinfolds","shop":"dry_cleaning","source":"cities_revealed_aerial_imagery","source:height":"emuanalytics"}},{"type":"way","id":101482999,"nodes":[1171718098,1171718081,1171718057,1171718075,1171718098],"tags":{"addr:city":"Birmingham","addr:housenumber":"36","addr:postcode":"B2 4DG","addr:street":"Pinfold Street","building":"yes","height":"22","name":"Courtney Co","shop":"hairdresser","source":"cities_revealed_aerial_imagery","source:height":"emuanalytics"}},{"type":"way","id":101483000,"nodes":[1171718074,1171718096,1171718104,1171718064,1171718105,1171718074],"tags":{"addr:city":"Birmingham","addr:housenumber":"12","addr:postcode":"B2 4BT","addr:street":"Navigation Street","building":"office","height":"22","name":"Guildhall Buildings","source":"cities_revealed_aerial_imagery","source:height":"emuanalytics"}},{"type":"way","id":101483001,"nodes":[1171718097,1171718063,1171718105,1171718064,1171718097],"tags":{"addr:city":"Birmingham","addr:housenumber":"13","addr:postcode":"B2 4DD","addr:street":"Navigation Street","amenity":"fast_food","building":"yes","cuisine":"italian","height":"22","name":"Polo Pasta","source":"cities_revealed_aerial_imagery","source:height":"emuanalytics"}},{"type":"way","id":101483002,"nodes":[1171718107,1171718081,1171718079,1171718093,1171718107],"tags":{"addr:city":"Birmingham","addr:housenumber":"31","addr:postcode":"B2 4BH","addr:street":"Stephenson Street","building":"yes","height":"22","source":"cities_revealed_aerial_imagery","source:height":"emuanalytics"}},{"type":"way","id":101483003,"nodes":[1171718063,865174129,1171718072,1171718071,1171718097,1171718063],"tags":{"addr:city":"Birmingham","addr:housenumber":"14","addr:postcode":"B2 4DD","addr:street":"Navigation Street","amenity":"fast_food","building":"yes","fhrs:id":"600602","height":"22","name":"Urban Feast","source":"cities_revealed_aerial_imagery","source:height":"emuanalytics"}},{"type":"way","id":101483005,"nodes":[1171718109,1171718110,1171718059,1171718096,1171718104,1171718109],"tags":{"addr:city":"Birmingham","addr:housenumber":"35-37","addr:postcode":"B2 4BH","addr:street":"Stephenson Street","building":"yes","height":"22","name":"Hush Hair","shop":"hairdresser","source":"cities_revealed_aerial_imagery","source:height":"emuanalytics"}},{"type":"way","id":101483006,"nodes":[865174129,865174009,865173975,1171718102,1171718072,865174129],"tags":{"addr:city":"Birmingham","addr:housenumber":"15","addr:postcode":"B2 4DD","addr:street":"Navigation Street","alt_name":"Candy & Liquor","building":"yes","fhrs:id":"604063","height":"22","name":"Sandhu News","shop":"newsagent","source":"cities_revealed_aerial_imagery","source:height":"emuanalytics"}},{"type":"way","id":101483007,"nodes":[1171718112,1171718095,1171718090,1171718057,1171718081,1171718107,1171718112],"tags":{"addr:city":"Birmingham","addr:housenumber":"32","addr:postcode":"B2 4BJ","addr:street":"Stephenson Street","building":"retail","height":"22","name":"Ikon","opening_hours":"Mo,We 09:30-18:30; Th 10:00-19:30; Fr 09:30-18:30; Sa 09:00-17:00","shop":"hairdresser","source":"cities_revealed_aerial_imagery","source:height":"emuanalytics"}},{"type":"way","id":104376106,"nodes":[1204220305,1204220300,3959883646,3959883647,1204220305],"tags":{"amenity":"taxi","source":"visual survey; estimate"}},{"type":"way","id":116402650,"nodes":[977366266,9939257090,696783034,1320263789,4036562298],"tags":{"barrier":"wall","layer":"1"}},{"type":"way","id":116402654,"nodes":[1312314635,1981132742,1312314631,1312314630,1312314643],"tags":{"barrier":"wall","layer":"1"}},{"type":"way","id":120555236,"nodes":[312743229,3763977580,3796473985,208086],"tags":{"bridge":"yes","cycleway:both":"no","gritting":"priority_3","highway":"unclassified","lanes":"2","lit":"yes","maintenance":"gritting","maxspeed":"20 mph","maxweight:signed":"no","name":"Navigation Street","postal_code":"B2","sidewalk":"both","surface":"asphalt"}},{"type":"way","id":163583828,"nodes":[273113449,7135760392,4204911705,2291945876],"tags":{"gritting":"priority_3","highway":"unclassified","lit":"yes","maintenance":"gritting","maxspeed":"20 mph","name":"Navigation Street","oneway":"yes","postal_code":"B2","surface":"asphalt"}},{"type":"way","id":163583829,"nodes":[6957345559,11491326361,6957345558,7135760393,273113450],"tags":{"cycleway:left":"no","gritting":"priority_3","highway":"unclassified","lane_markings":"no","lit":"yes","maintenance":"gritting","maxspeed":"20 mph","name":"Pinfold Street","oneway":"yes","postal_code":"B2","sidewalk":"both","source":"survey","surface":"concrete"}},{"type":"way","id":163583830,"nodes":[273113450,308390086,4204911713,310679128,273113449],"tags":{"bicycle":"unknown","gritting":"priority_3","highway":"unclassified","lanes":"1","lit":"yes","maintenance":"gritting","maxspeed":"20 mph","name":"Stephenson Street","oneway":"yes","oneway:emergency":"no","oneway:tram":"no","postal_code":"B2","surface":"concrete"}},{"type":"way","id":204365135,"nodes":[2291945876,5181039058,312743229],"tags":{"gritting":"priority_3","highway":"unclassified","lit":"yes","maintenance":"gritting","maxspeed":"20 mph","name":"Navigation Street","oneway":"yes","postal_code":"B2","surface":"paved"}},{"type":"way","id":204365136,"nodes":[312743229,312743226,312743215,1171718055,1171718066,1171718077],"tags":{"cycleway:both":"no","gritting":"priority_3","highway":"unclassified","lit":"yes","maintenance":"gritting","maxspeed":"20 mph","name":"Pinfold Street","oneway":"yes","postal_code":"B2","sidewalk":"both","source":"survey","surface":"asphalt"}},{"type":"way","id":219211423,"nodes":[3763940178,2291945878,3763940184,4204911698,12428728036,12428728034,12428728029,3763940186,3761550925,12428728031,3758605204,2290519236],"tags":{"colonnade:left":"open","covered":"colonnade","highway":"footway","level":"1","lit":"yes","source":"survey","surface":"paving_stones"}},{"type":"way","id":239302498,"nodes":[2471013688,2470956413,2470441572,2470956428,2470956424,2470956414,747349614,2470967703,1320263814,747418119,747418135,2470945289,3758957516,2470945318,747405650,747671941,2471013688],"tags":{"area":"yes","layer":"-1","level":"0","public_transport":"platform","railway":"platform","ref":"2b","source":"visual survey;estimate","wheelchair":"yes"}},{"type":"way","id":239338292,"nodes":[2470956427,3761531780,3761531781,3761531783,2471187097,9942495136,977366273,977366261,2470956432,9938770782,9938770796,2470956431,9938770783,2470956426,5136932584,2470956433,747349556,1320263785,747671706,3758957513,2471075899,747671926,3761531779,747671937,2470956427],"tags":{"area":"yes","layer":"-1","level":"0","public_transport":"platform","railway":"platform","ref":"1b","source":"visual survey;estimate","wheelchair":"yes"}},{"type":"way","id":244441854,"nodes":[1171718068,1171718079,1171718093,1171718107,1171718081,1171718098,1171718068],"tags":{"addr:city":"Birmingham","addr:postcode":"B2 4BH","addr:street":"Stephenson Street","amenity":"fast_food","cuisine":"grill","fhrs:id":"600603","name":"Polo"}},{"type":"way","id":343562245,"nodes":[5181039058,8334825023,3763940178],"tags":{"highway":"footway","lit":"yes","surface":"paving_stones"}},{"type":"way","id":371608827,"nodes":[2291945887,313201325,3761531791,2291945878,2291945876],"tags":{"access":"yes","bicycle":"designated","description":"New Street Drop and Go","foot":"yes","highway":"service","horse":"no","level":"1","maxspeed":"10 mph","oneway":"yes","sidewalk":"right","surface":"asphalt"}},{"type":"way","id":371903548,"nodes":[3754517408,4204911713,3754517407],"tags":{"electrified":"contact_line","frequency":"0","railway":"tram","source":"visual survey;estimate","voltage":"750"}},{"type":"way","id":372841463,"nodes":[3763977580,3763977581,9938770796],"tags":{"access":"private","bridge":"yes","highway":"service","layer":"1","source":"visual survey;estimate"}},{"type":"way","id":374555143,"nodes":[3763940178,977366268],"tags":{"highway":"footway","level":"1","lit":"yes","surface":"paving_stones"}},{"type":"way","id":375125196,"nodes":[3785138752,3785138754,3785138755,3785138756],"tags":{"electrified":"no","railway":"tram","source":"WMCA"}},{"type":"way","id":378433438,"nodes":[3754517409,6957345569,3754517408,4204911711,4204911708,4204911706,4204911700,3464500421,3754517401,3754517402,6249629008,3464500420,11251425332,3464500419,4204911715,3464500418,3464500417,9938770795,3464500416,4204911719,7135760394,10608386988,3464500415,4204911725,3464500414,4204911726,3464500413,3464500412,8100471905,6863876844,4204911728,3881605977,4207929470,3464499729,7135760395,12004434594,3818484225,3883350329,3818484228,6863876843],"tags":{"electrified":"contact_line","frequency":"0","gauge":"1435","railway":"tram","voltage":"750","website":"https:\/\/nxbus.co.uk\/the-metro"}},{"type":"way","id":384805841,"nodes":[3946422786,2107829847,2107829845,2107829833,2107829820,2107829839,12345889456,12345889441,2306317478,3778386674,6863876840,2107829836,12345889440,2107829832,3778386672,4502789023,2107829834,2107829827,3883350334,6863876842,3818484229,2107829835,12004434595,12004434596,3883350328,2107829819,2107829828,4207929471,2107829840,4204911729,7135760390,8100471906,4710048694,2107829842,4204911727,2107829831,2107829848,4204911724,10608386990,2107829837,7471288343,2107829829,4204911721,6863876841,4204911718,4204911717,4216185185,2107829823,2107829825,4204911716,2107829826,2107829846,2107829841,2107829843,2107829817,7135760391,4204911699,2107829838,3754517400,2107829830,12428728033,8004015902,3616332640,12428728032,7135760392,4204911710,2107829821,3754517407,7135760393,3785138752],"tags":{"electrified":"contact_line","frequency":"0","gauge":"1435","railway":"tram","voltage":"750","website":"https:\/\/nxbus.co.uk\/the-metro"}},{"type":"way","id":392551649,"nodes":[1481473312,3957692552,3957692539,8542014800],"tags":{"electrified":"contact_line","frequency":"50","gauge":"1435","layer":"-1","level":"0","maxspeed":"10 mph","name":"Rugby Birmingham and Stafford Line","railway":"rail","railway:aws":"no","railway:etcs":"no","railway:lzb":"no","railway:pzb":"no","ref":"RBS2","tunnel":"yes","usage":"main","voltage":"25000"}},{"type":"way","id":418409180,"nodes":[5179337126,5179337127,5179337128,4188380213,1273082021,865140217,1273082036,865140045,865139973,1273082028,9605287467,865140281,1272977496,1272977533,1272977531,1272977518,8754355067,1273082014,7237585846,2560024838,865140420,5653884187,1273082046,4600224337,252972890,4012485305,4012485306,4012474783,1126468921,1126468937,7237585842,865174192,7237585841,865174134,1126468947,865174013,9605287466,5118393797,865174235,1154582830,865174071,2517583494,1154582851,1154582867,1154582817,5179337126],"tags":{"area":"yes","bicycle":"designated","highway":"pedestrian","lit":"yes","surface":"paving_stones"}},{"type":"way","id":468674940,"nodes":[1312314647,1351503640,1351503626,9938770784,9939074833,9939074831],"tags":{"barrier":"wall","layer":"1"}},{"type":"way","id":468674941,"nodes":[3761529356,1481473312,178948800,1312314647],"tags":{"artwork_type":"decorative fence","barrier":"fence","layer":"1","source":"bing","tourism":"artwork"}},{"type":"way","id":475288975,"nodes":[4690536031,4690536030],"tags":{"amenity":"taxi","level":"0"}},{"type":"way","id":528645786,"nodes":[5136932583,5136932582],"tags":{"handrail":"yes","highway":"steps","lit":"yes","surface":"paving_stones"}},{"type":"way","id":533145508,"nodes":[5115387001,273113450],"tags":{"access":"no","bicycle":"no","emergency":"yes","foot":"yes","gritting":"priority_3","highway":"pedestrian","lane_markings":"no","lit":"yes","maintenance":"gritting","maxspeed":"20 mph","name":"Pinfold Street","note":"trams only","postal_code":"B2","sidewalk":"both","source":"survey","surface":"concrete"}},{"type":"way","id":749790984,"nodes":[1171718077,6957345559],"tags":{"cycleway:left":"no","gritting":"priority_3","highway":"unclassified","lane_markings":"no","lit":"yes","maintenance":"gritting","maxspeed":"20 mph","name":"Pinfold Street","oneway":"yes","postal_code":"B2","sidewalk":"both","source":"survey","surface":"asphalt"}},{"type":"way","id":843178530,"nodes":[6957345555,11491326357,6957345557,6957345560,6957345563,6957345564,7116174851,6957345568,6957345567,6957345566,3754517409],"tags":{"electrified":"no","railway":"tram"}},{"type":"way","id":896631954,"nodes":[2291945876,8334825017,8334825025,8334825019],"tags":{"highway":"cycleway","lit":"yes","note":"This cycle track now appears redundant as Navigation St has been made 1 way.","oneway":"yes","surface":"paving_stones"}},{"type":"way","id":896631956,"nodes":[312743215,8334825021,8334825026],"tags":{"bicycle":"dismount","highway":"footway","surface":"paved"}},{"type":"way","id":896631957,"nodes":[5181039058,8334825021],"tags":{"highway":"footway","surface":"asphalt"}},{"type":"way","id":896631958,"nodes":[8334825019,8334825026],"tags":{"highway":"footway","lit":"yes","surface":"paving_stones"}},{"type":"way","id":1068326664,"nodes":[9807298529,9807298530,4204911712,9807298531],"tags":{"highway":"footway","name":"Stephenson Street","surface":"asphalt"}},{"type":"way","id":1084581982,"nodes":[1320263816,977366273],"tags":{"barrier":"wall","layer":"1"}},{"type":"way","id":1084581984,"nodes":[9938770785,9938770786,4036562298,1320263789,9939257090,9938770787,1312314668,977366268,977366259,977366261,2470956432,9938770782,9938770796,2470956431,9938770783,3761529356,1481473312,178948800,1312314647,1351503640,1351503657,9938770785],"tags":{"layer":"1","man_made":"bridge"}},{"type":"way","id":1084581996,"nodes":[1312314637,9939074838,9939074835,9939193266,9938770783,3761529356],"tags":{"barrier":"wall","layer":"1"}},{"type":"way","id":1084581997,"nodes":[1312314643,1312314637],"tags":{"barrier":"retaining_wall","layer":"1"}},{"type":"way","id":1084581998,"nodes":[9938770796,3763977584,1171718077],"tags":{"access":"private","highway":"service","source":"visual survey;estimate"}},{"type":"way","id":1084619238,"nodes":[9939057312,9939057313],"tags":{"highway":"footway","layer":"-1","tunnel":"yes"}},{"type":"way","id":1084619250,"nodes":[9939074835,9939074836,9939193265,9939074837,9939074838,9939074835],"tags":{"building":"yes"}},{"type":"way","id":1084619251,"nodes":[1312314637,9939074839,9939074840],"tags":{"barrier":"wall"}},{"type":"way","id":1084641011,"nodes":[9939193263,1481792237,1481792238,1481792227,1481792214,178948800],"tags":{"electrified":"contact_line","frequency":"50","gauge":"1435","layer":"-2","maxspeed":"10 mph","name":"Rugby Birmingham and Stafford Line","railway":"rail","railway:track_ref":"2A","ref":"RBS2","usage":"main","voltage":"25000"}},{"type":"way","id":1084641012,"nodes":[9939193264,1481473310,1481473282,1481473300,1481473297,1481473312],"tags":{"electrified":"contact_line","frequency":"50","gauge":"1435","layer":"-2","maxspeed":"10 mph","name":"Rugby Birmingham and Stafford Line","railway":"rail","railway:track_ref":"1B","ref":"RBS2","usage":"main","voltage":"25000"}},{"type":"way","id":1085078650,"nodes":[977366266,1312314668,977366268,977366259,977366261,977366273,9942495136,9938770779,3754517398,9942495134,9942495135,9942500239,178947420,747405593,747405581,256777150,3957692272,256777156,1481872266,9942495138,9942495137,9939257097,4036562297,4036562295,4690536029,4036562296,9939074818,4036562298,1320263789,9939257090,977366266],"tags":{"landuse":"railway"}},{"type":"way","id":1237236876,"nodes":[11491326361,11491326362,11491326363,11491326364,11491326365],"tags":{"highway":"service"}},{"type":"node","id":1320263789,"lat":52.4779219,"lon":-1.9013004},{"type":"node","id":4003025017,"lat":52.4778681,"lon":-1.9005517},{"type":"node","id":4003025019,"lat":52.477485,"lon":-1.9007513},{"type":"node","id":4003025021,"lat":52.4774557,"lon":-1.9006588},{"type":"node","id":4003025022,"lat":52.4779261,"lon":-1.900612},{"type":"node","id":4036562296,"lat":52.4773278,"lon":-1.900622},{"type":"node","id":4036562298,"lat":52.4775165,"lon":-1.9008486},{"type":"node","id":4690536029,"lat":52.4773168,"lon":-1.9005839},{"type":"node","id":9938770786,"lat":52.4779283,"lon":-1.9019517},{"type":"node","id":9939074818,"lat":52.4773665,"lon":-1.9006685},{"type":"node","id":208086,"lat":52.4780251,"lon":-1.9016563},{"type":"node","id":178948800,"lat":52.4783788,"lon":-1.9010162},{"type":"node","id":252972890,"lat":52.4793502,"lon":-1.9019328},{"type":"node","id":273113450,"lat":52.4787779,"lon":-1.9011658},{"type":"node","id":308390084,"lat":52.4793521,"lon":-1.9010273},{"type":"node","id":308390086,"lat":52.4787735,"lon":-1.9011009},{"type":"node","id":312743215,"lat":52.4784296,"lon":-1.9007037},{"type":"node","id":312743226,"lat":52.4784064,"lon":-1.9006975},{"type":"node","id":312743229,"lat":52.47836,"lon":-1.900684},{"type":"node","id":696783034,"lat":52.4780543,"lon":-1.9012826},{"type":"node","id":747349556,"lat":52.478418,"lon":-1.9019535},{"type":"node","id":747349614,"lat":52.4783499,"lon":-1.9018253},{"type":"node","id":747349619,"lat":52.4783419,"lon":-1.9018226},{"type":"node","id":747418119,"lat":52.4783572,"lon":-1.9010155},{"type":"node","id":747671706,"lat":52.4784191,"lon":-1.900997},{"type":"node","id":865139973,"lat":52.4794162,"lon":-1.900689},{"type":"node","id":865140281,"lat":52.4794181,"lon":-1.9007678},{"type":"node","id":865140420,"lat":52.4794836,"lon":-1.9017325},{"type":"node","id":865173937,"lat":52.4788385,"lon":-1.9009777},{"type":"node","id":865173975,"lat":52.4784908,"lon":-1.9006374},{"type":"node","id":865174009,"lat":52.4784749,"lon":-1.9005887},{"type":"node","id":865174013,"lat":52.4788436,"lon":-1.9012144},{"type":"node","id":865174071,"lat":52.4792656,"lon":-1.9009263},{"type":"node","id":865174119,"lat":52.4788481,"lon":-1.901308},{"type":"node","id":865174134,"lat":52.4792843,"lon":-1.9011653},{"type":"node","id":865174169,"lat":52.4788311,"lon":-1.9009569},{"type":"node","id":865174181,"lat":52.4787166,"lon":-1.9010155},{"type":"node","id":865174192,"lat":52.4793071,"lon":-1.9011877},{"type":"node","id":865174235,"lat":52.478857,"lon":-1.9009978},{"type":"node","id":865174272,"lat":52.4786915,"lon":-1.9010193},{"type":"node","id":902499803,"lat":52.4784766,"lon":-1.9020157},{"type":"node","id":902499804,"lat":52.478468,"lon":-1.9010125},{"type":"node","id":902499806,"lat":52.4785572,"lon":-1.9010104},{"type":"node","id":902499808,"lat":52.4785431,"lon":-1.9020141},{"type":"node","id":1126468919,"lat":52.4789322,"lon":-1.9014643},{"type":"node","id":1126468921,"lat":52.4793312,"lon":-1.9016967},{"type":"node","id":1126468928,"lat":52.4792375,"lon":-1.9014123},{"type":"node","id":1126468937,"lat":52.4793161,"lon":-1.9013989},{"type":"node","id":1126468947,"lat":52.4792249,"lon":-1.9011719},{"type":"node","id":1154582830,"lat":52.4791315,"lon":-1.9009536},{"type":"node","id":1154582851,"lat":52.4792458,"lon":-1.9006822},{"type":"node","id":1154582867,"lat":52.4792377,"lon":-1.9005823},{"type":"node","id":1154582891,"lat":52.4791228,"lon":-1.9008386},{"type":"node","id":1154582899,"lat":52.4791055,"lon":-1.9006092},{"type":"node","id":1171718055,"lat":52.4784802,"lon":-1.9007275},{"type":"node","id":1171718057,"lat":52.4785862,"lon":-1.9006444},{"type":"node","id":1171718066,"lat":52.478525,"lon":-1.9007696},{"type":"node","id":1171718068,"lat":52.4786151,"lon":-1.9008695},{"type":"node","id":1171718075,"lat":52.47853,"lon":-1.9007059},{"type":"node","id":1171718077,"lat":52.4785705,"lon":-1.9008411},{"type":"node","id":1171718079,"lat":52.4786577,"lon":-1.9008205},{"type":"node","id":1171718081,"lat":52.4786185,"lon":-1.9007269},{"type":"node","id":1171718090,"lat":52.4785729,"lon":-1.9006115},{"type":"node","id":1171718093,"lat":52.4786977,"lon":-1.9007884},{"type":"node","id":1171718095,"lat":52.4786158,"lon":-1.9006092},{"type":"node","id":1171718098,"lat":52.4785683,"lon":-1.9007814},{"type":"node","id":1171718102,"lat":52.4785598,"lon":-1.9005732},{"type":"node","id":1171718107,"lat":52.4786895,"lon":-1.9006938},{"type":"node","id":1171718112,"lat":52.4786813,"lon":-1.9006021},{"type":"node","id":1201617945,"lat":52.4790331,"lon":-1.9009704},{"type":"node","id":1204220305,"lat":52.4787118,"lon":-1.9006365},{"type":"node","id":1272977496,"lat":52.4794217,"lon":-1.9008216},{"type":"node","id":1272977518,"lat":52.4794396,"lon":-1.9010918},{"type":"node","id":1272977531,"lat":52.4794313,"lon":-1.9009668},{"type":"node","id":1272977533,"lat":52.479427,"lon":-1.9009011},{"type":"node","id":1273082014,"lat":52.4794492,"lon":-1.9012357},{"type":"node","id":1273082028,"lat":52.4794231,"lon":-1.900689},{"type":"node","id":1273082046,"lat":52.4795098,"lon":-1.9019064},{"type":"node","id":1312314630,"lat":52.4785439,"lon":-1.9012803},{"type":"node","id":1312314631,"lat":52.4786063,"lon":-1.9013744},{"type":"node","id":1312314635,"lat":52.4786717,"lon":-1.9016657},{"type":"node","id":1312314637,"lat":52.4785501,"lon":-1.9009618},{"type":"node","id":1312314643,"lat":52.4786427,"lon":-1.9011323},{"type":"node","id":1312314647,"lat":52.4783303,"lon":-1.9010325},{"type":"node","id":1320263782,"lat":52.4785253,"lon":-1.9012514},{"type":"node","id":1320263785,"lat":52.4784269,"lon":-1.9012226},{"type":"node","id":1320263814,"lat":52.4783623,"lon":-1.9012843},{"type":"node","id":1320263821,"lat":52.4785423,"lon":-1.9019174},{"type":"node","id":1320263834,"lat":52.4782258,"lon":-1.9005982},{"type":"node","id":1351503626,"lat":52.4781628,"lon":-1.9016822},{"type":"node","id":1351503640,"lat":52.4781539,"lon":-1.9015795},{"type":"node","id":1351503657,"lat":52.4780703,"lon":-1.9018443},{"type":"node","id":1481473282,"lat":52.4784061,"lon":-1.9014715},{"type":"node","id":1481473297,"lat":52.4784054,"lon":-1.901079},{"type":"node","id":1481473300,"lat":52.4784074,"lon":-1.9013254},{"type":"node","id":1481473310,"lat":52.4784037,"lon":-1.9019065},{"type":"node","id":1481473312,"lat":52.4784025,"lon":-1.9010083},{"type":"node","id":1481792214,"lat":52.4783822,"lon":-1.9011517},{"type":"node","id":1481792227,"lat":52.478386,"lon":-1.9013248},{"type":"node","id":1481792237,"lat":52.4783835,"lon":-1.9016826},{"type":"node","id":1481792238,"lat":52.478385,"lon":-1.9014757},{"type":"node","id":1981132736,"lat":52.4785287,"lon":-1.9016417},{"type":"node","id":1981132742,"lat":52.4785541,"lon":-1.9015282},{"type":"node","id":1981132763,"lat":52.4785775,"lon":-1.9019166},{"type":"node","id":1981132766,"lat":52.4785751,"lon":-1.9016406},{"type":"node","id":2470956414,"lat":52.478313,"lon":-1.9011356},{"type":"node","id":2470956416,"lat":52.4785593,"lon":-1.9012506},{"type":"node","id":2470956424,"lat":52.4782836,"lon":-1.9007996},{"type":"node","id":2470956426,"lat":52.4784682,"lon":-1.9010225},{"type":"node","id":2470956431,"lat":52.4784641,"lon":-1.9009729},{"type":"node","id":2470956432,"lat":52.4784338,"lon":-1.9006011},{"type":"node","id":2470956433,"lat":52.4784761,"lon":-1.9019544},{"type":"node","id":2470967703,"lat":52.4783603,"lon":-1.9018191},{"type":"node","id":2517583493,"lat":52.479114,"lon":-1.9007218},{"type":"node","id":2517583494,"lat":52.4792563,"lon":-1.9008114},{"type":"node","id":2560024838,"lat":52.4794735,"lon":-1.9015868},{"type":"node","id":3754517407,"lat":52.4787195,"lon":-1.9005699},{"type":"node","id":3754517409,"lat":52.4787964,"lon":-1.9011902},{"type":"node","id":3761529356,"lat":52.4784447,"lon":-1.9009941},{"type":"node","id":3763977580,"lat":52.4782377,"lon":-1.9009994},{"type":"node","id":3763977581,"lat":52.4783407,"lon":-1.9009471},{"type":"node","id":3763977584,"lat":52.478478,"lon":-1.9008695},{"type":"node","id":3785138752,"lat":52.4787652,"lon":-1.901199},{"type":"node","id":3785138754,"lat":52.4788049,"lon":-1.9013571},{"type":"node","id":3785138755,"lat":52.4788431,"lon":-1.9014348},{"type":"node","id":3785138756,"lat":52.4793107,"lon":-1.9023262},{"type":"node","id":3796473985,"lat":52.4781275,"lon":-1.901344},{"type":"node","id":3959883647,"lat":52.4787014,"lon":-1.9006386},{"type":"node","id":4003025028,"lat":52.4781213,"lon":-1.9005717},{"type":"node","id":4012474783,"lat":52.4793378,"lon":-1.9017811},{"type":"node","id":4012485305,"lat":52.4793458,"lon":-1.9018872},{"type":"node","id":4012485306,"lat":52.4793449,"lon":-1.901873},{"type":"node","id":4600224337,"lat":52.4794025,"lon":-1.9019217},{"type":"node","id":4690536031,"lat":52.4781744,"lon":-1.9010338},{"type":"node","id":5115387001,"lat":52.478808,"lon":-1.9013256},{"type":"node","id":5118393797,"lat":52.4788336,"lon":-1.9010049},{"type":"node","id":5136932584,"lat":52.4784721,"lon":-1.9014823},{"type":"node","id":5653884187,"lat":52.4794966,"lon":-1.9018693},{"type":"node","id":6957345555,"lat":52.479477,"lon":-1.9027582},{"type":"node","id":6957345557,"lat":52.4794599,"lon":-1.9025552},{"type":"node","id":6957345558,"lat":52.4787568,"lon":-1.9011817},{"type":"node","id":6957345559,"lat":52.4787191,"lon":-1.9011455},{"type":"node","id":6957345560,"lat":52.4794436,"lon":-1.9024834},{"type":"node","id":6957345563,"lat":52.4794198,"lon":-1.9024345},{"type":"node","id":6957345564,"lat":52.4793785,"lon":-1.902368},{"type":"node","id":6957345566,"lat":52.4788081,"lon":-1.9012678},{"type":"node","id":6957345567,"lat":52.4788263,"lon":-1.9013321},{"type":"node","id":6957345568,"lat":52.4792082,"lon":-1.9020625},{"type":"node","id":6957345569,"lat":52.4787893,"lon":-1.9010992},{"type":"node","id":7116174851,"lat":52.4793541,"lon":-1.9023242},{"type":"node","id":7135760393,"lat":52.478764,"lon":-1.9011825},{"type":"node","id":7237585841,"lat":52.4792957,"lon":-1.9011765},{"type":"node","id":7237585842,"lat":52.4793116,"lon":-1.9012929},{"type":"node","id":7237585846,"lat":52.4794653,"lon":-1.9014679},{"type":"node","id":8334825021,"lat":52.4784504,"lon":-1.9005572},{"type":"node","id":8754355067,"lat":52.4794435,"lon":-1.9011502},{"type":"node","id":9605287466,"lat":52.4788378,"lon":-1.901093},{"type":"node","id":9605287467,"lat":52.4794199,"lon":-1.9007391},{"type":"node","id":9807298529,"lat":52.4788071,"lon":-1.901151},{"type":"node","id":9807298530,"lat":52.4788025,"lon":-1.9010975},{"type":"node","id":9938770782,"lat":52.4784531,"lon":-1.9008383},{"type":"node","id":9938770783,"lat":52.4784654,"lon":-1.9009884},{"type":"node","id":9938770784,"lat":52.4784775,"lon":-1.902034},{"type":"node","id":9938770785,"lat":52.4779809,"lon":-1.9020925},{"type":"node","id":9938770796,"lat":52.4784569,"lon":-1.900884},{"type":"node","id":9939057312,"lat":52.4784966,"lon":-1.9010118},{"type":"node","id":9939074831,"lat":52.4785234,"lon":-1.9020828},{"type":"node","id":9939074833,"lat":52.4785078,"lon":-1.9020662},{"type":"node","id":9939074835,"lat":52.4784781,"lon":-1.9009841},{"type":"node","id":9939074836,"lat":52.4784679,"lon":-1.9009555},{"type":"node","id":9939074837,"lat":52.478495,"lon":-1.9009146},{"type":"node","id":9939074838,"lat":52.4785024,"lon":-1.9009763},{"type":"node","id":9939074839,"lat":52.478512,"lon":-1.9009003},{"type":"node","id":9939074840,"lat":52.4784964,"lon":-1.9008788},{"type":"node","id":9939193263,"lat":52.4783818,"lon":-1.9018194},{"type":"node","id":9939193264,"lat":52.4784045,"lon":-1.901944},{"type":"node","id":9939193265,"lat":52.4784789,"lon":-1.9009198},{"type":"node","id":9939193266,"lat":52.47847,"lon":-1.9009865},{"type":"node","id":9939257090,"lat":52.4781144,"lon":-1.9011012},{"type":"node","id":11491326357,"lat":52.4794705,"lon":-1.9026443},{"type":"node","id":11491326361,"lat":52.4787456,"lon":-1.9011794},{"type":"node","id":11491326362,"lat":52.4787543,"lon":-1.9012254},{"type":"node","id":11491326363,"lat":52.4787452,"lon":-1.9012681},{"type":"node","id":11491326364,"lat":52.4786756,"lon":-1.9013947},{"type":"node","id":11491326365,"lat":52.4787394,"lon":-1.9014782},{"type":"node","id":178947420,"lat":52.4778109,"lon":-1.9001201},{"type":"node","id":256777150,"lat":52.4776072,"lon":-1.9001736},{"type":"node","id":256777156,"lat":52.4775423,"lon":-1.9001906},{"type":"node","id":747405581,"lat":52.4777417,"lon":-1.9001382},{"type":"node","id":747405593,"lat":52.4777769,"lon":-1.900129},{"type":"node","id":1481802988,"lat":52.477879,"lon":-1.900492},{"type":"node","id":1481872266,"lat":52.477423,"lon":-1.900222},{"type":"node","id":3957692272,"lat":52.4775867,"lon":-1.900179},{"type":"node","id":4003025018,"lat":52.4779628,"lon":-1.9005181},{"type":"node","id":4003025027,"lat":52.4777401,"lon":-1.900533},{"type":"node","id":4003025030,"lat":52.4777032,"lon":-1.9004323},{"type":"node","id":4003025032,"lat":52.4779432,"lon":-1.9004725},{"type":"node","id":4036562295,"lat":52.4773172,"lon":-1.900516},{"type":"node","id":4036562297,"lat":52.4773678,"lon":-1.9004248},{"type":"node","id":9939257097,"lat":52.477299,"lon":-1.9002546},{"type":"node","id":9942495137,"lat":52.477317,"lon":-1.9002499},{"type":"node","id":9942495138,"lat":52.4773902,"lon":-1.9002306},{"type":"node","id":9942500239,"lat":52.4779398,"lon":-1.9000862},{"type":"node","id":273113449,"lat":52.4786656,"lon":-1.8998337},{"type":"node","id":310679128,"lat":52.4786817,"lon":-1.899995},{"type":"node","id":310679133,"lat":52.4787764,"lon":-1.9002001},{"type":"node","id":313201325,"lat":52.4782957,"lon":-1.8999641},{"type":"node","id":747405587,"lat":52.4780868,"lon":-1.8990938},{"type":"node","id":747405650,"lat":52.4781588,"lon":-1.8991671},{"type":"node","id":747418114,"lat":52.4781934,"lon":-1.9001617},{"type":"node","id":747418135,"lat":52.4782823,"lon":-1.9002002},{"type":"node","id":747671926,"lat":52.478241,"lon":-1.8992945},{"type":"node","id":747671930,"lat":52.4781959,"lon":-1.8993531},{"type":"node","id":747671935,"lat":52.4780544,"lon":-1.8987889},{"type":"node","id":747671937,"lat":52.4781796,"lon":-1.8987542},{"type":"node","id":747671941,"lat":52.4781078,"lon":-1.8987697},{"type":"node","id":865140045,"lat":52.4793967,"lon":-1.9004342},{"type":"node","id":865140217,"lat":52.4794046,"lon":-1.9004009},{"type":"node","id":865173942,"lat":52.478609,"lon":-1.9001409},{"type":"node","id":865174063,"lat":52.4786322,"lon":-1.9001245},{"type":"node","id":865174078,"lat":52.4786596,"lon":-1.9001582},{"type":"node","id":865174129,"lat":52.4784817,"lon":-1.9004951},{"type":"node","id":977366259,"lat":52.4783724,"lon":-1.9003294},{"type":"node","id":977366261,"lat":52.4783962,"lon":-1.9002674},{"type":"node","id":977366266,"lat":52.4783309,"lon":-1.9004481},{"type":"node","id":977366268,"lat":52.4783695,"lon":-1.9003664},{"type":"node","id":977366269,"lat":52.478242,"lon":-1.9001853},{"type":"node","id":977366273,"lat":52.4783885,"lon":-1.9001987},{"type":"node","id":977366281,"lat":52.4782993,"lon":-1.90034},{"type":"node","id":977366282,"lat":52.4783241,"lon":-1.9001633},{"type":"node","id":1154582817,"lat":52.4792253,"lon":-1.9004291},{"type":"node","id":1154582856,"lat":52.4790822,"lon":-1.9003},{"type":"node","id":1154582865,"lat":52.4790939,"lon":-1.9004558},{"type":"node","id":1154582882,"lat":52.4790708,"lon":-1.9001502},{"type":"node","id":1171718059,"lat":52.478626,"lon":-1.9002291},{"type":"node","id":1171718063,"lat":52.478513,"lon":-1.9004081},{"type":"node","id":1171718064,"lat":52.4785881,"lon":-1.9003942},{"type":"node","id":1171718069,"lat":52.4786745,"lon":-1.9005049},{"type":"node","id":1171718071,"lat":52.4785637,"lon":-1.9005102},{"type":"node","id":1171718072,"lat":52.4785581,"lon":-1.9005368},{"type":"node","id":1171718074,"lat":52.4785656,"lon":-1.9002623},{"type":"node","id":1171718076,"lat":52.4786103,"lon":-1.9005108},{"type":"node","id":1171718096,"lat":52.4786105,"lon":-1.9002924},{"type":"node","id":1171718097,"lat":52.4785743,"lon":-1.9004598},{"type":"node","id":1171718104,"lat":52.4785886,"lon":-1.900389},{"type":"node","id":1171718105,"lat":52.4785352,"lon":-1.9003468},{"type":"node","id":1171718109,"lat":52.4786689,"lon":-1.900389},{"type":"node","id":1171718110,"lat":52.4786628,"lon":-1.9002336},{"type":"node","id":1204220300,"lat":52.4786775,"lon":-1.9001324},{"type":"node","id":1273082021,"lat":52.4794185,"lon":-1.9003983},{"type":"node","id":1273082036,"lat":52.4794052,"lon":-1.9004276},{"type":"node","id":1312314668,"lat":52.4783448,"lon":-1.9004015},{"type":"node","id":1320263816,"lat":52.4783273,"lon":-1.9001397},{"type":"node","id":2107829817,"lat":52.4785997,"lon":-1.8982439},{"type":"node","id":2107829819,"lat":52.4823034,"lon":-1.8967761},{"type":"node","id":2107829820,"lat":52.4836313,"lon":-1.8988098},{"type":"node","id":2107829821,"lat":52.4786806,"lon":-1.9000687},{"type":"node","id":2107829823,"lat":52.4793894,"lon":-1.8975988},{"type":"node","id":2107829825,"lat":52.4791804,"lon":-1.8977584},{"type":"node","id":2107829826,"lat":52.4790536,"lon":-1.897905},{"type":"node","id":2107829827,"lat":52.4827083,"lon":-1.8970855},{"type":"node","id":2107829828,"lat":52.4821934,"lon":-1.8966641},{"type":"node","id":2107829829,"lat":52.4809433,"lon":-1.8957951},{"type":"node","id":2107829830,"lat":52.4785179,"lon":-1.898521},{"type":"node","id":2107829831,"lat":52.4812285,"lon":-1.895632},{"type":"node","id":2107829832,"lat":52.4830779,"lon":-1.8976397},{"type":"node","id":2107829833,"lat":52.4842831,"lon":-1.8996207},{"type":"node","id":2107829834,"lat":52.4830307,"lon":-1.8974898},{"type":"node","id":2107829835,"lat":52.482438,"lon":-1.8968417},{"type":"node","id":2107829836,"lat":52.4831159,"lon":-1.8978907},{"type":"node","id":2107829837,"lat":52.4810541,"lon":-1.8956757},{"type":"node","id":2107829838,"lat":52.4785458,"lon":-1.8983275},{"type":"node","id":2107829839,"lat":52.4834676,"lon":-1.898601},{"type":"node","id":2107829840,"lat":52.4819303,"lon":-1.8963398},{"type":"node","id":2107829841,"lat":52.478845,"lon":-1.8981017},{"type":"node","id":2107829842,"lat":52.4813281,"lon":-1.8956548},{"type":"node","id":2107829843,"lat":52.4787118,"lon":-1.8981809},{"type":"node","id":2107829845,"lat":52.4843974,"lon":-1.8997588},{"type":"node","id":2107829846,"lat":52.4789713,"lon":-1.8980152},{"type":"node","id":2107829847,"lat":52.4844922,"lon":-1.8998822},{"type":"node","id":2107829848,"lat":52.4811532,"lon":-1.8956326},{"type":"node","id":2284100104,"lat":52.4782002,"lon":-1.9002312},{"type":"node","id":2284100105,"lat":52.478208,"lon":-1.9002954},{"type":"node","id":2284107298,"lat":52.4782616,"lon":-1.9003462},{"type":"node","id":2290519236,"lat":52.4784206,"lon":-1.8982278},{"type":"node","id":2291945876,"lat":52.4784954,"lon":-1.900262},{"type":"node","id":2291945878,"lat":52.4784709,"lon":-1.9001676},{"type":"node","id":2291945887,"lat":52.4782743,"lon":-1.8999306},{"type":"node","id":2306317478,"lat":52.4831802,"lon":-1.8981903},{"type":"node","id":2470441572,"lat":52.4781902,"lon":-1.8996938},{"type":"node","id":2470945279,"lat":52.4781687,"lon":-1.8998491},{"type":"node","id":2470945289,"lat":52.4782417,"lon":-1.899833},{"type":"node","id":2470945305,"lat":52.4781261,"lon":-1.8994467},{"type":"node","id":2470945318,"lat":52.4781933,"lon":-1.899427},{"type":"node","id":2470956413,"lat":52.478113,"lon":-1.8990902},{"type":"node","id":2470956427,"lat":52.4782344,"lon":-1.8987364},{"type":"node","id":2470956428,"lat":52.4782109,"lon":-1.8999111},{"type":"node","id":2471013688,"lat":52.4780787,"lon":-1.8987785},{"type":"node","id":2471075899,"lat":52.478284,"lon":-1.8996601},{"type":"node","id":2471187097,"lat":52.4783516,"lon":-1.8998708},{"type":"node","id":3464499729,"lat":52.482245,"lon":-1.8968015},{"type":"node","id":3464500412,"lat":52.4813377,"lon":-1.895713},{"type":"node","id":3464500413,"lat":52.4812736,"lon":-1.8956835},{"type":"node","id":3464500414,"lat":52.4811527,"lon":-1.8956781},{"type":"node","id":3464500415,"lat":52.4810511,"lon":-1.8957405},{"type":"node","id":3464500416,"lat":52.48005,"lon":-1.8969},{"type":"node","id":3464500417,"lat":52.4794036,"lon":-1.8976434},{"type":"node","id":3464500418,"lat":52.4791928,"lon":-1.8978085},{"type":"node","id":3464500419,"lat":52.478985,"lon":-1.8980733},{"type":"node","id":3464500420,"lat":52.4786141,"lon":-1.8982986},{"type":"node","id":3464500421,"lat":52.4785473,"lon":-1.8985134},{"type":"node","id":3616332640,"lat":52.4785939,"lon":-1.899246},{"type":"node","id":3754517398,"lat":52.4781151,"lon":-1.9000427},{"type":"node","id":3754517400,"lat":52.4785249,"lon":-1.8984028},{"type":"node","id":3754517401,"lat":52.4785543,"lon":-1.8984534},{"type":"node","id":3754517402,"lat":52.4785694,"lon":-1.8984038},{"type":"node","id":3754517408,"lat":52.4787234,"lon":-1.9003193},{"type":"node","id":3758605204,"lat":52.4784734,"lon":-1.8987606},{"type":"node","id":3758957513,"lat":52.478305,"lon":-1.8998607},{"type":"node","id":3758957516,"lat":52.4782239,"lon":-1.8996768},{"type":"node","id":3761531774,"lat":52.4781586,"lon":-1.8990204},{"type":"node","id":3761531779,"lat":52.4782235,"lon":-1.8991337},{"type":"node","id":3761531780,"lat":52.4782656,"lon":-1.8990316},{"type":"node","id":3761531781,"lat":52.4782876,"lon":-1.8992311},{"type":"node","id":3761531783,"lat":52.4783115,"lon":-1.899462},{"type":"node","id":3761531791,"lat":52.4784104,"lon":-1.9000929},{"type":"node","id":3761543501,"lat":52.4782093,"lon":-1.9002093},{"type":"node","id":3761550925,"lat":52.478502,"lon":-1.8990309},{"type":"node","id":3763940178,"lat":52.4783874,"lon":-1.9003822},{"type":"node","id":3763940184,"lat":52.4785023,"lon":-1.900087},{"type":"node","id":3763940186,"lat":52.4785367,"lon":-1.8994007},{"type":"node","id":3778386672,"lat":52.4830694,"lon":-1.8975881},{"type":"node","id":3778386674,"lat":52.4831613,"lon":-1.8981255},{"type":"node","id":3818484225,"lat":52.482389,"lon":-1.8968753},{"type":"node","id":3818484228,"lat":52.4825538,"lon":-1.8970005},{"type":"node","id":3818484229,"lat":52.4825693,"lon":-1.8969578},{"type":"node","id":3881605977,"lat":52.4819149,"lon":-1.8963826},{"type":"node","id":3883350328,"lat":52.4823316,"lon":-1.8967999},{"type":"node","id":3883350329,"lat":52.482427,"lon":-1.8968922},{"type":"node","id":3883350334,"lat":52.4826415,"lon":-1.8970367},{"type":"node","id":3957692539,"lat":52.4782055,"lon":-1.8991447},{"type":"node","id":3957692552,"lat":52.4783041,"lon":-1.9000598},{"type":"node","id":3959883646,"lat":52.4786671,"lon":-1.9001335},{"type":"node","id":4003025016,"lat":52.47816,"lon":-1.9004732},{"type":"node","id":4003025020,"lat":52.4782048,"lon":-1.9004736},{"type":"node","id":4003025023,"lat":52.4782659,"lon":-1.9005436},{"type":"node","id":4003025024,"lat":52.478079,"lon":-1.9004334},{"type":"node","id":4003025025,"lat":52.4782145,"lon":-1.9003945},{"type":"node","id":4003025026,"lat":52.4781395,"lon":-1.900417},{"type":"node","id":4003025031,"lat":52.4780675,"lon":-1.9004991},{"type":"node","id":4188380213,"lat":52.4794226,"lon":-1.9003367},{"type":"node","id":4204911698,"lat":52.4785692,"lon":-1.8999276},{"type":"node","id":4204911699,"lat":52.4785657,"lon":-1.8982881},{"type":"node","id":4204911700,"lat":52.4785905,"lon":-1.8989044},{"type":"node","id":4204911705,"lat":52.4786082,"lon":-1.8999601},{"type":"node","id":4204911706,"lat":52.4786257,"lon":-1.8992366},{"type":"node","id":4204911708,"lat":52.4786697,"lon":-1.8996371},{"type":"node","id":4204911710,"lat":52.4786723,"lon":-1.8999947},{"type":"node","id":4204911711,"lat":52.4787021,"lon":-1.8999934},{"type":"node","id":4204911712,"lat":52.4787197,"lon":-1.899989},{"type":"node","id":4204911713,"lat":52.4787215,"lon":-1.9004949},{"type":"node","id":4204911715,"lat":52.4790611,"lon":-1.8979656},{"type":"node","id":4204911716,"lat":52.479104,"lon":-1.8978449},{"type":"node","id":4204911717,"lat":52.4798113,"lon":-1.8970825},{"type":"node","id":4204911718,"lat":52.4801307,"lon":-1.896719},{"type":"node","id":4204911719,"lat":52.4802091,"lon":-1.8967177},{"type":"node","id":4204911721,"lat":52.4806579,"lon":-1.8961363},{"type":"node","id":4204911724,"lat":52.4811006,"lon":-1.8956529},{"type":"node","id":4204911725,"lat":52.4811035,"lon":-1.8956938},{"type":"node","id":4204911726,"lat":52.4812292,"lon":-1.8956757},{"type":"node","id":4204911727,"lat":52.4812827,"lon":-1.8956462},{"type":"node","id":4204911728,"lat":52.4817467,"lon":-1.8961779},{"type":"node","id":4204911729,"lat":52.4817605,"lon":-1.8961363},{"type":"node","id":4207929470,"lat":52.4820063,"lon":-1.8964933},{"type":"node","id":4207929471,"lat":52.4820227,"lon":-1.8964537},{"type":"node","id":4216185185,"lat":52.4796964,"lon":-1.8972181},{"type":"node","id":4502789023,"lat":52.483057,"lon":-1.8975418},{"type":"node","id":4690536030,"lat":52.4783737,"lon":-1.9004383},{"type":"node","id":4710048694,"lat":52.481346,"lon":-1.8956662},{"type":"node","id":5136932582,"lat":52.4783639,"lon":-1.9002344},{"type":"node","id":5136932583,"lat":52.4783623,"lon":-1.9003612},{"type":"node","id":5179337126,"lat":52.4792127,"lon":-1.9002735},{"type":"node","id":5179337127,"lat":52.4792505,"lon":-1.9003602},{"type":"node","id":5179337128,"lat":52.4792972,"lon":-1.9003538},{"type":"node","id":5181039058,"lat":52.4783998,"lon":-1.9005082},{"type":"node","id":6249629008,"lat":52.4786072,"lon":-1.8983149},{"type":"node","id":6863876840,"lat":52.4831435,"lon":-1.8980466},{"type":"node","id":6863876841,"lat":52.4801844,"lon":-1.8966596},{"type":"node","id":6863876842,"lat":52.4826302,"lon":-1.8970243},{"type":"node","id":6863876843,"lat":52.4826291,"lon":-1.8970655},{"type":"node","id":6863876844,"lat":52.4816731,"lon":-1.8960943},{"type":"node","id":7135760390,"lat":52.4816889,"lon":-1.8960565},{"type":"node","id":7135760391,"lat":52.4785876,"lon":-1.8982596},{"type":"node","id":7135760392,"lat":52.478657,"lon":-1.8998525},{"type":"node","id":7135760394,"lat":52.4808433,"lon":-1.8959826},{"type":"node","id":7135760395,"lat":52.4823122,"lon":-1.8968543},{"type":"node","id":7466814949,"lat":52.4791003,"lon":-1.9005401},{"type":"node","id":7471288343,"lat":52.4810307,"lon":-1.8957009},{"type":"node","id":8004015902,"lat":52.4785927,"lon":-1.8992344},{"type":"node","id":8100471905,"lat":52.481352,"lon":-1.8957293},{"type":"node","id":8100471906,"lat":52.4813717,"lon":-1.8957033},{"type":"node","id":8334825017,"lat":52.4785261,"lon":-1.9002326},{"type":"node","id":8334825019,"lat":52.4785897,"lon":-1.9001127},{"type":"node","id":8334825023,"lat":52.4783584,"lon":-1.9004641},{"type":"node","id":8334825025,"lat":52.4785621,"lon":-1.9001361},{"type":"node","id":8334825026,"lat":52.4785612,"lon":-1.9001953},{"type":"node","id":8542014800,"lat":52.4781762,"lon":-1.8988759},{"type":"node","id":8542014801,"lat":52.478143,"lon":-1.8988853},{"type":"node","id":9807298531,"lat":52.478689,"lon":-1.8996318},{"type":"node","id":9938770768,"lat":52.4783041,"lon":-1.9004547},{"type":"node","id":9938770779,"lat":52.478229,"lon":-1.9000208},{"type":"node","id":9938770787,"lat":52.4783309,"lon":-1.9004481},{"type":"node","id":9938770795,"lat":52.4796735,"lon":-1.897333},{"type":"node","id":9939057313,"lat":52.4783645,"lon":-1.8998142},{"type":"node","id":9942495134,"lat":52.4780034,"lon":-1.9000701},{"type":"node","id":9942495135,"lat":52.4779683,"lon":-1.9000787},{"type":"node","id":9942495136,"lat":52.4783638,"lon":-1.8999789},{"type":"node","id":10608386988,"lat":52.4810034,"lon":-1.895797},{"type":"node","id":10608386990,"lat":52.4810815,"lon":-1.8956622},{"type":"node","id":11251425332,"lat":52.4787996,"lon":-1.898186},{"type":"node","id":12004434594,"lat":52.4823514,"lon":-1.8968676},{"type":"node","id":12004434595,"lat":52.48242,"lon":-1.8968341},{"type":"node","id":12004434596,"lat":52.482371,"lon":-1.896822},{"type":"node","id":12345889440,"lat":52.4830922,"lon":-1.897742},{"type":"node","id":12345889441,"lat":52.4832088,"lon":-1.8982594},{"type":"node","id":12345889456,"lat":52.4832657,"lon":-1.8983494},{"type":"node","id":12428728029,"lat":52.4785652,"lon":-1.8996655},{"type":"node","id":12428728031,"lat":52.4784919,"lon":-1.8989348},{"type":"node","id":12428728032,"lat":52.4786356,"lon":-1.8996464},{"type":"node","id":12428728033,"lat":52.4785591,"lon":-1.8989141},{"type":"node","id":12428728034,"lat":52.4785736,"lon":-1.8997785},{"type":"node","id":12428728036,"lat":52.4785772,"lon":-1.8998501},{"type":"node","id":3946422786,"lat":52.484557,"lon":-1.8999947}]}