{"version":0.6,"generator":"Overpass API 0.7.62.5 1bd436f1","osm3s":{"timestamp_osm_base":"2025-03-12T11:57:36Z","copyright":"The data included in this document is from www.openstreetmap.org. The data is made available under ODbL."},"elements":[{"type":"node","id":312628823,"lat":52.4804159,"lon":-1.8944688,"tags":{"amenity":"telephone","booth":"InLink","fixme":"Still here? Needs re-survey","internet_access":"wlan","internet_access:fee":"no","operator":"BT","operator:wikidata":"Q593786","source":"survey"}},{"type":"node","id":355914379,"lat":52.4804998,"lon":-1.8940094,"tags":{"fixme":"is this still here?","historic":"memorial","memorial":"plaque","name":"Taylors and Lloyds commemorative plaque","openplaques:id":"1586","source":"visual survey;estimate"}},{"type":"node","id":902526823,"lat":52.480741,"lon":-1.89394,"tags":{"amenity":"bicycle_parking","bcc_ref":"267","bicycle_parking":"stands","capacity":"4","check_date:capacity":"2021-08-06","covered":"no","name":"Dale End"}},{"type":"node","id":2052935354,"lat":52.4805144,"lon":-1.8946235,"tags":{"amenity":"bicycle_parking","bcc_ref":"550","bicycle_parking":"stands","capacity":"8","check_date:capacity":"2021-06-04","covered":"no","fixme":"Still here? Needs re-survey","name":"Bull Street near Dale End"}},{"type":"node","id":2315799401,"lat":52.4807755,"lon":-1.8940981,"tags":{"amenity":"bicycle_parking","bcc_ref":"561","bicycle_parking":"stands","capacity":"8","name":"Priory Square","source":"visual estimate"}},{"type":"node","id":2451000875,"lat":52.4806661,"lon":-1.8942416,"tags":{"addr:city":"Birmingham","addr:housenumber":"59","addr:postcode":"B4 7LS","addr:street":"Dale End","amenity":"fast_food","cuisine":"fish_and_chips","fhrs:id":"598786","name":"Ocean Fish Bar","source:addr":"FHRS Open Data"}},{"type":"node","id":2451000876,"lat":52.4807169,"lon":-1.8941874,"tags":{"addr:city":"Birmingham","addr:postcode":"B4 7LS","addr:street":"Dale End","name":"Promises Promises","shop":"erotic"}},{"type":"node","id":2519320973,"lat":52.4806152,"lon":-1.8942959,"tags":{"addr:city":"Birmingham","addr:postcode":"B4 7LS","addr:street":"Dale End","note":"Vacant shop"}},{"type":"node","id":2519320974,"lat":52.4806915,"lon":-1.8942145,"tags":{"addr:city":"Birmingham","addr:postcode":"B4 7LS","addr:street":"Dale End","name":"City Hair & Beauty","shop":"hairdresser"}},{"type":"node","id":2519320975,"lat":52.4806002,"lon":-1.8945466,"tags":{"name":"Sabina City Hair and Cosmetics","operator":"Sabina City Hair and Cosmetics","shop":"cosmetics"}},{"type":"node","id":2519320979,"lat":52.4805898,"lon":-1.894323,"tags":{"addr:city":"Birmingham","addr:postcode":"B4 7LS","addr:street":"Dale End","amenity":"fast_food","cuisine":"chicken","fhrs:id":"604632","name":"DFC Chicken"}},{"type":"node","id":2519320981,"lat":52.4806406,"lon":-1.8942687,"tags":{"addr:city":"Birmingham","addr:postcode":"B4 7LS","addr:street":"Dale End","name":"Drinkstop","shop":"alcohol"}},{"type":"node","id":2519320993,"lat":52.4805644,"lon":-1.8943501,"tags":{"addr:city":"Birmingham","addr:postcode":"B4 7LS","addr:street":"Dale End","name":"Long Nails","shop":"beauty"}},{"type":"node","id":2519321004,"lat":52.480539,"lon":-1.8943772,"tags":{"addr:city":"Birmingham","addr:postcode":"B4 7LS","addr:street":"Dale End","amenity":"bank","name":"Streek UK"}},{"type":"node","id":2519321009,"lat":52.4805135,"lon":-1.8944043,"tags":{"addr:city":"Birmingham","addr:postcode":"B4 7LS","addr:street":"Dale End","amenity":"pub","fhrs:id":"1179695","name":"The Peaky Blinder"}},{"type":"node","id":2520425365,"lat":52.480772,"lon":-1.8942596,"tags":{"addr:city":"Birmingham","addr:postcode":"B4 7LG","addr:street":"Priory Square","name":"Big \"H\"","shop":"variety_store"}},{"type":"node","id":2520425376,"lat":52.480832,"lon":-1.8943418,"tags":{"note":"Vacant shop","shop":"vacant"}},{"type":"node","id":2520425389,"lat":52.4809521,"lon":-1.8945061,"tags":{"name":"Street Wear","shop":"clothes"}},{"type":"node","id":2520425397,"lat":52.4808921,"lon":-1.894424,"tags":{"note":"Vacant shop","shop":"vacant"}},{"type":"node","id":4562105539,"lat":52.4807915,"lon":-1.8936739,"tags":{"man_made":"street_cabinet","operator":"bcc","ref":"E0114","street_cabinet":"traffic_signals"}},{"type":"node","id":4720101919,"lat":52.4805013,"lon":-1.8942931,"tags":{"age":"semi-mature","constituency":"City Centre","height":"10","height:range":"9 to 9.99m","leaf_cycle":"deciduous","leaf_type":"broadleaved","natural":"tree","plot_number":"100002","ref:usrn":"2701547","site_name":"DALE END","source":"bcc_dec_2016","species":"Liquidambar styraciflua","species:wikidata":"Q469652","tree_form":"asymmetric","ward":"Ladywood"}},{"type":"node","id":4720101921,"lat":52.4807283,"lon":-1.8940331,"tags":{"age":"semi-mature","constituency":"City Centre","height":"12","height:range":"11 to 11.99m","leaf_cycle":"deciduous","leaf_type":"broadleaved","natural":"tree","plot_number":"100004","ref:usrn":"2701547","site_name":"DALE END","source":"bcc_dec_2016","species":"Tilia x europaea","species:wikidata":"Q163760","tree_form":"natural","ward":"Ladywood"}},{"type":"node","id":4720101923,"lat":52.4808073,"lon":-1.8939561,"tags":{"age":"semi-mature","constituency":"City Centre","height":"12","height:range":"11 to 11.99m","leaf_cycle":"deciduous","leaf_type":"broadleaved","natural":"tree","plot_number":"100005","ref:usrn":"2701547","site_name":"DALE END","source":"bcc_dec_2016","species":"Tilia x europaea","species:wikidata":"Q163760","tree_form":"natural","ward":"Ladywood"}},{"type":"node","id":4720101928,"lat":52.4804573,"lon":-1.8944081,"tags":{"age":"semi-mature","constituency":"City Centre","height":"8","height:range":"7 to 7.99m","leaf_cycle":"deciduous","leaf_type":"broadleaved","natural":"tree","plot_number":"100003","ref:usrn":"2701547","site_name":"DALE END","source":"bcc_dec_2016","species":"Liquidambar styraciflua","species:wikidata":"Q469652","tree_form":"unbalanced","ward":"Ladywood"}},{"type":"node","id":4720101938,"lat":52.4806303,"lon":-1.8935921,"tags":{"age":"semi-mature","constituency":"City Centre","fixme":"Is this still here?","genus":"Platanus","height":"16","height:range":"15 to 15.99m","leaf_cycle":"deciduous","leaf_type":"broadleaved","natural":"tree","plot_number":"100011","ref:usrn":"2735830","site_name":"ALBERT STREET","source":"bcc_dec_2016","species":"Platanus x acerifolia","tree_form":"asymmetric","ward":"Ladywood"}},{"type":"node","id":4978793279,"lat":52.4806272,"lon":-1.8940096,"tags":{"button_operated":"yes","crossing":"traffic_signals","crossing:island":"no","highway":"crossing","ref":"E0114","source":"survey","tactile_paving":"yes","traffic_signals:sound":"no","traffic_signals:vibration":"no"}},{"type":"node","id":4978801701,"lat":52.4804954,"lon":-1.8944006,"tags":{"artwork:location":"wall","artwork_type":"streetart","name":"Peaky Blinders Speakeasy","tourism":"artwork"}},{"type":"node","id":4978801702,"lat":52.4804435,"lon":-1.8942484,"tags":{"amenity":"taxi","source":"survey"}},{"type":"node","id":6096929188,"lat":52.4809405,"lon":-1.893546,"tags":{"entrance":"yes","maxheight":"1.99","vehicle":"yes"}},{"type":"node","id":8813129773,"lat":52.4804859,"lon":-1.8946298,"tags":{"access":"customers","amenity":"bicycle_parking","capacity":"10","operator":"Voi","operator:type":"private","small_electric_vehicle":"designated"}},{"type":"node","id":8841772265,"lat":52.4805791,"lon":-1.8941934,"tags":{"bench":"yes","bin":"no","bus":"yes","highway":"bus_stop","lit":"yes","name":"BS1","naptan:AtcoCode":"43000206701","naptan:NaptanCode":"nwmajgag","public_transport":"platform","ref":"BS1","shelter":"yes","source":"survey","tactile_paving":"yes"}},{"type":"node","id":9625887348,"lat":52.4804864,"lon":-1.8942799,"tags":{"access":"customers","amenity":"parking","operator":"Voi","operator:type":"private","parking":"e-scooter"}},{"type":"node","id":12493400076,"lat":52.4804139,"lon":-1.8942493,"tags":{"button_operated":"yes","crossing":"traffic_signals","crossing:island":"no","highway":"crossing","ref":"E0114","source":"survey","tactile_paving":"yes","traffic_signals:sound":"no","traffic_signals:vibration":"no"}},{"type":"node","id":12530516731,"lat":52.4803396,"lon":-1.8937947,"tags":{"railway":"tram_level_crossing"}},{"type":"node","id":12530516732,"lat":52.4803471,"lon":-1.8943223,"tags":{"railway":"tram_level_crossing"}},{"type":"node","id":12530516733,"lat":52.4804219,"lon":-1.8945389,"tags":{"railway":"tram_crossing"}}]}