{"version":0.6,"generator":"Overpass API 0.7.62.5 1bd436f1","osm3s":{"timestamp_osm_base":"2025-03-12T12:10:49Z","copyright":"The data included in this document is from www.openstreetmap.org. The data is made available under ODbL."},"elements":[{"type":"node","id":863782802,"lat":52.4843689,"lon":-1.8934551,"tags":{"PMSA_ref":"WMbiBIxx026","artist_name":"William Bloye","artwork:location":"above entrance door","artwork:material":"stone","artwork_type":"sculpture","name":"Keystone Head","start_date":"1930..1933","tourism":"artwork"}},{"type":"node","id":957289409,"lat":52.4842422,"lon":-1.8924476,"tags":{"amenity":"bench","backrest":"no","check_date":"2022-09-29","colour":"white","material":"stone","operator":"Birmingham City Council","seats":"10","source":"visual survey; estimate"}},{"type":"node","id":966093348,"lat":52.4839235,"lon":-1.8930373,"tags":{"name":"Nails 4 U","shop":"beauty","source":"visual survey; estimate"}},{"type":"node","id":966093351,"lat":52.4840847,"lon":-1.89292,"tags":{"entrance":"yes","foot":"yes","operator":"Ruskin Buildings","source":"visual survey; estimate"}},{"type":"node","id":966093352,"lat":52.4840148,"lon":-1.8929732,"tags":{"addr:city":"Birmingham","addr:housenumber":"187","addr:street":"Corporation Street","amenity":"fast_food","cuisine":"pizza","name":"Caspian Pizza","smoking":"no","source":"visual survey; estimate"}},{"type":"node","id":966093354,"lat":52.4841466,"lon":-1.8928668,"tags":{"name":"Something Sweet","shop":"hairdresser","source":"visual survey; estimate"}},{"type":"node","id":966093356,"lat":52.4838774,"lon":-1.8930757,"tags":{"addr:city":"Birmingham","addr:housenumber":"179","addr:street":"Corporation Street","note":"Vacant shop","source":"visual survey; estimate"}},{"type":"node","id":966093357,"lat":52.484241,"lon":-1.8927759,"tags":{"amenity":"fast_food","cuisine":"chicken","name":"Chicken Hut","source":"visual survey; estimate"}},{"type":"node","id":966093358,"lat":52.4839832,"lon":-1.8929934,"tags":{"addr:city":"Birmingham","addr:housenumber":"183-185","addr:street":"Corporation Street","name":"Modern Body Art","shop":"tattoo","source":"visual survey; estimate"}},{"type":"node","id":966093361,"lat":52.4840384,"lon":-1.8929494,"tags":{"addr:city":"Birmingham","addr:housenumber":"189","addr:street":"Corporation Street","name":"Bismillah","shop":"bakery","source":"visual survey; estimate"}},{"type":"node","id":966093362,"lat":52.4841207,"lon":-1.8928888,"tags":{"addr:city":"Birmingham","addr:housenumber":"193","addr:street":"Corporation Street","amenity":"fast_food","cuisine":"caribbean","name":"Aunt Sally's","smoking":"no","source":"survey"}},{"type":"node","id":966093363,"lat":52.4839574,"lon":-1.8930116,"tags":{"name":"Tamane's","shop":"hairdresser","source":"visual survey; estimate"}},{"type":"node","id":2448756388,"lat":52.4837147,"lon":-1.8930801,"tags":{"barrier":"bollard","bollard":"fixed"}},{"type":"node","id":2523807504,"lat":52.4838228,"lon":-1.8926491,"tags":{"disused:shop":"yes"}},{"type":"node","id":2523807509,"lat":52.4841896,"lon":-1.8928237,"tags":{"brand":"Nisa Local","brand:wikidata":"Q16999069","brand:wikipedia":"en:Nisa (retailer)","name":"Nisa Local","shop":"convenience"}},{"type":"node","id":2523807519,"lat":52.4837355,"lon":-1.8927113,"tags":{"disused:shop":"yes"}},{"type":"node","id":2523807521,"lat":52.4837791,"lon":-1.8926802,"tags":{"disused:shop":"yes"}},{"type":"node","id":2523807538,"lat":52.4838664,"lon":-1.892618,"tags":{"check_date":"2022-11-13","shop":"vacant"}},{"type":"node","id":3945953683,"lat":52.484086,"lon":-1.8924957,"tags":{"barrier":"bollard"}},{"type":"node","id":3945953684,"lat":52.4840586,"lon":-1.8925157,"tags":{"barrier":"bollard"}},{"type":"node","id":3945953685,"lat":52.4840334,"lon":-1.8925348,"tags":{"barrier":"bollard"}},{"type":"node","id":3945953686,"lat":52.4840083,"lon":-1.8925522,"tags":{"barrier":"bollard"}},{"type":"node","id":4546926528,"lat":52.4839081,"lon":-1.8929064,"tags":{"emergency":"fire_hydrant","fire_hydrant:diameter":"150","fire_hydrant:position":"sidewalk","fire_hydrant:type":"underground","operator":"WMFS","position:distance":"4","source":"survey"}},{"type":"node","id":4567172215,"lat":52.4837924,"lon":-1.89312,"tags":{"name":"Spectrum","shop":"art"}},{"type":"node","id":4567172216,"lat":52.4837341,"lon":-1.8928631,"tags":{"emergency":"fire_hydrant","fire_hydrant:position":"sidewalk","fire_hydrant:type":"underground","operator":"WMFS","source":"survey"}},{"type":"node","id":4734593627,"lat":52.4840546,"lon":-1.8927352,"tags":{"NaPTANAreaCode":"43000208002","bus":"yes","highway":"bus_stop","name":"RD","naptan:AtcoCode":"43000208002","naptan:Bearing":"N","naptan:BusStopType":"MKD","naptan:CommonName":"Law Courts","naptan:Indicator":"Stop RD","naptan:NaptanCode":"nwmajgpd","naptan:Status":"ACT","naptan:StopType":"BCT","naptan:Street":"CORPORATION ST","public_transport":"platform","shelter":"yes","shelter_ref":"507477","source":"WMCA"}},{"type":"node","id":4734593628,"lat":52.4842496,"lon":-1.8926339,"tags":{"bus":"yes","highway":"bus_stop","name":"CS2","naptan:AtcoCode":"43000208001","naptan:Bearing":"NE","naptan:BusStopType":"MKD","naptan:CommonName":"Law Courts","naptan:Indicator":"Stop CS2","naptan:NaptanCode":"nwmajgpa","naptan:Status":"ACT","naptan:StopType":"BCT","naptan:Street":"CORPORATION ST","naptan:Towards":"Aston, Perry Barr, Erdington a","public_transport":"platform","route_ref":"33;51;52;52A;108;110;907;907A;934;935;936;937;937A;997;997E;X14;X16;X3;X4;X5;X51","source":"WMCA"}},{"type":"node","id":5704536802,"lat":52.4838229,"lon":-1.8930902,"tags":{"addr:city":"Birmingham","addr:housenumber":"177","addr:street":"Corporation Street","amenity":"cafe","cuisine":"coffee_shop","email":"hello@cafeartum.co.uk","music":"recorded","name":"Caf\u00e9 Artum","shop":"music","website":"http:\/\/cafeartum.co.uk\/"}},{"type":"node","id":8032204576,"lat":52.4839089,"lon":-1.8932882,"tags":{"addr:city":"Birmingham","addr:postcode":"B4 6RL","addr:street":"Corporation Street","office":"lawyer"}},{"type":"node","id":12493973866,"lat":52.4841286,"lon":-1.8924812,"tags":{"amenity":"bicycle_parking","bicycle_parking":"stands","capacity":"6","covered":"no"}},{"type":"node","id":12493973867,"lat":52.4841493,"lon":-1.8924773,"tags":{"amenity":"atm"}}]}