{"version":0.6,"generator":"Overpass API 0.7.62.5 1bd436f1","osm3s":{"timestamp_osm_base":"2025-03-12T11:21:00Z","copyright":"The data included in this document is from www.openstreetmap.org. The data is made available under ODbL."},"elements":[{"type":"node","id":263577593,"lat":52.4994407,"lon":13.4181324,"tags":{"button_operated":"no","crossing":"traffic_signals","crossing:island":"no","crossing:markings":"dashes","highway":"crossing","tactile_paving":"yes","traffic_signals:sound":"yes","traffic_signals:vibration":"yes"}},{"type":"node","id":369572810,"lat":52.4997295,"lon":13.4180639,"tags":{"amenity":"post_box","check_date:collection_times":"2023-11-01","collection_times":"Mo-Fr 16:00,17:30,21:15; Sa 14:15; Su 21:15","last_checked":"2020-09-19","operator":"Deutsche Post","operator:wikidata":"Q157645","operator:wikipedia":"de:Deutsche Post AG","ref":"Adalbertstr. 98, 10999 Berlin"}},{"type":"node","id":622290145,"lat":52.499423,"lon":13.4179091,"tags":{"direction":"Bus 140 -> S+U Tempelhof","name":"Adalbertstra\u00dfe\/Reichenberger Stra\u00dfe\/Dresdener Stra\u00dfe","railway":"subway_entrance","ref":"E","toilets:wheelchair":"no","wheelchair":"no"}},{"type":"node","id":815343294,"lat":52.4992621,"lon":13.4177047,"tags":{"button_operated":"yes","crossing":"traffic_signals","crossing:island":"no","crossing:markings":"dashes","highway":"crossing","tactile_paving":"yes","traffic_signals:sound":"yes","traffic_signals:vibration":"yes"}},{"type":"node","id":848507617,"lat":52.4995681,"lon":13.4179617,"tags":{"amenity":"clock","check_date":"2022-09-19"}},{"type":"node","id":848507634,"lat":52.4994864,"lon":13.4179396,"tags":{"amenity":"waste_basket"}},{"type":"node","id":848875729,"lat":52.4995381,"lon":13.4173579,"tags":{"addr:city":"Berlin","addr:country":"DE","addr:housenumber":"175","addr:postcode":"10999","addr:street":"Reichenberger Stra\u00dfe","addr:suburb":"Kreuzberg","amenity":"fast_food","contact:fax":"+49 30 830 38325","contact:phone":"+49 30 830 38323","cuisine":"turkish","diet:vegan":"yes","diet:vegetarian":"yes","email":"kottis.gemuesekebap@gmail.com","indoor_seating":"yes","internet_access":"wlan","internet_access:fee":"no","name":"7days Finest Fresh Food","opening_hours":"Mo-We, Su 10:30-03:00, Th-Sa 10:30-04:00","outdoor_seating":"yes","wheelchair":"limited"}},{"type":"node","id":865949811,"lat":52.4995697,"lon":13.4175755,"tags":{"addr:city":"Berlin","addr:country":"DE","addr:housenumber":"174","addr:postcode":"10999","addr:street":"Reichenberger Stra\u00dfe","addr:suburb":"Kreuzberg","amenity":"fast_food","contact:email":"info@cemsdiner.de","contact:phone":"+49 30 61671449","contact:website":"http:\/\/www.cemsdiner.de\/","cuisine":"burger","name":"Cem\u2019s Diner Burgerhouse","wheelchair":"limited"}},{"type":"node","id":866007372,"lat":52.4997529,"lon":13.4178805,"tags":{"addr:city":"Berlin","addr:country":"DE","addr:housenumber":"98","addr:postcode":"10999","addr:street":"Adalbertstra\u00dfe","addr:suburb":"Kreuzberg","amenity":"fast_food","contact:phone":"+49 1520 62 14 304","cuisine":"vietnamese","name":"Huy Hoang","wheelchair":"limited"}},{"type":"node","id":871567938,"lat":52.499813,"lon":13.4178979,"tags":{"brand":"Vodafone","brand:wikidata":"Q122141","brand:wikipedia":"en:Vodafone","name":"Vodafone","shop":"mobile_phone"}},{"type":"node","id":871641848,"lat":52.4995472,"lon":13.4172643,"tags":{"amenity":"fast_food","check_date":"2023-11-02","indoor_seating":"yes","name":"Orient Eck","outdoor_seating":"yes","wheelchair":"limited"}},{"type":"node","id":871641849,"lat":52.4997259,"lon":13.4173193,"tags":{"amenity":"restaurant","cuisine":"bosnian","name":"Qebabtor Stari Most","wheelchair":"limited"}},{"type":"node","id":871641850,"lat":52.4996233,"lon":13.4172801,"tags":{"amenity":"cafe","name":"A\u011fr\u0131 Efsanesi"}},{"type":"node","id":871701823,"lat":52.499635,"lon":13.4176079,"tags":{"addr:city":"Berlin","addr:country":"DE","addr:housenumber":"175","addr:postcode":"10999","addr:street":"Reichenberger Stra\u00dfe","addr:suburb":"Kreuzberg","brand":"Rossmann","brand:wikidata":"Q316004","brand:wikipedia":"de:Rossmann (Handelskette)","contact:phone":"+49 30 61656080","contact:website":"https:\/\/www.rossmann.de","name":"Rossmann","opening_hours":"Mo-Sa 09:00-22:00","operator":"Dirk Rossmann GmbH","ref:shop:num":"823","ref:vatin":"DE115055186","shop":"chemist","wheelchair":"yes"}},{"type":"node","id":872308135,"lat":52.4995574,"lon":13.4174361,"tags":{"check_date":"2023-11-02","leisure":"adult_gaming_centre","name":"Casino 36","website":"http:\/\/www.casino36.de","wheelchair":"no"}},{"type":"node","id":874259351,"lat":52.4993454,"lon":13.4178081,"tags":{"access":"yes","advertising":"poster_box","check_date":"2021-04-21","direction":"204","message":"commercial","operator":"Wall","operator:wikidata":"Q1310189","source":"survey","support":"ground"}},{"type":"node","id":874260540,"lat":52.4995564,"lon":13.4179536,"tags":{"amenity":"telephone","check_date":"2023-04-26","covered":"no","operator":"Deutsche Telekom AG","operator:wikidata":"Q9396","payment:coins":"yes","payment:telephone_cards":"yes"}},{"type":"node","id":874265687,"lat":52.4998156,"lon":13.4173799,"tags":{"name":"M-Style","shop":"hairdresser","wheelchair":"yes"}},{"type":"node","id":1583884357,"lat":52.4997445,"lon":13.417808,"tags":{"amenity":"fast_food","contact:phone":"+493061609280","contact:website":"http:\/\/www.tadim-lahmacun.de\/","cuisine":"kebab","email":"tadim@mail.com","name":"Tadim","wheelchair":"limited"}},{"type":"node","id":2840614866,"lat":52.499628,"lon":13.4173032,"tags":{"addr:city":"Berlin","addr:country":"DE","addr:housenumber":"174","addr:postcode":"10999","addr:street":"Reichenberger Stra\u00dfe","addr:suburb":"Kreuzberg","source":"Geoportal Berlin \/ Hauskoordinaten"}},{"type":"node","id":2840614868,"lat":52.499768,"lon":13.4174073,"tags":{"addr:city":"Berlin","addr:country":"DE","addr:housenumber":"175","addr:postcode":"10999","addr:street":"Reichenberger Stra\u00dfe","addr:suburb":"Kreuzberg","source":"Geoportal Berlin \/ Hauskoordinaten"}},{"type":"node","id":3900136324,"lat":52.4994214,"lon":13.4180372,"tags":{"barrier":"kerb","kerb":"lowered","tactile_paving":"yes"}},{"type":"node","id":4489578370,"lat":52.4994776,"lon":13.4181113,"tags":{"highway":"traffic_signals","traffic_signals:direction":"backward"}},{"type":"node","id":4543931143,"lat":52.4992404,"lon":13.4179007,"tags":{"highway":"traffic_signals"}},{"type":"node","id":4714615407,"lat":52.4992624,"lon":13.4174432,"tags":{"amenity":"vending_machine","level":"-2","operator":"Berliner Verkehrsbetriebe","vending":"public_transport_tickets"}},{"type":"node","id":5330550894,"lat":52.4995365,"lon":13.4177542,"tags":{"leaf_cycle":"deciduous","leaf_type":"broadleaved","natural":"tree"}},{"type":"node","id":5600476429,"lat":52.49946,"lon":13.418228,"tags":{"barrier":"kerb","kerb":"lowered","tactile_paving":"yes"}},{"type":"node","id":6191833420,"lat":52.4995876,"lon":13.4182751,"tags":{"addr:city":"Berlin","addr:housenumber":"137","addr:postcode":"10999","addr:street":"Skalitzer Stra\u00dfe","amenity":"dentist","description":"Tarkan Cang\u00f6z, Sevtap Kilic, Saide Korkusuz und Erva Uzun","healthcare":"dentist","name":"United Dentists","opening_hours":"Mo-Fr 09:00-19:00","phone":"+49 30 69005528","wheelchair":"no"}},{"type":"node","id":6848448488,"lat":52.4996421,"lon":13.4179828,"tags":{"access":"yes","amenity":"bicycle_parking","bicycle_parking":"stands","capacity":"4","check_date:capacity":"2024-03-20","covered":"no","fee":"no"}},{"type":"node","id":7767912895,"lat":52.4998432,"lon":13.4172642,"tags":{"addr:city":"Berlin","addr:housenumber":"176","addr:postcode":"10999","addr:street":"Reichenberger Stra\u00dfe","disused:shop":"confectionery","name":"Smoke Pops"}},{"type":"node","id":7929093877,"lat":52.4994626,"lon":13.4182388,"tags":{"highway":"street_lamp"}},{"type":"node","id":7929093878,"lat":52.4994125,"lon":13.4180259,"tags":{"highway":"street_lamp"}},{"type":"node","id":7945331216,"lat":52.4993375,"lon":13.4178496,"tags":{"highway":"street_lamp"}},{"type":"node","id":7945331218,"lat":52.4994089,"lon":13.417421,"tags":{"highway":"street_lamp"}},{"type":"node","id":8399858786,"lat":52.4993395,"lon":13.4178549,"tags":{"bicycle":"yes","information":"guidepost","support":"street_lamp","tourism":"information"}},{"type":"node","id":8399858788,"lat":52.4992976,"lon":13.4174574,"tags":{"bicycle":"yes","information":"guidepost","support":"traffic_sign","tourism":"information"}},{"type":"node","id":8842053180,"lat":52.4994369,"lon":13.4182713,"tags":{"advertising":"column","check_date":"2021-04-21","operator":"Wall","operator:wikidata":"Q1310189","support":"ground"}},{"type":"node","id":8895430577,"lat":52.4994785,"lon":13.4182037,"tags":{"kerb":"flush"}},{"type":"node","id":8895430616,"lat":52.4993637,"lon":13.4179703,"tags":{"kerb":"flush"}},{"type":"node","id":8895430617,"lat":52.4992972,"lon":13.4178227,"tags":{"kerb":"flush"}},{"type":"node","id":8895430631,"lat":52.4992203,"lon":13.4173861,"tags":{"leaf_cycle":"deciduous","leaf_type":"broadleaved","natural":"tree"}},{"type":"node","id":8895430636,"lat":52.4992854,"lon":13.4177339,"tags":{"barrier":"kerb","kerb":"lowered","tactile_paving":"yes"}},{"type":"node","id":8895430637,"lat":52.4992386,"lon":13.4176753,"tags":{"barrier":"kerb","kerb":"lowered","tactile_paving":"yes"}},{"type":"node","id":8895952733,"lat":52.4992914,"lon":13.4178141,"tags":{"highway":"traffic_signals"}},{"type":"node","id":9210223973,"lat":52.4996861,"lon":13.4178676,"tags":{"leaf_cycle":"deciduous","leaf_type":"broadleaved","natural":"tree"}},{"type":"node","id":9755771320,"lat":52.4992956,"lon":13.4175905,"tags":{"direction":"backward","highway":"traffic_signals"}},{"type":"node","id":10882785037,"lat":52.4992524,"lon":13.417599,"tags":{"amenity":"waste_basket"}},{"type":"node","id":10882785038,"lat":52.4992518,"lon":13.4176053,"tags":{"highway":"street_lamp"}},{"type":"node","id":10882785040,"lat":52.4993787,"lon":13.4174733,"tags":{"access":"yes","advertising":"column","message":"commercial","source":"survey"}},{"type":"node","id":11945116648,"lat":52.4997627,"lon":13.4179711,"tags":{"amenity":"atm","brand":"Euronet","brand:wikidata":"Q5412010","cash_in":"no","drive_through":"no","operator":"Euronet","operator:wikidata":"Q5412010"}},{"type":"node","id":12047986637,"lat":52.4993812,"lon":13.4174278,"tags":{"amenity":"waste_basket","colour":"orange","covered":"no","indoor":"no","material":"steel","operator":"BSR","source":"survey","waste":"cigarettes;dog_excrement;trash"}},{"type":"node","id":12047986638,"lat":52.4993791,"lon":13.4173973,"tags":{"man_made":"manhole","manhole":"drain"}},{"type":"node","id":12047986639,"lat":52.4993232,"lon":13.4173105,"tags":{"man_made":"manhole","manhole":"drain"}},{"type":"node","id":12047986640,"lat":52.4993223,"lon":13.4172577,"tags":{"man_made":"manhole","manhole":"drain"}},{"type":"node","id":12068596142,"lat":52.4994301,"lon":13.4177404,"tags":{"man_made":"manhole","manhole":"drain"}},{"type":"node","id":12068604696,"lat":52.4993451,"lon":13.4176368,"tags":{"colour":"grey","man_made":"street_cabinet"}},{"type":"node","id":12400300667,"lat":52.4993295,"lon":13.4178433,"tags":{"description":"Linienverlauf U-Bahnlinien 1 und 3","indoor":"yes","information":"map","level":"-1","map_size":"route","map_type":"scheme","operator":"Berliner Verkehrsbetriebe","tourism":"information"}},{"type":"node","id":12400300668,"lat":52.4993215,"lon":13.4178473,"tags":{"description":"Linienverlauf U-Bahnlinie 8","indoor":"yes","information":"map","level":"-1","map_size":"route","map_type":"scheme","operator":"Berliner Verkehrsbetriebe","tourism":"information"}},{"type":"node","id":12400300669,"lat":52.4993497,"lon":13.4178382,"tags":{"description":"Karte U-Bahnhof Kottbusser Tor und n\u00e4here Umgebung","indoor":"yes","information":"map","level":"-1","map_size":"site","map_type":"street","operator":"Berliner Verkehrsbetriebe","tourism":"information"}}]}