{"version":0.6,"generator":"Overpass API 0.7.62.5 1bd436f1","osm3s":{"timestamp_osm_base":"2025-03-12T11:55:30Z","copyright":"The data included in this document is from www.openstreetmap.org. The data is made available under ODbL."},"elements":[{"type":"node","id":272884323,"lat":52.4793405,"lon":-1.9023681,"tags":{"booth":"K6","removed:amenity":"telephone"}},{"type":"node","id":428506393,"lat":52.4792234,"lon":-1.9023064,"tags":{"disused:amenity":"atm"}},{"type":"node","id":428518101,"lat":52.4790638,"lon":-1.9023771,"tags":{"amenity":"bureau_de_change","name":"Post Office","opening_hours":"Mo,We-Fr 09:00-18:00; Tu 09:30-18:00; Sa 09:00-17:30"}},{"type":"node","id":1272977501,"lat":52.4795113,"lon":-1.9016851,"tags":{"addr:city":"Birmingham","addr:housenumber":"66-69","addr:postcode":"B2 4DU","addr:street":"New Street","amenity":"cafe","fhrs:id":"1174494","name":"Medicine","shop":"bakery","takeaway":"yes","website":"https:\/\/medicinebakery.co.uk\/"}},{"type":"node","id":1272977519,"lat":52.4794602,"lon":-1.9013953,"tags":{"addr:housenumber":"67","addr:street":"New Street","disused:shop":"yes"}},{"type":"node","id":1272977539,"lat":52.4794545,"lon":-1.9013125,"tags":{"addr:city":"Birmingham","addr:country":"GB","addr:housenumber":"66","addr:postcode":"B2 4DU","addr:street":"New Street","addr:suburb":"Ladywood","amenity":"restaurant","brand":"Wildwood","brand:wikidata":"Q85300869","cuisine":"grill;pasta;pizza","email":"birmingham@wildwoodrestaurants.co.uk","fhrs:id":"962680","fixme":"Is the Wildwood branch still here? (tagged website is redirecting to a generic page.)","internet_access":"wlan","internet_access:fee":"yes","name":"Wildwood","opening_hours":"Mo-Sa 12:00-23:00; Su 12:00-22:30","outdoor_seating":"yes","phone":"+44 121 5163800","website":"https:\/\/wildwoodrestaurants.co.uk\/restaurant\/birmingham\/","wheelchair":"yes"}},{"type":"node","id":1272977550,"lat":52.4794692,"lon":-1.901524,"tags":{"addr:city":"Birmingham","addr:housenumber":"68","addr:street":"New Street","was:name":"Office Angels","was:office":"employment_agency","wheelchair":"yes"}},{"type":"node","id":1753953437,"lat":52.4792068,"lon":-1.9023549,"tags":{"entrance":"main","source":"survey","wheelchair":"no"}},{"type":"node","id":2517583464,"lat":52.4790196,"lon":-1.9015656,"tags":{"disused:shop":"yes"}},{"type":"node","id":3453844621,"lat":52.4792263,"lon":-1.9022977,"tags":{"amenity":"post_box","brand":"Royal Mail","brand:wikidata":"Q638098","brand:wikipedia":"en:Royal Mail","collection_plate":"CP1","collection_times":"Mo-Fr 18:30; Sa 12:15","operator":"Royal Mail","operator:wikidata":"Q638098","post_box:type":"wall","postbox:restriction":"2nd Class mail only","ref":"B2 4412","royal_cypher":"no","source":"survey"}},{"type":"node","id":3453844622,"lat":52.4792294,"lon":-1.9022888,"tags":{"amenity":"post_box","brand":"Royal Mail","brand:wikidata":"Q638098","brand:wikipedia":"en:Royal Mail","collection_times":"Mo-Fr 18:30; Sa 12:15","operator":"Royal Mail","operator:wikidata":"Q638098","post_box:type":"wall","postbox:restriction":"1st Class Mail only","ref":"B2 4411","royal_cypher":"no","source":"survey"}},{"type":"node","id":3763977586,"lat":52.4793336,"lon":-1.9022469,"tags":{"man_made":"street_cabinet","source":"survey"}},{"type":"node","id":4012474783,"lat":52.4793378,"lon":-1.9017811,"tags":{"entrance":"yes","name":"Channelle House"}},{"type":"node","id":4012485308,"lat":52.4793453,"lon":-1.9018803,"tags":{"entrance":"staircase"}},{"type":"node","id":4720102573,"lat":52.4794471,"lon":-1.9015207,"tags":{"age":"semi-mature","constituency":"City Centre","genus":"Platanus","height":"18","height:range":"17 to 17.99m","leaf_cycle":"deciduous","leaf_type":"broadleaved","natural":"tree","plot_number":"100003","ref:usrn":"2702077","site_name":"NEW STREET","source":"bcc_dec_2016","species":"Platanus x acerifolia","tree_form":"natural","ward":"Ladywood"}},{"type":"node","id":4720102574,"lat":52.4794411,"lon":-1.9013987,"tags":{"age":"semi-mature","constituency":"City Centre","genus":"Platanus","height":"18","height:range":"17 to 17.99m","leaf_cycle":"deciduous","leaf_type":"broadleaved","natural":"tree","plot_number":"100004","ref:usrn":"2702077","site_name":"NEW STREET","source":"bcc_dec_2016","species":"Platanus x acerifolia","tree_form":"natural","ward":"Ladywood"}},{"type":"node","id":5570555032,"lat":52.4793624,"lon":-1.9021285,"tags":{"addr:city":"Birmingham","addr:housename":"Victoria Square House","addr:housenumber":"81","addr:postcode":"B2 4BA","addr:street":"New Street","entrance":"staircase","name":"Birmingham Vision","office":"charity"}},{"type":"node","id":5763273638,"lat":52.4793649,"lon":-1.9023175,"tags":{"emergency":"fire_hydrant","fire_hydrant:type":"underground","operator":"WMFS","source":"survey"}},{"type":"node","id":5763273639,"lat":52.4793733,"lon":-1.9023356,"tags":{"emergency":"fire_hydrant","fire_hydrant:type":"underground","operator":"WMFS","source":"survey"}},{"type":"node","id":5952194072,"lat":52.4796169,"lon":-1.9019075,"tags":{"genus":"Tilia","natural":"tree","source":"estimate","species:en":"Lime"}},{"type":"node","id":7237585842,"lat":52.4793116,"lon":-1.9012929,"tags":{"entrance":"yes","wheelchair":"yes"}},{"type":"node","id":7237585844,"lat":52.4793251,"lon":-1.901556,"tags":{"entrance":"yes","wheelchair":"yes"}},{"type":"node","id":7237585845,"lat":52.479319,"lon":-1.9014344,"tags":{"entrance":"staircase","name":"Town Hall Chambers"}},{"type":"node","id":7237585846,"lat":52.4794653,"lon":-1.9014679,"tags":{"entrance":"staircase"}},{"type":"node","id":9063221335,"lat":52.4791876,"lon":-1.9022973,"tags":{"amenity":"atm","indoor":"yes"}},{"type":"node","id":11282739412,"lat":52.4792591,"lon":-1.9020558,"tags":{"amenity":"post_depot","name":"Royal Mail","operator":"Royal Mail","operator:type":"private","operator:wikidata":"Q638098"}},{"type":"node","id":11282766293,"lat":52.4792807,"lon":-1.902111,"tags":{"addr:city":"Birmingham","addr:housenumber":"51","addr:postcode":"B2 4AY","addr:street":"Pinfold Street","amenity":"post_office","brand":"Mail Boxes Etc.","brand:wikidata":"Q1139182","name":"Mailboxes etc.","opening_hours":"Mo-Fr 09:00-16:00"}},{"type":"node","id":11369439972,"lat":52.4794635,"lon":-1.9018982,"tags":{"xmas:feature":"market"}},{"type":"node","id":11561108596,"lat":52.4794813,"lon":-1.9014404,"tags":{"addr:housenumber":"67","addr:postcode":"B2 4DU","addr:street":"New Street","amenity":"restaurant","cuisine":"sushi","name":"Yakinori","website":"https:\/\/www.yakinori.co.uk"}},{"type":"node","id":11575154027,"lat":52.4793362,"lon":-1.9019336,"tags":{"addr:city":"Birmingham","addr:housenumber":"84","addr:postcode":"B2 4BA","addr:street":"New Street","addr:suburb":"Ladywood","fhrs:id":"1493757","name":"Simply Local","opening_hours":"Mo-Su 08:00-20:00","shop":"convenience"}}]}