{"version":0.6,"generator":"Overpass API 0.7.62.5 1bd436f1","osm3s":{"timestamp_osm_base":"2025-03-12T11:56:32Z","timestamp_areas_base":"2025-02-06T02:17:44Z","copyright":"The data included in this document is from www.openstreetmap.org. The data is made available under ODbL."},"elements":[{"type":"way","id":89816894,"nodes":[1041098117,1041098137,706931795,706931771,7826512271,1041098117],"tags":{"addr:city":"Birmingham","addr:housenumber":"55","addr:postcode":"B3 2DH","addr:street":"Cornwall Street","building":"yes","disused:amenity":"restaurant","height":"42","old_name":"Purnell's","source:height":"emuanalytics"}},{"type":"way","id":471709519,"nodes":[706931857,706931828,706931795,706931845,706931857],"tags":{"landuse":"commercial"}},{"type":"way","id":770591846,"nodes":[7192692147,7192692146,7192692145,7192692144,7192692143,7192692142,7192692141,7192692140,7192692139,7192692138,7192692137,7192692136,7192692135,7192692134,7192692133,7192692132,7192692131,7192692130,7192692129,7192692128,7192692127,7192692126,7192692125,7192692124,7192692123,7192692122,7192692121,7192692120,7192692119,7192692117,7192692116,7192692115,7192692114,7192692113,7192692112,7192692111,7192692110,7192692109,7192692108,7192692107,7192692106,7192692105,7192692104,7192692103,7192692102,7192692101,7192692100,7192692099,7192692098,7192692097,7192692096,7192692095,7192692094,7192692093,7192692092,7192692091,7192692090,7192692089,7192692088,7192692087,7192692086,7192692085,7192688884,7192688883,7192688882,7192688881,7192688880,7192688879,7192688878,7192688877,7192688876,7192688875,7192688874,7192688873,7192688872,7192688871,7192688870,7192688869,7192688868,7192688867,7192688866,7192688865,7192688864,7192688863,7192688862,7192688861,7192688860,7192688859,7192688858,7192692011,7192692010,7192692009,7192692008,7192692007,7192692006,7192692005,7192692004,7192692003,9034461320,7192692002,7192692001,7192692000,9034461321,9034461322,9034461323,9034461324,7192691999,9034461325,7192691998,7192691997,7192691996,7192691995,7192691994,7192691993,7192691992,7192691991,7192691990,7192691989,7192691988,7192691987,7192691986,7192691985,7192686184,7192686183,7192686182,7192686181,7192686180,7192686179,7192686178,7192686177,7192686176,7192686175,7192686174,7192686173,7192686172,7192686171,7192686170,7192686169,7192686168,7192686167,7192686166,7192686165,7192686164,7192686163,7192686162,7192686161,7192686160,7192686159,7192686158,7192686156,7192686155,7192686154,7192686153,7192686152,7192686151,7192686150,7192686149,7192686148,7192686147,7192686146,7192686145,7192686144,7192686143,7192686142,7192686141,7192686140,7192686139,7192686138,7192686137,6234315244,7192686136,7192686135,1555226204,7192686134,7192686133,7192686132,7192686131,7192686130,7192686129,7192686128,7192686127,7192686126,7192686125,7192686124,7192686123,7192686122,7192686121,7192686120,7192686119,7192686118,7192686117,7192686116,7192686115,7192686114,7192686113,7192686112,7192692147],"tags":{"boundary":"low_emission_zone","charge:bus:conditional":"\u00a350 per day @(fuel=diesel AND emissions<euro_6)","charge:coach:conditional":"\u00a350 per day @(fuel=diesel AND emissions<euro_6)","charge:conditional":"no @ (permit OR fuel=lpg)","charge:emergency":"no","charge:hgv:conditional":"\u00a350 per day @(fuel=diesel AND emissions<euro_6)","charge:motor_vehicle:conditional":"\u00a38 per day @ (fuel=petrol AND emissions<euro_4);\u00a38 per day @ (fuel=diesel AND emissions<euro_6)","charge:motorcycle":"no","name":"Birmingham Clean Air Zone","note":"hybrid vehicles are permitted as long as ICE component meets emission standards","opening_hours":"24\/7","operator":"Birmingham City Council","source":"Birmingham City Council","start_date":"01\/06\/2021"}},{"type":"area","id":3600057517,"tags":{"border_type":"county","boundary":"ceremonial","designation":"ceremonial_county","name":"West Midlands","source":"NPE;OS_OpenBoundaryLIne","type":"boundary","wikidata":"Q23124","wikipedia":"en:West Midlands (county)"}},{"type":"area","id":3600058447,"tags":{"ISO3166-2":"GB-ENG","admin_level":"4","alt_name:eo":"Anglujo","alt_name:ia":"Anglia","alt_name:nds":"Ingland","boundary":"administrative","flag":"File:Flag_of_England.svg","name":"England","name:be":"\u0410\u043d\u0433\u043b\u0456\u044f","name:be-tarask":"\u0410\u043d\u0433\u0435\u043b\u044c\u0448\u0447\u044b\u043d\u0430","name:br":"Bro-Saoz","name:ca":"Anglaterra","name:chr":"\u13a0\u13a6\u13b5\u13d0\u13a2","name:ckb":"\u0626\u06cc\u0646\u06af\u0644\u062a\u06d5\u0631\u0627","name:cnr":"Engleska","name:cs":"Anglie","name:cy":"Lloegr","name:de":"England","name:el":"\u0391\u03b3\u03b3\u03bb\u03af\u03b1","name:en":"England","name:eo":"Anglio","name:es":"Inglaterra","name:et":"Inglismaa","name:fi":"Englanti","name:fr":"Angleterre","name:fy":"Ingel\u00e2n","name:ga":"Sasana","name:gd":"Sasainn","name:gn":"Ingyat\u00e9rra","name:gu":"\u0a87\u0a82\u0a97\u0acd\u0ab2\u0ac7\u0aa8\u0acd\u0aa1","name:gv":"Sostyn","name:hak":"England","name:he":"\u05d0\u05e0\u05d2\u05dc\u05d9\u05d4","name:hsb":"Jend\u017aelska","name:hu":"Anglia","name:ia":"Anglaterra","name:io":"Anglia","name:it":"Inghilterra","name:ja":"\u30a4\u30f3\u30b0\u30e9\u30f3\u30c9","name:la":"Anglia","name:lt":"Anglija","name:lzh":"\u82f1\u683c\u862d","name:mi":"Ingarangi","name:nan":"Eng-l\u00e2n","name:nds":"England","name:nl":"Engeland","name:pl":"Anglia","name:pt":"Inglaterra","name:qu":"Inlispampa","name:ro":"Anglia","name:ru":"\u0410\u043d\u0433\u043b\u0438\u044f","name:sk":"Anglicko","name:sl":"Anglija","name:sv":"England","name:szl":"Yngland","name:tok":"ma Inli","name:tr":"\u0130ngiltere","name:tzl":"Anglatzara","name:uk":"\u0410\u043d\u0433\u043b\u0456\u044f","name:ur":"\u0627\u0646\u06af\u0644\u0633\u062a\u0627\u0646","name:vi":"Anh","name:vo":"Lingl\u00e4n","name:zh":"\u82f1\u683c\u5170 \/ \u82f1\u683c\u862d","name:zh-Hans":"\u82f1\u683c\u5170","name:zh-Hant":"\u82f1\u683c\u862d","old_name:vi":"Anh Qu\u1ed1c","ref:gss":"E92000001","source:name:br":"ofis publik ar brezhoneg","source:name:chr":"https:\/\/web.archive.org\/web\/20160611143227\/http:\/\/www.cherokee.org\/Portals\/0\/Documents\/Language\/Consortium%20Word%20List.pdf","source:ref:gss":"ONS_OpenData","type":"boundary","wikidata":"Q21","wikipedia":"en:England"}},{"type":"area","id":3600062149,"tags":{"ISO3166-1":"GB","ISO3166-1:alpha2":"GB","ISO3166-1:alpha3":"GBR","ISO3166-1:numeric":"826","admin_level":"2","alt_name:be":"\u0412\u044f\u043b\u0456\u043a\u0430\u044f \u0411\u0440\u044b\u0442\u0430\u043d\u0456\u044f;\u0411\u0440\u044b\u0442\u0430\u043d\u0456\u044f;\u0417\u043b\u0443\u0447\u0430\u043d\u0430\u0435 \u041a\u0430\u0440\u0430\u043b\u0435\u045e\u0441\u0442\u0432\u0430","alt_name:eo":"Britio;Britujo","boundary":"administrative","currency":"GBP","default_language":"en","driving_side":"left","flag":"https:\/\/upload.wikimedia.org\/wikipedia\/commons\/8\/83\/Flag_of_the_United_Kingdom_%283-5%29.svg","int_name":"United Kingdom","name":"United Kingdom","name:ab":"\u0411\u0440\u0438\u0442\u0430\u043d\u0438\u0430 \u0414\u0443","name:ace":"Keurajeu\u00ebn Inggr\u00e9h","name:ady":"\u0411\u0440\u0438\u0442\u0430\u043d\u0438\u0435\u0448\u0445\u043e \u041f\u0430\u0447\u044a\u044b\u0445\u044c\u044b\u0433\u044a\u043e","name:af":"Verenigde Koninkryk","name:ak":"United Kingdom","name:als":"Vereinigtes K\u00f6nigreich","name:am":"\u12e9\u1293\u12ed\u1275\u12f5 \u12aa\u1295\u130d\u12f0\u121d","name:an":"Reino Unito","name:ang":"Ge\u0101ned Cyner\u012bce","name:ar":"\u0627\u0644\u0645\u0645\u0644\u0643\u0629 \u0627\u0644\u0645\u062a\u062d\u062f\u0629","name:arc":"\u0721\u0720\u071f\u0718\u072c\u0710 \u0721\u071a\u071d\u0715\u072c\u0710","name:ary":"\u0644\u0645\u0645\u0644\u0643\u0629 \u0644\u0645\u062a\u062d\u062f\u0629","name:arz":"\u0627\u0644\u0645\u0645\u0644\u0643\u0647 \u0627\u0644\u0645\u062a\u062d\u062f\u0647","name:as":"\u09af\u09c1\u0995\u09cd\u09a4\u09f0\u09be\u099c\u09cd\u09af","name:ast":"Reinu Xun\u00edu","name:av":"\u041a\u04cf\u0443\u0434\u0430\u0431\u0438\u0440\u0438\u0442\u0430\u043d","name:avk":"Tanaragazaxo","name:awa":"\u092f\u0942\u0928\u093e\u0907\u091f\u0947\u0921 \u0915\u093f\u0902\u0917\u0921\u092e","name:az":"B\u00f6y\u00fck Britaniya","name:azb":"\u0628\u06cc\u0631\u0644\u0634\u0645\u06cc\u0634 \u0634\u0627\u0647\u0644\u06cc\u0642","name:ba":"\u0411\u04e9\u0439\u04e9\u043a \u0411\u0440\u0438\u0442\u0430\u043d\u0438\u044f","name:ban":"Britania Agung","name:bar":"Vaeinigts Kinireich","name:bat-smg":"Jongt\u0117n\u0117 Karal\u012bst\u0117","name:bcl":"Reyno Unido","name:be":"\u0412\u044f\u043b\u0456\u043a\u0430\u0431\u0440\u044b\u0442\u0430\u043d\u0456\u044f","name:be-tarask":"\u0412\u044f\u043b\u0456\u043a\u0430\u0431\u0440\u044b\u0442\u0430\u043d\u0456\u044f","name:bg":"\u041e\u0431\u0435\u0434\u0438\u043d\u0435\u043d\u043e \u043a\u0440\u0430\u043b\u0441\u0442\u0432\u043e \u0412\u0435\u043b\u0438\u043a\u043e\u0431\u0440\u0438\u0442\u0430\u043d\u0438\u044f \u0438 \u0421\u0435\u0432\u0435\u0440\u043d\u0430 \u0418\u0440\u043b\u0430\u043d\u0434\u0438\u044f","name:bh":"\u092f\u0942\u0928\u093e\u0907\u091f\u0947\u0921 \u0915\u093f\u0902\u0917\u0921\u092e","name:bi":"Unaeted Kingdom","name:bjn":"Britania Raya","name:bn":"\u09af\u09c1\u0995\u09cd\u09a4\u09b0\u09be\u099c\u09cd\u09af","name:bo":"\u0f51\u0f56\u0fb1\u0f72\u0f53\u0f0b\u0f47\u0f72\u0f0b\u0f58\u0f49\u0f58\u0f0b\u0f60\u0f56\u0fb2\u0f7a\u0f63\u0f0d","name:bpy":"\u09a4\u09bf\u09b2\u09aa\u09be\u09b0\u09be\u099c\u09cd\u09af","name:br":"Rouantelezh-Unanet","name:bs":"Ujedinjeno Kraljevstvo Velike Britanije i Sjeverne Irske","name:bug":"United Kingdom","name:bxr":"\u041d\u044d\u0433\u0434\u0441\u044d\u043d \u0412\u0430\u043d\u0442 \u0423\u043b\u0441","name:ca":"Regne Unit","name:cbk-zam":"Reinos Unidos de Gran Britania y Norte Irelandia","name:cdo":"\u012cng-gu\u00f3k","name:ce":"\u0419\u043e\u043a\u043a\u0445\u0430 \u0411\u0440\u0438\u0442\u0430\u043d\u0438","name:ceb":"Hiniusang Gingharian","name:ch":"Reinu Unidu","name:chr":"\u13a1\u13b5\u13cf\u13af","name:chy":"United Kingdom","name:ckb":"\u0634\u0627\u0646\u0634\u06cc\u0646\u06cc \u06cc\u06d5\u06a9\u06af\u0631\u062a\u0648\u0648","name:cnr":"Ujedinjeno Kraljevstvo","name:cnr-Cyrl":"\u0423\u0458\u0435\u0434\u0438\u045a\u0435\u043d\u043e \u041a\u0440\u0430\u0459\u0435\u0432\u0441\u0442\u0432\u043e","name:co":"Regnu Unitu","name:crh":"B\u00fcy\u00fck Britaniya","name:cs":"Spojen\u00e9 kr\u00e1lovstv\u00ed","name:csb":"Wi\u00f4lg\u00f4 Britanij\u00f4","name:cu":"\u0412\u0454\u043b\u0438\u043a\u0430 \u0411\u0440\u0438\u0442\u0430\u043d\u0457\ua657","name:cv":"\u0410\u0441\u043b\u0103 \u0411\u0440\u0438\u0442\u0430\u043d\u0438","name:cy":"Y Deyrnas Unedig","name:da":"Storbritannien","name:de":"Vereinigtes K\u00f6nigreich","name:din":"Amatnhom M\u00e4c\u014baknhom","name:diq":"Qraliya Yewbiyayiye","name:dsb":"Wjelika Britaniska","name:dty":"\u0938\u0902\u092f\u0941\u0915\u094d\u0924 \u0905\u0927\u093f\u0930\u093e\u091c\u094d\u092f","name:dv":"\u0794\u07aa\u0782\u07a6\u0787\u07a8\u0793\u07ac\u0791\u07b0 \u0786\u07a8\u0782\u07b0\u078e\u07b0\u0791\u07a6\u0789\u07b0","name:dz":"\u0f61\u0f74\u0f0b\u0f53\u0f60\u0f72\u0f0b\u0f4a\u0f7a\u0f4a\u0f0b\u0f40\u0f72\u0f44\u0f0b\u0f4c\u0f58","name:ee":"United Kingdom","name:el":"\u0397\u03bd\u03c9\u03bc\u03ad\u03bd\u03bf \u0392\u03b1\u03c3\u03af\u03bb\u03b5\u03b9\u03bf","name:eml":"R\u00e9gn Un\u00ee","name:en":"United Kingdom","name:eo":"Unui\u011dinta Re\u011dlando","name:es":"Reino Unido","name:et":"Suurbritannia","name:eu":"Erresuma Batua","name:ext":"R\u00e9inu Uniu","name:fa":"\u0628\u0631\u06cc\u062a\u0627\u0646\u06cc\u0627","name:ff":"Biritaani-Mawndi","name:fi":"Yhdistynyt kuningaskunta","name:fj":"Matanitu Cokovata","name:fo":"St\u00f3ra Bretland","name:fr":"Royaume-Uni","name:frp":"Roy\u00f4mo-Uni","name:frr":"Feriind Kiningrik","name:fur":"Ream Un\u00eet","name:fy":"Feriene Keninkryk","name:ga":"An R\u00edocht Aontaithe","name:gag":"B\u00fc\u00fck Britaniya","name:gan":"\u82f1\u570b","name:gcr":"Rw\u00e9yonm-Ini","name:gd":"An R\u00ecoghachd Aonaichte","name:gl":"Reino Unido","name:gn":"Tavet\u00e3 Joaju","name:gom":"\u092f\u0941\u0928\u093e\u092f\u091f\u0947\u0921 \u0915\u093f\u0902\u0917\u0921\u092e","name:gsw":"Ver\u00eb\u00ebnichtes K\u00ecnnigr\u00ebich","name:gu":"\u0aaf\u0ac1\u0aa8\u0abe\u0a87\u0a9f\u0ac7\u0aa1 \u0a95\u0abf\u0a82\u0a97\u0aa1\u0aae","name:gv":"Reeriaght Unnaneysit","name:ha":"Birtaniya","name:hak":"Y\u00een-koet","name:haw":"Aupuni M\u014d\u02bb\u012b Hui P\u016b \u02bbia","name:he":"\u05d4\u05de\u05de\u05dc\u05db\u05d4 \u05d4\u05de\u05d0\u05d5\u05d7\u05d3\u05ea","name:hi":"\u092f\u0942\u0928\u093e\u0907\u091f\u0947\u0921 \u0915\u093f\u0902\u0917\u0921\u092e","name:hif":"United Kingdom","name:hr":"Ujedinjeno Kraljevstvo","name:hsb":"Zjedno\u0107ene kralestwo","name:ht":"Way\u00f2m Ini","name:hu":"Egyes\u00fclt Kir\u00e1lys\u00e1g","name:hy":"\u0544\u056b\u0561\u0581\u0575\u0561\u056c \u0539\u0561\u0563\u0561\u057e\u0578\u0580\u0578\u0582\u0569\u0575\u0578\u0582\u0576","name:ia":"Regno Unite","name:id":"Britania Raya","name:ie":"Reyatu Unit","name:ig":"Obodo\u00e9z\u00e8 N\u00e0 Of\u00fa","name:ik":"Tannapta Umialgutia","name:ilo":"Nagkaykaysa a Pagarian","name:inh":"\u0412\u0435\u043b\u0438\u043a\u043e\u0431\u0440\u0438\u0442\u0430\u043d\u0438","name:io":"Unionita Rejio","name:is":"Bretland","name:it":"Regno Unito","name:iu":"\u1450\u14d7\u1403\u1466 \u14c4\u14c8\u1466","name:ja":"\u30a4\u30ae\u30ea\u30b9","name:jam":"Yunaitid Kindom","name:jbo":"ritygu'e","name:jv":"Britania Raya","name:ka":"\u10d2\u10d0\u10d4\u10e0\u10d7\u10d8\u10d0\u10dc\u10d4\u10d1\u10e3\u10da\u10d8 \u10e1\u10d0\u10db\u10d4\u10e4\u10dd","name:kaa":"Ull\u0131 Britaniya","name:kab":"Legliz","name:kbd":"\u0411\u0440\u0438\u0442\u0430\u043d\u0438\u044d\u0448\u0445\u0443\u044d","name:kg":"Royaume-Uni","name:ki":"United Kingdom","name:kk":"\u04b0\u043b\u044b\u0431\u0440\u0438\u0442\u0430\u043d\u0438\u044f","name:kl":"Tuluit Nunaat","name:km":"\u179a\u17b6\u1787\u17b6\u178e\u17b6\u1785\u1780\u17d2\u179a\u179a\u17bd\u1798","name:kn":"\u0caf\u0cc1\u0ca8\u0cc8\u0c9f\u0cc6\u0ca1\u0ccd \u0c95\u0cbf\u0c82\u0c97\u0ccd\u200c\u0ca1\u0c82","name:ko":"\uc601\uad6d","name:koi":"\u042b\u0434\u0436\u044b\u0442 \u0411\u0440\u0438\u0442\u043c\u0443","name:krc":"\u0423\u043b\u043b\u0443 \u0411\u0440\u0438\u0442\u0430\u043d\u0438\u044f","name:ksh":"Jru\u00dfbritannie","name:ku":"Keyaniya Yekb\u00fby\u00ee","name:kv":"\u042b\u0434\u0436\u044b\u0434 \u0411\u0440\u0438\u0442\u0430\u043d\u0438\u044f","name:kw":"Ruvaneth Unys","name:ky":"\u0423\u043b\u0443\u0443 \u0411\u0440\u0438\u0442\u0430\u043d\u0438\u044f \u0436\u0430\u043d\u0430 \u0422\u04af\u043d\u0434\u04af\u043a \u0418\u0440\u043b\u0430\u043d\u0434\u0438\u044f","name:la":"Britanniarum Regnum","name:lad":"Reyno Unido","name:lb":"Groussbritannien an Nordirland","name:lez":"\u0427I\u0435\u0445\u0438\u0431\u0440\u0438\u0442\u0430\u043d\u0438\u044f","name:li":"Vereineg Keuninkriek","name:lij":"Regno Un\u00efo","name:lmo":"Regn \u00dcn\u00ec","name:ln":"Ing\u025bl\u025b\u0301t\u025bl\u025b","name:lo":"\u0eaa\u0eb0\u0eab\u0eb0\u0ea3\u0eb2\u0e8a\u0ead\u0eb2\u0e99\u0eb2\u0e88\u0eb1\u0e81","name:lt":"Jungtin\u0117 Karalyst\u0117","name:ltg":"Lelbrytaneja","name:lv":"Apvienot\u0101 Karaliste","name:lzh":"\u82f1\u570b","name:mad":"Britania Raya","name:mai":"\u0938\u0902\u092f\u0941\u0915\u094d\u0924 \u0905\u0927\u093f\u0930\u093e\u091c\u094d\u092f","name:mdf":"\u041e\u0446\u044e \u0411\u0440\u0438\u0442\u0430\u043d\u0438\u044f","name:mg":"Fanjakana Mitambatra","name:mhr":"\u0423\u0448\u044b\u043c\u043e \u041a\u043e\u0440\u043e\u043b\u0435\u0432\u0441\u0442\u0432\u0435","name:mi":"K\u012bngitanga Kotahi","name:min":"Baritania Rayo","name:mk":"\u041e\u0431\u0435\u0434\u0438\u043d\u0435\u0442\u043e \u041a\u0440\u0430\u043b\u0441\u0442\u0432\u043e","name:ml":"\u0d2f\u0d41\u0d23\u0d48\u0d31\u0d4d\u0d31\u0d21\u0d4d \u0d15\u0d3f\u0d19\u0d4d\u0d21\u0d02","name:mn":"\u0418\u0445 \u0411\u0440\u0438\u0442\u0430\u043d\u0438","name:mni":"\uabcc\uabe8\uabc5\uabe5\uabe2\uabc7\uabe6\uabd7 \uabc0\uabe4\uabe1\uabd7\uabdd","name:mr":"\u092f\u0941\u0928\u093e\u092f\u091f\u0947\u0921 \u0915\u093f\u0902\u0917\u094d\u0921\u092e","name:mrj":"\u041a\u043e\u0433\u043e \u0411\u0440\u0438\u0442\u0430\u043d\u0438","name:ms":"United Kingdom","name:mt":"Renju Unit","name:mwl":"Reino Ounido","name:my":"\u101a\u1030\u1014\u102d\u102f\u1000\u103a\u1010\u1000\u103a\u1000\u1004\u103a\u1038\u1012\u1019\u103a\u1038\u1014\u102d\u102f\u1004\u103a\u1004\u1036","name:myv":"\u0418\u043d\u0435\u0431\u0440\u0438\u0442\u0430\u043d\u0438\u044f \u041c\u0430\u0441\u0442\u043e\u0440","name:mzn":"\u0628\u0631\u06cc\u062a\u0627\u0646\u06cc\u0627","name:na":"Ingerand","name:nah":"Tlacetil\u012blli Hu\u0113yitlahtohc\u0101y\u014dtl","name:nan":"Li\u00e2n-ha\u030dp \u00d4ng-kok","name:nap":"Gran Vretagna","name:nds":"Vereenigt K\u00f6nigriek vun Grootbritannien un Noordirland","name:nds-nl":"Verienigd Keuninkriek","name:ne":"\u0938\u0902\u092f\u0941\u0915\u094d\u0924 \u0905\u0927\u093f\u0930\u093e\u091c\u094d\u092f","name:new":"\u0938\u0902\u092f\u0941\u0915\u094d\u0924 \u0905\u0927\u093f\u0930\u093e\u091c\u094d\u092f","name:nl":"Verenigd Koninkrijk","name:nn":"Storbritannia","name:no":"Storbritannia","name:nov":"Unionati Regia","name:nqo":"\u07e1\u07ca\u07f2\u07ec\u07db\u07ca\u07ec\u07df\u07ca\u07eb \u07d8\u07cd\u07ec\u07e3\u07cd\u07f2","name:nrm":"Rouoyaume Unni","name:nso":"United Kingdom","name:nv":"T\u00f3ta\u02bc Dine\u02bc\u00e9 Bik\u00e9yah","name:ny":"United Kingdom","name:oc":"Reialme Unit","name:om":"Yunaayitid Kingidem","name:or":"\u0b2f\u0b41\u0b15\u0b4d\u0b24\u0b30\u0b3e\u0b1c\u0b4d\u0b5f","name:os":"\u0421\u0442\u044b\u0440 \u0411\u0440\u0438\u0442\u0430\u043d\u0438","name:pa":"\u0a38\u0a70\u0a2f\u0a41\u0a15\u0a24 \u0a2c\u0a3e\u0a26\u0a38\u0a3c\u0a3e\u0a39\u0a40","name:pag":"Reino Unido","name:pam":"Pisanmetung a Ka-arian","name:pap":"Reino Uni","name:pcd":"Ro\u00e9y\u00f4me-Uni","name:pih":"Yunitid Kingdum","name:pl":"Wielka Brytania","name:pms":"Regn Un\u00ec","name:pnb":"\u0628\u0631\u0637\u0627\u0646\u06cc\u06c1","name:pnt":"\u0397\u03bd\u03c9\u03bc\u03ad\u03bd\u03bf \u0392\u03b1\u03c3\u03af\u03bb\u03b5\u03b9\u03bf","name:ps":"\u0628\u0631\u064a\u062a\u0627\u0646\u064a\u0627","name:pt":"Reino Unido","name:qu":"Hukllachasqa Qhapaq Suyu","name:rm":"Reginavel Un\u00ec","name:rmy":"Phandlo Thagaripen la Bare Britaniyako thai le Nordutne Irlandesko","name:ro":"Regatul Unit al Marii Britanii \u0219i al Irlandei de Nord","name:roa-rup":"Britania Mari","name:roa-tara":"Regne Aun\u00ecte","name:ru":"\u0421\u043e\u0435\u0434\u0438\u043d\u0451\u043d\u043d\u043e\u0435 \u041a\u043e\u0440\u043e\u043b\u0435\u0432\u0441\u0442\u0432\u043e","name:rue":"\u0412\u0435\u043b\u0438\u043a\u0430 \u0411\u0440\u0456\u0442\u0430\u043d\u0456\u044f","name:rw":"Ubwongereza","name:sa":"\u0938\u0902\u092f\u0941\u0915\u094d\u0924 \u0905\u0927\u093f\u0930\u093e\u091c\u094d\u092f","name:sah":"\u0425\u043e\u043b\u0431\u043eh\u0443\u043a\u0442\u0430\u0430\u0445 \u0425\u043e\u0440\u0443\u043e\u043b\u043b\u0443\u043a","name:sat":"\u1c65\u1c6e\u1c5e\u1c6e\u1c6b \u1c6b\u1c64\u1c65\u1c5a\u1c62","name:sc":"Rennu Auniadu","name:scn":"Regnu Unitu","name:sco":"Unitit Kinrick","name:sd":"\u06af\u068f\u064a\u0644 \u0628\u0627\u062f\u0634\u0627\u06be\u062a","name:se":"Ovttastuvvan gonagasriika","name:sh":"Ujedinjeno Kraljevstvo","name:shi":"Bri\u1e6danya","name:shn":"\u1019\u102d\u1030\u1004\u103a\u1038\u1081\u1030\u1019\u103a\u1088\u1010\u102f\u1019\u103a\u1081\u1031\u1083\u1076\u1019\u103a\u1038 \u1015\u101b\u102d\u1010\u103a\u1088\u1010\u1035\u107c\u103a\u1087","name:si":"\u0d91\u0d9a\u0dca\u0dc3\u0dad\u0dca \u0dbb\u0dcf\u0da2\u0db0\u0dcf\u0db1\u0dd2\u0dba","name:sk":"Spojen\u00e9 kr\u00e1\u013eovstvo","name:skr":"\u0628\u0631\u0637\u0627\u0646\u06cc\u06c1","name:sl":"Zdru\u017eeno kraljestvo","name:sm":"Peret\u0101nia","name:smn":"Ovt\u00e2stum kun\u00e2g\u00e2skodde","name:sms":"\u00d5htt\u00f5\u00f5vv\u00e2m koon\u01e5\u00f5sk\u00e5\u02b9dd","name:sn":"United Kingdom","name:so":"Midowga boqortooyada Britan","name:sq":"Mbret\u00ebria e Bashkuar e Britanis\u00eb dhe Irland\u00ebs s\u00eb Veriut","name:sr":"\u0423\u0458\u0435\u0434\u0438\u045a\u0435\u043d\u043e \u041a\u0440\u0430\u0459\u0435\u0432\u0441\u0442\u0432\u043e","name:srn":"Ingriskondre","name:ss":"United Kingdom","name:stq":"Fereeniged K\u00f6\u00f6nichriek fon Groot-Britannien un Noudirlound","name:su":"Britania","name:sv":"Storbritannien","name:sw":"Ufalme wa Muungano","name:szl":"Wielg\u014f Brytanij\u014f","name:ta":"\u0b90\u0b95\u0bcd\u0b95\u0bbf\u0baf \u0b87\u0bb0\u0bbe\u0b9a\u0bcd\u0b9a\u0bbf\u0baf\u0bae\u0bcd","name:tcy":"\u0caf\u0cc1\u0ca8\u0cc8\u0c9f\u0cc6\u0ca1\u0ccd \u0c95\u0cbf\u0c82\u0c97\u0ccd\u0ca1\u0cae\u0ccd","name:te":"\u0c2f\u0c41\u0c28\u0c48\u0c1f\u0c46\u0c21\u0c4d \u0c15\u0c3f\u0c02\u0c17\u0c4d\u200c\u0c21\u0c2e\u0c4d","name:tet":"Reinu Naklibur","name:tg":"\u041f\u043e\u0434\u0448\u043e\u04b3\u0438\u0438 \u041c\u0443\u0442\u0442\u0430\u04b3\u0438\u0434\u0430","name:th":"\u0e2a\u0e2b\u0e23\u0e32\u0e0a\u0e2d\u0e32\u0e13\u0e32\u0e08\u0e31\u0e01\u0e23","name:tk":"Birle\u015fen Paty\u015falyk","name:tl":"Nagkakaisang Kaharian","name:to":"Pilit\u0101nia","name:tok":"ma Juke","name:tpi":"Yunaitet Kingdom","name:tr":"Birle\u015fik Krall\u0131k","name:trv":"United Kingdom","name:ts":"United Kingdom","name:tt":"\u0411\u04e9\u0435\u043a\u0431\u0440\u0438\u0442\u0430\u043d\u0438\u044f","name:tw":"United Kingdom","name:ty":"Parat\u0101ne","name:tzl":"Regip\u00e4ts Viensi\u00e7at","name:udm":"\u0412\u0435\u043b\u0438\u043a\u043e\u0431\u0440\u0438\u0442\u0430\u043d\u0438\u044f","name:ug":"\u0628\u06c8\u064a\u06c8\u0643 \u0628\u06d0\u0631\u0649\u062a\u0627\u0646\u0649\u064a\u06d5","name:uk":"\u0412\u0435\u043b\u0438\u043a\u0430 \u0411\u0440\u0438\u0442\u0430\u043d\u0456\u044f","name:ur":"\u0628\u0631\u0637\u0627\u0646\u06cc\u06c1","name:uz":"Birlashgan Qirollik","name:vec":"Regno Un\u00eco","name:vep":"Sur' Britanii","name:vi":"V\u01b0\u01a1ng qu\u1ed1c Anh","name:vls":"Ver\u00eanigd Keunienkryk","name:vo":"Reg\u00e4n Pebal\u00f6l","name:vro":"\u00dctiskuningriik","name:wa":"Rwey\u00e5me-Uni","name:war":"Reino Unido","name:wo":"Nguur-Yu-Bennoo","name:wuu":"\u82f1\u56fd","name:xal":"\u0418\u043a \u0411\u0440\u0438\u0442\u0438\u0448\u0438\u043d \u0431\u043e\u043b\u043d \u0410\u0440 \u0413\u04d9\u04d9\u043b\u0433\u04af\u0434\u0438\u043d \u041d\u0438\u0438\u0446\u04d9\u0442\u04d9 \u041d\u0443\u0442\u0433","name:xmf":"\u10d2\u10dd\u10d0\u10e0\u10d7\u10dd\u10d8\u10d0\u10dc\u10d0\u10e4\u10d8\u10da\u10d8 \u10dd\u10db\u10d0\u10e4\u10d4","name:yi":"\u05e4\u05d0\u05e8\u05d0\u05d9\u05d9\u05e0\u05d9\u05d2\u05d8\u05e2 \u05e7\u05e2\u05e0\u05d9\u05d2\u05e8\u05d9\u05d9\u05da","name:yo":"Il\u1eb9\u0300\u1ecdba A\u1e63\u1ecd\u0300kan","name:yue":"\u82f1\u570b","name:za":"Yinghgoz","name:zea":"Vere\u00eanigd Konienkriek","name:zh":"\u82f1\u56fd \/ \u82f1\u570b","name:zh-Hans":"\u82f1\u56fd","name:zh-Hant":"\u82f1\u570b","name:zu":"Umbuso Ohlangeneyo","native_name":"United Kingdom of Great Britain and Northern Ireland","native_name:da":"Det Forenede Kongerige Storbritannien og Nordirland","native_name:es":"Reino Unido de Gran Breta\u00f1a e Irlanda del Norte","native_name:vi":"V\u01b0\u01a1ng qu\u1ed1c Li\u00ean hi\u1ec7p Anh v\u00e0 B\u1eafc Ireland","official_name":"United Kingdom of Great Britain and Northern Ireland","official_name:be":"\u0417\u043b\u0443\u0447\u0430\u043d\u0430\u0435 \u041a\u0430\u0440\u0430\u043b\u0435\u045e\u0441\u0442\u0432\u0430 \u0412\u044f\u043b\u0456\u043a\u0430\u0431\u0440\u044b\u0442\u0430\u043d\u0456\u0456 \u0456 \u041f\u0430\u045e\u043d\u043e\u0447\u043d\u0430\u0439 \u0406\u0440\u043b\u0430\u043d\u0434\u044b\u0456","official_name:ca":"Regne Unit de Gran Bretanya i Irlanda del Nord","official_name:cnr":"Ujedinjeno Kraljevstvo Velike Britanije i \u015aeverne Irske","official_name:cnr-Cyrl":"\u0423\u0458\u0435\u0434\u0438\u045a\u0435\u043d\u043e \u041a\u0440\u0430\u0459\u0435\u0432\u0441\u0442\u0432\u043e \u0412\u0435\u043b\u0438\u043a\u0435 \u0411\u0440\u0438\u0442\u0430\u043d\u0438\u0458\u0435 \u0438 \u0421\u0301\u0435\u0432\u0435\u0440\u043d\u0435 \u0418\u0440\u0441\u043a\u0435","official_name:cs":"Spojen\u00e9 kr\u00e1lovstv\u00ed Velk\u00e9 Brit\u00e1nie a Severn\u00edho Irska","official_name:cy":"Teyrnas Unedig Prydain Fawr a Gogledd Iwerddon","official_name:de":"Vereinigtes K\u00f6nigreich Gro\u00dfbritannien und Nordirland","official_name:din":"Amatnhom M\u00e4c\u014baknhom n\u00eb Britain D\u00eft ku Parut Ireland","official_name:el":"\u0397\u03bd\u03c9\u03bc\u03ad\u03bd\u03bf \u0392\u03b1\u03c3\u03af\u03bb\u03b5\u03b9\u03bf \u03c4\u03b7\u03c2 \u039c\u03b5\u03b3\u03ac\u03bb\u03b7\u03c2 \u0392\u03c1\u03b5\u03c4\u03b1\u03bd\u03af\u03b1\u03c2 \u03ba\u03b1\u03b9 \u03c4\u03b7\u03c2 \u0392\u03cc\u03c1\u03b5\u03b9\u03b1\u03c2 \u0399\u03c1\u03bb\u03b1\u03bd\u03b4\u03af\u03b1\u03c2","official_name:en":"United Kingdom of Great Britain and Northern Ireland","official_name:eo":"Unui\u011dinta Re\u011dlando de Granda Britio kaj Nord-Irlando","official_name:fr":"Royaume-Uni de Grande-Bretagne et d'Irlande du Nord","official_name:hr":"Ujedinjeno Kraljevstvo Velike Britanije i Sjeverne Irske","official_name:is":"Sameina\u00f0a konungsveldi St\u00f3ra-Bretlands og Nor\u00f0ur-\u00cdrlands","official_name:it":"Regno Unito di Gran Bretagna e Irlanda del Nord","official_name:la":"Coniunctum Britanniae Maioris et Hiberniae Septentrionalis Regnum","official_name:mi":"K\u012bngitanga Kotahi o Piritana Nui me Airangi ki te Raki","official_name:nl":"Verenigd Koninkrijk van Groot-Brittanni\u00eb en Noord-Ierland","official_name:pcd":"Rwey\u00e5me-Uni di Grande Burtaegne et d' Irlande do N\u00f4r","official_name:pl":"Zjednoczone Kr\u00f3lestwo Wielkiej Brytanii i Irlandii P\u00f3\u0142nocnej","official_name:ru":"\u0421\u043e\u0435\u0434\u0438\u043d\u0451\u043d\u043d\u043e\u0435 \u041a\u043e\u0440\u043e\u043b\u0435\u0432\u0441\u0442\u0432\u043e \u0412\u0435\u043b\u0438\u043a\u043e\u0431\u0440\u0438\u0442\u0430\u043d\u0438\u0438 \u0438 \u0421\u0435\u0432\u0435\u0440\u043d\u043e\u0439 \u0418\u0440\u043b\u0430\u043d\u0434\u0438\u0438","official_name:sk":"Spojen\u00e9 kr\u00e1\u013eovstvo Ve\u013ekej Brit\u00e1nie a Severn\u00e9ho \u00cdrska","official_name:sl":"Zdru\u017eeno kraljestvo Velike Britanije in Severne Irske","official_name:uk":"\u0421\u043f\u043e\u043b\u0443\u0447\u0435\u043d\u0435 \u041a\u043e\u0440\u043e\u043b\u0456\u0432\u0441\u0442\u0432\u043e \u0412\u0435\u043b\u0438\u043a\u043e\u0457 \u0411\u0440\u0438\u0442\u0430\u043d\u0456\u0457 \u0442\u0430 \u041f\u0456\u0432\u043d\u0456\u0447\u043d\u043e\u0457 \u0406\u0440\u043b\u0430\u043d\u0434\u0456\u0457","official_name:vls":"Ver\u00eanigd Keunienkryk van Gr\u00f4ot-Brittanni\u00eb en N\u00f4ord-Ierland","official_name:wa":"Ro\u00e9y\u00f4me-uni \u00e9d Grande-Bretagne pi d'Irlinde-du-Nord","official_name:zh":"\u5927\u4e0d\u5217\u985b\u66a8\u5317\u611b\u723e\u862d\u806f\u5408\u738b\u570b\/\u5927\u4e0d\u5217\u98a0\u53ca\u5317\u7231\u5c14\u5170\u8054\u5408\u738b\u56fd","official_name:zh-Hans":"\u5927\u4e0d\u5217\u98a0\u53ca\u5317\u7231\u5c14\u5170\u8054\u5408\u738b\u56fd","official_name:zh-Hant":"\u5927\u4e0d\u5217\u985b\u66a8\u5317\u611b\u723e\u862d\u806f\u5408\u738b\u570b","ref:gss":"K02000001","short_name":"UK","short_name:cy":"Y DU","short_name:el":"\u0397\u0392","short_name:fr":"RU","short_name:nl":"VK","short_name:pcd":"RU","short_name:ru":"\u0412\u0435\u043b\u0438\u043a\u043e\u0431\u0440\u0438\u0442\u0430\u043d\u0438\u044f","short_name:vls":"VK","short_name:vo":"Brit\u00e4n","short_name:wa":"RU","source:ref:gss":"ONS_OpenData","timezone":"Europe\/London","type":"boundary","wikidata":"Q145","wikipedia":"en:United Kingdom"}},{"type":"area","id":3600151283,"tags":{"boundary":"statistical","name":"West Midlands","name:hu":"Nyugat-K\u00f6z\u00e9p-Anglia","name:is":"Vestur-Mi\u00f0h\u00e9ru\u00f0","name:ru":"\u0417\u0430\u043f\u0430\u0434\u043d\u044b\u0439 \u041c\u0438\u0434\u043b\u0435\u043d\u0434","name:ur":"\u0645\u063a\u0631\u0628\u06cc \u0645\u0688\u0644\u06cc\u0646\u0688\u0632","note":"(region) Is indicated by admin_level and inclusion of this in name makes things tricky for automated use of data","ref:nuts:1":"UKG","type":"boundary","wikidata":"Q48038","wikipedia":"en:West Midlands (region)"}},{"type":"area","id":3600162378,"tags":{"ISO3166-2":"GB-BIR","admin_level":"8","alt_name:ar":"\u0628\u0631\u0645\u0646\u063a\u0647\u0627\u0645","boundary":"administrative","council_name":"Birmingham City Council","council_style":"city","designation":"metropolitan_district","loc_name":"Brummagem","name":"Birmingham","name:ar":"\u0628\u0631\u0645\u0646\u0647\u0627\u0645","name:eo":"Birmingamo","name:fr":"Birmingham","name:gsw":"B\u00ebrmingham","name:oc":"Birmingham","name:ru":"\u0411\u0438\u0440\u043c\u0438\u043d\u0433\u0435\u043c","name:zh-Hans":"\u4f2f\u660e\u7ff0","name:zh-Hant":"\u4f2f\u660e\u7ff0","ons_code":"00CN","place":"city","ref:gss":"E08000025","source":"NPE;OS_OpenBoundaryLIne","source:name:oc":"Lo Congr\u00e8s","source:ons_code":"OS_OpenData_CodePoint Codelist.txt","type":"boundary","wikidata":"Q20986424","wikipedia":"en:Birmingham","wmca":"constituent_member"}},{"type":"area","id":3606038068,"tags":{"alt_name":"Britain","alt_name:ku":"Br\u00eetanya Mezin","alt_name:la":"Britannia Magna","alt_name:mai":"\u092c\u094d\u0930\u093f\u091f\u0947\u0928","alt_name:mk":"\u0411\u0440\u0438\u0442\u0430\u043d\u0438\u0458\u0430","alt_name:nan":"T\u014da Britain","alt_name:nds-nl":"Brittannie","alt_name:ne":"\u0917\u094d\u0930\u0947\u091f \u092c\u094d\u0930\u093f\u091f\u0947\u0928","alt_name:oc":"Gran Bretanha","alt_name:sd":"\u06af\u0631\u064a\u067d \u0628\u0631\u067d\u064a\u0646","alt_name:ta":"\u0baa\u0bbe\u0bb0\u0bbf\u0baf \u0baa\u0bbf\u0bb0\u0bbf\u0ba4\u0bcd\u0ba4\u0bbe\u0ba9\u0bbf\u0baf\u0bbe","alt_name:tl":"Great Britain","alt_name:tr":"Britanya","description":"This is the relation for the island of Great Britain - the mainland. It should not include other islands and should not be confused with the country of the United Kingdom.","name":"Great Britain","name:af":"Groot-Brittanje","name:am":"\u1273\u120b\u1241 \u1265\u122a\u1273\u1295","name:ang":"Bryten","name:ar":"\u0628\u0631\u064a\u0637\u0627\u0646\u064a\u0627 \u0627\u0644\u0639\u0638\u0645\u0649","name:arz":"\u0628\u0631\u064a\u0637\u0627\u0646\u064a\u0627 \u0627\u0644\u0639\u0638\u0645\u0649","name:ast":"Gran Breta\u00f1a","name:az":"B\u00f6y\u00fck Britaniya","name:bat-smg":"D\u0117dliuoj\u0117 Br\u0117tan\u0117j\u0117","name:be":"\u0412\u044f\u043b\u0456\u043a\u0430\u0431\u0440\u044b\u0442\u0430\u043d\u0456\u044f","name:be-tarask":"\u0412\u044f\u043b\u0456\u043a\u0430\u0431\u0440\u044b\u0442\u0430\u043d\u0456\u044f","name:bg":"\u0412\u0435\u043b\u0438\u043a\u043e\u0431\u0440\u0438\u0442\u0430\u043d\u0438\u044f","name:bh":"\u0917\u094d\u0930\u0947\u091f \u092c\u094d\u0930\u093f\u091f\u0947\u0928","name:bn":"\u0997\u09cd\u09b0\u09c7\u099f \u09ac\u09cd\u09b0\u09bf\u099f\u09c7\u09a8","name:br":"Breizh-Veur","name:bs":"Velika Britanija","name:ca":"Gran Bretanya","name:cdo":"D\u00e2i B\u00f3k-li\u0115k-di\u0115ng D\u014d\u0324","name:chr":"\u13a0\u13c2\u13a9\u13b5\u13cf","name:ckb":"\u0628\u0631\u06cc\u062a\u0627\u0646\u06cc\u0627\u06cc \u0645\u06d5\u0632\u0646","name:cs":"Velk\u00e1 Brit\u00e1nie","name:cv":"\u0410\u0441\u043b\u0103 \u0411\u0440\u0438\u0442\u0430\u043d\u0438","name:cy":"Prydain Fawr","name:da":"Storbritannien","name:de":"Gro\u00dfbritannien","name:dsb":"Wjelika Britaniska","name:dty":"\u092c\u0947\u0932\u093e\u092f\u0924","name:el":"\u039c\u03b5\u03b3\u03ac\u03bb\u03b7 \u0392\u03c1\u03b5\u03c4\u03b1\u03bd\u03af\u03b1","name:en":"Great Britain","name:eo":"granda Britio","name:es":"Gran Breta\u00f1a","name:et":"Suurbritannia saar","name:eu":"Britainia Handia","name:fa":"\u0628\u0631\u06cc\u062a\u0627\u0646\u06cc\u0627 \u0628\u0632\u0631\u06af","name:fi":"Iso-Britannia","name:fr":"Grande-Bretagne","name:frr":"Gratbritannien","name:fy":"Grut-Brittanje","name:ga":"an Bhreatain Mh\u00f3r","name:gcr":"Gran Britangn","name:gd":"Breatainn Mh\u00f2r","name:gl":"Gran Breta\u00f1a","name:gn":"Vyret\u00e1\u00f1a Guasu","name:gv":"yn Vretyn Vooar","name:hak":"Thai Put-lie\u030dt-ti\u00ean-t\u00f3","name:he":"\u05d1\u05e8\u05d9\u05d8\u05e0\u05d9\u05d4 \u05d4\u05d2\u05d3\u05d5\u05dc\u05d4","name:hi":"\u0917\u094d\u0930\u0947\u091f\u094d \u092c\u094d\u0930\u093f\u091f\u0947\u0928","name:hr":"Velika Britanija","name:hsb":"Wulkobritaniska","name:hu":"Brit-sziget","name:hy":"\u0544\u0565\u056e \u0532\u0580\u056b\u057f\u0561\u0576\u056b\u0561","name:ia":"Grande Britannia","name:id":"Britania Raya","name:ilo":"Gran Britania","name:is":"St\u00f3ra-Bretland","name:it":"Gran Bretagna","name:ja":"\u30b0\u30ec\u30fc\u30c8\u30d6\u30ea\u30c6\u30f3\u5cf6","name:ka":"\u10d3\u10d8\u10d3\u10d8 \u10d1\u10e0\u10d8\u10e2\u10d0\u10dc\u10d4\u10d7\u10d8","name:kaa":"Ull\u0131 Britaniya","name:kn":"\u0c97\u0ccd\u0cb0\u0cc7\u0c9f\u0ccd \u0cac\u0ccd\u0cb0\u0cbf\u0c9f\u0ca8\u0ccd","name:ko":"\uadf8\ub808\uc774\ud2b8\ube0c\ub9ac\ud2bc \uc12c","name:ku":"Br\u00eetanya","name:kw":"Breten Veur","name:la":"Britannia Maior","name:lez":"\u0427\u04c0\u0435\u0445\u0438\u0431\u0440\u0438\u0442\u0430\u043d\u0438\u044f","name:li":"Groe\u00ebt-Brittanni\u00eb","name:lmo":"Gran Bretagna","name:ln":"Brit\u00e1ni-Mon\u025b\u0301n\u025b","name:lt":"Did\u017eioji Britanija","name:lv":"Lielbrit\u0101nija","name:mai":"\u0917\u094d\u0930\u0947\u091f \u092c\u094d\u0930\u093f\u091f\u0947\u0928","name:mk":"\u0412\u0435\u043b\u0438\u043a\u0430 \u0411\u0440\u0438\u0442\u0430\u043d\u0438\u0458\u0430","name:ml":"\u0d17\u0d4d\u0d30\u0d47\u0d31\u0d4d\u0d31\u0d4d \u0d2c\u0d4d\u0d30\u0d3f\u0d1f\u0d4d\u0d1f\u0d7a","name:mn":"\u0418\u0445 \u0411\u0440\u0438\u0442\u0430\u043d\u0438","name:mr":"\u0917\u094d\u0930\u0947\u091f \u092c\u094d\u0930\u093f\u091f\u0928","name:mzn":"\u06af\u062a \u0628\u0631\u06cc\u062a\u0627\u0646\u06cc\u0627 \u062c\u0632\u06cc\u0631\u0647","name:nan":"Britain","name:nds":"Grootbritannien","name:nds-nl":"Groot-Brittannie","name:ne":"\u092c\u0947\u0932\u093e\u092f\u0924","name:nl":"Groot-Brittanni\u00eb","name:nn":"\u00d8ya Storbritannia","name:no":"Storbritannia","name:nrm":"Grande Br\u00e9tangne","name:oc":"Grand Bretanha","name:olo":"Suuri-Britanii","name:pam":"Gran Britania","name:pi":"\u092c\u094d\u0930\u093f\u091f\u0947\u0928","name:pl":"Wielka Brytania","name:pms":"Gran Br\u00ebtagna","name:pnb":"\u0648\u0688\u0627 \u0628\u0631\u0637\u0627\u0646\u06cc\u06c1","name:pt":"Gr\u00e3-Bretanha","name:qu":"Hatun Pirita\u00f1a","name:rm":"Gronda Britannia","name:rmy":"Bari Britaniya","name:ro":"Marea Britanie","name:ru":"\u0412\u0435\u043b\u0438\u043a\u043e\u0431\u0440\u0438\u0442\u0430\u0301\u043d\u0438\u044f","name:sa":"\u092c\u094d\u0930\u093f\u091f\u0947\u0928","name:sc":"Brit\u00e0nnia Manna","name:scn":"Gran Britagna","name:sco":"Great Breetain","name:sd":"\u0628\u0631\u0637\u0627\u0646\u064a\u0627","name:sh":"Velika Britanija","name:si":"\u0db8\u0dc4\u0dcf \u0db6\u0dca\u200d\u0dbb\u0dd2\u0dad\u0dcf\u0db1\u0dca\u200d\u0dba\u0dba","name:sk":"Ve\u013ek\u00e1 Brit\u00e1nia","name:sl":"Velika Britanija","name:sm":"Peret\u0101nia Tele","name:sq":"Britania e madhe","name:sr":"\u0412\u0435\u043b\u0438\u043a\u0430 \u0411\u0440\u0438\u0442\u0430\u043d\u0438\u0458\u0430","name:su":"Britania Raya","name:sv":"Storbritannien","name:sw":"Britania","name:szl":"Wjelgo Bryta\u0144ijo","name:ta":"\u0baa\u0bc6\u0bb0\u0bbf\u0baf \u0baa\u0bbf\u0bb0\u0bbf\u0ba4\u0bcd\u0ba4\u0bbe\u0ba9\u0bbf\u0baf\u0bbe","name:tg":"\u0411\u0440\u0438\u0442\u0430\u043d\u0438\u044f\u0438 \u041a\u0430\u0431\u0438\u0440","name:th":"\u0e40\u0e01\u0e32\u0e30\u0e1a\u0e23\u0e34\u0e40\u0e15\u0e19\u0e43\u0e2b\u0e0d\u0e48","name:tk":"Be\u00fdik Britani\u00fda","name:tl":"Gran Britanya","name:to":"Pilit\u0101nia","name:tpi":"Bikpela Briten","name:tr":"B\u00fcy\u00fck Britanya","name:tt":"\u0411\u04e9\u0435\u043a\u0431\u0440\u0438\u0442\u0430\u043d\u0438\u044f","name:tum":"Great Britain","name:uk":"\u0412\u0435\u043b\u0438\u0301\u043a\u0430 \u0411\u0440\u0438\u0442\u0430\u0301\u043d\u0456\u044f","name:uz":"Buyuk britaniya oroli","name:vi":"\u0110\u1ea3o Anh","name:vls":"Gr\u00f4ot-Brittanni\u00eb","name:war":"Gran Britanya","name:wuu":"\u5927\u4e0d\u5217\u98a0\u5c9b","name:xmf":"\u10d3\u10d8\u10d3\u10d8 \u10d1\u10e0\u10d8\u10e2\u10d0\u10dc\u10d4\u10d7\u10d8","name:yi":"\u05d2\u05e8\u05d5\u05d9\u05e1\u05d1\u05e8\u05d9\u05d8\u05d0\u05e0\u05d9\u05e2","name:yo":"Br\u00edt\u00e1n\u00ec Ol\u00f3k\u00eck\u00ed","name:yue":"\u5927\u4e0d\u5217\u985b\u5cf6","name:zgh":"\u2d31\u2d54\u2d49\u2d5f\u2d30\u2d4f\u2d62\u2d30 \u2d5c\u2d30\u2d4e\u2d47\u2d54\u2d30\u2d4f\u2d5c","name:zh":"\u5927\u4e0d\u5217\u98a0\u5c9b \/ \u5927\u4e0d\u5217\u985b\u5cf6","name:zh-Hans":"\u5927\u4e0d\u5217\u98a0\u5c9b","name:zh-Hant":"\u5927\u4e0d\u5217\u985b\u5cf6","old_name:de":"Albion","old_name:el":"\u1f08\u03bb\u03bf\u03c5\u0390\u03c9\u03bd","old_name:oc":"Albion","old_name:sk":"Brit\u00e1nia","place":"island","short_name:ta":"\u0baa\u0bbf\u0bb0\u0bbf\u0ba4\u0bcd\u0ba4\u0bbe\u0ba9\u0bbf\u0baf\u0bbe","type":"multipolygon","wikidata":"Q23666","wikipedia":"en:Great Britain"}},{"type":"area","id":3606965187,"tags":{"admin_level":"5","boundary":"administrative","designation":"combined_authority","name":"West Midlands","official_name":"West Midlands Combined Authority","ref:gss":"E47000007","ref:itl:2":"TLG3","ref:nuts:2":"UKG3","type":"boundary","url":"https:\/\/westmidlandscombinedauthority.org.uk\/","wikidata":"Q21061625","wikipedia":"en:West Midlands Combined Authority"}},{"type":"area","id":3608488133,"tags":{"boundary":"traditional","designation":"historic_county","gns_classification":"ADM1","gns_uni":"6086827","name":"Warwickshire","name:ko":"\uc6cc\ub9ad\uc154\uc8fc","type":"boundary","wikidata":"Q67575123"}},{"type":"area","id":3610265575,"tags":{"boundary":"political","name":"Ladywood","political_division":"ward","source":"OS_OpenData","type":"boundary","ward":"Metropolitan District"}},{"type":"area","id":3616732433,"tags":{"boundary":"timezone","name":"UTC+00:00 standard time","name:de":"UTC+00:00 Standardzeit","name:en":"UTC+00:00 standard time","type":"boundary","wikidata":"Q6574","wikipedia":"en:UTC+00:00"}},{"type":"node","id":7192691991,"lat":52.4710602,"lon":-1.9114199},{"type":"node","id":7192691992,"lat":52.4707546,"lon":-1.9106555},{"type":"node","id":7192691993,"lat":52.4700733,"lon":-1.9092044},{"type":"node","id":7192691994,"lat":52.469374,"lon":-1.9077426},{"type":"node","id":7192691995,"lat":52.4683862,"lon":-1.9054802},{"type":"node","id":7192691996,"lat":52.4682473,"lon":-1.9050417},{"type":"node","id":7192691997,"lat":52.4680456,"lon":-1.9043751},{"type":"node","id":7192691998,"lat":52.4676313,"lon":-1.9017895},{"type":"node","id":7192691999,"lat":52.4673911,"lon":-1.9006455},{"type":"node","id":9034461325,"lat":52.4675439,"lon":-1.9011806},{"type":"node","id":7192692005,"lat":52.4645936,"lon":-1.8913583},{"type":"node","id":7192692006,"lat":52.4643664,"lon":-1.8905805},{"type":"node","id":7192692007,"lat":52.4639628,"lon":-1.8891187},{"type":"node","id":7192692008,"lat":52.4637536,"lon":-1.888302},{"type":"node","id":7192692009,"lat":52.4636196,"lon":-1.8877266},{"type":"node","id":7192692010,"lat":52.4636073,"lon":-1.887449},{"type":"node","id":7192692000,"lat":52.4664581,"lon":-1.8970218},{"type":"node","id":7192692001,"lat":52.4661942,"lon":-1.8961756},{"type":"node","id":7192692002,"lat":52.4660512,"lon":-1.8957062},{"type":"node","id":9034461320,"lat":52.4657374,"lon":-1.8947567},{"type":"node","id":9034461321,"lat":52.466619,"lon":-1.8974027},{"type":"node","id":9034461322,"lat":52.466927,"lon":-1.8974563},{"type":"node","id":9034461323,"lat":52.4669475,"lon":-1.8979137},{"type":"node","id":9034461324,"lat":52.4668004,"lon":-1.8982516},{"type":"node","id":7192692003,"lat":52.4654049,"lon":-1.8939802},{"type":"node","id":7192692004,"lat":52.4648836,"lon":-1.8922716},{"type":"node","id":7192686169,"lat":52.4778755,"lon":-1.9262217},{"type":"node","id":7192686170,"lat":52.4776835,"lon":-1.9260098},{"type":"node","id":7192686171,"lat":52.4774956,"lon":-1.9259039},{"type":"node","id":7192686172,"lat":52.4772147,"lon":-1.9257697},{"type":"node","id":7192686173,"lat":52.4770088,"lon":-1.9255713},{"type":"node","id":7192686174,"lat":52.47662,"lon":-1.9249624},{"type":"node","id":7192686175,"lat":52.4757819,"lon":-1.9234577},{"type":"node","id":7192686176,"lat":52.4751006,"lon":-1.9223473},{"type":"node","id":7192686177,"lat":52.4745108,"lon":-1.9213039},{"type":"node","id":7192686178,"lat":52.4741416,"lon":-1.9204241},{"type":"node","id":7192686179,"lat":52.4738851,"lon":-1.9197106},{"type":"node","id":7192686180,"lat":52.4734914,"lon":-1.9186163},{"type":"node","id":7192686181,"lat":52.4734832,"lon":-1.9182247},{"type":"node","id":7192686182,"lat":52.4734031,"lon":-1.9180504},{"type":"node","id":7192686183,"lat":52.47323,"lon":-1.9178358},{"type":"node","id":7192686184,"lat":52.4727431,"lon":-1.9176802},{"type":"node","id":7192691985,"lat":52.4726401,"lon":-1.9175434},{"type":"node","id":7192691986,"lat":52.4724359,"lon":-1.9164947},{"type":"node","id":7192691987,"lat":52.4721279,"lon":-1.9146775},{"type":"node","id":7192691988,"lat":52.4720071,"lon":-1.9140096},{"type":"node","id":7192686151,"lat":52.4841539,"lon":-1.920632},{"type":"node","id":7192686152,"lat":52.4837636,"lon":-1.9212502},{"type":"node","id":7192686153,"lat":52.4835545,"lon":-1.9215386},{"type":"node","id":7192686154,"lat":52.4828006,"lon":-1.9224679},{"type":"node","id":7192686155,"lat":52.4816817,"lon":-1.9237749},{"type":"node","id":7192686156,"lat":52.4815784,"lon":-1.9239009},{"type":"node","id":7192686158,"lat":52.4813019,"lon":-1.9241926},{"type":"node","id":7192686159,"lat":52.4810593,"lon":-1.9244461},{"type":"node","id":7192686160,"lat":52.4806077,"lon":-1.9249946},{"type":"node","id":7192686161,"lat":52.4799983,"lon":-1.9257121},{"type":"node","id":7192686162,"lat":52.4797435,"lon":-1.9259937},{"type":"node","id":7192686163,"lat":52.4795238,"lon":-1.9261815},{"type":"node","id":7192686164,"lat":52.4791783,"lon":-1.9263893},{"type":"node","id":7192686165,"lat":52.4789496,"lon":-1.9264685},{"type":"node","id":7192686166,"lat":52.478591,"lon":-1.9264886},{"type":"node","id":7192686167,"lat":52.4782659,"lon":-1.9264685},{"type":"node","id":7192686168,"lat":52.4780723,"lon":-1.9263826},{"type":"node","id":7192686149,"lat":52.4844831,"lon":-1.9197643},{"type":"node","id":7192686150,"lat":52.4843622,"lon":-1.9201666},{"type":"node","id":1555226204,"lat":52.4903904,"lon":-1.9162767},{"type":"node","id":6234315244,"lat":52.4890109,"lon":-1.9167908},{"type":"node","id":7192686135,"lat":52.4901482,"lon":-1.9163445},{"type":"node","id":7192686136,"lat":52.4896059,"lon":-1.9165725},{"type":"node","id":7192686137,"lat":52.4881662,"lon":-1.9171008},{"type":"node","id":7192686138,"lat":52.4875807,"lon":-1.9173034},{"type":"node","id":7192686139,"lat":52.4872304,"lon":-1.9174509},{"type":"node","id":7192686140,"lat":52.4868163,"lon":-1.9176936},{"type":"node","id":7192686141,"lat":52.4864668,"lon":-1.9179766},{"type":"node","id":7192686142,"lat":52.4858845,"lon":-1.9184057},{"type":"node","id":7192686143,"lat":52.4852524,"lon":-1.9188309},{"type":"node","id":7192686144,"lat":52.48496,"lon":-1.9190186},{"type":"node","id":7192686145,"lat":52.4847763,"lon":-1.9190454},{"type":"node","id":7192686146,"lat":52.484644,"lon":-1.9191165},{"type":"node","id":7192686147,"lat":52.4845656,"lon":-1.9192211},{"type":"node","id":7192686148,"lat":52.4845296,"lon":-1.9193941},{"type":"node","id":7192686131,"lat":52.4923839,"lon":-1.9146654},{"type":"node","id":7192686132,"lat":52.49209,"lon":-1.9149578},{"type":"node","id":7192686133,"lat":52.4919642,"lon":-1.9150382},{"type":"node","id":7192686134,"lat":52.4916523,"lon":-1.9154996},{"type":"node","id":7192691989,"lat":52.4718069,"lon":-1.9133686},{"type":"node","id":7192691990,"lat":52.4714866,"lon":-1.9125465},{"type":"node","id":706931771,"lat":52.4826597,"lon":-1.9019575},{"type":"node","id":706931795,"lat":52.4825842,"lon":-1.9018184},{"type":"node","id":706931828,"lat":52.4828468,"lon":-1.9014238},{"type":"node","id":706931845,"lat":52.4829119,"lon":-1.9024189},{"type":"node","id":706931857,"lat":52.4831746,"lon":-1.9020197},{"type":"node","id":1041098117,"lat":52.4827414,"lon":-1.9018361},{"type":"node","id":1041098137,"lat":52.4826637,"lon":-1.9016979},{"type":"node","id":7826512271,"lat":52.4827222,"lon":-1.9018674},{"type":"node","id":7192686124,"lat":52.4938782,"lon":-1.9084105},{"type":"node","id":7192686125,"lat":52.493875,"lon":-1.9086733},{"type":"node","id":7192686126,"lat":52.4938031,"lon":-1.9089174},{"type":"node","id":7192686127,"lat":52.4937933,"lon":-1.909411},{"type":"node","id":7192686128,"lat":52.4936839,"lon":-1.9103926},{"type":"node","id":7192686129,"lat":52.4934602,"lon":-1.9113475},{"type":"node","id":7192686130,"lat":52.493145,"lon":-1.9124016},{"type":"node","id":7192686121,"lat":52.4929539,"lon":-1.9013228},{"type":"node","id":7192686122,"lat":52.4932479,"lon":-1.9034806},{"type":"node","id":7192686123,"lat":52.4936382,"lon":-1.9061816},{"type":"node","id":7192686114,"lat":52.4921055,"lon":-1.8942994},{"type":"node","id":7192686115,"lat":52.4921512,"lon":-1.8949713},{"type":"node","id":7192686116,"lat":52.4922157,"lon":-1.8956499},{"type":"node","id":7192686117,"lat":52.4923243,"lon":-1.896472},{"type":"node","id":7192686118,"lat":52.4925081,"lon":-1.8977715},{"type":"node","id":7192686119,"lat":52.4926199,"lon":-1.8987143},{"type":"node","id":7192686120,"lat":52.4927988,"lon":-1.9001989},{"type":"node","id":7192686112,"lat":52.4921284,"lon":-1.8928389},{"type":"node","id":7192686113,"lat":52.4921031,"lon":-1.8935873},{"type":"node","id":7192692135,"lat":52.4915257,"lon":-1.8875174},{"type":"node","id":7192692136,"lat":52.491649,"lon":-1.8877602},{"type":"node","id":7192692137,"lat":52.4917144,"lon":-1.8880686},{"type":"node","id":7192692138,"lat":52.4917078,"lon":-1.8883194},{"type":"node","id":7192692139,"lat":52.4917478,"lon":-1.8886252},{"type":"node","id":7192692140,"lat":52.4918573,"lon":-1.8889216},{"type":"node","id":7192692141,"lat":52.4919659,"lon":-1.8891281},{"type":"node","id":7192692142,"lat":52.4920982,"lon":-1.8893494},{"type":"node","id":7192692143,"lat":52.4922402,"lon":-1.8897101},{"type":"node","id":7192692144,"lat":52.4922794,"lon":-1.8899046},{"type":"node","id":7192692145,"lat":52.4922827,"lon":-1.890264},{"type":"node","id":7192692146,"lat":52.4922459,"lon":-1.8909989},{"type":"node","id":7192692147,"lat":52.492188,"lon":-1.8921255},{"type":"node","id":7192688858,"lat":52.4639023,"lon":-1.8864056},{"type":"node","id":7192688859,"lat":52.4640821,"lon":-1.8861844},{"type":"node","id":7192688860,"lat":52.4645143,"lon":-1.8857069},{"type":"node","id":7192692011,"lat":52.4637381,"lon":-1.8868858},{"type":"node","id":7192688861,"lat":52.4651385,"lon":-1.8847883},{"type":"node","id":7192688862,"lat":52.4657448,"lon":-1.8838361},{"type":"node","id":7192688863,"lat":52.4662922,"lon":-1.8831629},{"type":"node","id":7192688864,"lat":52.4667122,"lon":-1.8826801},{"type":"node","id":7192688865,"lat":52.4672105,"lon":-1.8819639},{"type":"node","id":7192688866,"lat":52.4673462,"lon":-1.881693},{"type":"node","id":7192688867,"lat":52.4678397,"lon":-1.8806604},{"type":"node","id":7192688868,"lat":52.4679736,"lon":-1.880317},{"type":"node","id":7192688869,"lat":52.4681424,"lon":-1.8799489},{"type":"node","id":7192688870,"lat":52.4682584,"lon":-1.8797953},{"type":"node","id":7192688871,"lat":52.4684847,"lon":-1.879615},{"type":"node","id":7192688872,"lat":52.4686583,"lon":-1.8795479},{"type":"node","id":7192688873,"lat":52.4687392,"lon":-1.8794534},{"type":"node","id":7192688874,"lat":52.4688176,"lon":-1.8793286},{"type":"node","id":7192688875,"lat":52.4688658,"lon":-1.8790638},{"type":"node","id":7192688876,"lat":52.4688732,"lon":-1.8787962},{"type":"node","id":7192688877,"lat":52.4689696,"lon":-1.8784837},{"type":"node","id":7192688878,"lat":52.4690962,"lon":-1.8783349},{"type":"node","id":7192688879,"lat":52.4695178,"lon":-1.8778521},{"type":"node","id":7192688880,"lat":52.470289,"lon":-1.877144},{"type":"node","id":7192688881,"lat":52.4710242,"lon":-1.8764144},{"type":"node","id":7192688882,"lat":52.4717709,"lon":-1.8758458},{"type":"node","id":7192688883,"lat":52.4723281,"lon":-1.8754783},{"type":"node","id":7192688884,"lat":52.4725977,"lon":-1.8753952},{"type":"node","id":7192692085,"lat":52.472681,"lon":-1.8754166},{"type":"node","id":7192692086,"lat":52.4729832,"lon":-1.8756124},{"type":"node","id":7192692087,"lat":52.4730943,"lon":-1.8755615},{"type":"node","id":7192692088,"lat":52.4735878,"lon":-1.8752986},{"type":"node","id":7192692089,"lat":52.4745811,"lon":-1.8751699},{"type":"node","id":7192692090,"lat":52.4748605,"lon":-1.8751323},{"type":"node","id":7192692091,"lat":52.4752852,"lon":-1.8751672},{"type":"node","id":7192692092,"lat":52.4761691,"lon":-1.8754917},{"type":"node","id":7192692093,"lat":52.476785,"lon":-1.8757211},{"type":"node","id":7192692094,"lat":52.4775953,"lon":-1.8759826},{"type":"node","id":7192692119,"lat":52.4844039,"lon":-1.881182},{"type":"node","id":7192692095,"lat":52.4784497,"lon":-1.8762159},{"type":"node","id":7192692096,"lat":52.4789667,"lon":-1.8763849},{"type":"node","id":7192692097,"lat":52.4793098,"lon":-1.8765284},{"type":"node","id":7192692098,"lat":52.479438,"lon":-1.8766531},{"type":"node","id":7192692099,"lat":52.4794838,"lon":-1.8767524},{"type":"node","id":7192692100,"lat":52.4795752,"lon":-1.8768395},{"type":"node","id":7192692101,"lat":52.4797182,"lon":-1.8768704},{"type":"node","id":7192692102,"lat":52.4799542,"lon":-1.8769763},{"type":"node","id":7192692103,"lat":52.4802319,"lon":-1.8772325},{"type":"node","id":7192692104,"lat":52.4804133,"lon":-1.877384},{"type":"node","id":7192692105,"lat":52.4811222,"lon":-1.8777837},{"type":"node","id":7192692106,"lat":52.4814571,"lon":-1.8780533},{"type":"node","id":7192692107,"lat":52.481841,"lon":-1.8784663},{"type":"node","id":7192692108,"lat":52.4821603,"lon":-1.8787842},{"type":"node","id":7192692109,"lat":52.4827116,"lon":-1.8794145},{"type":"node","id":7192692110,"lat":52.4828978,"lon":-1.8796518},{"type":"node","id":7192692111,"lat":52.4830751,"lon":-1.8800582},{"type":"node","id":7192692112,"lat":52.4831175,"lon":-1.8802392},{"type":"node","id":7192692113,"lat":52.4831763,"lon":-1.8803425},{"type":"node","id":7192692114,"lat":52.4832539,"lon":-1.8803747},{"type":"node","id":7192692115,"lat":52.483365,"lon":-1.8803908},{"type":"node","id":7192692116,"lat":52.4835716,"lon":-1.8805249},{"type":"node","id":7192692117,"lat":52.4839146,"lon":-1.8808052},{"type":"node","id":7192692120,"lat":52.4854435,"lon":-1.882263},{"type":"node","id":7192692121,"lat":52.4860135,"lon":-1.8828772},{"type":"node","id":7192692122,"lat":52.4862104,"lon":-1.8831065},{"type":"node","id":7192692123,"lat":52.4863794,"lon":-1.8832648},{"type":"node","id":7192692124,"lat":52.4875268,"lon":-1.8842062},{"type":"node","id":7192692125,"lat":52.4877163,"lon":-1.8843471},{"type":"node","id":7192692126,"lat":52.488056,"lon":-1.8846515},{"type":"node","id":7192692127,"lat":52.4887248,"lon":-1.8851759},{"type":"node","id":7192692128,"lat":52.4890645,"lon":-1.8854441},{"type":"node","id":7192692129,"lat":52.4894761,"lon":-1.8858115},{"type":"node","id":7192692130,"lat":52.4898354,"lon":-1.8860972},{"type":"node","id":7192692131,"lat":52.4903605,"lon":-1.8865384},{"type":"node","id":7192692132,"lat":52.4906144,"lon":-1.8867557},{"type":"node","id":7192692133,"lat":52.4909901,"lon":-1.8870816},{"type":"node","id":7192692134,"lat":52.4913967,"lon":-1.8873873}]}