{"version":0.6,"generator":"Overpass API 0.7.62.5 1bd436f1","osm3s":{"timestamp_osm_base":"2025-03-12T11:57:36Z","copyright":"The data included in this document is from www.openstreetmap.org. The data is made available under ODbL."},"elements":[{"type":"node","id":956033701,"lat":52.478553,"lon":-1.8959856,"tags":{"addr:city":"Birmingham","addr:housenumber":"144","addr:postcode":"B2 4NY","addr:street":"New Street","disused:shop":"yes","source":"visual survey;estimate"}},{"type":"node","id":956033713,"lat":52.4785881,"lon":-1.896262,"tags":{"addr:city":"Birmingham","addr:housenumber":"141","addr:postcode":"B2 4NS","addr:street":"New Street","brand":"Select","brand:wikidata":"Q105105307","clothes":"women","name":"Select","opening_hours":"Mo-Sa 09:00-17:30; Su 10:00-16:00","phone":"+44 121 6439662","shop":"clothes","source":"visual survey;estimate","website":"https:\/\/www.selectfashion.co.uk\/","wheelchair":"yes"}},{"type":"node","id":956033715,"lat":52.4785217,"lon":-1.8957495,"tags":{"addr:city":"Birmingham","addr:housenumber":"143-144","addr:postcode":"B2 4NY","addr:street":"New Street","brand":"Lush","brand:wikidata":"Q1585448","brand:wikipedia":"en:Lush (company)","name":"Lush","opening_hours":"Mo-Sa 10:00-20:00; Su 11:00-17:00","shop":"cosmetics","website":"https:\/\/uk.lush.com\/shop\/birmingham","wheelchair":"yes"}},{"type":"node","id":956033716,"lat":52.4787535,"lon":-1.8967818,"tags":{"addr:city":"Birmingham","addr:housenumber":"135;137","addr:postcode":"B2 4NS","addr:street":"New Street","amenity":"restaurant","brand":"Pizza Hut","brand:wikidata":"Q191615","brand:wikipedia":"en:Pizza Hut","check_date":"2024-09-19","cuisine":"pizza","entrance":"yes","fhrs:id":"600996","name":"Pizza Hut","opening_hours":"Mo-Sa 11:00-22:00; Su 11:30-21:00","phone":"+44 121 6432080","source":"visual survey;estimate","website":"https:\/\/www.pizzahut.co.uk\/restaurants\/find\/details\/birminghamnewst"}},{"type":"node","id":956033717,"lat":52.478883,"lon":-1.8964622,"tags":{"entrance":"yes","wheelchair":"yes"}},{"type":"node","id":956033718,"lat":52.47857,"lon":-1.8961419,"tags":{"shop":"vacant","was:name":"Thomas Cook"}},{"type":"node","id":4440386298,"lat":52.4786207,"lon":-1.8964085,"tags":{"addr:city":"Birmingham","addr:housenumber":"139","addr:postcode":"B2 4NU","addr:street":"New Street","amenity":"cafe","brand":"Costa","brand:wikidata":"Q608845","brand:wikipedia":"en:Costa Coffee","cuisine":"coffee_shop","diet:vegetarian":"yes","name":"Costa","outdoor_seating":"no","smoking":"no","takeaway":"yes"}},{"type":"node","id":4720101918,"lat":52.4788173,"lon":-1.8963901,"tags":{"age":"semi-mature","constituency":"City Centre","genus":"Platanus","height":"24","height:range":"23 to 23.99m","leaf_cycle":"deciduous","leaf_type":"broadleaved","natural":"tree","plot_number":"100017","ref:usrn":"2702077","site_name":"NEW STREET","source":"bcc_dec_2016","species":"Platanus x acerifolia","tree_form":"unbalanced","ward":"Ladywood"}},{"type":"node","id":4720101920,"lat":52.4786813,"lon":-1.8961531,"tags":{"age":"semi-mature","constituency":"City Centre","genus":"Platanus","height":"23","height:range":"22 to 22.99m","leaf_cycle":"deciduous","leaf_type":"broadleaved","natural":"tree","plot_number":"100018","ref:usrn":"2702077","site_name":"NEW STREET","source":"bcc_dec_2016","species":"Platanus x acerifolia","tree_form":"unbalanced","ward":"Ladywood"}},{"type":"node","id":4720101922,"lat":52.4787313,"lon":-1.8959831,"tags":{"age":"semi-mature","constituency":"City Centre","genus":"Platanus","height":"18","height:range":"17 to 17.99m","leaf_cycle":"deciduous","leaf_type":"broadleaved","natural":"tree","plot_number":"100021","ref:usrn":"2702077","site_name":"NEW STREET","source":"bcc_dec_2016","species":"Platanus x acerifolia","tree_form":"unbalanced","ward":"Ladywood"}},{"type":"node","id":4720101924,"lat":52.4786133,"lon":-1.8957941,"tags":{"age":"semi-mature","constituency":"City Centre","genus":"Platanus","height":"19","height:range":"18 to 18.99m","leaf_cycle":"deciduous","leaf_type":"broadleaved","natural":"tree","plot_number":"100020","ref:usrn":"2702077","site_name":"NEW STREET","source":"bcc_dec_2016","species":"Platanus x acerifolia","tree_form":"unbalanced","ward":"Ladywood"}},{"type":"node","id":4720101926,"lat":52.4789033,"lon":-1.8968131,"tags":{"age":"semi-mature","constituency":"City Centre","genus":"Platanus","height":"24","height:range":"23 to 23.99m","leaf_cycle":"deciduous","leaf_type":"broadleaved","natural":"tree","plot_number":"100014","ref:usrn":"2702077","site_name":"NEW STREET","source":"bcc_dec_2016","species":"Platanus x acerifolia","tree_form":"unbalanced","ward":"Ladywood"}},{"type":"node","id":4720101927,"lat":52.4788003,"lon":-1.8967671,"tags":{"age":"semi-mature","constituency":"City Centre","genus":"Platanus","height":"25","height:range":"24 to 24.99m","leaf_cycle":"deciduous","leaf_type":"broadleaved","natural":"tree","plot_number":"100015","ref:usrn":"2702077","site_name":"NEW STREET","source":"bcc_dec_2016","species":"Platanus x acerifolia","tree_form":"unbalanced","ward":"Ladywood"}},{"type":"node","id":4720101929,"lat":52.4787493,"lon":-1.8965191,"tags":{"age":"semi-mature","constituency":"City Centre","genus":"Platanus","height":"25","height:range":"24 to 24.99m","leaf_cycle":"deciduous","leaf_type":"broadleaved","natural":"tree","plot_number":"100016","ref:usrn":"2702077","site_name":"NEW STREET","source":"bcc_dec_2016","species":"Platanus x acerifolia","tree_form":"unbalanced","ward":"Ladywood"}},{"type":"node","id":7008865221,"lat":52.4783917,"lon":-1.8959549,"tags":{"addr:city":"Birmingham","addr:postcode":"B2 4PG","addr:street":"Worcester Street"}},{"type":"node","id":7008865222,"lat":52.4784052,"lon":-1.8959554,"tags":{"addr:city":"Birmingham","addr:postcode":"B2 4PE","addr:street":"Worcester Street"}},{"type":"node","id":7008865223,"lat":52.478417,"lon":-1.8959558,"tags":{"addr:city":"Birmingham","addr:postcode":"B2 4PA","addr:street":"Worcester Street"}},{"type":"node","id":7008865224,"lat":52.4784297,"lon":-1.8959563,"tags":{"addr:city":"Birmingham","addr:postcode":"B2 4BB","addr:street":"Worcester Street"}},{"type":"node","id":7150701686,"lat":52.4786146,"lon":-1.8958303,"tags":{"defibrillator:location":"In the street","emergency":"defibrillator","indoor":"no","ref:GB:the_circuit":"F63BD911-0224-41A3-84D6-B04F012A1255","source":"estimate"}},{"type":"node","id":7191164769,"lat":52.4786612,"lon":-1.8965846,"tags":{"amenity":"bank","brand":"Virgin Money","brand:wikidata":"Q2527746","brand:wikipedia":"en:Virgin Money UK","name":"Virgin Money","wheelchair":"yes"}},{"type":"node","id":7261672797,"lat":52.4789277,"lon":-1.8967024,"tags":{"entrance":"main","wheelchair":"yes"}},{"type":"node","id":7261672798,"lat":52.4788081,"lon":-1.8968176,"tags":{"amenity":"telephone","colour":"black","covered":"booth","note":"not BT"}},{"type":"node","id":7261672799,"lat":52.4787622,"lon":-1.8968254,"tags":{"craft":"mobile_phone","entrance":"yes","name":"Mobile Village","wheelchair":"yes"}},{"type":"node","id":7264908410,"lat":52.4786037,"lon":-1.8960561,"tags":{"amenity":"atm","brand":"RBS","brand:wikidata":"Q160126","brand:wikipedia":"en:Royal Bank of Scotland","cash_in":"yes","location":"wall","name":"RBS","official_name":"Royal Bank of Scotland","opening_hours":"24\/7","operator":"RBS","operator:wikidata":"Q160126","wheelchair":"yes"}},{"type":"node","id":7264908411,"lat":52.4787013,"lon":-1.8965227,"tags":{"amenity":"atm","brand":"TSB","brand:wikidata":"Q7671560","cash_in":"yes","check_date":"2022-10-31","location":"wall","opening_hours":"24\/7","operator":"TSB","operator:wikidata":"Q7671560","wheelchair":"yes"}},{"type":"node","id":7264908412,"lat":52.4787125,"lon":-1.8965781,"tags":{"amenity":"atm","brand":"TSB","brand:wikidata":"Q7671560","cash_in":"yes","check_date":"2022-10-31","location":"wall","opening_hours":"24\/7","operator":"TSB","operator:wikidata":"Q7671560","wheelchair":"yes"}},{"type":"node","id":7264908413,"lat":52.4787372,"lon":-1.8964626,"tags":{"amenity":"telephone","booth":"ST6","covered":"yes","operator":"BT","operator:wikidata":"Q593786"}},{"type":"node","id":8554084725,"lat":52.4787946,"lon":-1.8968026,"tags":{"access":"yes","defibrillator:location":"The defibrillator is attached to the phone","emergency":"defibrillator","indoor":"no","opening_hours":"24\/7","ref:GB:the_circuit":"11625EA8-75A8-48C1-A56A-B04F0129FBE7"}}]}