{"version":0.6,"generator":"Overpass API 0.7.62.5 1bd436f1","osm3s":{"timestamp_osm_base":"2025-03-11T16:23:15Z","copyright":"The data included in this document is from www.openstreetmap.org. The data is made available under ODbL."},"elements":[{"type":"way","id":16806095,"nodes":[8895430609,815343294,2677616767,10882785039,9755771320,173964979,8078047470,267214998],"tags":{"cycleway:both":"no","highway":"residential","image":"https:\/\/commons.wikimedia.org\/wiki\/File:Berlin-Kreuzberg_Reichenberger_Stra%C3%9Fe.jpg","lit":"yes","maxspeed":"30","maxspeed:type":"DE:zone30","name":"Reichenberger Stra\u00dfe","name:etymology:wikidata":"Q146351","name:etymology:wikipedia":"de:Liberec","oneway":"yes","oneway:bicycle":"no","oneway:psv":"no","oneway:taxi":"no","parking:left":"no","parking:left:restriction":"no_stopping","parking:right":"separate","postal_code":"10999","sidewalk":"separate","smoothness":"intermediate","source:maxspeed":"DE:zone30","surface":"asphalt","traffic_sign":"DE:274.1,220","wikidata":"Q100712221","wikimedia_commons":"Category:Reichenberger Stra\u00dfe (Berlin-Kreuzberg)","zone:maxspeed":"DE:30"}},{"type":"way","id":24579664,"nodes":[267214998,8895430625,1286990154,1814667718],"tags":{"bicycle":"yes","cycleway:both":"no","highway":"service","lit":"yes","postal_code":"10999","service":"driveway","surface":"paving_stones"}},{"type":"way","id":37853253,"nodes":[443952668,443952671,5632437818,443952675,443952668],"tags":{"addr:city":"Berlin","addr:country":"DE","addr:housenumber":"179","addr:postcode":"10999","addr:street":"Reichenberger Stra\u00dfe","addr:suburb":"Kreuzberg","building":"apartments","building:levels":"5"}},{"type":"way","id":37853298,"nodes":[443953141,443953139,443953142,443953216,443953213,443953211,5260957187,443953210,5260957186,5260957185,5260957184,443953209,443953141],"tags":{"addr:city":"Berlin","addr:country":"DE","addr:housenumber":"9","addr:postcode":"10999","addr:street":"Reichenberger Stra\u00dfe","addr:suburb":"Kreuzberg","building":"residential","building:levels":"6","roof:levels":"1"}},{"type":"way","id":37853300,"nodes":[443953137,443953135,443953139,443953141,443953155,5260957183,5260957182,443953159,5260957180,5260957181,443953206,443953137],"tags":{"addr:city":"Berlin","addr:country":"DE","addr:housenumber":"8","addr:postcode":"10999","addr:street":"Reichenberger Stra\u00dfe","addr:suburb":"Kreuzberg","building":"residential","building:levels":"6","roof:levels":"1"}},{"type":"way","id":37853301,"nodes":[443953135,443953137,443953132,443953129,8078047494,443953135],"tags":{"addr:city":"Berlin","addr:country":"DE","addr:housenumber":"7","addr:postcode":"10999","addr:street":"Reichenberger Stra\u00dfe","addr:suburb":"Kreuzberg","building":"residential","building:levels":"5"}},{"type":"way","id":37853305,"nodes":[443953068,5260957193,872318155,443953064,443953063,5260957197,5260957196,5260957195,5260957194,443953066,443953068],"tags":{"addr:city":"Berlin","addr:country":"DE","addr:housenumber":"139","addr:postcode":"10999","addr:street":"Skalitzer Stra\u00dfe","addr:suburb":"Kreuzberg","building":"residential","building:levels":"5","roof:levels":"1"}},{"type":"way","id":37853306,"nodes":[443953066,1286990195,443953221,443953225,5260957188,5260957189,5260957190,443953219,443953068,443953066],"tags":{"addr:city":"Berlin","addr:country":"DE","addr:housenumber":"138","addr:postcode":"10999","addr:street":"Skalitzer Stra\u00dfe","addr:suburb":"Kreuzberg","building":"residential","building:levels":"11","name":"Inter Gida - \u0130stanbul Supermarkt","opening_hours":"Mo-Sa 09:00-20:00","shop":"supermarket","wheelchair":"yes"}},{"type":"way","id":62182568,"nodes":[775717244,5600476289,5600476291,5600476288,164642942,5600476824,5600476825,5600476313,860259082,5600476314,164642944,5600476695,5600476947,5600476946,5600476941,5600476939,5600476938,5600476940,5600476945,5600476944,5600476943,5600476942,164642945,5600476936,5600476935,5600476934,5600476937,164642935,5600476718,5600476717,5600476716,5600476719,5600476714,5600476713,5600476711,5600476710,5600476712,5600476715,5600476822,5600476821,5600476720,5600476823,5600476301,5600476933,5600476932,5600476931,5600476306,5600476307,5600476930,5600476929,164642936,5600476315,860259086,5600476308,5600476928,5600476927,5600476926,164642937,775717244],"tags":{"building":"apartments","building:levels":"10"}},{"type":"way","id":67524735,"nodes":[267214998,8078047479,8078047493,8078047497,8078047487,8078047472,10674953937,29788955],"tags":{"highway":"residential","image":"https:\/\/commons.wikimedia.org\/wiki\/File:Berlin-Kreuzberg_Reichenberger_Stra%C3%9Fe.jpg","lit":"yes","maxspeed":"30","maxspeed:type":"DE:zone30","name":"Reichenberger Stra\u00dfe","name:etymology:wikidata":"Q146351","name:etymology:wikipedia":"de:Liberec","oneway":"no","parking:both":"lane","parking:both:fee":"no","parking:left:orientation":"parallel","parking:right:orientation":"perpendicular","postal_code":"10999","sidewalk":"both","smoothness":"intermediate","source:maxspeed":"DE:zone30","surface":"asphalt","traffic_sign":"DE:274.1","wikidata":"Q100712221","wikimedia_commons":"Category:Reichenberger Stra\u00dfe (Berlin-Kreuzberg)","zone:maxspeed":"DE:30"}},{"type":"way","id":73890100,"nodes":[874259348,874259349],"tags":{"barrier":"bollard"}},{"type":"way","id":101926066,"nodes":[164642935,5632437914,5632437913,5632437911,5632437910,5632437912,5632437916,8078047502,8078047500,8078047501,8078047499,4718594335,9755771321,8895430636,8842053182,8842053179,5600476431,5600476432,8895430617,5600476433,9755771323,8842053184,8842053183,5600476434,8895430616,5600476435,5600476436,8895430624,5600476437,9210223975,3900136324,5600476438,9755771330,5600476439,8895430623,4718594336,5600476440,8895430621,5600476441,4718594337,8895430622,5600476442,4718594338,4718594339,9755771339,8895430523,9755771338,5559429820,5559429819,8895430570,5559429818,5559429817,5559429816,5600476430,5559429815,8842053200,9755771329,5559429814,8895430577,5559429813,5600476429,5559429811,8842053201,8895430597,8895430598,5559429810,8895430599,8895430600,5559429809,8895430596,5559429808,8842053185,8895430550,8842053186,8842053187,8895430543,5559429807,5559429806,5559429805,8895430556,8895430555,8895430557,5559429804,10302524194,9755771356,9755771357,10302524193,9755771358,8895430524,5559429803,5559429802,9755771353,5559429801,5559429800,10634702011,12559014836,10634702012,8895430727,442649875,2709914334,4030322339,5600476900,5600476901,442649827,5600476675,775717227,4878240295,4878240303,164642941,5600476698,5600476697,5600476696,5600476699,5600476829,5600476827,5600476826,5600476828,2616390943,799000194,5600476464,164642942,5600476824,5600476825,5600476313,860259082,5600476314,164642944,5600476695,5600476947,5600476946,5600476941,5600476939,5600476938,5600476940,5600476945,5600476944,5600476943,5600476942,164642945,164642935],"tags":{"landuse":"retail"}},{"type":"way","id":113525636,"nodes":[443953060,1286990201,5260957172,5260957171,1286990216,1286990213,1286990224,1286990135,1286990149,443953216,443953213,443953054,443953057,443953062,443953060],"tags":{"building":"residential","building:levels":"1","roof:levels":"0"}},{"type":"way","id":113525639,"nodes":[443953225,1286990136,1286990150,1286990162,1286990155,1286990175,1286990195,443953221,443953225],"tags":{"addr:city":"Berlin","addr:country":"DE","addr:housenumber":"10","addr:postcode":"10999","addr:street":"Reichenberger Stra\u00dfe","addr:suburb":"Kreuzberg","building":"residential","building:levels":"1"}},{"type":"way","id":113525653,"nodes":[443952668,8078047473,1286990212,1286990145,8078047474,443952671,443952668],"tags":{"addr:city":"Berlin","addr:country":"DE","addr:housenumber":"180","addr:postcode":"10999","addr:street":"Reichenberger Stra\u00dfe","addr:suburb":"Kreuzberg","building":"apartments","building:levels":"5"}},{"type":"way","id":255928564,"nodes":[443953219,5260957190,5260957189,5260957188,443953225,1286990136,443953142,443953139,443953135,8078047494,443953129,8078047495,443953123,443953079,8078047481,443953076,443953085,443953087,443953229,11010181879,443953093,11010181878,10674953939,11010181877,443953095,11010181873,10674953941,443953101,11010181872,443953103,5260957213,443953033,11010181869,443953023,443953017,443952996,10674953943,443952992,443952988,443953108,10882843034,443952979,10882843033,443952974,10882843028,443952967,10882843027,443952960,10882843024,443952956,10882843023,443952954,7606199828,443953057,443953062,443953064,872318155,5260957193,443953068,443953219],"tags":{"landuse":"residential"}},{"type":"way","id":381209264,"nodes":[3844501293,4340070636,5217808568,4340070638,5217808569,5217808570,5217808572,5217808571,4340070644,5217808573,4340070649,4606652444,4606652443,4340070652,5217808574,4606652441,4340070654,4606652438,4340070658,4340070662,5217808575,4606652435,5217808576,5217808577,5217808578,5217808579,4340070667,5217808580,4340070690,4340070693,4606652447,4340070702,4606652448,4606652450,4340070706,4606652452,5217808581,4714615146,4340070710,4714615147,4714615149,5217808582,5217808584,5217808583,5217808585,5217808603,4340070712,4340070717,5217808604,4340070718,5217808605,5217808606,4340070720,5217808607,5217808608,4340070722,4340070723,5217808609,4340070724,5217808610,4340070726,5217808612,5217808611,4340070727,5137136200,4340070728,5217808613,4340070730,5217808614,4340070732,5217808615,3844466810,5137137639,3844466963,3844467014,4340070736],"tags":{"electrified":"rail","electrified:rail":"bottom","frequency":"0","gauge":"1435","layer":"-2","level":"-2","loading_gauge":"Gro\u00dfprofil","name":"U8","operator":"Berliner Verkehrsbetriebe","railway":"subway","tunnel":"yes","voltage":"750"}},{"type":"way","id":381214594,"nodes":[3844466809,5217808588,129940802,5217808590,5217808589,940422479,5137136389,940422478,5217808591,940422491,5217808592,129940801,5217808593,5217808594,940422483,940422494,5217808596,5217808595,940422492,5217808598,5217808597,940422480,940422493,5217808599,5217808600,5217808601,5217808602,4714615148,5217808586,5217808587,4714615145,268469152,4606652453,4606652451,4606652446,4606652445,5217808551,5217808550,4077774874,5217808552,5217808553,5217808555,5217808554,5217808556,4340070666,4606652434,1237188086,4606652436,4340070657,4606652439,5217808557,318549158,4606652440,5217808558,318549157,5217808559,4606652442,5217808560,318549156,5217808561,5217808562,268468779,5217808563,5217808564,1237188095,3844501297],"tags":{"electrified":"rail","electrified:rail":"bottom","frequency":"0","gauge":"1435","layer":"-2","level":"-2","loading_gauge":"Gro\u00dfprofil","name":"U8","operator":"Berliner Verkehrsbetriebe","railway":"subway","tunnel":"yes","voltage":"750"}},{"type":"way","id":384710560,"nodes":[8895430627,672945391,3880659198],"tags":{"bench":"no","bin":"yes","bus":"yes","highway":"platform","lit":"yes","name":"U Kottbusser Tor","public_transport":"platform","shelter":"no","tactile_paving":"no","wheelchair":"yes"}},{"type":"way","id":386659488,"nodes":[4606652463,3900136336,622290143],"tags":{"footway":"link","highway":"footway","lit":"yes","surface":"paving_stones"}},{"type":"way","id":386659489,"nodes":[622290142,3900136330,4606652460],"tags":{"footway":"link","highway":"footway","lit":"yes","surface":"paving_stones"}},{"type":"way","id":452773039,"nodes":[267214998,8895430629,2783346072,4495108491,4495108490,4495108489],"tags":{"highway":"service","service":"driveway"}},{"type":"way","id":465740601,"nodes":[8895430629,4606652460,8895430628,4606652459,4606652458],"tags":{"footway":"sidewalk","highway":"footway","lit":"yes","surface":"paving_stones"}},{"type":"way","id":465740603,"nodes":[8895430625,4606652463,4606652462,4606652461],"tags":{"footway":"sidewalk","highway":"footway","lit":"yes","surface":"paving_stones"}},{"type":"way","id":478218238,"nodes":[4714615465,4714615462,4714615461,4714615415,4714615460,4714615463,4714615464],"tags":{"barrier":"fence","fence_type":"railing","level":"0"}},{"type":"way","id":478218239,"nodes":[4714615728,4714615727,4714615724,4714615413,4714615725,8895430626,4714615729],"tags":{"barrier":"fence","fence_type":"railing","level":"0"}},{"type":"way","id":478218240,"nodes":[4714615416,622290143],"tags":{"handrail":"yes","highway":"steps","incline":"up","level":"-0.7;0","lit":"yes","ramp":"no","step_count":"17","surface":"concrete"}},{"type":"way","id":478218241,"nodes":[4714615415,4714615416],"tags":{"highway":"footway","level":"-0.7","lit":"yes","surface":"concrete"}},{"type":"way","id":478218242,"nodes":[4714615417,4714615415],"tags":{"handrail":"yes","highway":"steps","incline":"up","level":"-1;-0.7","lit":"yes","ramp":"no","step_count":"6","surface":"concrete"}},{"type":"way","id":478218243,"nodes":[4714615412,622290142],"tags":{"handrail":"yes","highway":"steps","incline":"up","level":"-0.7;0","lit":"yes","ramp":"no","step_count":"17","surface":"concrete"}},{"type":"way","id":478218244,"nodes":[4714615413,4714615412],"tags":{"highway":"footway","level":"-0.7","lit":"yes","surface":"concrete"}},{"type":"way","id":478218245,"nodes":[4714615414,4714615413],"tags":{"handrail":"yes","highway":"steps","incline":"up","level":"-1;-0.7","lit":"yes","ramp":"no","step_count":"6","surface":"concrete"}},{"type":"way","id":478218246,"nodes":[4714615414,4714615151,4714615150,4714615152,4714615417],"tags":{"highway":"footway","layer":"-1","level":"-1","lit":"yes","tunnel":"yes"}},{"type":"way","id":478218247,"nodes":[4714615706,4714615716],"tags":{"handrail":"yes","highway":"steps","incline":"up","level":"-1.5;-1","lit":"24\/7","ramp":"no","width":"4"}},{"type":"way","id":478218250,"nodes":[4714615724,4714615418,4714615414,4714615419,4714615725,4714615413,4714615724],"tags":{"level":"-1;-0.5","stairwell":"flight_of_stairs"}},{"type":"way","id":478218258,"nodes":[4714615460,4714615459,4714615417,4714615421,4714615461,4714615415,4714615460],"tags":{"level":"-1;-0.5","stairwell":"flight_of_stairs"}},{"type":"way","id":478218259,"nodes":[4714615463,4714615460,4714615415,4714615461,4714615462,4714615416,4714615463],"tags":{"level":"-0.5","stairwell":"stair_landing"}},{"type":"way","id":478218260,"nodes":[4714615465,622290143,4714615464,4714615463,4714615416,4714615462,4714615465],"tags":{"level":"-0.7;0","stairwell":"flight_of_stairs"}},{"type":"way","id":478218305,"nodes":[4714615715,4714615712,4714615706,4714615713,4714615714,4714615716,4714615715],"tags":{"level":"-1.5;-1","stairwell":"flight_of_stairs"}},{"type":"way","id":478218306,"nodes":[4714615716,4714615422,4714615150],"tags":{"highway":"footway","level":"-1","lit":"24\/7"}},{"type":"way","id":478218307,"nodes":[4714615419,4714615414,4714615418,4714615722,7230700366,4714615421,4714615417,4714615459,4714615420,4714615719,4714615720,4714615424,4714615717,4714615715,4714615716,4714615714,4714615718,4714615423,4714615721,4714615419],"tags":{"indoor":"corridor","level":"-1"}},{"type":"way","id":478218308,"nodes":[4714615727,4714615724,4714615413,4714615725,8895430626,4714615412,4714615727],"tags":{"level":"-0.5","stairwell":"stair_landing"}},{"type":"way","id":478218309,"nodes":[4714615729,622290142,4714615728,4714615727,4714615412,8895430626,4714615729],"tags":{"level":"-0.7;0","stairwell":"flight_of_stairs"}},{"type":"way","id":478647798,"nodes":[4718594334,5632437909,5632437907,5632437906,5632437908,5632437915,5632437914,5632437913,5632437911,5632437910,5632437912,5632437916,8078047502,8078047500,8078047501,8078047499,4718594335,9755771321,8895430636,8842053182,8842053179,5600476431,5600476432,8895430617,5600476433,9755771323,8842053184,8842053183,5600476434,8895430616,5600476435,5600476436,8895430624,5600476437,9210223975,3900136324,5600476438,9755771330,5600476439,8895430623,4718594336,5600476440,8895430621,5600476441,4718594337,8895430622,5600476442,4718594338,4718594339,9755771339,8895430523,5600476448,9755771334,9755771333,9755771337,7444874762,7444874763,5559309864,9010446322,5559309865,9010446323,5559309866,4718594340,4718594341,5632437968,5632437969,5559309863,5559309862,4718594342,10301365058,10301365059,10301365060,10301365047,10301365048,10301365049,4718594343,5632437963,10301365036,5632437962,5632437960,5632437959,5632437924,5632437923,5632437922,5632437925,5632437926,5632437927,5632437928,5632437929,5632437930,5632437937,5632437931,5632437932,5632437933,5632437934,5632437935,5632437936,5632437957,5632437938,5632437939,5632437940,5632437941,5632437942,5632437943,5632437944,5632437945,5632437946,5632437947,5632437948,5632437949,5632437950,5632437951,5632437952,5632437953,5632437954,5632437955,5632437956,5632437961,5632437964,4718594344,4718594345,9789188055,9789188051,9789188052,9789188053,9789188054,4718594346,5632437920,5632437921,4718594347,4718594348,5632437917,5632437918,5632437919,5632437904,5632437905,4718594334],"tags":{"landuse":"residential"}},{"type":"way","id":544234151,"nodes":[1286990216,5260957170,5260957169,5260957168,5260957171,1286990216],"tags":{"building":"yes"}},{"type":"way","id":544234152,"nodes":[5260957199,5260957173,5260957172,5260957171,5260957168,5260957198,5260957199],"tags":{"building":"yes"}},{"type":"way","id":586090637,"nodes":[5600476301,5600476823,5600476720,5600476821,5600476822,5600476715,5600476296,5600476295,5600476297,5600476298,5600476299,5600476300,5600476711,5600476713,5600476714,5600476719,5600476716,5600476717,5600476292,5600476293,5600476294,5600476943,5600476944,5600476945,5600476940,5600476938,5600476939,5600476941,5600476946,5600476947,5600476301],"tags":{"building:levels":"10","building:part":"yes"}},{"type":"way","id":586090638,"nodes":[5600476717,5600476718,164642935,5600476937,5600476934,5600476935,5600476936,164642945,5600476942,5600476943,5600476294,5600476293,5600476292,5600476717],"tags":{"building:levels":"9","building:part":"yes"}},{"type":"way","id":586090639,"nodes":[5600476710,5600476711,5600476300,5600476299,5600476298,5600476297,5600476295,5600476296,5600476715,5600476712,5600476710],"tags":{"building:levels":"11","building:part":"yes"}},{"type":"way","id":589847391,"nodes":[443952675,9850099580,5632437763,12221893244,660898967],"tags":{"barrier":"fence"}},{"type":"way","id":861202288,"nodes":[8026452861,8026452862],"tags":{"barrier":"bollard"}},{"type":"way","id":866658787,"nodes":[8078047473,8078047479],"tags":{"highway":"service","lit":"yes","service":"driveway"}},{"type":"way","id":866658788,"nodes":[8078047474,8078047473],"tags":{"access":"private","highway":"service","service":"driveway","tunnel":"building_passage"}},{"type":"way","id":866658796,"nodes":[8078047494,8078047493],"tags":{"highway":"service","lit":"yes","service":"driveway"}},{"type":"way","id":866658800,"nodes":[8078047502,4718594335,8078047499,8078047501,8078047500,8078047502],"tags":{"access":"yes","amenity":"parking","fee":"no","orientation":"parallel","parking":"street_side","restriction:conditional":"no_parking @ (Mo-Fr 07:00-16:00; Sa 07:00-13:00)","surface":"asphalt"}},{"type":"way","id":961646376,"nodes":[8895430717,8895430653,8895430652,8895430651,8895430650,8895430649,8895430648,8895430647,8895430646,8895430645,8895430637,8895430519,9755771322,8895430644,8895430643,8895430642,8895430641,8895430640,8895430639,8895430522,1286990136,1286990150,1286990162,1286990155,1286990175,1286990195,443953066,443953068,5260957193,8895430726,9755765808,8895430520,8895430725,8895430704,8895430722,8895430724,8895430721,8895430723,8895430709,8895430720,8895430719,8895430718,8895430716,8895430654,8895430717],"tags":{"landuse":"retail"}},{"type":"way","id":961646402,"nodes":[4606652462,860259084,5600476443,2006373765,4030311571,815343363,2006373767,5600476446,3454199875,5600476447],"tags":{"highway":"footway","lit":"yes","surface":"paving_stones"}},{"type":"way","id":961646412,"nodes":[5632437914,5632437913,5632437911,5632437910,5632437912,5632437916,8078047502,8078047500,8078047501,8078047499,4718594335,9755771321,8895430636,8842053182,8842053179,5600476431,5600476432,8895430553],"tags":{"barrier":"kerb"}},{"type":"way","id":961646420,"nodes":[672945391,8895430628],"tags":{"footway":"link","highway":"footway","lit":"yes"}},{"type":"way","id":961646423,"nodes":[11010225111,11010225112,11010225113,11010225114,11010225115,11010225116,11010225117,11010225118,11010190398,11010190399,11010190400,11010190401,11010190402,11010190403,11010190404,11010205105,11010205106,11010190397,11010205107,11010205108,11010205110,11010190393,11010205111,11010205112,11010205113,11010205114,11010205115,11010205116,11010205117,11010205120,11010205119,11010205121,11010205122,11056960995,11010205118,11010205123,11010205124,11010205125,11010205126,11010205127,8895430701,8895430700,8895430699,8895430698,8895430697,8895430696,8895430726,9755765808,8895430520,8895430725,8895430704,8895430722,8895430724,8895430721,8895430723,8895430709,8895430720,8895430719,8895430718,8895430716,8895430654,8895430717,8895430653,8895430652,8895430651,8895430650,8895430649,8895430648,8895430647,8895430646,8895430645,8895430637,8895430519,9755771322,8895430644,8895430643,8895430642,8895430641,8895430640,8895430639],"tags":{"barrier":"kerb"}},{"type":"node","id":268468779,"lat":52.4954203,"lon":13.4207052},{"type":"node","id":318549156,"lat":52.4957235,"lon":13.4206427},{"type":"node","id":318549157,"lat":52.4959645,"lon":13.4205134},{"type":"node","id":318549158,"lat":52.4961575,"lon":13.4203483},{"type":"node","id":1237188086,"lat":52.4967569,"lon":13.419546},{"type":"node","id":1237188095,"lat":52.4949445,"lon":13.4208447},{"type":"node","id":3844501293,"lat":52.4938898,"lon":13.4216074},{"type":"node","id":3844501297,"lat":52.4943057,"lon":13.4211868},{"type":"node","id":4340070636,"lat":52.4943273,"lon":13.4213365},{"type":"node","id":4340070638,"lat":52.4950316,"lon":13.4208985},{"type":"node","id":4340070644,"lat":52.4954929,"lon":13.4207594},{"type":"node","id":4340070649,"lat":52.4956878,"lon":13.4207252},{"type":"node","id":4340070652,"lat":52.4959283,"lon":13.4206165},{"type":"node","id":4340070654,"lat":52.496182,"lon":13.4204062},{"type":"node","id":4340070657,"lat":52.4963192,"lon":13.4201569},{"type":"node","id":4340070658,"lat":52.4963392,"lon":13.4202137},{"type":"node","id":4340070662,"lat":52.4967541,"lon":13.4196982},{"type":"node","id":4340070666,"lat":52.4969369,"lon":13.4193576},{"type":"node","id":4340070667,"lat":52.4971768,"lon":13.4193341},{"type":"node","id":4606652434,"lat":52.4968444,"lon":13.4194478},{"type":"node","id":4606652435,"lat":52.4968337,"lon":13.4196043},{"type":"node","id":4606652436,"lat":52.4966857,"lon":13.4196365},{"type":"node","id":4606652438,"lat":52.4962401,"lon":13.4203422},{"type":"node","id":4606652439,"lat":52.4962774,"lon":13.4202125},{"type":"node","id":4606652440,"lat":52.4960959,"lon":13.4204078},{"type":"node","id":4606652441,"lat":52.49609,"lon":13.4204949},{"type":"node","id":4606652442,"lat":52.4958467,"lon":13.4205867},{"type":"node","id":4606652443,"lat":52.4958429,"lon":13.4206636},{"type":"node","id":4606652444,"lat":52.4957754,"lon":13.4206943},{"type":"node","id":5217808554,"lat":52.4971641,"lon":13.4191925},{"type":"node","id":5217808555,"lat":52.4972673,"lon":13.4191399},{"type":"node","id":5217808556,"lat":52.4970486,"lon":13.4192656},{"type":"node","id":5217808557,"lat":52.4962184,"lon":13.420284},{"type":"node","id":5217808558,"lat":52.4960306,"lon":13.4204644},{"type":"node","id":5217808559,"lat":52.4958974,"lon":13.4205575},{"type":"node","id":5217808560,"lat":52.4957947,"lon":13.420613},{"type":"node","id":5217808561,"lat":52.4956528,"lon":13.4206657},{"type":"node","id":5217808562,"lat":52.495563,"lon":13.4206871},{"type":"node","id":5217808563,"lat":52.4952425,"lon":13.4207465},{"type":"node","id":5217808564,"lat":52.4950662,"lon":13.4208003},{"type":"node","id":5217808568,"lat":52.4949294,"lon":13.4209584},{"type":"node","id":5217808569,"lat":52.4951178,"lon":13.420856},{"type":"node","id":5217808570,"lat":52.495224,"lon":13.4208143},{"type":"node","id":5217808571,"lat":52.4954201,"lon":13.4207652},{"type":"node","id":5217808572,"lat":52.4953312,"lon":13.4207823},{"type":"node","id":5217808573,"lat":52.4956001,"lon":13.4207468},{"type":"node","id":5217808574,"lat":52.4959939,"lon":13.4205721},{"type":"node","id":5217808575,"lat":52.4967965,"lon":13.4196501},{"type":"node","id":5217808576,"lat":52.4968946,"lon":13.4195415},{"type":"node","id":5217808577,"lat":52.4969581,"lon":13.4194829},{"type":"node","id":5217808578,"lat":52.4970406,"lon":13.4194178},{"type":"node","id":5217808579,"lat":52.4970909,"lon":13.4193842},{"type":"node","id":29788955,"lat":52.5001695,"lon":13.4145737},{"type":"node","id":129940801,"lat":52.5019698,"lon":13.4097151},{"type":"node","id":129940802,"lat":52.5025926,"lon":13.4098287},{"type":"node","id":443952974,"lat":52.4987945,"lon":13.4150779},{"type":"node","id":443952979,"lat":52.4987746,"lon":13.4149137},{"type":"node","id":443952988,"lat":52.4987565,"lon":13.4146584},{"type":"node","id":443952992,"lat":52.4989711,"lon":13.4145805},{"type":"node","id":443952996,"lat":52.4991103,"lon":13.4145293},{"type":"node","id":443953017,"lat":52.4992145,"lon":13.4144925},{"type":"node","id":443953023,"lat":52.4993272,"lon":13.4144521},{"type":"node","id":443953033,"lat":52.4994337,"lon":13.4144109},{"type":"node","id":443953076,"lat":52.4998786,"lon":13.415206},{"type":"node","id":443953085,"lat":52.4999348,"lon":13.4150178},{"type":"node","id":443953087,"lat":52.5000138,"lon":13.4147532},{"type":"node","id":443953093,"lat":52.499869,"lon":13.4146112},{"type":"node","id":443953095,"lat":52.4997112,"lon":13.4144933},{"type":"node","id":443953101,"lat":52.4996174,"lon":13.4144274},{"type":"node","id":443953103,"lat":52.4995443,"lon":13.4143741},{"type":"node","id":443953108,"lat":52.4987488,"lon":13.4146863},{"type":"node","id":443953229,"lat":52.500008,"lon":13.4147134},{"type":"node","id":940422478,"lat":52.5022691,"lon":13.4096865},{"type":"node","id":940422479,"lat":52.5023922,"lon":13.4097176},{"type":"node","id":940422480,"lat":52.5013944,"lon":13.4103071},{"type":"node","id":940422483,"lat":52.5017836,"lon":13.4098129},{"type":"node","id":940422491,"lat":52.5021097,"lon":13.4096831},{"type":"node","id":940422492,"lat":52.5015427,"lon":13.4100563},{"type":"node","id":940422493,"lat":52.5013534,"lon":13.4104003},{"type":"node","id":940422494,"lat":52.5017202,"lon":13.4098626},{"type":"node","id":3844466809,"lat":52.5029665,"lon":13.4101179},{"type":"node","id":3844466810,"lat":52.5030935,"lon":13.4103277},{"type":"node","id":3844466963,"lat":52.5036106,"lon":13.4107871},{"type":"node","id":3844467014,"lat":52.5041448,"lon":13.4111584},{"type":"node","id":4340070712,"lat":52.5010197,"lon":13.4117813},{"type":"node","id":4340070717,"lat":52.5013741,"lon":13.4104882},{"type":"node","id":4340070718,"lat":52.5014471,"lon":13.4103185},{"type":"node","id":4340070720,"lat":52.5016036,"lon":13.4100663},{"type":"node","id":4340070722,"lat":52.5017746,"lon":13.4098953},{"type":"node","id":4340070723,"lat":52.5018417,"lon":13.4098485},{"type":"node","id":4340070724,"lat":52.5019632,"lon":13.4097869},{"type":"node","id":4340070726,"lat":52.5020895,"lon":13.4097533},{"type":"node","id":4340070727,"lat":52.502308,"lon":13.4097617},{"type":"node","id":4340070728,"lat":52.5024493,"lon":13.4098124},{"type":"node","id":4340070730,"lat":52.5025691,"lon":13.4098869},{"type":"node","id":4340070732,"lat":52.5028443,"lon":13.4101076},{"type":"node","id":4718594334,"lat":52.5002572,"lon":13.4147105},{"type":"node","id":5137136200,"lat":52.5023785,"lon":13.4097825},{"type":"node","id":5137136389,"lat":52.5023213,"lon":13.4096968},{"type":"node","id":5137137639,"lat":52.5034034,"lon":13.4106168},{"type":"node","id":5217808588,"lat":52.5028369,"lon":13.4100174},{"type":"node","id":5217808589,"lat":52.5024772,"lon":13.4097559},{"type":"node","id":5217808590,"lat":52.5025283,"lon":13.409784},{"type":"node","id":5217808591,"lat":52.5021986,"lon":13.4096798},{"type":"node","id":5217808592,"lat":52.5020384,"lon":13.4096959},{"type":"node","id":5217808593,"lat":52.5019005,"lon":13.409744},{"type":"node","id":5217808594,"lat":52.5018501,"lon":13.4097713},{"type":"node","id":5217808595,"lat":52.501598,"lon":13.4099854},{"type":"node","id":5217808596,"lat":52.5016579,"lon":13.4099208},{"type":"node","id":5217808597,"lat":52.5014402,"lon":13.410218},{"type":"node","id":5217808598,"lat":52.5014903,"lon":13.4101331},{"type":"node","id":5217808599,"lat":52.5013308,"lon":13.4104613},{"type":"node","id":5217808600,"lat":52.5009761,"lon":13.411783},{"type":"node","id":5217808601,"lat":52.5005453,"lon":13.4132742},{"type":"node","id":5217808602,"lat":52.5000734,"lon":13.4148723},{"type":"node","id":5217808604,"lat":52.5014038,"lon":13.4104128},{"type":"node","id":5217808605,"lat":52.5014948,"lon":13.4102278},{"type":"node","id":5217808606,"lat":52.5015469,"lon":13.4101442},{"type":"node","id":5217808607,"lat":52.5016474,"lon":13.4100149},{"type":"node","id":5217808608,"lat":52.50171,"lon":13.4099506},{"type":"node","id":5217808609,"lat":52.5019105,"lon":13.4098103},{"type":"node","id":5217808610,"lat":52.5020344,"lon":13.4097644},{"type":"node","id":5217808611,"lat":52.5022342,"lon":13.4097489},{"type":"node","id":5217808612,"lat":52.5021626,"lon":13.4097462},{"type":"node","id":5217808613,"lat":52.5025187,"lon":13.4098518},{"type":"node","id":5217808614,"lat":52.5026989,"lon":13.4099895},{"type":"node","id":5217808615,"lat":52.5029547,"lon":13.4102073},{"type":"node","id":5260957213,"lat":52.4995165,"lon":13.4143784},{"type":"node","id":5632437906,"lat":52.5002172,"lon":13.4147178},{"type":"node","id":5632437907,"lat":52.5002325,"lon":13.4147091},{"type":"node","id":5632437908,"lat":52.5002041,"lon":13.4147323},{"type":"node","id":5632437909,"lat":52.5002446,"lon":13.4147071},{"type":"node","id":5632437915,"lat":52.5001947,"lon":13.4147534},{"type":"node","id":8895430699,"lat":52.4986643,"lon":13.4145303},{"type":"node","id":8895430700,"lat":52.498648,"lon":13.4143913},{"type":"node","id":8895430701,"lat":52.4986424,"lon":13.4143111},{"type":"node","id":10674953937,"lat":52.5001429,"lon":13.4146642},{"type":"node","id":10674953939,"lat":52.499789,"lon":13.4145514},{"type":"node","id":10674953941,"lat":52.4996298,"lon":13.4144361},{"type":"node","id":10674953943,"lat":52.4990402,"lon":13.4145551},{"type":"node","id":10882843033,"lat":52.4987783,"lon":13.4149442},{"type":"node","id":10882843034,"lat":52.498765,"lon":13.4148291},{"type":"node","id":11010181869,"lat":52.4994064,"lon":13.4144215},{"type":"node","id":11010181872,"lat":52.4995896,"lon":13.4144071},{"type":"node","id":11010181873,"lat":52.4996458,"lon":13.4144473},{"type":"node","id":11010181877,"lat":52.499778,"lon":13.4145432},{"type":"node","id":11010181878,"lat":52.4998,"lon":13.4145596},{"type":"node","id":11010181879,"lat":52.4999087,"lon":13.4146404},{"type":"node","id":11010190393,"lat":52.4992521,"lon":13.4144027},{"type":"node","id":11010190397,"lat":52.499334,"lon":13.4143009},{"type":"node","id":11010190398,"lat":52.4996681,"lon":13.4142908},{"type":"node","id":11010190399,"lat":52.499436,"lon":13.4141277},{"type":"node","id":11010190400,"lat":52.4994268,"lon":13.4141231},{"type":"node","id":11010190401,"lat":52.4994152,"lon":13.4141243},{"type":"node","id":11010190402,"lat":52.4994054,"lon":13.4141318},{"type":"node","id":11010190403,"lat":52.4993966,"lon":13.414146},{"type":"node","id":11010190404,"lat":52.4993896,"lon":13.4141673},{"type":"node","id":11010205105,"lat":52.4993777,"lon":13.4142039},{"type":"node","id":11010205106,"lat":52.4993576,"lon":13.4142544},{"type":"node","id":11010205107,"lat":52.4993139,"lon":13.4143332},{"type":"node","id":11010205108,"lat":52.4992973,"lon":13.4143576},{"type":"node","id":11010205110,"lat":52.4992777,"lon":13.4143793},{"type":"node","id":11010205111,"lat":52.4992251,"lon":13.4144238},{"type":"node","id":11010205112,"lat":52.4991895,"lon":13.4144426},{"type":"node","id":11010205113,"lat":52.4991515,"lon":13.4144548},{"type":"node","id":11010205114,"lat":52.499117,"lon":13.4144574},{"type":"node","id":11010205115,"lat":52.4990767,"lon":13.4144558},{"type":"node","id":11010205116,"lat":52.4990506,"lon":13.4144505},{"type":"node","id":11010205117,"lat":52.499026,"lon":13.4144412},{"type":"node","id":11010205118,"lat":52.4986699,"lon":13.4142155},{"type":"node","id":11010205119,"lat":52.4989817,"lon":13.4144175},{"type":"node","id":11010205120,"lat":52.4990029,"lon":13.4144304},{"type":"node","id":11010205121,"lat":52.4986994,"lon":13.4142176},{"type":"node","id":11010205122,"lat":52.4986883,"lon":13.4142148},{"type":"node","id":11010205123,"lat":52.4986641,"lon":13.4142189},{"type":"node","id":11010205124,"lat":52.4986554,"lon":13.4142285},{"type":"node","id":11010205125,"lat":52.4986483,"lon":13.4142406},{"type":"node","id":11010205126,"lat":52.4986422,"lon":13.4142568},{"type":"node","id":11010205127,"lat":52.4986408,"lon":13.4142777},{"type":"node","id":11010225111,"lat":52.5000896,"lon":13.4146641},{"type":"node","id":11010225112,"lat":52.5000916,"lon":13.4146481},{"type":"node","id":11010225113,"lat":52.5000915,"lon":13.4146331},{"type":"node","id":11010225114,"lat":52.5000895,"lon":13.4146182},{"type":"node","id":11010225115,"lat":52.5000852,"lon":13.4146024},{"type":"node","id":11010225116,"lat":52.5000793,"lon":13.4145883},{"type":"node","id":11010225117,"lat":52.5000713,"lon":13.414577},{"type":"node","id":11010225118,"lat":52.5000613,"lon":13.4145683},{"type":"node","id":11056960995,"lat":52.4986793,"lon":13.414214},{"type":"node","id":164642935,"lat":52.4996052,"lon":13.4168479},{"type":"node","id":164642936,"lat":52.5000144,"lon":13.4172168},{"type":"node","id":164642937,"lat":52.5002553,"lon":13.4181281},{"type":"node","id":164642941,"lat":52.4999254,"lon":13.4190973},{"type":"node","id":164642942,"lat":52.500156,"lon":13.418227},{"type":"node","id":164642944,"lat":52.4999306,"lon":13.4173312},{"type":"node","id":164642945,"lat":52.4995327,"lon":13.4170901},{"type":"node","id":173964979,"lat":52.4994742,"lon":13.4169867},{"type":"node","id":267214998,"lat":52.4995553,"lon":13.4166806},{"type":"node","id":268469152,"lat":52.4991859,"lon":13.4173776},{"type":"node","id":442649827,"lat":52.4994273,"lon":13.4194144},{"type":"node","id":442649875,"lat":52.4992678,"lon":13.4199831},{"type":"node","id":443952668,"lat":52.4997734,"lon":13.4163304},{"type":"node","id":443952671,"lat":52.499876,"lon":13.4164156},{"type":"node","id":443952675,"lat":52.499715,"lon":13.4165201},{"type":"node","id":443952954,"lat":52.4989007,"lon":13.4159218},{"type":"node","id":443952956,"lat":52.498873,"lon":13.4157039},{"type":"node","id":443952960,"lat":52.4988472,"lon":13.4154948},{"type":"node","id":443952967,"lat":52.4988217,"lon":13.4152876},{"type":"node","id":443953054,"lat":52.4990345,"lon":13.4161552},{"type":"node","id":443953057,"lat":52.4989348,"lon":13.4161894},{"type":"node","id":443953060,"lat":52.4991023,"lon":13.4165372},{"type":"node","id":443953062,"lat":52.4989819,"lon":13.4165769},{"type":"node","id":443953063,"lat":52.4991318,"lon":13.4167388},{"type":"node","id":443953064,"lat":52.4990062,"lon":13.4167631},{"type":"node","id":443953066,"lat":52.4991854,"lon":13.4169336},{"type":"node","id":443953068,"lat":52.4990592,"lon":13.4169716},{"type":"node","id":443953079,"lat":52.499762,"lon":13.4155933},{"type":"node","id":443953123,"lat":52.499705,"lon":13.4157865},{"type":"node","id":443953129,"lat":52.499649,"lon":13.4159801},{"type":"node","id":443953132,"lat":52.4995725,"lon":13.4159187},{"type":"node","id":443953135,"lat":52.4995958,"lon":13.4161631},{"type":"node","id":443953137,"lat":52.4995202,"lon":13.4160993},{"type":"node","id":443953139,"lat":52.499542,"lon":13.4163442},{"type":"node","id":443953141,"lat":52.4994335,"lon":13.4162552},{"type":"node","id":443953142,"lat":52.4994871,"lon":13.4165293},{"type":"node","id":443953155,"lat":52.4994653,"lon":13.4161511},{"type":"node","id":443953159,"lat":52.499394,"lon":13.4161128},{"type":"node","id":443953206,"lat":52.4994332,"lon":13.416026},{"type":"node","id":443953209,"lat":52.4994026,"lon":13.4163598},{"type":"node","id":443953210,"lat":52.4992961,"lon":13.416226},{"type":"node","id":443953211,"lat":52.4992993,"lon":13.4160683},{"type":"node","id":443953213,"lat":52.4992402,"lon":13.4160858},{"type":"node","id":443953216,"lat":52.4992242,"lon":13.4163059},{"type":"node","id":443953219,"lat":52.4990838,"lon":13.4171918},{"type":"node","id":443953221,"lat":52.4993228,"lon":13.4168922},{"type":"node","id":443953225,"lat":52.4993385,"lon":13.4170325},{"type":"node","id":622290142,"lat":52.4994573,"lon":13.4167896},{"type":"node","id":622290143,"lat":52.4995518,"lon":13.416917},{"type":"node","id":660898967,"lat":52.4999685,"lon":13.4168792},{"type":"node","id":672945391,"lat":52.4994349,"lon":13.4169852},{"type":"node","id":775717227,"lat":52.4995461,"lon":13.4193368},{"type":"node","id":775717244,"lat":52.5002196,"lon":13.4182685},{"type":"node","id":799000194,"lat":52.5001007,"lon":13.4184412},{"type":"node","id":815343294,"lat":52.4992621,"lon":13.4177047},{"type":"node","id":815343363,"lat":52.4999928,"lon":13.417744},{"type":"node","id":860259082,"lat":52.500024,"lon":13.4177225},{"type":"node","id":860259084,"lat":52.499692,"lon":13.4172253},{"type":"node","id":860259086,"lat":52.5001179,"lon":13.4176572},{"type":"node","id":872318155,"lat":52.4990237,"lon":13.416896},{"type":"node","id":874259348,"lat":52.4995161,"lon":13.4170555},{"type":"node","id":874259349,"lat":52.4994495,"lon":13.4172782},{"type":"node","id":1286990135,"lat":52.4993224,"lon":13.4164499},{"type":"node","id":1286990136,"lat":52.4994567,"lon":13.4166306},{"type":"node","id":1286990145,"lat":52.4999601,"lon":13.4161424},{"type":"node","id":1286990149,"lat":52.4992336,"lon":13.4163733},{"type":"node","id":1286990150,"lat":52.4994036,"lon":13.416588},{"type":"node","id":1286990154,"lat":52.4996534,"lon":13.4167664},{"type":"node","id":1286990155,"lat":52.4992805,"lon":13.4167782},{"type":"node","id":1286990162,"lat":52.4993352,"lon":13.4165969},{"type":"node","id":1286990175,"lat":52.4993025,"lon":13.4167955},{"type":"node","id":1286990195,"lat":52.4992688,"lon":13.4169085},{"type":"node","id":1286990201,"lat":52.4992053,"lon":13.416502},{"type":"node","id":1286990212,"lat":52.4998533,"lon":13.4160588},{"type":"node","id":1286990213,"lat":52.4991933,"lon":13.4167884},{"type":"node","id":1286990216,"lat":52.499187,"lon":13.4167311},{"type":"node","id":1286990224,"lat":52.4992182,"lon":13.4167861},{"type":"node","id":1814667718,"lat":52.499942,"lon":13.4169779},{"type":"node","id":2006373765,"lat":52.4998681,"lon":13.4173858},{"type":"node","id":2006373767,"lat":52.500013,"lon":13.4178669},{"type":"node","id":2616390943,"lat":52.5000678,"lon":13.4185675},{"type":"node","id":2677616767,"lat":52.4992742,"lon":13.4176629},{"type":"node","id":2709914334,"lat":52.4993643,"lon":13.4199791},{"type":"node","id":2783346072,"lat":52.4994653,"lon":13.4165856},{"type":"node","id":3454199875,"lat":52.5000527,"lon":13.418168},{"type":"node","id":3880659198,"lat":52.4994886,"lon":13.4168029},{"type":"node","id":3900136324,"lat":52.4994214,"lon":13.4180372},{"type":"node","id":3900136330,"lat":52.4994664,"lon":13.4167602},{"type":"node","id":3900136336,"lat":52.4995558,"lon":13.416903},{"type":"node","id":4030311571,"lat":52.4999512,"lon":13.4175642},{"type":"node","id":4030322339,"lat":52.499364,"lon":13.4199297},{"type":"node","id":4077774874,"lat":52.4982791,"lon":13.4186172},{"type":"node","id":4340070690,"lat":52.4983702,"lon":13.4187817},{"type":"node","id":4340070693,"lat":52.4984681,"lon":13.4187167},{"type":"node","id":4340070702,"lat":52.4986458,"lon":13.4185391},{"type":"node","id":4340070706,"lat":52.4990051,"lon":13.4180328},{"type":"node","id":4340070710,"lat":52.4993579,"lon":13.4174241},{"type":"node","id":4495108489,"lat":52.4992294,"lon":13.4168687},{"type":"node","id":4495108490,"lat":52.4993244,"lon":13.4165485},{"type":"node","id":4495108491,"lat":52.4993838,"lon":13.4165222},{"type":"node","id":4606652445,"lat":52.4984708,"lon":13.4184441},{"type":"node","id":4606652446,"lat":52.4986793,"lon":13.4181542},{"type":"node","id":4606652447,"lat":52.49855,"lon":13.4186493},{"type":"node","id":4606652448,"lat":52.4988199,"lon":13.4183056},{"type":"node","id":4606652450,"lat":52.4988617,"lon":13.4182435},{"type":"node","id":4606652451,"lat":52.4987938,"lon":13.4179881},{"type":"node","id":4606652452,"lat":52.4990605,"lon":13.4179486},{"type":"node","id":4606652453,"lat":52.4990054,"lon":13.4176657},{"type":"node","id":4606652458,"lat":52.4992057,"lon":13.4176382},{"type":"node","id":4606652459,"lat":52.4992214,"lon":13.4175852},{"type":"node","id":4606652460,"lat":52.4994454,"lon":13.4167425},{"type":"node","id":4606652461,"lat":52.4993255,"lon":13.4177652},{"type":"node","id":4606652462,"lat":52.4995191,"lon":13.4171135},{"type":"node","id":4606652463,"lat":52.4995746,"lon":13.4169182},{"type":"node","id":4714615145,"lat":52.4993044,"lon":13.4171808},{"type":"node","id":4714615146,"lat":52.499262,"lon":13.4176023},{"type":"node","id":4714615147,"lat":52.4994087,"lon":13.4173231},{"type":"node","id":4714615148,"lat":52.4996097,"lon":13.4164366},{"type":"node","id":4714615149,"lat":52.4994622,"lon":13.4171829},{"type":"node","id":4714615150,"lat":52.4994836,"lon":13.4170504},{"type":"node","id":4714615151,"lat":52.4994069,"lon":13.4169819},{"type":"node","id":4714615152,"lat":52.4995068,"lon":13.4170711},{"type":"node","id":4714615412,"lat":52.4994353,"lon":13.4168651},{"type":"node","id":4714615413,"lat":52.499431,"lon":13.4168806},{"type":"node","id":4714615414,"lat":52.4994208,"lon":13.416938},{"type":"node","id":4714615415,"lat":52.4995248,"lon":13.4170113},{"type":"node","id":4714615416,"lat":52.4995293,"lon":13.4169958},{"type":"node","id":4714615417,"lat":52.4995198,"lon":13.4170288},{"type":"node","id":4714615418,"lat":52.4994287,"lon":13.4169441},{"type":"node","id":4714615419,"lat":52.499405,"lon":13.4169262},{"type":"node","id":4714615420,"lat":52.4995277,"lon":13.4170395},{"type":"node","id":4714615421,"lat":52.4995106,"lon":13.4170222},{"type":"node","id":4714615422,"lat":52.4994721,"lon":13.4170851},{"type":"node","id":4714615423,"lat":52.4994409,"lon":13.4170576},{"type":"node","id":4714615424,"lat":52.4994833,"lon":13.4170975},{"type":"node","id":4714615459,"lat":52.4995287,"lon":13.4170353},{"type":"node","id":4714615460,"lat":52.499534,"lon":13.4170184},{"type":"node","id":4714615461,"lat":52.4995156,"lon":13.4170042},{"type":"node","id":4714615462,"lat":52.4995201,"lon":13.4169887},{"type":"node","id":4714615463,"lat":52.4995384,"lon":13.4170028},{"type":"node","id":4714615464,"lat":52.499561,"lon":13.4169241},{"type":"node","id":4714615465,"lat":52.4995427,"lon":13.4169099},{"type":"node","id":4714615706,"lat":52.4994046,"lon":13.4172213},{"type":"node","id":4714615712,"lat":52.4994195,"lon":13.4172376},{"type":"node","id":4714615713,"lat":52.4993898,"lon":13.4172049},{"type":"node","id":4714615714,"lat":52.4994236,"lon":13.4171221},{"type":"node","id":4714615715,"lat":52.4994533,"lon":13.4171548},{"type":"node","id":4714615716,"lat":52.4994386,"lon":13.4171385},{"type":"node","id":4714615717,"lat":52.4994585,"lon":13.4171605},{"type":"node","id":4714615718,"lat":52.4994187,"lon":13.4171167},{"type":"node","id":4714615719,"lat":52.4995291,"lon":13.4170407},{"type":"node","id":4714615720,"lat":52.4995051,"lon":13.4171157},{"type":"node","id":4714615721,"lat":52.4993817,"lon":13.4170084},{"type":"node","id":4714615722,"lat":52.4994281,"lon":13.4169462},{"type":"node","id":4714615724,"lat":52.4994414,"lon":13.4168888},{"type":"node","id":4714615725,"lat":52.4994204,"lon":13.4168722},{"type":"node","id":4714615727,"lat":52.4994458,"lon":13.4168734},{"type":"node","id":4714615728,"lat":52.4994678,"lon":13.4167979},{"type":"node","id":4714615729,"lat":52.4994468,"lon":13.4167814},{"type":"node","id":4718594335,"lat":52.4994169,"lon":13.4172826},{"type":"node","id":4718594336,"lat":52.4994868,"lon":13.4180247},{"type":"node","id":4718594337,"lat":52.4995861,"lon":13.4180066},{"type":"node","id":4718594338,"lat":52.4996537,"lon":13.4180288},{"type":"node","id":4718594339,"lat":52.4997011,"lon":13.4180584},{"type":"node","id":4718594340,"lat":52.5012664,"lon":13.419112},{"type":"node","id":4718594341,"lat":52.5019602,"lon":13.4166214},{"type":"node","id":4718594342,"lat":52.5017732,"lon":13.4164434},{"type":"node","id":4718594343,"lat":52.5004995,"lon":13.4173892},{"type":"node","id":4718594344,"lat":52.5004547,"lon":13.4172186},{"type":"node","id":4718594345,"lat":52.501575,"lon":13.4163899},{"type":"node","id":4718594346,"lat":52.5016182,"lon":13.4163529},{"type":"node","id":4718594347,"lat":52.5013989,"lon":13.4161721},{"type":"node","id":4718594348,"lat":52.5015373,"lon":13.4156583},{"type":"node","id":4878240295,"lat":52.4999064,"lon":13.4190997},{"type":"node","id":4878240303,"lat":52.4999181,"lon":13.4190914},{"type":"node","id":5217808550,"lat":52.4983466,"lon":13.4185678},{"type":"node","id":5217808551,"lat":52.4983935,"lon":13.4185255},{"type":"node","id":5217808552,"lat":52.4979732,"lon":13.4187903},{"type":"node","id":5217808553,"lat":52.4977674,"lon":13.418899},{"type":"node","id":5217808580,"lat":52.4979388,"lon":13.418989},{"type":"node","id":5217808581,"lat":52.4991653,"lon":13.4177743},{"type":"node","id":5217808582,"lat":52.4994965,"lon":13.4170818},{"type":"node","id":5217808583,"lat":52.4995627,"lon":13.4168422},{"type":"node","id":5217808584,"lat":52.4995276,"lon":13.4169775},{"type":"node","id":5217808585,"lat":52.4996188,"lon":13.4165941},{"type":"node","id":5217808586,"lat":52.4995766,"lon":13.4165405},{"type":"node","id":5217808587,"lat":52.4994539,"lon":13.4168708},{"type":"node","id":5217808603,"lat":52.4996601,"lon":13.4164298},{"type":"node","id":5260957168,"lat":52.4991576,"lon":13.416733},{"type":"node","id":5260957169,"lat":52.499159,"lon":13.4167669},{"type":"node","id":5260957170,"lat":52.499187,"lon":13.4167622},{"type":"node","id":5260957171,"lat":52.4991874,"lon":13.4167264},{"type":"node","id":5260957172,"lat":52.4991951,"lon":13.4166304},{"type":"node","id":5260957173,"lat":52.4991365,"lon":13.4166435},{"type":"node","id":5260957180,"lat":52.4993687,"lon":13.4161182},{"type":"node","id":5260957181,"lat":52.4993608,"lon":13.4160486},{"type":"node","id":5260957182,"lat":52.4994459,"lon":13.4161522},{"type":"node","id":5260957183,"lat":52.4994526,"lon":13.4161392},{"type":"node","id":5260957184,"lat":52.4993875,"lon":13.4163597},{"type":"node","id":5260957185,"lat":52.4993857,"lon":13.4163266},{"type":"node","id":5260957186,"lat":52.4993054,"lon":13.4162583},{"type":"node","id":5260957187,"lat":52.499306,"lon":13.4161182},{"type":"node","id":5260957188,"lat":52.4993445,"lon":13.4170864},{"type":"node","id":5260957189,"lat":52.4993074,"lon":13.4170976},{"type":"node","id":5260957190,"lat":52.4993103,"lon":13.4171237},{"type":"node","id":5260957193,"lat":52.4990348,"lon":13.416982},{"type":"node","id":5260957194,"lat":52.4991813,"lon":13.4169027},{"type":"node","id":5260957195,"lat":52.4991889,"lon":13.4168562},{"type":"node","id":5260957196,"lat":52.4991522,"lon":13.4168626},{"type":"node","id":5260957197,"lat":52.4991425,"lon":13.4168474},{"type":"node","id":5260957198,"lat":52.4991401,"lon":13.4167369},{"type":"node","id":5260957199,"lat":52.4991317,"lon":13.4166559},{"type":"node","id":5559309862,"lat":52.5019537,"lon":13.4165788},{"type":"node","id":5559309863,"lat":52.5019593,"lon":13.4165871},{"type":"node","id":5559309864,"lat":52.501221,"lon":13.419143},{"type":"node","id":5559309865,"lat":52.5012387,"lon":13.4191434},{"type":"node","id":5559309866,"lat":52.5012594,"lon":13.4191273},{"type":"node","id":5559429800,"lat":52.4992119,"lon":13.4195603},{"type":"node","id":5559429801,"lat":52.499188,"lon":13.4195042},{"type":"node","id":5559429802,"lat":52.4991862,"lon":13.419389},{"type":"node","id":5559429803,"lat":52.4992059,"lon":13.4193888},{"type":"node","id":5559429804,"lat":52.4992041,"lon":13.4189073},{"type":"node","id":5559429805,"lat":52.49922,"lon":13.4187814},{"type":"node","id":5559429806,"lat":52.4992321,"lon":13.4187438},{"type":"node","id":5559429807,"lat":52.4992489,"lon":13.4187085},{"type":"node","id":5559429808,"lat":52.4993806,"lon":13.4183648},{"type":"node","id":5559429809,"lat":52.4993986,"lon":13.4183723},{"type":"node","id":5559429810,"lat":52.4994061,"lon":13.4182925},{"type":"node","id":5559429811,"lat":52.4994298,"lon":13.4182506},{"type":"node","id":5559429813,"lat":52.4994808,"lon":13.4182142},{"type":"node","id":5559429814,"lat":52.4994737,"lon":13.4181817},{"type":"node","id":5559429815,"lat":52.499534,"lon":13.4181562},{"type":"node","id":5559429816,"lat":52.4996049,"lon":13.4181609},{"type":"node","id":5559429817,"lat":52.4996342,"lon":13.4181735},{"type":"node","id":5559429818,"lat":52.4996617,"lon":13.4181923},{"type":"node","id":5559429819,"lat":52.4996544,"lon":13.4182184},{"type":"node","id":5559429820,"lat":52.5000095,"lon":13.4184696},{"type":"node","id":5600476288,"lat":52.5001815,"lon":13.4182437},{"type":"node","id":5600476289,"lat":52.5002042,"lon":13.4182585},{"type":"node","id":5600476291,"lat":52.5001886,"lon":13.4182482},{"type":"node","id":5600476292,"lat":52.4996221,"lon":13.4168852},{"type":"node","id":5600476293,"lat":52.4995914,"lon":13.4169956},{"type":"node","id":5600476294,"lat":52.4996176,"lon":13.4170149},{"type":"node","id":5600476295,"lat":52.4997632,"lon":13.4169775},{"type":"node","id":5600476296,"lat":52.4997722,"lon":13.4169839},{"type":"node","id":5600476297,"lat":52.4997571,"lon":13.4170012},{"type":"node","id":5600476298,"lat":52.4997953,"lon":13.4170279},{"type":"node","id":5600476299,"lat":52.499778,"lon":13.4170945},{"type":"node","id":5600476300,"lat":52.4997292,"lon":13.4170604},{"type":"node","id":5600476301,"lat":52.4999187,"lon":13.4170706},{"type":"node","id":5600476306,"lat":52.4999687,"lon":13.417115},{"type":"node","id":5600476307,"lat":52.500014,"lon":13.4171934},{"type":"node","id":5600476308,"lat":52.5001373,"lon":13.4177386},{"type":"node","id":5600476313,"lat":52.5000412,"lon":13.4177929},{"type":"node","id":5600476314,"lat":52.5000106,"lon":13.4176666},{"type":"node","id":5600476315,"lat":52.5001057,"lon":13.4176052},{"type":"node","id":5600476429,"lat":52.49946,"lon":13.418228},{"type":"node","id":5600476430,"lat":52.4995723,"lon":13.4181543},{"type":"node","id":5600476431,"lat":52.4992835,"lon":13.4177874},{"type":"node","id":5600476432,"lat":52.4993024,"lon":13.4178158},{"type":"node","id":5600476433,"lat":52.4992839,"lon":13.4178404},{"type":"node","id":5600476434,"lat":52.4993504,"lon":13.4179847},{"type":"node","id":5600476435,"lat":52.4993693,"lon":13.4179642},{"type":"node","id":5600476436,"lat":52.4993794,"lon":13.4179923},{"type":"node","id":5600476437,"lat":52.499398,"lon":13.4180191},{"type":"node","id":5600476438,"lat":52.4994311,"lon":13.4180413},{"type":"node","id":5600476439,"lat":52.4994542,"lon":13.4180414},{"type":"node","id":5600476440,"lat":52.4995059,"lon":13.4180183},{"type":"node","id":5600476441,"lat":52.4995502,"lon":13.4180074},{"type":"node","id":5600476442,"lat":52.4996338,"lon":13.4180189},{"type":"node","id":5600476443,"lat":52.4997827,"lon":13.4172899},{"type":"node","id":5600476446,"lat":52.5000416,"lon":13.4181102},{"type":"node","id":5600476447,"lat":52.5000735,"lon":13.4182905},{"type":"node","id":5600476448,"lat":52.5000804,"lon":13.4183691},{"type":"node","id":5600476464,"lat":52.5001409,"lon":13.4182854},{"type":"node","id":5600476675,"lat":52.499513,"lon":13.4193584},{"type":"node","id":5600476695,"lat":52.4999079,"lon":13.4173155},{"type":"node","id":5600476696,"lat":52.4999911,"lon":13.4188658},{"type":"node","id":5600476697,"lat":52.4999665,"lon":13.418959},{"type":"node","id":5600476698,"lat":52.4999626,"lon":13.4189561},{"type":"node","id":5600476699,"lat":52.4999871,"lon":13.418863},{"type":"node","id":5600476710,"lat":52.4997688,"lon":13.4169078},{"type":"node","id":5600476711,"lat":52.4997617,"lon":13.4169349},{"type":"node","id":5600476712,"lat":52.4997885,"lon":13.4169215},{"type":"node","id":5600476713,"lat":52.4997395,"lon":13.4169193},{"type":"node","id":5600476714,"lat":52.4997343,"lon":13.4169392},{"type":"node","id":5600476715,"lat":52.4997763,"lon":13.4169685},{"type":"node","id":5600476716,"lat":52.4997022,"lon":13.4169425},{"type":"node","id":5600476717,"lat":52.4996521,"lon":13.4169069},{"type":"node","id":5600476718,"lat":52.4996578,"lon":13.4168852},{"type":"node","id":5600476719,"lat":52.4997079,"lon":13.4169208},{"type":"node","id":5600476720,"lat":52.499885,"lon":13.4170682},{"type":"node","id":5600476821,"lat":52.4998288,"lon":13.4170299},{"type":"node","id":5600476822,"lat":52.4998345,"lon":13.4170093},{"type":"node","id":5600476823,"lat":52.4998892,"lon":13.4170505},{"type":"node","id":5600476824,"lat":52.500162,"lon":13.4182035},{"type":"node","id":5600476825,"lat":52.5001372,"lon":13.4181859},{"type":"node","id":5600476826,"lat":52.5000334,"lon":13.41866},{"type":"node","id":5600476827,"lat":52.5000126,"lon":13.4187392},{"type":"node","id":5600476828,"lat":52.5000426,"lon":13.4186682},{"type":"node","id":5600476829,"lat":52.5000186,"lon":13.4187433},{"type":"node","id":5600476900,"lat":52.499362,"lon":13.4196541},{"type":"node","id":5600476901,"lat":52.4994303,"lon":13.4196503},{"type":"node","id":5600476926,"lat":52.5002534,"lon":13.4181086},{"type":"node","id":5600476927,"lat":52.5002362,"lon":13.4180966},{"type":"node","id":5600476928,"lat":52.5002242,"lon":13.4181043},{"type":"node","id":5600476929,"lat":52.5000095,"lon":13.4172122},{"type":"node","id":5600476930,"lat":52.5000081,"lon":13.4172029},{"type":"node","id":5600476931,"lat":52.49996,"lon":13.4171292},{"type":"node","id":5600476932,"lat":52.4999568,"lon":13.417117},{"type":"node","id":5600476933,"lat":52.4999627,"lon":13.4171007},{"type":"node","id":5600476934,"lat":52.4995846,"lon":13.4169655},{"type":"node","id":5600476935,"lat":52.4995776,"lon":13.4169887},{"type":"node","id":5600476936,"lat":52.4995659,"lon":13.4169792},{"type":"node","id":5600476937,"lat":52.4995728,"lon":13.4169561},{"type":"node","id":5600476938,"lat":52.4997769,"lon":13.4172157},{"type":"node","id":5600476939,"lat":52.4998212,"lon":13.4172467},{"type":"node","id":5600476940,"lat":52.4997668,"lon":13.4172548},{"type":"node","id":5600476941,"lat":52.4998111,"lon":13.4172858},{"type":"node","id":5600476942,"lat":52.4995877,"lon":13.4171297},{"type":"node","id":5600476943,"lat":52.499598,"lon":13.4170899},{"type":"node","id":5600476944,"lat":52.4996214,"lon":13.4171063},{"type":"node","id":5600476945,"lat":52.4996111,"lon":13.4171461},{"type":"node","id":5600476946,"lat":52.4998549,"lon":13.4173163},{"type":"node","id":5600476947,"lat":52.4998629,"lon":13.4172842},{"type":"node","id":5632437763,"lat":52.4996723,"lon":13.4166709},{"type":"node","id":5632437818,"lat":52.4998176,"lon":13.4166053},{"type":"node","id":5632437904,"lat":52.5014534,"lon":13.4155755},{"type":"node","id":5632437905,"lat":52.5013742,"lon":13.4155177},{"type":"node","id":5632437910,"lat":52.4995593,"lon":13.4168194},{"type":"node","id":5632437911,"lat":52.499566,"lon":13.4168148},{"type":"node","id":5632437912,"lat":52.4995532,"lon":13.4168264},{"type":"node","id":5632437913,"lat":52.4995723,"lon":13.4168156},{"type":"node","id":5632437914,"lat":52.4995798,"lon":13.4168207},{"type":"node","id":5632437916,"lat":52.49955,"lon":13.4168343},{"type":"node","id":5632437917,"lat":52.5015375,"lon":13.4156492},{"type":"node","id":5632437918,"lat":52.5015353,"lon":13.4156399},{"type":"node","id":5632437919,"lat":52.5015303,"lon":13.4156328},{"type":"node","id":5632437920,"lat":52.5016121,"lon":13.4163355},{"type":"node","id":5632437921,"lat":52.5016037,"lon":13.4163236},{"type":"node","id":5632437922,"lat":52.5003627,"lon":13.4174885},{"type":"node","id":5632437923,"lat":52.5003696,"lon":13.4174722},{"type":"node","id":5632437924,"lat":52.5003814,"lon":13.4174535},{"type":"node","id":5632437925,"lat":52.5003533,"lon":13.417518},{"type":"node","id":5632437926,"lat":52.5003475,"lon":13.4175312},{"type":"node","id":5632437927,"lat":52.5003385,"lon":13.417547},{"type":"node","id":5632437928,"lat":52.500328,"lon":13.4175592},{"type":"node","id":5632437929,"lat":52.5003152,"lon":13.4175697},{"type":"node","id":5632437930,"lat":52.5003027,"lon":13.4175767},{"type":"node","id":5632437931,"lat":52.5002748,"lon":13.4175782},{"type":"node","id":5632437932,"lat":52.5002587,"lon":13.4175721},{"type":"node","id":5632437933,"lat":52.5002457,"lon":13.4175628},{"type":"node","id":5632437934,"lat":52.5002326,"lon":13.4175477},{"type":"node","id":5632437935,"lat":52.5002209,"lon":13.4175279},{"type":"node","id":5632437936,"lat":52.5002135,"lon":13.4175082},{"type":"node","id":5632437937,"lat":52.5002896,"lon":13.4175785},{"type":"node","id":5632437938,"lat":52.5002045,"lon":13.4174565},{"type":"node","id":5632437939,"lat":52.5002041,"lon":13.4174328},{"type":"node","id":5632437940,"lat":52.5002078,"lon":13.4174052},{"type":"node","id":5632437941,"lat":52.5002158,"lon":13.4173773},{"type":"node","id":5632437942,"lat":52.5002246,"lon":13.4173564},{"type":"node","id":5632437943,"lat":52.5002345,"lon":13.4173419},{"type":"node","id":5632437944,"lat":52.5002464,"lon":13.4173294},{"type":"node","id":5632437945,"lat":52.5002575,"lon":13.4173206},{"type":"node","id":5632437946,"lat":52.500272,"lon":13.4173151},{"type":"node","id":5632437947,"lat":52.5002852,"lon":13.4173128},{"type":"node","id":5632437948,"lat":52.5002973,"lon":13.4173155},{"type":"node","id":5632437949,"lat":52.500309,"lon":13.4173196},{"type":"node","id":5632437950,"lat":52.5003227,"lon":13.4173287},{"type":"node","id":5632437951,"lat":52.5003344,"lon":13.4173372},{"type":"node","id":5632437952,"lat":52.500345,"lon":13.4173423},{"type":"node","id":5632437953,"lat":52.5003538,"lon":13.4173432},{"type":"node","id":5632437954,"lat":52.5003671,"lon":13.4173423},{"type":"node","id":5632437955,"lat":52.5003782,"lon":13.4173384},{"type":"node","id":5632437956,"lat":52.5004638,"lon":13.4172762},{"type":"node","id":5632437957,"lat":52.5002072,"lon":13.4174845},{"type":"node","id":5632437959,"lat":52.5004003,"lon":13.4174293},{"type":"node","id":5632437960,"lat":52.500486,"lon":13.4173637},{"type":"node","id":5632437961,"lat":52.5004667,"lon":13.417271},{"type":"node","id":5632437962,"lat":52.5004888,"lon":13.4173635},{"type":"node","id":5632437963,"lat":52.5004936,"lon":13.4173695},{"type":"node","id":5632437964,"lat":52.5004669,"lon":13.4172622},{"type":"node","id":5632437968,"lat":52.5019623,"lon":13.416609},{"type":"node","id":5632437969,"lat":52.5019618,"lon":13.4165985},{"type":"node","id":7230700366,"lat":52.499502,"lon":13.4170141},{"type":"node","id":7444874762,"lat":52.500523,"lon":13.4186421},{"type":"node","id":7444874763,"lat":52.5006461,"lon":13.4187297},{"type":"node","id":7606199828,"lat":52.4989266,"lon":13.4161247},{"type":"node","id":8026452861,"lat":52.4994209,"lon":13.4170536},{"type":"node","id":8026452862,"lat":52.499273,"lon":13.4175515},{"type":"node","id":8078047470,"lat":52.4995322,"lon":13.4167918},{"type":"node","id":8078047472,"lat":52.4999093,"lon":13.4154572},{"type":"node","id":8078047473,"lat":52.4997799,"lon":13.4163068},{"type":"node","id":8078047474,"lat":52.4998834,"lon":13.4163909},{"type":"node","id":8078047479,"lat":52.4996824,"lon":13.4162277},{"type":"node","id":8078047481,"lat":52.4997709,"lon":13.4155638},{"type":"node","id":8078047487,"lat":52.4998576,"lon":13.415633},{"type":"node","id":8078047493,"lat":52.4996875,"lon":13.4162104},{"type":"node","id":8078047494,"lat":52.4996019,"lon":13.4161419},{"type":"node","id":8078047495,"lat":52.499698,"lon":13.4158107},{"type":"node","id":8078047497,"lat":52.4997852,"lon":13.4158788},{"type":"node","id":8078047499,"lat":52.499446,"lon":13.4172684},{"type":"node","id":8078047500,"lat":52.4995088,"lon":13.4170052},{"type":"node","id":8078047501,"lat":52.4995167,"lon":13.4170313},{"type":"node","id":8078047502,"lat":52.4995061,"lon":13.4169823},{"type":"node","id":8842053179,"lat":52.4992792,"lon":13.4177713},{"type":"node","id":8842053182,"lat":52.4992791,"lon":13.4177556},{"type":"node","id":8842053183,"lat":52.4993327,"lon":13.4179379},{"type":"node","id":8842053184,"lat":52.4993109,"lon":13.4178876},{"type":"node","id":8842053185,"lat":52.4993771,"lon":13.4183853},{"type":"node","id":8842053186,"lat":52.4993582,"lon":13.4184343},{"type":"node","id":8842053187,"lat":52.4992324,"lon":13.4186882},{"type":"node","id":8842053200,"lat":52.4995046,"lon":13.4181644},{"type":"node","id":8842053201,"lat":52.4994231,"lon":13.4182567},{"type":"node","id":8895430519,"lat":52.4992521,"lon":13.4176303},{"type":"node","id":8895430520,"lat":52.4990082,"lon":13.4170775},{"type":"node","id":8895430522,"lat":52.4994945,"lon":13.4166614},{"type":"node","id":8895430523,"lat":52.5000616,"lon":13.4183558},{"type":"node","id":8895430524,"lat":52.4992057,"lon":13.4193565},{"type":"node","id":8895430543,"lat":52.4992435,"lon":13.4187019},{"type":"node","id":8895430550,"lat":52.4993704,"lon":13.4184073},{"type":"node","id":8895430553,"lat":52.4993119,"lon":13.417832},{"type":"node","id":8895430555,"lat":52.4992085,"lon":13.4188491},{"type":"node","id":8895430556,"lat":52.4992125,"lon":13.4188193},{"type":"node","id":8895430557,"lat":52.4992054,"lon":13.4188784},{"type":"node","id":8895430570,"lat":52.4996572,"lon":13.4182084},{"type":"node","id":8895430577,"lat":52.4994785,"lon":13.4182037},{"type":"node","id":8895430596,"lat":52.4993921,"lon":13.4183696},{"type":"node","id":8895430597,"lat":52.4994139,"lon":13.418268},{"type":"node","id":8895430598,"lat":52.4994088,"lon":13.4182784},{"type":"node","id":8895430599,"lat":52.4994047,"lon":13.4183201},{"type":"node","id":8895430600,"lat":52.4994021,"lon":13.4183471},{"type":"node","id":8895430609,"lat":52.4992434,"lon":13.4177571},{"type":"node","id":8895430616,"lat":52.4993637,"lon":13.4179703},{"type":"node","id":8895430617,"lat":52.4992972,"lon":13.4178227},{"type":"node","id":8895430621,"lat":52.499529,"lon":13.4180112},{"type":"node","id":8895430622,"lat":52.4996163,"lon":13.4180119},{"type":"node","id":8895430623,"lat":52.4994697,"lon":13.4180334},{"type":"node","id":8895430624,"lat":52.4993882,"lon":13.4180088},{"type":"node","id":8895430625,"lat":52.4996268,"lon":13.4167423},{"type":"node","id":8895430626,"lat":52.4994248,"lon":13.4168569},{"type":"node","id":8895430627,"lat":52.4994208,"lon":13.4170333},{"type":"node","id":8895430628,"lat":52.4993854,"lon":13.4169454},{"type":"node","id":8895430629,"lat":52.4994854,"lon":13.4166062},{"type":"node","id":8895430636,"lat":52.4992854,"lon":13.4177339},{"type":"node","id":8895430637,"lat":52.4992386,"lon":13.4176753},{"type":"node","id":8895430639,"lat":52.4994735,"lon":13.4167328},{"type":"node","id":8895430640,"lat":52.4994937,"lon":13.4167497},{"type":"node","id":8895430641,"lat":52.4994988,"lon":13.4167579},{"type":"node","id":8895430642,"lat":52.4995018,"lon":13.4167659},{"type":"node","id":8895430643,"lat":52.499503,"lon":13.4167807},{"type":"node","id":8895430644,"lat":52.4995008,"lon":13.4167962},{"type":"node","id":8895430645,"lat":52.4992324,"lon":13.4176963},{"type":"node","id":8895430646,"lat":52.4992291,"lon":13.4177056},{"type":"node","id":8895430647,"lat":52.4992251,"lon":13.4177103},{"type":"node","id":8895430648,"lat":52.4992213,"lon":13.4177124},{"type":"node","id":8895430649,"lat":52.4992164,"lon":13.4177127},{"type":"node","id":8895430650,"lat":52.4992124,"lon":13.4177105},{"type":"node","id":8895430651,"lat":52.4991495,"lon":13.417627},{"type":"node","id":8895430652,"lat":52.4991431,"lon":13.4176234},{"type":"node","id":8895430653,"lat":52.4991373,"lon":13.4176241},{"type":"node","id":8895430654,"lat":52.4991133,"lon":13.4175909},{"type":"node","id":8895430696,"lat":52.4988921,"lon":13.4161366},{"type":"node","id":8895430697,"lat":52.4988159,"lon":13.4155176},{"type":"node","id":8895430698,"lat":52.4987926,"lon":13.4153659},{"type":"node","id":8895430704,"lat":52.4990225,"lon":13.4171746},{"type":"node","id":8895430709,"lat":52.4990683,"lon":13.4174234},{"type":"node","id":8895430716,"lat":52.4990999,"lon":13.417565},{"type":"node","id":8895430717,"lat":52.4991321,"lon":13.417627},{"type":"node","id":8895430718,"lat":52.4990943,"lon":13.4175533},{"type":"node","id":8895430719,"lat":52.4990852,"lon":13.417524},{"type":"node","id":8895430720,"lat":52.4990776,"lon":13.4174899},{"type":"node","id":8895430721,"lat":52.4990407,"lon":13.4172171},{"type":"node","id":8895430722,"lat":52.4990263,"lon":13.4171835},{"type":"node","id":8895430723,"lat":52.4990436,"lon":13.417231},{"type":"node","id":8895430724,"lat":52.4990352,"lon":13.4172038},{"type":"node","id":8895430725,"lat":52.4990186,"lon":13.4171596},{"type":"node","id":8895430726,"lat":52.4989974,"lon":13.4169927},{"type":"node","id":8895430727,"lat":52.4992108,"lon":13.4199831},{"type":"node","id":9010446322,"lat":52.5012306,"lon":13.419145},{"type":"node","id":9010446323,"lat":52.5012476,"lon":13.4191394},{"type":"node","id":9210223975,"lat":52.4994095,"lon":13.4180302},{"type":"node","id":9755765808,"lat":52.4990033,"lon":13.4170394},{"type":"node","id":9755771320,"lat":52.4992956,"lon":13.4175905},{"type":"node","id":9755771321,"lat":52.499301,"lon":13.4176803},{"type":"node","id":9755771322,"lat":52.4992542,"lon":13.4176233},{"type":"node","id":9755771323,"lat":52.4992885,"lon":13.4178485},{"type":"node","id":9755771329,"lat":52.4994902,"lon":13.4181725},{"type":"node","id":9755771330,"lat":52.4994429,"lon":13.4180426},{"type":"node","id":9755771333,"lat":52.5001588,"lon":13.4183834},{"type":"node","id":9755771334,"lat":52.5001273,"lon":13.418402},{"type":"node","id":9755771337,"lat":52.5001836,"lon":13.418401},{"type":"node","id":9755771338,"lat":52.5000388,"lon":13.4184443},{"type":"node","id":9755771339,"lat":52.5000528,"lon":13.4183076},{"type":"node","id":9755771353,"lat":52.4991866,"lon":13.4194162},{"type":"node","id":9755771356,"lat":52.4991827,"lon":13.4189075},{"type":"node","id":9755771357,"lat":52.4991839,"lon":13.4192431},{"type":"node","id":9755771358,"lat":52.4992054,"lon":13.4192429},{"type":"node","id":9789188051,"lat":52.5016051,"lon":13.4164371},{"type":"node","id":9789188052,"lat":52.5016143,"lon":13.4164203},{"type":"node","id":9789188053,"lat":52.5016205,"lon":13.4163956},{"type":"node","id":9789188054,"lat":52.5016217,"lon":13.4163746},{"type":"node","id":9789188055,"lat":52.5015908,"lon":13.4164494},{"type":"node","id":9850099580,"lat":52.4996949,"lon":13.4165944},{"type":"node","id":10301365036,"lat":52.5004916,"lon":13.417365},{"type":"node","id":10301365047,"lat":52.5017058,"lon":13.4164612},{"type":"node","id":10301365048,"lat":52.5017127,"lon":13.4164862},{"type":"node","id":10301365049,"lat":52.5015679,"lon":13.4165939},{"type":"node","id":10301365058,"lat":52.5017613,"lon":13.416437},{"type":"node","id":10301365059,"lat":52.5017469,"lon":13.4164375},{"type":"node","id":10301365060,"lat":52.5017319,"lon":13.4164444},{"type":"node","id":10302524193,"lat":52.4991942,"lon":13.419243},{"type":"node","id":10302524194,"lat":52.4991934,"lon":13.4189074},{"type":"node","id":10634702011,"lat":52.4992117,"lon":13.419646},{"type":"node","id":10634702012,"lat":52.4992106,"lon":13.4199323},{"type":"node","id":10882785039,"lat":52.4992775,"lon":13.4176517},{"type":"node","id":10882843023,"lat":52.4988766,"lon":13.4157323},{"type":"node","id":10882843024,"lat":52.4988702,"lon":13.4156815},{"type":"node","id":10882843027,"lat":52.4988249,"lon":13.4153136},{"type":"node","id":10882843028,"lat":52.4988182,"lon":13.4152603},{"type":"node","id":12221893244,"lat":52.4999392,"lon":13.4168586},{"type":"node","id":12559014836,"lat":52.4992107,"lon":13.4199154},{"type":"node","id":4340070736,"lat":52.5044411,"lon":13.411394}]}