{"version":0.6,"generator":"Overpass API 0.7.62.5 1bd436f1","osm3s":{"timestamp_osm_base":"2025-03-12T11:56:32Z","copyright":"The data included in this document is from www.openstreetmap.org. The data is made available under ODbL."},"elements":[{"type":"way","id":4066167,"nodes":[309391506,232177],"tags":{"highway":"unclassified","lit":"yes","maxspeed":"20 mph","name":"New Market Street","postal_code":"B3","sidewalk":"both","surface":"asphalt"}},{"type":"way","id":28167904,"nodes":[21695046,4490388063,12537015558,309391506,4490388061,232184],"tags":{"highway":"unclassified","lit":"yes","maxspeed":"20 mph","name":"Cornwall Street","oneway":"yes","postal_code":"B3","surface":"asphalt"}},{"type":"way","id":31247243,"nodes":[1109050847,1109050872,1041098115,1109050749,1109050847],"tags":{"addr:city":"Birmingham","addr:country":"GB","addr:housename":"Opus","addr:housenumber":"54","addr:postcode":"B3 2DE","addr:street":"Cornwall Street","amenity":"restaurant","building":"yes","fhrs:id":"598518","name":"Opus","source":"eyeball survey & estimate"}},{"type":"way","id":56395996,"nodes":[1041098108,1041098161,706931828,1041098137,1041098117,706931868,1041098108],"tags":{"addr:city":"Birmingham","addr:housenumber":"60","addr:postcode":"B3 2DJ","addr:street":"Church Street","architect":"Hitchman Stone Partnership","building":"commercial","height":"42","name":"Embassy House","source":"OS_OpenData_StreetView","source:height":"emuanalytics","start_date":"1982"}},{"type":"way","id":89816884,"nodes":[1041098108,706931842,706931805,706931783,706931773,706931870,706931845,706931857,1041098161,1041098108],"tags":{"building":"commercial","height":"42","source":"OS_OpenData_StreetView","source:height":"emuanalytics"}},{"type":"way","id":89816892,"nodes":[347403826,347403827,1109050749,1041098115,618397506,9006946798,1109050857,1109050808,347403824,347403826],"tags":{"addr:city":"Birmingham","addr:housenumber":"120","addr:postcode":"B3 2QZ","addr:street":"Edmund Street","building":"commercial","building:levels":"8","source":"eyeball survey & estimate"}},{"type":"way","id":89816894,"nodes":[1041098117,1041098137,706931795,706931771,7826512271,1041098117],"tags":{"addr:city":"Birmingham","addr:housenumber":"55","addr:postcode":"B3 2DH","addr:street":"Cornwall Street","building":"yes","disused:amenity":"restaurant","height":"42","old_name":"Purnell's","source:height":"emuanalytics"}},{"type":"way","id":89816901,"nodes":[866021719,866021690,866021613,866021672,1041098139,866021635,866021698,866021625,866021652,866021720,1109050822,866021719],"tags":{"addr:city":"Birmingham","addr:housenumber":"61-71","addr:postcode":"B3 2EE","addr:street":"Cornwall Street","building":"commercial","building:levels":"6","name":"Vodafone","source":"cities_revealed_aerial_imagery"}},{"type":"way","id":95656397,"nodes":[1109050847,1109050790,1109050874,1109050872,1109050847],"tags":{"building":"yes","source":"eyeball survey & estimate"}},{"type":"way","id":95656409,"nodes":[347403830,347403831,347403832,8754355068,8754355069,618397551,1109050719,1109050732,1109050737,1109050880,1109050839,347403830],"tags":{"addr:city":"Birmingham","addr:housename":"Rutland House","addr:housenumber":"148","addr:postcode":"B3 2JR","addr:street":"Edmund Street","building":"commercial","building:levels":"8","name":"Rutland House","source":"eyeball survey & estimate"}},{"type":"way","id":95656420,"nodes":[347403830,1109050839,1109050751,1109050876,1109050732,1109050719,347403822,1109050874,1109050790,1109050720,347403829,347403830],"tags":{"addr:city":"Birmingham","addr:housenumber":"140-146","addr:postcode":"B3 2ES","addr:street":"Edmund Street","building":"commercial","building:levels":"8","source":"eyeball survey & estimate"}},{"type":"way","id":95659676,"nodes":[1109086145,1109086187,706931841,1109086176,1109086145],"tags":{"addr:city":"Birmingham","addr:country":"GB","addr:housenumber":"53","addr:postcode":"B3 2DP","addr:street":"Church Street","addr:suburb":"Ladywood","amenity":"pub","architect":"Arthur Hamblin","building":"yes","fhrs:id":"598517","heritage":"2","heritage:operator":"Historic England","listed_status":"Grade II","name":"The Old Royal","source":"OS_OpenData_StreetView;Birmingham_City_Council","start_date":"1899","wikidata":"Q26627190"}},{"type":"way","id":163781301,"nodes":[309189903,12537015559,1812130047,1812130049,21695046],"tags":{"highway":"living_street","lit":"yes","maxspeed":"20 mph","name":"Church Street","oneway":"yes","postal_code":"B3","source":"survey;OS_OpenData_StreetView","surface":"asphalt"}},{"type":"way","id":254738164,"nodes":[2605401224,2605401221,2605401219,3929951581,2605401223,2605401224],"tags":{"building":"yes","name":"Anchor Exchange Lift Shaft 2 and Ventilation Tower","operator":"BT","source":"http:\/\/www.ringbell.co.uk\/ukwmo\/Page241.htm","wikipedia":"en:Anchor Exchange"}},{"type":"way","id":254738165,"nodes":[2605401223,2605401238,2605401239,2605401217,2605401216,2605401211,2605401208,2605401204,2605401199,2605401193],"tags":{"access":"private","disused:highway":"footway","disused:tunnel":"yes","layer":"-1","operator":"BT"}},{"type":"way","id":471709519,"nodes":[706931857,706931828,706931795,706931845,706931857],"tags":{"landuse":"commercial"}},{"type":"way","id":471709521,"nodes":[706931770,1109086149,1109086197,5204158513,1109086217,706931856,1109086218,1109086187,706931841,706931849,706931770],"tags":{"landuse":"commercial"}},{"type":"way","id":838609995,"nodes":[706931783,7826512271,706931771,706931870,706931783],"tags":{"addr:city":"Birmingham","addr:postcode":"B3 2NH","addr:street":"New Market Street","building":"yes","source":"bing"}},{"type":"way","id":1011012003,"nodes":[21695046,4490388062,2947779223,4490388067,21695047],"tags":{"highway":"unclassified","lane_markings":"no","lit":"yes","maxspeed":"20 mph","name":"Cornwall Street","postal_code":"B3","surface":"asphalt"}},{"type":"way","id":1011012004,"nodes":[21695046,4490388069,21694219],"tags":{"highway":"unclassified","lit":"yes","maxspeed":"20 mph","name":"Church Street","oneway":"yes","postal_code":"B3","source":"survey;OS_OpenData_StreetView","surface":"asphalt"}},{"type":"way","id":1354726139,"nodes":[12537015553,12537015551,12537015550,12537015554,12537015555],"tags":{"footway":"sidewalk","highway":"footway"}},{"type":"way","id":1354726140,"nodes":[12537015555,12537015558,12537015557],"tags":{"crossing":"unmarked","crossing:island":"no","crossing:markings":"no","footway":"crossing","highway":"footway","tactile_paving":"no"}},{"type":"way","id":1354726141,"nodes":[12537015555,12537015556],"tags":{"footway":"sidewalk","highway":"footway"}},{"type":"way","id":1354726142,"nodes":[12537015557,12537015560,12537015561],"tags":{"footway":"sidewalk","highway":"footway"}},{"type":"way","id":1354726143,"nodes":[12537015557,12537015564,12537015562,12537015563],"tags":{"footway":"sidewalk","highway":"footway"}},{"type":"node","id":232177,"lat":52.4828794,"lon":-1.9026113},{"type":"node","id":232184,"lat":52.4818518,"lon":-1.9027607},{"type":"node","id":21694219,"lat":52.4832595,"lon":-1.9020419},{"type":"node","id":21695046,"lat":52.4828576,"lon":-1.9012839},{"type":"node","id":309391506,"lat":52.4824828,"lon":-1.9018167},{"type":"node","id":347403822,"lat":52.4825459,"lon":-1.9015409},{"type":"node","id":347403824,"lat":52.481834,"lon":-1.9019971},{"type":"node","id":347403826,"lat":52.4817399,"lon":-1.9018489},{"type":"node","id":347403827,"lat":52.48205,"lon":-1.9013388},{"type":"node","id":347403829,"lat":52.4822618,"lon":-1.900857},{"type":"node","id":347403830,"lat":52.4822985,"lon":-1.9009141},{"type":"node","id":347403831,"lat":52.4823813,"lon":-1.9007697},{"type":"node","id":347403832,"lat":52.4824491,"lon":-1.9007617},{"type":"node","id":618397506,"lat":52.48219,"lon":-1.9020886},{"type":"node","id":618397551,"lat":52.4826436,"lon":-1.9013907},{"type":"node","id":706931770,"lat":52.4839867,"lon":-1.9009455},{"type":"node","id":706931771,"lat":52.4826597,"lon":-1.9019575},{"type":"node","id":706931773,"lat":52.4827873,"lon":-1.9020871},{"type":"node","id":706931783,"lat":52.4828169,"lon":-1.9020445},{"type":"node","id":706931795,"lat":52.4825842,"lon":-1.9018184},{"type":"node","id":706931805,"lat":52.4829036,"lon":-1.9021984},{"type":"node","id":706931828,"lat":52.4828468,"lon":-1.9014238},{"type":"node","id":706931841,"lat":52.4829572,"lon":-1.9012916},{"type":"node","id":706931842,"lat":52.4830002,"lon":-1.9020515},{"type":"node","id":706931845,"lat":52.4829119,"lon":-1.9024189},{"type":"node","id":706931849,"lat":52.483296,"lon":-1.9019075},{"type":"node","id":706931857,"lat":52.4831746,"lon":-1.9020197},{"type":"node","id":706931868,"lat":52.4828179,"lon":-1.9017218},{"type":"node","id":706931870,"lat":52.4827544,"lon":-1.9021347},{"type":"node","id":866021613,"lat":52.4822212,"lon":-1.9024096},{"type":"node","id":866021625,"lat":52.4824229,"lon":-1.9027545},{"type":"node","id":866021635,"lat":52.4821931,"lon":-1.9025564},{"type":"node","id":866021652,"lat":52.482407,"lon":-1.9027258},{"type":"node","id":866021672,"lat":52.4822064,"lon":-1.9023827},{"type":"node","id":866021690,"lat":52.4824966,"lon":-1.901998},{"type":"node","id":866021698,"lat":52.4823573,"lon":-1.9028526},{"type":"node","id":866021719,"lat":52.482703,"lon":-1.9023791},{"type":"node","id":866021720,"lat":52.4826154,"lon":-1.9024144},{"type":"node","id":1041098108,"lat":52.4829261,"lon":-1.9019201},{"type":"node","id":1041098115,"lat":52.4823668,"lon":-1.9018288},{"type":"node","id":1041098117,"lat":52.4827414,"lon":-1.9018361},{"type":"node","id":1041098137,"lat":52.4826637,"lon":-1.9016979},{"type":"node","id":1041098139,"lat":52.4821464,"lon":-1.9024722},{"type":"node","id":1041098161,"lat":52.4830297,"lon":-1.9017627},{"type":"node","id":1109050719,"lat":52.4826171,"lon":-1.9014345},{"type":"node","id":1109050720,"lat":52.4821341,"lon":-1.9010723},{"type":"node","id":1109050732,"lat":52.4825795,"lon":-1.9013663},{"type":"node","id":1109050737,"lat":52.4825993,"lon":-1.9013176},{"type":"node","id":1109050749,"lat":52.4822173,"lon":-1.9015975},{"type":"node","id":1109050751,"lat":52.4823263,"lon":-1.9011746},{"type":"node","id":1109050790,"lat":52.4823397,"lon":-1.9013923},{"type":"node","id":1109050808,"lat":52.481909,"lon":-1.902114},{"type":"node","id":1109050822,"lat":52.4826442,"lon":-1.9024595},{"type":"node","id":1109050839,"lat":52.4823856,"lon":-1.9010739},{"type":"node","id":1109050847,"lat":52.4822735,"lon":-1.9014996},{"type":"node","id":1109050857,"lat":52.4819712,"lon":-1.9022212},{"type":"node","id":1109050872,"lat":52.482423,"lon":-1.9017308},{"type":"node","id":1109050874,"lat":52.4824937,"lon":-1.9016264},{"type":"node","id":1109050876,"lat":52.4825202,"lon":-1.901467},{"type":"node","id":1109050880,"lat":52.4824133,"lon":-1.9010414},{"type":"node","id":1109086145,"lat":52.4831366,"lon":-1.9012986},{"type":"node","id":1109086149,"lat":52.4839945,"lon":-1.9008658},{"type":"node","id":1109086176,"lat":52.483043,"lon":-1.9014345},{"type":"node","id":1109086187,"lat":52.4830538,"lon":-1.9011482},{"type":"node","id":1109086197,"lat":52.4838271,"lon":-1.9006098},{"type":"node","id":1109086218,"lat":52.4831231,"lon":-1.901064},{"type":"node","id":1812130047,"lat":52.4824341,"lon":-1.9006605},{"type":"node","id":1812130049,"lat":52.4827883,"lon":-1.9012126},{"type":"node","id":2605401193,"lat":52.4823797,"lon":-1.9061359},{"type":"node","id":2605401199,"lat":52.4824505,"lon":-1.905987},{"type":"node","id":2605401204,"lat":52.4826123,"lon":-1.9055454},{"type":"node","id":2605401208,"lat":52.4826567,"lon":-1.9055874},{"type":"node","id":2605401211,"lat":52.4826929,"lon":-1.9056022},{"type":"node","id":2605401216,"lat":52.4827322,"lon":-1.9055746},{"type":"node","id":2605401217,"lat":52.4827614,"lon":-1.9054958},{"type":"node","id":2605401219,"lat":52.482775,"lon":-1.9019273},{"type":"node","id":2605401221,"lat":52.4827974,"lon":-1.9018984},{"type":"node","id":2605401223,"lat":52.4828156,"lon":-1.9019727},{"type":"node","id":2605401224,"lat":52.4828263,"lon":-1.9019589},{"type":"node","id":2605401238,"lat":52.4830715,"lon":-1.9036982},{"type":"node","id":2605401239,"lat":52.4831602,"lon":-1.9043153},{"type":"node","id":2947779223,"lat":52.4828947,"lon":-1.9012305},{"type":"node","id":3929951581,"lat":52.4828039,"lon":-1.9019878},{"type":"node","id":4490388061,"lat":52.481892,"lon":-1.9026974},{"type":"node","id":4490388062,"lat":52.4828754,"lon":-1.9012557},{"type":"node","id":4490388063,"lat":52.4828321,"lon":-1.9013241},{"type":"node","id":4490388069,"lat":52.4832221,"lon":-1.9019866},{"type":"node","id":7826512271,"lat":52.4827222,"lon":-1.9018674},{"type":"node","id":8754355068,"lat":52.4826662,"lon":-1.9011298},{"type":"node","id":8754355069,"lat":52.4827361,"lon":-1.9012484},{"type":"node","id":9006946798,"lat":52.4820379,"lon":-1.9023225},{"type":"node","id":12537015550,"lat":52.4831958,"lon":-1.9020077},{"type":"node","id":12537015551,"lat":52.4832041,"lon":-1.9020652},{"type":"node","id":12537015553,"lat":52.4831754,"lon":-1.9021023},{"type":"node","id":12537015554,"lat":52.4828633,"lon":-1.9013954},{"type":"node","id":12537015555,"lat":52.4828364,"lon":-1.9014115},{"type":"node","id":12537015556,"lat":52.4827309,"lon":-1.9015731},{"type":"node","id":12537015557,"lat":52.4827517,"lon":-1.9012757},{"type":"node","id":12537015558,"lat":52.4828056,"lon":-1.9013614},{"type":"node","id":12537015559,"lat":52.4823983,"lon":-1.9005472},{"type":"node","id":12537015560,"lat":52.4827272,"lon":-1.9013473},{"type":"node","id":12537015561,"lat":52.4826387,"lon":-1.9014824},{"type":"node","id":12537015562,"lat":52.4827421,"lon":-1.9012259},{"type":"node","id":12537015563,"lat":52.4823815,"lon":-1.9006158},{"type":"node","id":12537015564,"lat":52.4827452,"lon":-1.9012421},{"type":"node","id":21695047,"lat":52.4836321,"lon":-1.9001795},{"type":"node","id":309189903,"lat":52.4823826,"lon":-1.9004976},{"type":"node","id":706931856,"lat":52.4836097,"lon":-1.9003221},{"type":"node","id":1109086217,"lat":52.4836443,"lon":-1.9003232},{"type":"node","id":4490388067,"lat":52.4835716,"lon":-1.90027},{"type":"node","id":5204158513,"lat":52.4837227,"lon":-1.9004577}]}