{"version":0.6,"generator":"Overpass API 0.7.62.5 1bd436f1","osm3s":{"timestamp_osm_base":"2025-03-12T11:58:39Z","copyright":"The data included in this document is from www.openstreetmap.org. The data is made available under ODbL."},"elements":[{"type":"node","id":964730650,"lat":52.4787911,"lon":-1.8988653,"tags":{"addr:city":"Birmingham","addr:parentstreet":"New Street","addr:postcode":"B2 4JH","addr:street":"Burlington Arcade","amenity":"pub","brand":"Nicholson's","brand:wikidata":"Q113130666","fhrs:id":"598456","name":"Bacchus","note":"http:\/\/pigsonthewing.org.uk\/bacchus-bar-bad\/","smoking":"no","website":"https:\/\/www.nicholsonspubs.co.uk\/restaurants\/eastandwestmidlands\/bacchusbarbirmingham","wheelchair":"yes"}},{"type":"node","id":1153447249,"lat":52.4784482,"lon":-1.8981715,"tags":{"entrance":"main","level":"2","name":"Grand Central Entrance","source":"survey"}},{"type":"node","id":2517583445,"lat":52.4789175,"lon":-1.8988492,"tags":{"name":"Bad Apple","shop":"hairdresser"}},{"type":"node","id":2517583451,"lat":52.478849,"lon":-1.8987325,"tags":{"amenity":"cafe","name":"BoBoQ Tea & Coffee"}},{"type":"node","id":2517583463,"lat":52.4788661,"lon":-1.8988557,"tags":{"name":"Flannels","shop":"clothes"}},{"type":"node","id":2526028745,"lat":52.4783742,"lon":-1.8986442,"tags":{"addr:city":"Birmingham","addr:postcode":"B2 4DH","addr:street":"Stephenson Street","brand":"Betfred","brand:wikidata":"Q4897425","brand:wikipedia":"en:Betfred","level":"1","name":"Betfred","opening_hours":"Mo-Sa 08:00-22:00; Su 09:00-22:00","shop":"bookmaker"}},{"type":"node","id":2526028750,"lat":52.4783698,"lon":-1.8985764,"tags":{"addr:city":"Birmingham","addr:postcode":"B2 4DH","addr:street":"Stephenson Street","books":"christian","level":"1","name":"CLC","shop":"books"}},{"type":"node","id":2526028772,"lat":52.4783627,"lon":-1.8984601,"tags":{"addr:city":"Birmingham","addr:postcode":"B2 4DH","addr:street":"Stephenson Street","level":"1","name":"Hat Man","shop":"clothes"}},{"type":"node","id":2526028794,"lat":52.4783588,"lon":-1.8984019,"tags":{"addr:city":"Birmingham","addr:postcode":"B2 4DH","addr:street":"Stephenson Street","level":"1","name":"Stitches","shop":"dry_cleaning"}},{"type":"node","id":2526028800,"lat":52.4783433,"lon":-1.8982888,"tags":{"brand":"The Perfume Shop","brand:wikidata":"Q7756719","brand:wikipedia":"en:The Perfume Shop","layer":"1","level":"2","name":"The Perfume Shop","opening_hours":"Mo-Th,Sa 09:00-20:00; Fr 08:00-20:00; Su 11:00-17:00","shop":"perfumery"}},{"type":"node","id":2526028804,"lat":52.4783524,"lon":-1.8983319,"tags":{"addr:city":"Birmingham","addr:postcode":"B2 4DH","addr:street":"Stephenson Street","brand":"William Hill","brand:wikidata":"Q4053147","brand:wikipedia":"en:William Hill (bookmaker)","level":"1","name":"William Hill","shop":"bookmaker"}},{"type":"node","id":2526028831,"lat":52.4783661,"lon":-1.8985269,"tags":{"addr:city":"Birmingham","addr:housenumber":"53","addr:postcode":"B2 4DH","addr:street":"Stephenson Street","check_date:opening_hours":"2022-10-09","fhrs:id":"598467","level":"1","name":"3D News","opening_hours:signed":"no","shop":"newsagent"}},{"type":"node","id":3758605209,"lat":52.4784268,"lon":-1.8987737,"tags":{"door":"yes","entrance":"main","level":"1","name":"New Street Station Stephenson Street Entrance","source":"visual survey;estimate"}},{"type":"node","id":3761550924,"lat":52.4784509,"lon":-1.8990425,"tags":{"entrance":"main","level":"1"}},{"type":"node","id":3762945702,"lat":52.4782937,"lon":-1.8983093,"tags":{"layer":"1","level":"2","name":"Laser Clinics United Kingdom","opening_hours":"Mo-Th 10:00-20:00; Fr,Sa 10:00-19:00; Su 11:00-17:00","shop":"cosmetics"}},{"type":"node","id":3762945708,"lat":52.4784003,"lon":-1.898273,"tags":{"amenity":"bank","brand":"NatWest","brand:wikidata":"Q2740021","brand:wikipedia":"en:NatWest","layer":"1","level":"2","name":"NatWest","opening_hours":"Mo,Tu,Th,Fr 09:30-16:30; We 10:00-16:30; Sa 09:30-15:00","website":"https:\/\/www.natwest.com\/search-results\/locator\/branch.html?sortcode=600637&name=Grand%20Central%20Birmingham"}},{"type":"node","id":3779494267,"lat":52.4783853,"lon":-1.8987262,"tags":{"amenity":"vending_machine","check_date":"2021-11-03","level":"1","vending":"tickets"}},{"type":"node","id":3779494268,"lat":52.4784166,"lon":-1.8990257,"tags":{"amenity":"vending_machine","level":"1","vending":"tickets"}},{"type":"node","id":4204911699,"lat":52.4785657,"lon":-1.8982881,"tags":{"railway":"tram_crossing"}},{"type":"node","id":4204911700,"lat":52.4785905,"lon":-1.8989044,"tags":{"railway":"tram_crossing"}},{"type":"node","id":4204911704,"lat":52.4786127,"lon":-1.8989282,"tags":{"man_made":"surveillance","source":"survey"}},{"type":"node","id":4427440906,"lat":52.4786285,"lon":-1.8987471,"tags":{"PMSA_ref":"WMbiBIxx209","artist_name":"John Wenlock Rollins","artwork:location":"above entrance to old Midland Hotel","artwork:material":"stone","artwork_type":"statue","name":"Caryatids","source":"visual survey; estimate; PMSA","start_date":"1903","tourism":"artwork"}},{"type":"node","id":5430089806,"lat":52.4786442,"lon":-1.8988878,"tags":{"entrance":"yes"}},{"type":"node","id":6249629008,"lat":52.4786072,"lon":-1.8983149,"tags":{"railway":"tram_crossing"}},{"type":"node","id":7055332367,"lat":52.4785992,"lon":-1.8988538,"tags":{"railway":"signal","source":"estimate"}},{"type":"node","id":7135760391,"lat":52.4785876,"lon":-1.8982596,"tags":{"railway":"tram_level_crossing"}},{"type":"node","id":12428728033,"lat":52.4785591,"lon":-1.8989141,"tags":{"railway":"tram_crossing"}}]}