{"version":0.6,"generator":"Overpass API 0.7.62.5 1bd436f1","osm3s":{"timestamp_osm_base":"2025-03-12T11:52:30Z","copyright":"The data included in this document is from www.openstreetmap.org. The data is made available under ODbL."},"elements":[{"type":"node","id":696449779,"lat":52.4816667,"lon":-1.8990495,"tags":{"bus":"yes","highway":"bus_stop","local_ref":"SH2","name":"SH2","name_on_sign":"Colmore Row","naptan:AtcoCode":"43000206202","naptan:Bearing":"SW","naptan:BusStopType":"MKD","naptan:CommonName":"Colmore Row","naptan:Indicator":"Stop SH2","naptan:Landmark":"St Phillips Churchyard","naptan:NaptanCode":"nwmajdtd","naptan:PlusbusZoneRef":"BHAMNWS","naptan:Status":"ACT","naptan:StopType":"BCT","naptan:Street":"COLMORE ROW","naptan:Towards":"Bearwood, Quinton and Halesowe","public_transport":"platform","route_ref":"82;83;87;89;120;127;128;129","source":"WMCA"}},{"type":"node","id":1510192671,"lat":52.4810577,"lon":-1.8986293,"tags":{"amenity":"bench","backrest":"yes","check_date":"2022-10-22","colour":"black","material":"metal","operator":"Cathedral Church of Saint Philip","seats":"4","source":"survey; Bing"}},{"type":"node","id":1510192706,"lat":52.4810595,"lon":-1.898592,"tags":{"amenity":"bench","backrest":"yes","check_date":"2022-10-22","colour":"black","material":"metal","operator":"Cathedral Church of Saint Philip","seats":"4","source":"survey; Bing"}},{"type":"node","id":1510192844,"lat":52.4810644,"lon":-1.8985577,"tags":{"amenity":"bench","backrest":"yes","check_date":"2022-10-22","colour":"black","material":"metal","operator":"Cathedral Church of Saint Philip","seats":"4","source":"survey; Bing"}},{"type":"node","id":1510193156,"lat":52.4810694,"lon":-1.8985224,"tags":{"amenity":"bench","backrest":"yes","check_date":"2022-10-22","colour":"black","material":"metal","operator":"Cathedral Church of Saint Philip","seats":"4","source":"survey; Bing"}},{"type":"node","id":1510193203,"lat":52.4810749,"lon":-1.8984286,"tags":{"amenity":"bench","backrest":"yes","check_date":"2022-10-22","colour":"black","material":"metal","operator":"Cathedral Church of Saint Philip","seats":"4","source":"survey; Bing"}},{"type":"node","id":1510193260,"lat":52.4810804,"lon":-1.8983984,"tags":{"amenity":"bench","backrest":"yes","check_date":"2022-10-22","colour":"black","material":"metal","operator":"Cathedral Church of Saint Philip","seats":"4","source":"survey; Bing"}},{"type":"node","id":1510193281,"lat":52.4810847,"lon":-1.89836,"tags":{"amenity":"bench","backrest":"yes","check_date":"2022-10-22","colour":"black","material":"metal","operator":"Cathedral Church of Saint Philip","seats":"4","source":"survey; Bing"}},{"type":"node","id":1510193317,"lat":52.4810853,"lon":-1.8983308,"tags":{"amenity":"bench","backrest":"yes","check_date":"2022-10-22","colour":"black","material":"metal","operator":"Cathedral Church of Saint Philip","seats":"4","source":"survey; Bing"}},{"type":"node","id":1510193355,"lat":52.4812143,"lon":-1.8983126,"tags":{"amenity":"bench","backrest":"yes","check_date":"2022-10-22","colour":"black","material":"metal","operator":"Cathedral Church of Saint Philip","seats":"4","source":"survey; Bing"}},{"type":"node","id":1510193380,"lat":52.4812315,"lon":-1.8983429,"tags":{"amenity":"bench","backrest":"yes","check_date":"2022-10-22","colour":"black","material":"metal","operator":"Cathedral Church of Saint Philip","seats":"4","source":"survey; Bing"}},{"type":"node","id":1510193421,"lat":52.481253,"lon":-1.8983661,"tags":{"amenity":"bench","backrest":"yes","check_date":"2022-10-22","colour":"black","material":"metal","operator":"Cathedral Church of Saint Philip","seats":"4","source":"survey; Bing"}},{"type":"node","id":1510193449,"lat":52.4812714,"lon":-1.8983893,"tags":{"amenity":"bench","backrest":"yes","check_date":"2022-10-22","colour":"black","material":"metal","operator":"Cathedral Church of Saint Philip","seats":"4","source":"survey; Bing"}},{"type":"node","id":1510193487,"lat":52.4812892,"lon":-1.8984095,"tags":{"amenity":"bench","backrest":"yes","check_date":"2022-10-22","colour":"black","material":"metal","operator":"Cathedral Church of Saint Philip","seats":"4","source":"survey; Bing"}},{"type":"node","id":1510193529,"lat":52.481312,"lon":-1.8984306,"tags":{"amenity":"bench","backrest":"yes","check_date":"2022-10-22","colour":"black","material":"metal","operator":"Cathedral Church of Saint Philip","seats":"4","source":"survey; Bing"}},{"type":"node","id":1510193554,"lat":52.481331,"lon":-1.8984468,"tags":{"amenity":"bench","backrest":"yes","check_date":"2022-10-22","colour":"black","material":"metal","operator":"Cathedral Church of Saint Philip","seats":"4","source":"survey; Bing"}},{"type":"node","id":1510193628,"lat":52.4813513,"lon":-1.898471,"tags":{"amenity":"bench","backrest":"yes","check_date":"2022-10-22","colour":"black","material":"metal","operator":"Cathedral Church of Saint Philip","seats":"4","source":"survey; Bing"}},{"type":"node","id":1510193682,"lat":52.4813992,"lon":-1.8986444,"tags":{"amenity":"bench","backrest":"yes","check_date":"2023-06-06","colour":"black","material":"metal","operator":"Cathedral Church of Saint Philip","seats":"4","source":"survey; Bing"}},{"type":"node","id":1510193787,"lat":52.4814323,"lon":-1.8988734,"tags":{"amenity":"bench","backrest":"yes","check_date":"2023-03-02","colour":"black","material":"metal","operator":"Cathedral Church of Saint Philip","seats":"4","source":"survey; Bing"}},{"type":"node","id":1510193816,"lat":52.4814796,"lon":-1.8989944,"tags":{"amenity":"bench","backrest":"yes","check_date":"2023-06-06","colour":"black","material":"metal","operator":"Cathedral Church of Saint Philip","seats":"4","source":"survey; Bing"}},{"type":"node","id":1965422606,"lat":52.4809952,"lon":-1.898831,"tags":{"natural":"tree","source":"bing"}},{"type":"node","id":1965422636,"lat":52.4810501,"lon":-1.8979865,"tags":{"natural":"tree","source":"bing"}},{"type":"node","id":1965422645,"lat":52.4810821,"lon":-1.8980556,"tags":{"natural":"tree","source":"bing"}},{"type":"node","id":1965422697,"lat":52.4813365,"lon":-1.8980226,"tags":{"natural":"tree","source":"bing"}},{"type":"node","id":1965422700,"lat":52.4813448,"lon":-1.8981368,"tags":{"natural":"tree","source":"bing"}},{"type":"node","id":1965422742,"lat":52.4814381,"lon":-1.8984914,"tags":{"natural":"tree","source":"bing"}},{"type":"node","id":1965422764,"lat":52.4815132,"lon":-1.8980242,"tags":{"natural":"tree","source":"bing"}},{"type":"node","id":1965422787,"lat":52.4815792,"lon":-1.8980965,"tags":{"natural":"tree","source":"bing"}},{"type":"node","id":1965422796,"lat":52.4816426,"lon":-1.8981836,"tags":{"natural":"tree","source":"bing"}},{"type":"node","id":1965422802,"lat":52.4816594,"lon":-1.8989796,"tags":{"natural":"tree","source":"bing"}},{"type":"node","id":1965422805,"lat":52.4816423,"lon":-1.898521,"tags":{"natural":"tree","source":"bing"}}]}