{"version":0.6,"generator":"Overpass API 0.7.62.5 1bd436f1","osm3s":{"timestamp_osm_base":"2025-03-12T11:28:07Z","copyright":"The data included in this document is from www.openstreetmap.org. The data is made available under ODbL."},"elements":[{"type":"node","id":736787856,"lat":52.5236604,"lon":13.4096145,"tags":{"addr:city":"Berlin","addr:country":"DE","addr:housenumber":"8","addr:postcode":"10178","addr:street":"Rosa-Luxemburg-Stra\u00dfe","addr:suburb":"Mitte"}},{"type":"node","id":736787858,"lat":52.5238631,"lon":13.409308,"tags":{"addr:city":"Berlin","addr:country":"DE","addr:housenumber":"7","addr:postcode":"10178","addr:street":"Rosa-Luxemburg-Stra\u00dfe","addr:suburb":"Mitte"}},{"type":"node","id":1552575665,"lat":52.5237478,"lon":13.4100168,"tags":{"addr:city":"Berlin","addr:country":"DE","addr:housenumber":"5","addr:postcode":"10178","addr:street":"Memhardstra\u00dfe","addr:suburb":"Mitte"}},{"type":"node","id":1552580216,"lat":52.5238041,"lon":13.4098628,"tags":{"addr:city":"Berlin","addr:country":"DE","addr:housenumber":"7","addr:postcode":"10178","addr:street":"Memhardstra\u00dfe","addr:suburb":"Mitte","brand":"Nudie Jeans","brand:wikidata":"Q2436187","check_date":"2024-07-01","clothes":"denim","contact:email":"berlinmitte@nudiejeans.com","contact:phone":"+49 30 40044283","contact:website":"https:\/\/www.nudiejeans.com\/de\/stores\/nudie-jeans-repair-shop-berlin","name":"Nudie Jeans","opening_hours":"Mo-Fr 11:00-19:00; Sa 11:00-18:00","payment:credit_cards":"yes","payment:debit_cards":"yes","payment:visa":"yes","shop":"clothes","wheelchair":"yes"}},{"type":"node","id":1600116430,"lat":52.5241837,"lon":13.4091952,"tags":{"historic":"memorial","image":"File:Berlin, Mitte, Muenzstrasse, Litfass-Denkmal.jpg","material":"metal","memorial":"sculpture","name":"Litfa\u00df-Denkmal","source":"survey","subject:wikidata":"Q90732","subject:wikipedia":"de:Ernst Litfa\u00df","wheelchair":"yes","wikimedia_commons":"Category:Litfa\u00df memorial (Berlin-Mitte)"}},{"type":"node","id":2020059474,"lat":52.5238195,"lon":13.4096956,"tags":{"brand":"Levi's","brand:wikidata":"Q127962","brand:wikipedia":"en:Levi Strauss & Co.","check_date":"2024-07-01","check_date:opening_hours":"2023-02-19","clothes":"denim;men;women","name":"Levi's","opening_hours":"Mo-Sa 10:00-19:00; Su off","shop":"clothes","wheelchair":"yes"}},{"type":"node","id":3278528406,"lat":52.524245,"lon":13.4092569,"tags":{"addr:city":"Berlin","addr:country":"DE","addr:housenumber":"2","addr:postcode":"10178","addr:street":"M\u00fcnzstra\u00dfe","addr:suburb":"Mitte","source":"Geoportal Berlin \/ Hauskoordinaten"}},{"type":"node","id":3600762160,"lat":52.5239923,"lon":13.4092243,"tags":{"addr:city":"Berlin","addr:country":"DE","addr:housenumber":"1-3","addr:postcode":"10178","addr:street":"M\u00fcnzstra\u00dfe","addr:suburb":"Mitte","amenity":"pub","check_date":"2023-06-28","contact:website":"http:\/\/www.brau-dein-bier.de","indoor_seating":"yes","name":"Berliner Marcus Br\u00e4u","outdoor_seating":"no","wheelchair":"yes"}},{"type":"node","id":3837048398,"lat":52.5238455,"lon":13.4095175,"tags":{"highway":"traffic_signals","traffic_signals:direction":"backward"}},{"type":"node","id":3837048399,"lat":52.5238765,"lon":13.4095408,"tags":{"button_operated":"no","crossing":"traffic_signals","crossing:island":"no","highway":"crossing","tactile_paving":"yes","traffic_signals:sound":"no","traffic_signals:vibration":"no"}},{"type":"node","id":3837048403,"lat":52.5239721,"lon":13.4098101,"tags":{"button_operated":"no","crossing":"traffic_signals","highway":"crossing","tactile_paving":"yes","traffic_signals:sound":"no","traffic_signals:vibration":"no"}},{"type":"node","id":3837048405,"lat":52.5240115,"lon":13.4094357,"tags":{"button_operated":"no","crossing":"traffic_signals","crossing:island":"no","highway":"crossing","tactile_paving":"yes","traffic_signals:sound":"no","traffic_signals:vibration":"no"}},{"type":"node","id":3837048406,"lat":52.5240192,"lon":13.4093845,"tags":{"highway":"traffic_signals"}},{"type":"node","id":3837048407,"lat":52.5240372,"lon":13.4099224,"tags":{"highway":"traffic_signals"}},{"type":"node","id":3837048408,"lat":52.5240407,"lon":13.4098545,"tags":{"button_operated":"no","crossing":"traffic_signals","highway":"crossing","tactile_paving":"yes","traffic_signals:sound":"no","traffic_signals:vibration":"no"}},{"type":"node","id":3837048410,"lat":52.5240777,"lon":13.4094835,"tags":{"button_operated":"no","crossing":"traffic_signals","crossing:island":"no","highway":"crossing","tactile_paving":"yes","traffic_signals:sound":"no","traffic_signals:vibration":"no"}},{"type":"node","id":3837048413,"lat":52.5241329,"lon":13.4097335,"tags":{"button_operated":"no","crossing":"traffic_signals","crossing:island":"no","highway":"crossing","tactile_paving":"yes","traffic_signals:sound":"no","traffic_signals:vibration":"no"}},{"type":"node","id":3837048414,"lat":52.5241915,"lon":13.409777,"tags":{"highway":"traffic_signals","traffic_signals:direction":"forward"}},{"type":"node","id":3895249901,"lat":52.5241554,"lon":13.4096473,"tags":{"barrier":"kerb","kerb":"lowered","tactile_paving":"no"}},{"type":"node","id":3895250430,"lat":52.5238547,"lon":13.4096205,"tags":{"barrier":"kerb","kerb":"lowered","tactile_paving":"no"}},{"type":"node","id":3895251469,"lat":52.5241408,"lon":13.4101735,"tags":{"leaf_cycle":"deciduous","leaf_type":"broadleaved","natural":"tree"}},{"type":"node","id":3895252262,"lat":52.5241469,"lon":13.4100964,"tags":{"leaf_cycle":"deciduous","leaf_type":"broadleaved","natural":"tree"}},{"type":"node","id":3895252263,"lat":52.5241763,"lon":13.4102051,"tags":{"leaf_cycle":"deciduous","leaf_type":"broadleaved","natural":"tree"}},{"type":"node","id":3895252265,"lat":52.5241925,"lon":13.4101338,"tags":{"leaf_cycle":"deciduous","leaf_type":"broadleaved","natural":"tree"}},{"type":"node","id":3895255523,"lat":52.5239479,"lon":13.4093818,"tags":{"addr:housenumber":"7","addr:street":"Rosa-Luxemburg-Stra\u00dfe","amenity":"cafe","check_date":"2024-07-01","diet:vegetarian":"yes","indoor_seating":"yes","level":"0","name":"Koro Caf\u00e9","opening_hours":"Mo-Fr 08:00-18:30; Sa-Su 09:00-18:30; PH 08:30-18:00","outdoor_seating":"yes","payment:cash":"no","payment:credit_cards":"yes","payment:debit_cards":"yes","reusable_packaging:offer":"yes","reusable_packaging:offer:brand":"vytal","wheelchair":"limited"}},{"type":"node","id":3895256384,"lat":52.5237837,"lon":13.4092694,"tags":{"addr:city":"Berlin","addr:country":"DE","addr:housenumber":"7","addr:postcode":"10178","addr:street":"Rosa-Luxemburg-Stra\u00dfe","addr:suburb":"Mitte","air_conditioning":"no","amenity":"fast_food","check_date":"2024-06-11","check_date:opening_hours":"2024-06-03","contact:phone":"+49 30 28099597","contact:website":"http:\/\/www.dolores-berlin.de\/","cuisine":"burrito","diet:vegan":"yes","diet:vegetarian":"yes","indoor_seating":"yes","level":"0","name":"Dolores","opening_hours":"Mo-Su 11:30-21:00","outdoor_seating":"yes","payment:cash":"no","payment:credit_cards":"yes","payment:debit_cards":"yes","smoking":"outside","wheelchair":"limited"}},{"type":"node","id":4526394889,"lat":52.5236434,"lon":13.409154,"tags":{"addr:city":"Berlin","addr:housenumber":"5","addr:postcode":"10178","addr:street":"Rosa-Luxemburg-Stra\u00dfe","amenity":"restaurant","cuisine":"arab","diet:vegan":"yes","diet:vegetarian":"yes","indoor_seating":"yes","name":"Esra","opening_hours":"Mo-Su 10:00+","outdoor_seating":"yes","website":"http:\/\/esra.restaurant","wheelchair":"limited"}},{"type":"node","id":5037669578,"lat":52.5237292,"lon":13.4092181,"tags":{"addr:city":"Berlin","addr:housenumber":"5-7","addr:postcode":"10178","addr:street":"Rosa-Luxemburg-Stra\u00dfe","amenity":"fast_food","check_date":"2023-04-05","contact:phone":"+49 30 22453966","contact:website":"http:\/\/bibimix.de\/","cuisine":"korean","diet:vegan":"yes","diet:vegetarian":"yes","indoor_seating":"yes","name":"Bibimix","opening_hours":"Mo-Sa 12:00-22:00","outdoor_seating":"yes","payment:debit_cards":"yes","surveillance":"indoor","takeaway":"yes","toilets":"no","wheelchair":"limited"}},{"type":"node","id":5097270923,"lat":52.5240233,"lon":13.4101357,"tags":{"highway":"traffic_signals"}},{"type":"node","id":5393663163,"lat":52.52387,"lon":13.4093285,"tags":{"addr:city":"Berlin","addr:country":"DE","addr:housenumber":"7","addr:postcode":"10178","addr:street":"Rosa-Luxemburg-Stra\u00dfe","addr:suburb":"Mitte","amenity":"fast_food","check_date":"2024-06-11","contact:website":"http:\/\/www.angry-chicken.com\/","cuisine":"chicken;korean","delivery":"yes","diet:vegetarian":"no","indoor_seating":"yes","level":"0","name":"Angry Chicken","opening_hours":"Mo-Th 12:00-21:00; Fr,Sa 12:00-22:00","outdoor_seating":"yes","wheelchair":"yes"}},{"type":"node","id":5393663165,"lat":52.5236844,"lon":13.4091923,"tags":{"addr:city":"Berlin","addr:country":"DE","addr:housenumber":"5","addr:postcode":"10178","addr:street":"Rosa-Luxemburg-Stra\u00dfe","addr:suburb":"Mitte","amenity":"fast_food","check_date":"2024-06-13","contact:website":"https:\/\/www.brammibalsdonuts.de\/","cuisine":"donut","description":"vegan donuts","diet:vegan":"only","diet:vegetarian":"only","drive_through":"no","indoor_seating":"yes","name":"Brammibal's Donuts","opening_hours":"Su-We 10:00-20:00; Th,Fr 10:00-21:00; PH 10:00-20:00","outdoor_seating":"yes","payment:cash":"no","payment:credit_cards":"yes","payment:debit_cards":"yes","payment:others":"no","wheelchair":"limited"}},{"type":"node","id":5534476038,"lat":52.5237679,"lon":13.4102103,"tags":{"addr:city":"Berlin","addr:country":"DE","addr:housenumber":"3","addr:postcode":"10178","addr:street":"Memhardstra\u00dfe","addr:suburb":"Mitte","amenity":"restaurant","brand":"L'Osteria","brand:wikidata":"Q17323478","brand:wikimedia_commons":"Category:L\u2019Osteria","brand:wikipedia":"de:L\u2019Osteria","cuisine":"italian","diet:vegetarian":"yes","email":"memhardstrasse@losteria.de","indoor_seating":"yes","internet_access":"wlan","name":"L'Osteria","opening_hours":"Mo-Sa 11:30-24:00, Su,PH 12:00-23:00","outdoor_seating":"yes","phone":"+49 30 28043240","website":"https:\/\/losteria.net\/de\/restaurants\/restaurant\/berlin-memhardstrasse\/","wheelchair":"yes"}},{"type":"node","id":5534476039,"lat":52.5242253,"lon":13.4093448,"tags":{"addr:city":"Berlin","addr:country":"DE","addr:housenumber":"2","addr:postcode":"10178","addr:street":"M\u00fcnzstra\u00dfe","addr:suburb":"Mitte","name":"Orlando","shop":"clothes","wheelchair":"no"}},{"type":"node","id":5534476040,"lat":52.5241838,"lon":13.4095437,"tags":{"addr:city":"Berlin","addr:country":"DE","addr:housenumber":"9","addr:postcode":"10178","addr:street":"Rosa-Luxemburg-Stra\u00dfe","addr:suburb":"Mitte","check_date:opening_hours":"2022-11-02","contact:website":"https:\/\/www.aninebing.com\/pages\/anine-bing-berlin","name":"Anine Bing","opening_hours":"Mo-Sa 11:00-19:00","shop":"clothes","wheelchair":"no"}},{"type":"node","id":9686800947,"lat":52.5241007,"lon":13.409854,"tags":{"highway":"street_lamp"}},{"type":"node","id":9687705200,"lat":52.5242123,"lon":13.409976,"tags":{"highway":"street_lamp"}},{"type":"node","id":9687705201,"lat":52.5241589,"lon":13.4092223,"tags":{"highway":"street_lamp","lamp_mount":"bent_mast","support":"ground"}},{"type":"node","id":10760477347,"lat":52.5238571,"lon":13.4095262,"tags":{"direction":"backward","highway":"give_way"}},{"type":"node","id":11236060386,"lat":52.5240748,"lon":13.4098765,"tags":{"barrier":"kerb","kerb":"lowered","tactile_paving":"no"}},{"type":"node","id":11236060387,"lat":52.5238961,"lon":13.409761,"tags":{"barrier":"kerb","kerb":"lowered","tactile_paving":"no"}},{"type":"node","id":11236060388,"lat":52.5240018,"lon":13.4098293,"tags":{"barrier":"kerb","kerb":"lowered","tactile_paving":"yes"}},{"type":"node","id":11236060389,"lat":52.523987,"lon":13.4098197,"tags":{"barrier":"kerb","kerb":"lowered","tactile_paving":"yes"}},{"type":"node","id":11236060390,"lat":52.5241106,"lon":13.409819,"tags":{"barrier":"kerb","kerb":"lowered","tactile_paving":"no"}},{"type":"node","id":11236060391,"lat":52.5241105,"lon":13.4095073,"tags":{"barrier":"kerb","kerb":"lowered","tactile_paving":"no"}},{"type":"node","id":11236060392,"lat":52.5239806,"lon":13.4094134,"tags":{"barrier":"kerb","kerb":"lowered","tactile_paving":"no"}},{"type":"node","id":11236060393,"lat":52.5240473,"lon":13.4094616,"tags":{"barrier":"kerb","kerb":"lowered","tactile_paving":"no"}},{"type":"node","id":11236060394,"lat":52.524032,"lon":13.4094505,"tags":{"barrier":"kerb","kerb":"lowered","tactile_paving":"no"}},{"type":"node","id":11236060395,"lat":52.5239005,"lon":13.4094529,"tags":{"barrier":"kerb","kerb":"lowered","tactile_paving":"no"}},{"type":"node","id":11663995729,"lat":52.5241396,"lon":13.4100647,"tags":{"colour":"grey","man_made":"street_cabinet","utility":"telecom"}},{"type":"node","id":11663995731,"lat":52.5241033,"lon":13.4099066,"tags":{"barrier":"kerb","kerb":"lowered","tactile_paving":"no"}},{"type":"node","id":11663995732,"lat":52.5241589,"lon":13.4100005,"tags":{"barrier":"kerb","kerb":"lowered","tactile_paving":"no"}},{"type":"node","id":11663995735,"lat":52.5242465,"lon":13.4099571,"tags":{"barrier":"kerb","kerb":"raised","tactile_paving":"no"}},{"type":"node","id":11663995736,"lat":52.5241239,"lon":13.4098784,"tags":{"barrier":"kerb","kerb":"raised","tactile_paving":"no"}},{"type":"node","id":12018730063,"lat":52.5241163,"lon":13.4094659,"tags":{"amenity":"waste_basket","colour":"orange","covered":"no","indoor":"no","material":"steel","operator":"BSR","source":"survey"}},{"type":"node","id":12041299975,"lat":52.5241482,"lon":13.4092374,"tags":{"man_made":"street_cabinet"}},{"type":"node","id":12041299976,"lat":52.5241451,"lon":13.4092531,"tags":{"colour":"grey","man_made":"street_cabinet","operator":"Berliner Wasserbetriebe","source":"survey"}},{"type":"node","id":12044798935,"lat":52.5238817,"lon":13.409702,"tags":{"colour":"green","man_made":"street_cabinet","utility":"traffic_signals"}},{"type":"node","id":12044798936,"lat":52.5238763,"lon":13.4095245,"tags":{"man_made":"manhole","manhole":"yes"}},{"type":"node","id":12044798937,"lat":52.523874,"lon":13.4096334,"tags":{"man_made":"manhole","manhole":"drain"}},{"type":"node","id":12044798938,"lat":52.5238775,"lon":13.4096401,"tags":{"man_made":"manhole","manhole":"drain"}},{"type":"node","id":12044798939,"lat":52.5239208,"lon":13.4094795,"tags":{"man_made":"manhole","manhole":"yes"}},{"type":"node","id":12044798940,"lat":52.5240387,"lon":13.4096077,"tags":{"man_made":"manhole","manhole":"yes"}},{"type":"node","id":12044798941,"lat":52.5240075,"lon":13.4097298,"tags":{"man_made":"manhole","manhole":"yes"}},{"type":"node","id":12044798942,"lat":52.5238756,"lon":13.4094382,"tags":{"man_made":"manhole","manhole":"drain"}},{"type":"node","id":12052320091,"lat":52.5242194,"lon":13.4100649,"tags":{"historic":"memorial","memorial":"stolperstein","memorial:addr:housenumber":"10","memorial:addr:street":"Memhardstra\u00dfe","name":"Max Rand"}},{"type":"node","id":12052320103,"lat":52.5242194,"lon":13.4100649,"tags":{"historic":"memorial","memorial":"stolperstein","memorial:addr:housenumber":"10","memorial:addr:street":"Memhardstra\u00dfe","name":"Sara Rand","source":"survey"}},{"type":"node","id":12052320104,"lat":52.5242194,"lon":13.4100649,"tags":{"historic":"memorial","memorial":"stolperstein","memorial:addr:housenumber":"10","memorial:addr:street":"Memhardstra\u00dfe","name":"Lazar Rand"}},{"type":"node","id":12052320106,"lat":52.5242194,"lon":13.4100649,"tags":{"historic":"memorial","memorial":"stolperstein","memorial:addr:housenumber":"10","memorial:addr:street":"Memhardstra\u00dfe","name":"Hermann Rand"}},{"type":"node","id":12052320107,"lat":52.5242194,"lon":13.4100649,"tags":{"historic":"memorial","memorial":"stolperstein","memorial:addr:housenumber":"10","memorial:addr:street":"Memhardstra\u00dfe","name":"Kopel Rand"}},{"type":"node","id":12052320108,"lat":52.5242194,"lon":13.4100649,"tags":{"historic":"memorial","memorial":"stolperstein","memorial:addr:housenumber":"10","memorial:addr:street":"Memhardstra\u00dfe","name":"Paul Pinchas Rand"}},{"type":"node","id":12052320109,"lat":52.5242194,"lon":13.4100649,"tags":{"historic":"memorial","memorial":"stolperstein","memorial:addr:housenumber":"10","memorial:addr:street":"Memhardstra\u00dfe","name":"Khaia Rand"}},{"type":"node","id":12052320110,"lat":52.5242194,"lon":13.4100649,"tags":{"historic":"memorial","memorial":"stolperstein","memorial:addr:housenumber":"10","memorial:addr:street":"Memhardstra\u00dfe","name":"Luise Elizabeta Rand"}},{"type":"node","id":12052320111,"lat":52.5242194,"lon":13.4100649,"tags":{"historic":"memorial","memorial":"stolperstein","memorial:addr:housenumber":"10","memorial:addr:street":"Memhardstra\u00dfe","name":"Isidor Rand"}},{"type":"node","id":12052320112,"lat":52.5242194,"lon":13.4100649,"tags":{"historic":"memorial","memorial":"stolperstein","memorial:addr:housenumber":"10","memorial:addr:street":"Memhardstra\u00dfe","name":"Chana Rand","wikimedia_commons":"File:Stolperstein_Memhardstr_10_(Mitte)_Chana_Rand.jpg"}},{"type":"node","id":12072258430,"lat":52.5241667,"lon":13.4091397,"tags":{"man_made":"manhole","manhole":"drain"}},{"type":"node","id":12091964015,"lat":52.5240342,"lon":13.4094749,"tags":{"addr:floor":"0","emergency":"fire_hydrant","fire_hydrant:position":"sidewalk","fire_hydrant:type":"underground","level":"0","source":"survey","water_source":"main"}},{"type":"node","id":12091964016,"lat":52.5239555,"lon":13.4094431,"tags":{"addr:floor":"0","emergency":"fire_hydrant","fire_hydrant:position":"sidewalk","fire_hydrant:type":"underground","level":"0","source":"survey","water_source":"main"}},{"type":"node","id":12091964017,"lat":52.5240016,"lon":13.4093564,"tags":{"man_made":"manhole","manhole":"drain"}},{"type":"node","id":12091964018,"lat":52.5240305,"lon":13.4092538,"tags":{"man_made":"manhole","manhole":"drain"}}]}