{"version":0.6,"generator":"Overpass API 0.7.62.5 1bd436f1","osm3s":{"timestamp_osm_base":"2025-03-12T11:34:15Z","copyright":"The data included in this document is from www.openstreetmap.org. The data is made available under ODbL."},"elements":[{"type":"node","id":2721065873,"lat":52.5182945,"lon":13.4124774,"tags":{"barrier":"entrance","door":"gate","level":"0","wheelchair":"yes"}},{"type":"node","id":3216711401,"lat":52.5187065,"lon":13.4133654,"tags":{"addr:city":"Berlin","addr:country":"DE","addr:housenumber":"15","addr:postcode":"10179","addr:street":"Littenstra\u00dfe","addr:suburb":"Mitte"}},{"type":"node","id":3389744527,"lat":52.518335,"lon":13.413111,"tags":{"artist_name":"J\u00fcrgen Pansow","artwork_type":"statue","image":"File:Berlin Klostekirche, Pieta - panoramio.jpg","inscription":"Pieta - gewidmet den Lebenden - 1978 J\u00fcrgen Pansow","name":"Pieta","start_date":"1978","tourism":"artwork","wikidata":"Q111152557","wikimedia_commons":"Category:Pieta (J\u00fcrgen Pansow)"}},{"type":"node","id":4974583271,"lat":52.5188147,"lon":13.4134492,"tags":{"addr:city":"Berlin","addr:country":"DE","addr:housenumber":"12-17","addr:postcode":"10179","addr:street":"Littenstra\u00dfe","addr:suburb":"Mitte","amenity":"courthouse","contact:website":"https:\/\/www.berlin.de\/gerichte\/landgericht\/","name":"Landgericht Berlin","wheelchair":"yes","wikidata":"Q1802817","wikipedia":"de:Landgericht Berlin"}},{"type":"node","id":4986780890,"lat":52.5182681,"lon":13.4126035,"tags":{"artist_name":"J\u00fcrgen Strand","historic":"memorial","inscription":"Zur mahnenden Erinnerung an die Katastrophe von Tschernobyl am 26.04.1986; gestiftet vom Gr\u00fcnen Netzwerk \"arche\" Entwurf und Ausf\u00fchrung J\u00fcrgen Strand Einweihung am 4.03.1990 Gedenktafel zum 10. Jahrestag enth\u00fcllt","memorial":"stele","start_date":"1990-03-04"}},{"type":"node","id":4986780891,"lat":52.5182729,"lon":13.4129623,"tags":{"artist_name":"Theo Balden","artwork_type":"statue","image":"https:\/\/commons.wikimedia.org\/wiki\/File:Skulptur_Klosterstr_73a_(Mitte)_Mutter_und_Kind_Theo_Balden_1965.jpg","material":"bronze","name":"Mutter und Kind","start_date":"1965","tourism":"artwork","wikidata":"Q111148896","wikimedia_commons":"Category:Mutter mit Kind (Theo Balden, Berlin-Mitte)"}},{"type":"node","id":5001666722,"lat":52.5182077,"lon":13.4128711,"tags":{"amenity":"waste_basket","material":"metal"}},{"type":"node","id":5001666723,"lat":52.5181725,"lon":13.4127321,"tags":{"amenity":"waste_basket","material":"metal"}},{"type":"node","id":5001666726,"lat":52.5183556,"lon":13.4124584,"tags":{"artist_name":"Borgman; Lenk","artwork_type":"sculpture","name":"Radiator","note":"Banner: 09.06-31.10.2017","tourism":"artwork"}},{"type":"node","id":5001666727,"lat":52.5185813,"lon":13.4135116,"tags":{"contact:phone":"+49 30 2426340","craft":"bookbinder","name":"Buchbinderei Frank Dowerg","opening_hours":"Mo-Th 10:30-17:00 || \"sowie nach Absprache\""}},{"type":"node","id":5001685168,"lat":52.5186983,"lon":13.4125946,"tags":{"amenity":"bench","backrest":"yes"}},{"type":"node","id":5001685171,"lat":52.5182105,"lon":13.4128835,"tags":{"amenity":"bench","backrest":"yes","material":"wood"}},{"type":"node","id":5001685172,"lat":52.5181699,"lon":13.4127207,"tags":{"amenity":"bench","backrest":"yes","material":"wood"}},{"type":"node","id":10731220832,"lat":52.5181741,"lon":13.4131193,"tags":{"camera:direction":"130","camera:mount":"building","camera:type":"fixed","man_made":"surveillance","surveillance":"outdoor","surveillance:type":"camera"}},{"type":"node","id":10731220834,"lat":52.5181751,"lon":13.4130866,"tags":{"camera:direction":"-90","camera:mount":"building","camera:type":"fixed","man_made":"surveillance","surveillance":"outdoor","surveillance:type":"camera"}},{"type":"node","id":10731220850,"lat":52.5184236,"lon":13.4124733,"tags":{"addr:city":"Berlin","addr:country":"DE","addr:housenumber":"73a","addr:postcode":"10179","addr:street":"Klosterstra\u00dfe","addr:suburb":"Mitte","fee":"no","name":"Klosterruine Berlin","opening_hours":"May-Sep Mo-Su,PH 10:00-18:00; Oct-Apr \"Special events, exhibition launches \/ Auftaktveranstaltung\"","operator":"Bezirksamt Mitte von Berlin, Abteilung Weiterbildung, Kultur, Umwelt, Natur, Stra\u00dfen- und Gr\u00fcnfl\u00e4chen","phone":"+49 30 9018 37461","phone:disabled":"+49 30 9018 37462","tourism":"gallery","website":"https:\/\/www.klosterruine.berlin\/"}},{"type":"node","id":10731220852,"lat":52.5181663,"lon":13.4127069,"tags":{"amenity":"bench","backrest":"yes","material":"wood"}},{"type":"node","id":11807036262,"lat":52.5187297,"lon":13.413286,"tags":{"direction":"240","ele":"1,7","fixme":"Please merge me into a nearby building","historic":"memorial","inscription":"HANS LITTEN \/ UNERSCHROCKENER K\u00c4MPFER \/ F\u00dcR MENSCHLICHKEIT UND FRIEDEN \/ ANWALT UND VERTEIDIGER \/ DER UNTERDR\u00dcCKTEN \/ ERMORDET 1938 IM K-Z-LAGER DACHAU","material":"stone","memorial":"plaque","name":"Hans Litten","source":"survey"}}]}