{"version":0.6,"generator":"Overpass API 0.7.62.5 1bd436f1","osm3s":{"timestamp_osm_base":"2025-03-12T11:31:09Z","copyright":"The data included in this document is from www.openstreetmap.org. The data is made available under ODbL."},"elements":[{"type":"node","id":382905026,"lat":52.5232035,"lon":13.4081781,"tags":{"man_made":"surveillance","surveillance":"outdoor"}},{"type":"node","id":736787818,"lat":52.5234327,"lon":13.4089847,"tags":{"addr:city":"Berlin","addr:country":"DE","addr:housenumber":"3","addr:postcode":"10178","addr:street":"Rosa-Luxemburg-Stra\u00dfe","addr:suburb":"Mitte"}},{"type":"node","id":1552572583,"lat":52.5233074,"lon":13.4081816,"tags":{"addr:city":"Berlin","addr:country":"DE","addr:housenumber":"37","addr:postcode":"10178","addr:street":"Dircksenstra\u00dfe","addr:suburb":"Mitte"}},{"type":"node","id":3895249557,"lat":52.523128,"lon":13.4086991,"tags":{"addr:city":"Berlin","addr:country":"DE","addr:housenumber":"36","addr:postcode":"10179","addr:street":"Dircksenstra\u00dfe","addr:suburb":"Mitte"}},{"type":"node","id":3895249957,"lat":52.5232426,"lon":13.4083586,"tags":{"addr:city":"Berlin","addr:country":"DE","addr:housenumber":"37","addr:postcode":"10178","addr:street":"Dircksenstra\u00dfe","addr:suburb":"Mitte","amenity":"restaurant","check_date":"2023-03-18","contact:phone":"+49 30 24339838","contact:website":"http:\/\/www.madami-restaurant.de","cuisine":"vietnamese","diet:vegetarian":"yes","indoor_seating":"yes","level":"0","name":"Madami (papa)","opening_hours":"Mo-Sa 12:00-23:00","outdoor_seating":"yes","wheelchair":"no"}},{"type":"node","id":3895254315,"lat":52.5233173,"lon":13.4081119,"tags":{"addr:city":"Berlin","addr:country":"DE","addr:housenumber":"37","addr:postcode":"10178","addr:street":"Dircksenstra\u00dfe","addr:suburb":"Mitte","amenity":"restaurant","diet:vegan":"yes","diet:vegetarian":"yes","name":"MOM's vegan cooking","opening_hours":"Mo-Su 12:00-23:00"}},{"type":"node","id":4036437296,"lat":52.523391,"lon":13.4089464,"tags":{"addr:city":"Berlin","addr:country":"DE","addr:housenumber":"3","addr:postcode":"10178","addr:street":"Rosa-Luxemburg-Stra\u00dfe","amenity":"restaurant","contact:phone":"+49 30 65779266","contact:website":"http:\/\/www.madami-restaurant.de\/","cuisine":"vietnamese","diet:vegetarian":"yes","indoor_seating":"yes","name":"Madami (mama)","opening_hours":"12:00-23:15","outdoor_seating":"yes","takeaway":"no","wheelchair":"no"}},{"type":"node","id":4105089551,"lat":52.5234832,"lon":13.4090409,"tags":{"addr:city":"Berlin","addr:country":"DE","addr:housenumber":"3","addr:postcode":"10178","addr:street":"Rosa-Luxemburg-Stra\u00dfe","addr:suburb":"Mitte","check_date:opening_hours":"2023-04-05","name":"Burg und Schild","opening_hours":"Mo-Sa 11:00-19:00","shop":"clothes","website":"https:\/\/www.burgundschild.com\/","wheelchair":"no"}},{"type":"node","id":4597775373,"lat":52.5230588,"lon":13.408221,"tags":{"railway":"milestone","railway:position":"2.4"}},{"type":"node","id":4597775380,"lat":52.5229601,"lon":13.4081472,"tags":{"railway":"milestone","railway:milestone:catenary_mast":"yes","railway:position":"2.4"}},{"type":"node","id":5511605597,"lat":52.5229656,"lon":13.4082232,"tags":{"addr:city":"Berlin","addr:country":"DE","addr:housenumber":"126","addr:place":"Stadtbahnbogen","addr:postcode":"10179","addr:suburb":"Mitte","de:strassenschluessel":"11000000000009138","source":"Geoportal Berlin: RBS-Adressen"}},{"type":"node","id":6052737258,"lat":52.5233371,"lon":13.4090228,"tags":{"highway":"street_lamp"}},{"type":"node","id":7355148895,"lat":52.5233471,"lon":13.4090478,"tags":{"amenity":"bicycle_parking","bicycle_parking":"stands","bicycle_parking:position":"sidewalk","capacity":"4","check_date:capacity":"2024-09-13","covered":"no"}},{"type":"node","id":9829191555,"lat":52.5229961,"lon":13.4089047,"tags":{"crossing":"unmarked","crossing:island":"no","crossing:markings":"no","highway":"crossing","tactile_paving":"no"}},{"type":"node","id":9891678206,"lat":52.5229779,"lon":13.4087245,"tags":{"crossing":"unmarked","crossing:island":"no","crossing:markings":"no","highway":"crossing","tactile_paving":"no"}},{"type":"node","id":10743678836,"lat":52.5231659,"lon":13.4084373,"tags":{"amenity":"vending_machine","ref":"29-767","vending":"parking_tickets"}},{"type":"node","id":10743678837,"lat":52.5231122,"lon":13.4085875,"tags":{"man_made":"street_cabinet","operator":"Deutsche Telekom","utility":"telecom"}},{"type":"node","id":10760477348,"lat":52.5233032,"lon":13.4089366,"tags":{"amenity":"parking_entrance","maxheight":"2","parking":"underground"}},{"type":"node","id":10760477351,"lat":52.523407,"lon":13.4090116,"tags":{"barrier":"gate"}},{"type":"node","id":10788678610,"lat":52.5235209,"lon":13.4090716,"tags":{"female:signed":"no","male:signed":"no","name":"Shift","opening_hours":"Tu-Fr 09:00-20:00","shop":"hairdresser"}},{"type":"node","id":10830593775,"lat":52.5233718,"lon":13.4088882,"tags":{"camera:direction":"90","camera:mount":"wall","camera:type":"fixed","man_made":"surveillance","surveillance":"indoor","surveillance:type":"camera","surveillance:zone":"shop"}},{"type":"node","id":10830593776,"lat":52.5233879,"lon":13.4089009,"tags":{"camera:direction":"100","camera:mount":"wall","camera:type":"fixed","man_made":"surveillance","surveillance":"indoor","surveillance:type":"camera","surveillance:zone":"shop"}},{"type":"node","id":12041299969,"lat":52.5229294,"lon":13.4090244,"tags":{"man_made":"manhole"}},{"type":"node","id":12041299970,"lat":52.522914,"lon":13.408934,"tags":{"man_made":"manhole"}},{"type":"node","id":12041299971,"lat":52.5230235,"lon":13.4088399,"tags":{"man_made":"manhole"}},{"type":"node","id":12041299972,"lat":52.5230309,"lon":13.4087162,"tags":{"man_made":"manhole"}},{"type":"node","id":12041299973,"lat":52.523052,"lon":13.4090271,"tags":{"man_made":"manhole","manhole":"drain"}}]}