{"version":0.6,"generator":"Overpass API 0.7.62.5 1bd436f1","osm3s":{"timestamp_osm_base":"2025-03-12T11:28:07Z","copyright":"The data included in this document is from www.openstreetmap.org. The data is made available under ODbL."},"elements":[{"type":"node","id":21487184,"lat":52.5226628,"lon":13.4098307,"tags":{"button_operated":"yes","crossing":"traffic_signals","crossing:island":"no","crossing:markings":"dashes","highway":"crossing","tactile_paving":"yes","traffic_signals:sound":"yes","traffic_signals:vibration":"yes"}},{"type":"node","id":29219465,"lat":52.5222631,"lon":13.409417,"tags":{"button_operated":"no","crossing":"traffic_signals","crossing:island":"no","highway":"crossing","tactile_paving":"yes","traffic_signals:sound":"yes","traffic_signals:vibration":"yes"}},{"type":"node","id":310069196,"lat":52.5226495,"lon":13.4099275,"tags":{"railway:electricity":"joint","railway:electricity:jumpering":"closed","railway:electricity:ref":"104 VS 6","source":"survey"}},{"type":"node","id":526812433,"lat":52.5223704,"lon":13.4092706,"tags":{"highway":"traffic_signals"}},{"type":"node","id":735963001,"lat":52.5225331,"lon":13.4099812,"tags":{"button_operated":"yes","crossing":"traffic_signals","crossing:island":"no","crossing:markings":"dashes","highway":"crossing","tactile_paving":"yes","traffic_signals:sound":"yes","traffic_signals:vibration":"yes"}},{"type":"node","id":736761008,"lat":52.5228021,"lon":13.4094851,"tags":{"addr:city":"Berlin","addr:country":"DE","addr:housenumber":"35","addr:postcode":"10179","addr:street":"Dircksenstra\u00dfe","addr:suburb":"Mitte"}},{"type":"node","id":975320195,"lat":52.5228961,"lon":13.4098795,"tags":{"addr:city":"Berlin","addr:country":"DE","addr:housenumber":"15","addr:postcode":"10178","addr:street":"Karl-Liebknecht-Stra\u00dfe","addr:suburb":"Mitte","check_date":"2023-10-23","contact:email":"info@suno-berlin.de","contact:phone":"+49 30 20095473","contact:website":"http:\/\/suno-berlin.de","cuisine":"sushi;noodles","disused:amenity":"restaurant","name":"Suno","opening_hours":"Mo-Sa 11:30-23:00; Su 14:00-23:00","wheelchair":"no"}},{"type":"node","id":1086368390,"lat":52.5227844,"lon":13.4101689,"tags":{"railway":"power_supply","railway:electricity:ref":"104.02-1","source":"survey","voltage":"750"}},{"type":"node","id":1249802242,"lat":52.5222412,"lon":13.4098056,"tags":{"access":"yes","amenity":"toilets","brand":"SANIFAIR","brand:wikidata":"Q104814416","changing_table":"yes","fee":"yes","operator":"SANIFAIR GmbH","operator:wikidata":"Q104814416","toilets:wheelchair":"yes","wheelchair":"yes"}},{"type":"node","id":1769671804,"lat":52.5227707,"lon":13.4102153,"tags":{"description":"Ab hier Verbot der Weiterfahrt f\u00fcr Einrichtungswagen","railway":"signal","railway:signal:direction":"forward","railway:signal:minor":"DE-BOStrab:sh2","railway:signal:minor:caption":"AU\u00dfER ZR","railway:signal:minor:deactivated":"no","railway:signal:minor:form":"sign","railway:signal:position":"overhead"}},{"type":"node","id":2831092403,"lat":52.5227418,"lon":13.4101952,"tags":{"railway":"railway_crossing"}},{"type":"node","id":2840691668,"lat":52.5228745,"lon":13.4098346,"tags":{"addr:city":"Berlin","addr:country":"DE","addr:housenumber":"13A","addr:postcode":"10178","addr:street":"Karl-Liebknecht-Stra\u00dfe","addr:suburb":"Mitte","source":"Geoportal Berlin \/ Hauskoordinaten"}},{"type":"node","id":3205029103,"lat":52.5227223,"lon":13.4096521,"tags":{"addr:city":"Berlin","addr:country":"DE","addr:housenumber":"13","addr:postcode":"10178","addr:street":"Karl-Liebknecht-Stra\u00dfe","addr:suburb":"Mitte","air_conditioning":"yes","amenity":"cafe","brand":"Coffee Fellows","brand:wikidata":"Q23461429","brand:wikipedia":"en:Coffee Fellows","check_date":"2023-03-18","contact:website":"http:\/\/www.coffee-fellows.de\/","cuisine":"coffee_shop","diet:vegetarian":"yes","indoor_seating":"yes","internet_access":"wlan","level":"0","name":"Coffee Fellows","opening_hours":"Mo-Su 08:00-20:00","outdoor_seating":"yes","smoking":"no","takeaway":"yes","wheelchair":"yes"}},{"type":"node","id":3783242657,"lat":52.5226319,"lon":13.4092273,"tags":{"addr:city":"Berlin","addr:country":"DE","addr:housenumber":"123-124","addr:postcode":"10178","addr:street":"Dircksenstra\u00dfe","addr:suburb":"Mitte","amenity":"nightclub","name":"M-BIA","opening_hours":"We 23:00-07:00; Fr-Sa 23:00-09:00"}},{"type":"node","id":3867922477,"lat":52.5227931,"lon":13.4098943,"tags":{"bench":"yes","bin":"yes","bus":"yes","highway":"bus_stop","lit":"yes","local_ref":"1","name":"S+U Alexanderplatz\/Memhardstra\u00dfe","public_transport":"platform","ref":"1","shelter":"yes","tactile_paving":"no"}},{"type":"node","id":4163212867,"lat":52.5227489,"lon":13.409986,"tags":{"bus":"yes","gtfs:stop_id":"de:11000:900100031::2","local_ref":"1","name":"S+U Alexanderplatz\/Memhardstra\u00dfe","public_transport":"stop_position","ref:BVG":"107153","website":"https:\/\/qr.bvg.de\/h107153"}},{"type":"node","id":4547201157,"lat":52.5225808,"lon":13.4099285,"tags":{"crossing":"traffic_signals","railway":"tram_crossing"}},{"type":"node","id":4547201158,"lat":52.5225136,"lon":13.4099413,"tags":{"highway":"traffic_signals"}},{"type":"node","id":4547201159,"lat":52.5226228,"lon":13.4098775,"tags":{"crossing":"traffic_signals","railway":"tram_crossing"}},{"type":"node","id":4554486920,"lat":52.5223377,"lon":13.4092009,"tags":{"button_operated":"no","crossing":"traffic_signals","crossing:island":"no","highway":"crossing","image":"http:\/\/storage6.openstreetcam.org\/files\/photo\/2017\/10\/18\/lth\/942365_b2b6a_13.jpg","survey:date":"2017-10-18","tactile_paving":"yes","traffic_signals:sound":"yes","traffic_signals:vibration":"yes","wheelchair":"yes"}},{"type":"node","id":4648308025,"lat":52.5228395,"lon":13.4094331,"tags":{"amenity":"restaurant","check_date":"2023-03-18","cuisine":"asian;japanese;sushi;vietnamese","diet:vegetarian":"yes","indoor_seating":"yes","level":"0","name":"Chopstix","opening_hours":"Mo-Fr 12:00-23:00; Sa,Su 12:00-23:00","outdoor_seating":"yes","payment:diners_club":"yes","payment:girocard":"yes","payment:jcb":"yes","payment:maestro":"yes","payment:mastercard":"yes","payment:visa":"yes","wheelchair":"yes"}},{"type":"node","id":4673135641,"lat":52.5223109,"lon":13.4092784,"tags":{"crossing":"traffic_signals","railway":"tram_crossing"}},{"type":"node","id":4673135642,"lat":52.5222841,"lon":13.4093562,"tags":{"crossing":"traffic_signals","railway":"tram_crossing"}},{"type":"node","id":4868625062,"lat":52.5226231,"lon":13.4091952,"tags":{"operator":"DB InfraGO AG","railway":"signal","railway:signal:combined":"DE-ESO:ks","railway:signal:combined:deactivated":"no","railway:signal:combined:form":"light","railway:signal:combined:function":"block","railway:signal:combined:height":"normal","railway:signal:combined:shortened":"no","railway:signal:combined:states":"DE-ESO:hp0;DE-ESO:ks1;DE-ESO:ks2","railway:signal:combined:substitute_signal":"DE-ESO:db:zs12;DE-ESO:dr:zs1","railway:signal:direction":"forward","railway:signal:position":"right","railway:signal:speed_limit":"DE-ESO:zs3","railway:signal:speed_limit:deactivated":"no","railway:signal:speed_limit:form":"light","railway:signal:speed_limit:height":"normal","railway:signal:speed_limit:speed":"30;?;off","railway:signal:speed_limit_distant":"DE-ESO:zs3v","railway:signal:speed_limit_distant:deactivated":"no","railway:signal:speed_limit_distant:form":"light","railway:signal:speed_limit_distant:height":"normal","railway:signal:speed_limit_distant:speed":"?;off","railway:signal:traversable":"DE-ESO:mastschild_rot-weiss","railway:signal:traversable:type":"written_default_speed;dictated_default_speed","ref":"64"}},{"type":"node","id":4868625063,"lat":52.522652,"lon":13.4092299,"tags":{"railway":"signal","railway:signal:combined":"DE-ESO:ks","railway:signal:combined:form":"light","railway:signal:combined:function":"block","railway:signal:combined:height":"normal","railway:signal:combined:states":"DE-ESO:hp0;DE-ESO:ks1;DE-ESO:ks2","railway:signal:combined:substitute_signal":"DE-ESO:db:zs12;DE-ESO:dr:zs1","railway:signal:direction":"backward","railway:signal:position":"left","railway:signal:speed_limit_distant":"DE-ESO:zs3v","railway:signal:speed_limit_distant:form":"light","railway:signal:speed_limit_distant:height":"normal","railway:signal:traversable":"DE-ESO:mastschild_rot-weiss","railway:signal:traversable:type":"written_default_speed;dictated_default_speed","ref":"62"}},{"type":"node","id":5171487413,"lat":52.52269,"lon":13.4098788,"tags":{"highway":"traffic_signals"}},{"type":"node","id":5907113488,"lat":52.5226887,"lon":13.4094278,"tags":{"disused:bus":"yes","disused:public_transport":"stop_position","disused:ref:BVG":"107155"}},{"type":"node","id":7063792964,"lat":52.5228627,"lon":13.4099085,"tags":{"amenity":"vending_machine","check_date":"2023-10-23","operator":"Berliner Verkehrsbetriebe","operator:short":"BVG","vending":"public_transport_tickets"}},{"type":"node","id":9658870593,"lat":52.522612,"lon":13.4099815,"tags":{"railway:electricity":"joint","railway:electricity:jumpering":"closed","railway:electricity:ref":"104 VS 6","source":"survey"}},{"type":"node","id":9689717828,"lat":52.5226829,"lon":13.4096903,"tags":{"emergency":"fire_hydrant","fire_hydrant:diameter":"150","fire_hydrant:position":"sidewalk","fire_hydrant:type":"underground","water_source":"main"}},{"type":"node","id":9689738992,"lat":52.5228857,"lon":13.4099905,"tags":{"emergency":"fire_hydrant","fire_hydrant:diameter":"150","fire_hydrant:position":"sidewalk","fire_hydrant:type":"underground","water_source":"main"}},{"type":"node","id":9689741037,"lat":52.5224169,"lon":13.4101901,"tags":{"emergency":"fire_hydrant","fire_hydrant:diameter":"200","fire_hydrant:position":"sidewalk","fire_hydrant:type":"underground","water_source":"main"}},{"type":"node","id":9891723335,"lat":52.5225322,"lon":13.410217,"tags":{"railway":"tram_crossing"}},{"type":"node","id":10743655173,"lat":52.5227975,"lon":13.4093389,"tags":{"addr:floor":"0","addr:housenumber":"35","addr:street":"Dircksenstra\u00dfe","amenity":"vending_machine","check_date":"2024-07-08","covered":"no","currency:EUR":"yes","indoor":"no","level":"0","manufacturer":"Parkeon","opening_hours":"24\/7","operator":"Bezirksamt Mitte","payment:app":"yes","payment:cash":"yes","payment:coins":"yes","payment:credit_cards":"yes","payment:debit_cards":"yes","ref":"29-768","source":"survey","vending":"parking_tickets"}},{"type":"node","id":10760401282,"lat":52.5226353,"lon":13.4095577,"tags":{"direction":"forward","highway":"give_way"}},{"type":"node","id":10760401283,"lat":52.5226273,"lon":13.4095711,"tags":{"crossing":"unmarked","crossing:island":"no","crossing:markings":"no","highway":"crossing","tactile_paving":"yes"}},{"type":"node","id":10760401284,"lat":52.5226167,"lon":13.4094653,"tags":{"amenity":"waste_basket","colour":"orange","covered":"no","indoor":"no","material":"steel","operator":"BSR","source":"survey","waste":"cigarettes;dog_excrement;trash"}},{"type":"node","id":10760401287,"lat":52.5226902,"lon":13.4097053,"tags":{"amenity":"waste_basket","colour":"orange","covered":"no","highway":"street_lamp","indoor":"no","material":"steel","operator":"BSR","source":"survey","waste":"cigarettes;dog_excrement;trash"}},{"type":"node","id":11236075596,"lat":52.5226125,"lon":13.4098896,"tags":{"barrier":"kerb","kerb":"lowered","tactile_paving":"yes"}},{"type":"node","id":11236075597,"lat":52.5225933,"lon":13.4099147,"tags":{"barrier":"kerb","kerb":"lowered","tactile_paving":"yes"}},{"type":"node","id":11236075598,"lat":52.522492,"lon":13.4100265,"tags":{"barrier":"kerb","kerb":"lowered","tactile_paving":"yes"}},{"type":"node","id":11236075599,"lat":52.5227073,"lon":13.409776,"tags":{"barrier":"kerb","kerb":"lowered","tactile_paving":"yes"}},{"type":"node","id":11236075601,"lat":52.5223041,"lon":13.4092983,"tags":{"barrier":"kerb","kerb":"lowered","tactile_paving":"yes"}},{"type":"node","id":11236075602,"lat":52.5222916,"lon":13.4093343,"tags":{"barrier":"kerb","kerb":"lowered","tactile_paving":"yes"}},{"type":"node","id":11236075603,"lat":52.5223658,"lon":13.4091194,"tags":{"barrier":"kerb","kerb":"lowered","tactile_paving":"yes"}},{"type":"node","id":11236075607,"lat":52.5222331,"lon":13.4096163,"tags":{"barrier":"kerb","kerb":"lowered","tactile_paving":"yes"}},{"type":"node","id":11435862549,"lat":52.5223834,"lon":13.4094405,"tags":{"railway":"signal","railway:signal:departure":"DE-ESO:zp","railway:signal:departure:form":"light","railway:signal:departure:states":"DE-ESO:zp9","railway:signal:direction":"backward","railway:signal:position":"left"}},{"type":"node","id":11435862550,"lat":52.522439,"lon":13.4095124,"tags":{"railway":"signal","railway:signal:departure":"DE-ESO:zp","railway:signal:departure:form":"light","railway:signal:departure:states":"DE-ESO:zp9","railway:signal:direction":"forward","railway:signal:position":"left"}},{"type":"node","id":12041296466,"lat":52.5224848,"lon":13.409979,"tags":{"man_made":"manhole","manhole":"drain"}},{"type":"node","id":12041296467,"lat":52.522809,"lon":13.4099243,"tags":{"amenity":"waste_basket","colour":"orange","covered":"no","indoor":"no","material":"steel","operator":"BSR","source":"survey","waste":"cigarettes;dog_excrement;trash"}},{"type":"node","id":12041296468,"lat":52.5227795,"lon":13.4093964,"tags":{"man_made":"manhole"}},{"type":"node","id":12345058907,"lat":52.5228263,"lon":13.40927,"tags":{"addr:floor":"0","emergency":"fire_hydrant","fire_hydrant:position":"sidewalk","fire_hydrant:type":"underground","level":"0","ref":"4199","source":"survey","water_source":"main"}}]}