{"version":0.6,"generator":"Overpass API 0.7.62.5 1bd436f1","osm3s":{"timestamp_osm_base":"2025-03-12T11:26:02Z","copyright":"The data included in this document is from www.openstreetmap.org. The data is made available under ODbL."},"elements":[{"type":"node","id":382905025,"lat":52.5230219,"lon":13.4118267,"tags":{"man_made":"surveillance","operator":"D\u00f6ner Inn","surveillance":"indoor"}},{"type":"node","id":810487535,"lat":52.5231522,"lon":13.4122306,"tags":{"addr:city":"Berlin","addr:country":"DE","addr:housenumber":"8","addr:place":"Alexanderplatz","addr:postcode":"10178","addr:suburb":"Mitte","amenity":"car_rental","brand":"Europcar","brand:wikidata":"Q1376256","brand:wikipedia":"en:Europcar","check_date":"2023-07-07","contact:fax":"+49 30 24079066","contact:phone":"+49 30 2407900","name":"Europcar","opening_hours":"24\/7","operator":"EuropCar","wheelchair":"limited"}},{"type":"node","id":2073820376,"lat":52.5230102,"lon":13.4119395,"tags":{"addr:housenumber":"8","addr:place":"Alexanderplatz","amenity":"fast_food","check_date":"2024-05-29","cuisine":"kebab","indoor_seating":"yes","internet_access":"no","level":"0","name":"d\u00f6ner Inn","opening_hours":"00:00-06:00,09:00-24:00","outdoor_seating":"yes","payment:cash":"yes","payment:credit_cards":"yes","payment:debit_cards":"yes","wheelchair":"yes"}},{"type":"node","id":2073820426,"lat":52.5231367,"lon":13.4119902,"tags":{"amenity":"fast_food","cuisine":"asian","indoor_seating":"yes","name":"Coffeeshop Inn","outdoor_seating":"yes","wheelchair":"yes"}},{"type":"node","id":2121378265,"lat":52.5233629,"lon":13.4123062,"tags":{"amenity":"parking_entrance","maxheight":"1.7","parking":"multi-storey"}},{"type":"node","id":6297518803,"lat":52.5229483,"lon":13.4118452,"tags":{"amenity":"atm","brand":"Euronet","brand:wikidata":"Q5412010","brand:wikipedia":"en:Euronet Worldwide","cash_in":"no","check_date":"2023-09-30","name":"Euronet","opening_hours":"24\/7","operator":"Euronet","operator:wikidata":"Q5412010","operator:wikipedia":"en:Euronet Worldwide","wheelchair":"yes"}},{"type":"node","id":7945396928,"lat":52.5233622,"lon":13.4114653,"tags":{"natural":"tree"}},{"type":"node","id":7945396929,"lat":52.523284,"lon":13.4113411,"tags":{"natural":"tree"}},{"type":"node","id":9122675261,"lat":52.5230708,"lon":13.4116492,"tags":{"amenity":"fast_food","check_date":"2025-01-24","name":"OBST inn"}},{"type":"node","id":9850560336,"lat":52.5232447,"lon":13.4122199,"tags":{"addr:city":"Berlin","addr:housenumber":"8","addr:postcode":"10178","addr:street":"Alexanderstra\u00dfe","alt_name":"T-Shop","branch":"Alexanderstra\u00dfe","brand":"Deutsche Telekom","brand:wikidata":"Q9396","fixme":"Position gesch\u00e4tzt","name":"Telekom Shop","opening_hours":"Mo-Sa 10:00-20:00; Su off","phone":"+49 30 20054134","shop":"mobile_phone","website":"https:\/\/shopseite.telekom.de\/nord-ost\/berlin\/alexanderplatz-8"}},{"type":"node","id":12529554372,"lat":52.5230889,"lon":13.4116218,"tags":{"amenity":"fast_food","check_date":"2025-01-24","name":"Curry Inn"}},{"type":"node","id":12610401054,"lat":52.5234013,"lon":13.4116513,"tags":{"barrier":"gate","locked":"yes"}}]}