{"version":0.6,"generator":"Overpass API 0.7.62.5 1bd436f1","osm3s":{"timestamp_osm_base":"2025-03-12T11:23:02Z","copyright":"The data included in this document is from www.openstreetmap.org. The data is made available under ODbL."},"elements":[{"type":"node","id":315140151,"lat":52.5216201,"lon":13.412939,"tags":{"amenity":"telephone","brand":"Deutsche Telekom","brand:wikidata":"Q9396","brand:wikimedia_commons":"Category:Deutsche Telekom","brand:wikipedia":"de:Deutsche Telekom","check_date":"2023-07-12","covered":"yes","operator":"Deutsche Telekom AG","operator:wikidata":"Q9396","operator:wikipedia":"de:Deutsche Telekom","payment:coins":"yes","payment:telephone_cards":"yes"}},{"type":"node","id":2094267054,"lat":52.5221892,"lon":13.413097,"tags":{"railway":"switch"}},{"type":"node","id":2777153545,"lat":52.5216214,"lon":13.4131913,"tags":{"entrance":"yes","entrance_marker:subway":"yes","level":"0","name":"Alexanderplatz","public_transport":"entrance","railway":"subway_entrance","ref":"M","wheelchair":"yes"}},{"type":"node","id":2777153635,"lat":52.5221366,"lon":13.4133504,"tags":{"level":"-1"}},{"type":"node","id":2777153638,"lat":52.5222246,"lon":13.4131693,"tags":{"check_date:wheelchair":"2021-06-16","destination":"WC;Taxi;Karl-Liebknecht-Stra\u00dfe;Memhardstr.;Galeria Kaufhof;Tram M4; Tram M5, Tram M6, Bus 100; Bus 200","entrance":"yes","entrance_marker:subway":"yes","level":"0","name":"Alexanderplatz","public_transport":"entrance","railway":"subway_entrance","ref":"O","wheelchair":"no"}},{"type":"node","id":3204993764,"lat":52.5217447,"lon":13.4129511,"tags":{"xmas:day_date":"25.11.2024-26.12.2024","xmas:feature":"market","xmas:fee":"no","xmas:name":"Weihnachtsmarkt am Alexanderplatz","xmas:opening_hours":"Mo-Su 11:00-22:00","xmas:url":"https:\/\/www.berlin.de\/weihnachtsmarkt\/"}},{"type":"node","id":4023131746,"lat":52.5221184,"lon":13.4133478,"tags":{"amenity":"atm","brand":"Berliner Sparkasse","cash_in":"no","check_date":"2021-06-20","level":"-1","network":"Sparkassenverbund","opening_hours":"24\/7","operator":"Berliner Sparkasse"}},{"type":"node","id":4923395566,"lat":52.5216107,"lon":13.4128812,"tags":{"leaf_cycle":"deciduous","leaf_type":"broadleaved","natural":"tree"}},{"type":"node","id":4923395567,"lat":52.5215655,"lon":13.4129356,"tags":{"leaf_cycle":"deciduous","leaf_type":"broadleaved","natural":"tree"}},{"type":"node","id":6343276460,"lat":52.5217187,"lon":13.412597,"tags":{"highway":"street_lamp"}},{"type":"node","id":6343276461,"lat":52.5218101,"lon":13.4124714,"tags":{"highway":"street_lamp"}},{"type":"node","id":6343276462,"lat":52.5216128,"lon":13.4127426,"tags":{"highway":"street_lamp"}},{"type":"node","id":6343276467,"lat":52.5221913,"lon":13.4124553,"tags":{"highway":"street_lamp"}},{"type":"node","id":9759482144,"lat":52.5219162,"lon":13.4134105,"tags":{"emergency":"fire_hydrant","fire_hydrant:diameter":"200","fire_hydrant:position":"sidewalk","fire_hydrant:type":"underground","ref":"40085"}},{"type":"node","id":9759484614,"lat":52.5215544,"lon":13.4127109,"tags":{"emergency":"fire_hydrant","fire_hydrant:diameter":"200","fire_hydrant:position":"sidewalk","fire_hydrant:type":"underground","ref":"4165"}},{"type":"node","id":12024314287,"lat":52.5217666,"lon":13.4125102,"tags":{"amenity":"waste_basket","colour":"orange","covered":"no","indoor":"no","material":"steel","operator":"BSR","source":"survey"}},{"type":"node","id":12024314288,"lat":52.5216676,"lon":13.4126636,"tags":{"amenity":"waste_basket","colour":"orange","covered":"no","indoor":"no","material":"steel","operator":"BSR","source":"survey"}}]}