{"version":0.6,"generator":"Overpass API 0.7.62.5 1bd436f1","osm3s":{"timestamp_osm_base":"2025-03-12T11:24:02Z","copyright":"The data included in this document is from www.openstreetmap.org. The data is made available under ODbL."},"elements":[{"type":"node","id":89312691,"lat":52.5226551,"lon":13.41272,"tags":{"addr:city":"Berlin","amenity":"fast_food","brand":"Burger King","brand:wikidata":"Q177054","brand:wikipedia":"en:Burger King","cuisine":"burger","indoor_seating":"yes","internet_access":"wlan","name":"Burger King","opening_hours":"Mo-Th 10:00-22:00; Fr,Sa 10:00-23:00; Su 11:00-22:00","outdoor_seating":"yes","surveillance":"indoor","takeaway":"yes","toilets:wheelchair":"no","wheelchair":"limited","wheelchair:description":"Keine Behindertentoilette! Die Toiletten befinden sich im Untergeschoss"}},{"type":"node","id":315140135,"lat":52.5222623,"lon":13.4132179,"tags":{"railway":"switch"}},{"type":"node","id":789379923,"lat":52.5229016,"lon":13.4133669,"tags":{"amenity":"post_box","collection_times":"Mo-Fr 15:00,17:15; Sa 16:15","operator":"Deutsche Post","operator:wikidata":"Q157645","operator:wikipedia":"de:Deutsche Post AG","ref":"Alexanderplatz 7-9, 10178 Berlin"}},{"type":"node","id":2095738486,"lat":52.5222666,"lon":13.4129932,"tags":{"railway":"switch"}},{"type":"node","id":2095738490,"lat":52.5223065,"lon":13.4130621,"tags":{"railway":"switch"}},{"type":"node","id":2095738494,"lat":52.5223902,"lon":13.4127582,"tags":{"railway":"switch"}},{"type":"node","id":2095738496,"lat":52.5224137,"lon":13.4127967,"tags":{"railway":"switch"}},{"type":"node","id":2348038038,"lat":52.5225381,"lon":13.4127826,"tags":{"access":"yes","access:conditional":"no @ (23:00-06:00)","door":"revolving","entrance":"yes"}},{"type":"node","id":2840695243,"lat":52.5225491,"lon":13.4128035,"tags":{"addr:city":"Berlin","addr:country":"DE","addr:housenumber":"7","addr:place":"Alexanderplatz","addr:postcode":"10178","addr:suburb":"Mitte","source":"Geoportal Berlin \/ Hauskoordinaten"}},{"type":"node","id":3104326558,"lat":52.5223428,"lon":13.4129066,"tags":{"railway":"railway_crossing"}},{"type":"node","id":3987047652,"lat":52.5224656,"lon":13.4131229,"tags":{"addr:city":"Berlin","addr:housenumber":"5-7","addr:postcode":"10178","addr:street":"Alexanderplatz","alt_name":"Primark Berlin Alexanderplatz","brand":"Primark","brand:wikidata":"Q137023","brand:wikipedia":"en:Primark","internet_access":"wlan","name":"Primark","opening_hours":"Mo-We 10:00-21:00; Th-Sa 10:00-22:00","phone":"+49 30 23457162","shop":"clothes","website":"https:\/\/www.primark.com\/","wheelchair":"yes"}},{"type":"node","id":4389211793,"lat":52.5227067,"lon":13.4125804,"tags":{"amenity":"fast_food","brand":"Frittenwerk","brand:wikidata":"Q121094275","contact:phone":"+49 30 89404058","contact:website":"https:\/\/www.frittenwerk.com\/berlin-alexanderplatz.php","cuisine":"friture","diet:vegan":"yes","diet:vegetarian":"yes","drive_through":"no","indoor_seating":"yes","name":"Frittenwerk","opening_hours":"Mo-Su,PH 11:00-22:00","outdoor_seating":"yes","payment:apple_pay":"yes","payment:cash":"yes","payment:credit_cards":"yes","payment:debit_cards":"yes","payment:google_pay":"yes","smoking":"outside","takeaway":"yes"}},{"type":"node","id":4389211799,"lat":52.5227302,"lon":13.4124752,"tags":{"addr:city":"Berlin","addr:place":"Alexanderplatz","addr:postcode":"10178","brand":"Flying Tiger Copenhagen","brand:wikidata":"Q2786319","check_date":"2023-07-24","name":"Flying Tiger Copenhagen","opening_hours":"Mo-Sa 09:00-21:00","shop":"variety_store","short_name":"Flying Tiger","wheelchair":"yes"}},{"type":"node","id":4764023046,"lat":52.522903,"lon":13.412615,"tags":{"charge":"6\u20ac","contact:website":"https:\/\/www.parkinn-berlin.de\/aussichtsterrasse\/","fee":"yes","level":"40","opening_hours":"Apr-Sep: Mo-Su 12:00-22:00; Oct-Mar: Mo-Su 12:00-18:00","operator":"Park Inn by Radisson Berlin Alexanderplatz","tourism":"viewpoint","wheelchair":"no"}},{"type":"node","id":5201668818,"lat":52.5228096,"lon":13.4131863,"tags":{"information":"office","tourism":"information"}},{"type":"node","id":6297518804,"lat":52.5225378,"lon":13.4127673,"tags":{"amenity":"atm","brand":"Euronet","brand:wikidata":"Q5412010","brand:wikipedia":"en:Euronet Worldwide","cash_in":"no","check_date":"2024-06-17","name":"Euronet","opening_hours":"24\/7","operator":"Euronet","operator:wikidata":"Q5412010","operator:wikipedia":"en:Euronet Worldwide","wheelchair":"yes"}},{"type":"node","id":6343276468,"lat":52.5222838,"lon":13.4126004,"tags":{"highway":"street_lamp"}},{"type":"node","id":6343276469,"lat":52.5223742,"lon":13.412531,"tags":{"highway":"street_lamp"}},{"type":"node","id":6343276470,"lat":52.5224841,"lon":13.412693,"tags":{"highway":"street_lamp"}},{"type":"node","id":6343276471,"lat":52.5225609,"lon":13.4125017,"tags":{"highway":"street_lamp"}},{"type":"node","id":9759409088,"lat":52.5222367,"lon":13.4125823,"tags":{"addr:floor":"0","emergency":"fire_hydrant","fire_hydrant:diameter":"200","fire_hydrant:position":"sidewalk","fire_hydrant:type":"underground","level":"0","ref":"4163","source":"survey"}},{"type":"node","id":10185204423,"lat":52.5225364,"lon":13.4129435,"tags":{"alt_name":"T-Shop","brand":"Deutsche Telekom","brand:wikidata":"Q9396","check_date":"2024-06-17","level":"0","name":"Telekom Shop","opening_hours":"Mo-Fr 10:00-20:00; Sa 10:00-17:00; PH,Su off","shop":"mobile_phone","wheelchair":"yes"}},{"type":"node","id":11079337454,"lat":52.5228538,"lon":13.4124852,"tags":{"contact:webcam":"https:\/\/www.youtube.com\/watch?v=FVQ-g3ZH3ik","image":"https:\/\/ch-fra-n10.livespotting.com\/vpu\/ehlpzb4g\/nkw9elfh.jpg","man_made":"surveillance","name":"Alexanderplatz Webcam Park Inn Radisson","surveillance":"webcam","surveillance:type":"camera","website":"https:\/\/livespotting.tv\/deutschland\/berlin\/nkw9elfh"}},{"type":"node","id":11944776068,"lat":52.5223455,"lon":13.4127689,"tags":{"amenity":"waste_basket","waste":"trash"}},{"type":"node","id":12024314284,"lat":52.5222568,"lon":13.4125772,"tags":{"amenity":"waste_basket","colour":"orange","covered":"no","indoor":"no","material":"steel","operator":"BSR","source":"survey"}},{"type":"node","id":12052320086,"lat":52.5224408,"lon":13.4124529,"tags":{"man_made":"manhole","manhole":"drain"}}]}