{"version":0.6,"generator":"Overpass API 0.7.62.5 1bd436f1","osm3s":{"timestamp_osm_base":"2025-03-12T11:31:09Z","timestamp_areas_base":"2024-12-31T00:49:33Z","copyright":"The data included in this document is from www.openstreetmap.org. The data is made available under ODbL."},"elements":[{"type":"way","id":23748095,"nodes":[3895250375,3895250368,3895250095,3895250091,3895250102,3895250271,3895250090,3895250268,3895250366,3895250082,3895249963,3895250365,3895250364,10760477348,3895250371,3895250375],"tags":{"addr:city":"Berlin","addr:country":"DE","addr:housenumber":"36","addr:postcode":"10179","addr:street":"Dircksenstra\u00dfe","addr:suburb":"Mitte","brand":"Motel One","brand:wikidata":"Q391080","brand:wikipedia":"en:Motel One","building":"hotel","building:levels":"7","check_date":"2023-03-18","contact:phone":"+49 30 20054080","contact:website":"http:\/\/www.motel-one.com\/de\/hotels\/hotels-berlin\/hotel-berlin-alexanderplatz.html","name":"Motel One","operator":"Motel One Berlin Hackescher Markt","toilets:wheelchair":"yes","tourism":"hotel","wheelchair":"yes"}},{"type":"way","id":198218165,"nodes":[3895250287,3895250382,3895250283,3895250379,3895250378,3895249864,3895249862,3895249861,3895249966,3895249860,3895250270,3895250083,9828580285,9828580284,3895250074,3895250075,3895250361,3895250264,3895250077,3895250079,3895250098,3895250164,3895249980,11236060395,3895250328,3895249885,3895250447,3895250448,3895250449,11236060392,3895249890,3895252261,3895251558,3895250190,3895250029,3895250030,9830554050,3895249908,3895249760,3895252268,9830554049,3895250025,3895250179,3895249882,3895250412,9829191558,9829191559,3895250287],"tags":{"landuse":"residential"}},{"type":"way","id":534157242,"nodes":[9802183161,9802183168,9802183167,9802183169,9802183170,266590369,1552581485,1389419253,9827932875,3792553957,3792544939,2095742296,3730313092,2095742294,3895254085,3895255516,3895254312,3895255500,3895254697,2163914937,2163914936,3895255306,3895255296,3895254544,3895254282,3895254281,3981337435,3981337404,3895254529,3895254670,9412672078,3832573040,3832556283,11236060399,3832556265,3895250416,3895249879,3895250065,11236075599,3895250061,3895250060,3895250157,3895249959,3895250059,3895250063,3895249960,3895250362,3895250076,3895250265,3895250083,3895250270,3895249860,3895249966,3895249861,3895249862,3895249864,9829191561,9829191560,3918854725,3918854727,3918854735,3918854741,3918854755,3918854763,3918854761,3918854759,3918854756,3918854746,3918854731,3918854722,3918854719,3918854715,3918854714,3918854712,3918854710,4847734482,3918854709,3918854707,3918854706,3918854708,3918854711,3918854713,3918854717,3918854740,3918854771,3918854778,3239758922,3918854790,3239758923,3239758924,3239758935,3239759495,3919243559,3239759890,3239760027,3239760187,5180912941,5180912940,5180912939,5180912938,5236117750,5180912937,11233600215,9802183154,9802183182,9802183161]},{"type":"way","id":1071049526,"nodes":[9828580291,9828580292,9828580293,9828580290,10760477352,10760477350,9829191544,9829191545,9829191546,9829191547,9829191554,9829191548,9829191549,9829191550,9829191551,10761261490,10761261489,9829191552,9828580291],"tags":{"footway":"sidewalk","highway":"footway","lit":"yes","smoothness":"intermediate","surface":"paving_stones"}},{"type":"area","id":3600014980,"tags":{"access":"green_sticker_germany","boundary":"low_emission_zone","name":"Umweltzone Berlin","name:cs":"N\u00edzkoemisn\u00ed z\u00f3ny","name:de":"Umweltzone Berlin","name:en":"Berlin Environmental Zone","name:es":"Zona de baja emisi\u00f3n","name:sv":"Milj\u00f6zon","note":"Sehr ungenau. Quelle mit Karten https:\/\/www.berlin.de\/senuvk\/umwelt\/luftqualitaet\/umweltzone\/de\/gebiet.shtml","osmwiki":"http:\/\/wiki.openstreetmap.org\/wiki\/LEZ#Germany","type":"boundary","wikidata":"Q647266","wikipedia":"de:Umweltzone"}},{"type":"area","id":3600016347,"tags":{"TMC:cid_58:tabcd_1:Class":"Area","TMC:cid_58:tabcd_1:LCLversion":"9.00","TMC:cid_58:tabcd_1:LocationCode":"4885","admin_level":"9","boundary":"administrative","contact:website":"http:\/\/www.berlin.de\/ba-mitte\/","de:regionalschluessel":"11001","description":"1. Verwaltungsbezirk von Berlin","geographical_region":"Berliner Urstromtal","name":"Mitte","name:de":"Mitte","name:ja":"\u30df\u30c3\u30c6","name:prefix":"Bezirk","name:ru":"\u041c\u0438\u0442\u0442\u0435","place":"borough","population":"383360","population:date":"2020-12-31","postal_addr:city":"Berlin","postal_addr:country":"DE","postal_addr:housename":"Bezirksamt Mitte von Berlin","postal_addr:postcode":"13341","postal_addr:street":"Mathilde-Jacob-Platz","ref":"01","source":"http:\/\/wiki.openstreetmap.org\/wiki\/Import\/Catalogue\/Kreisgrenzen_Deutschland_2005","source:population":"https:\/\/de.wikipedia.org\/wiki\/de:Bezirk_Mitte","type":"boundary","wikidata":"Q163966","wikipedia":"de:Bezirk Mitte"}},{"type":"area","id":3600016566,"tags":{"admin_level":"10","boundary":"administrative","geographical_region":"Berliner Urstromtal","name":"Mitte","name:de":"Mitte","name:ja":"\u30df\u30c3\u30c6","name:prefix":"Ortsteil","name:ru":"\u041c\u0438\u0442\u0442\u0435","place":"suburb","ref":"0101","source":"http:\/\/wiki.openstreetmap.org\/wiki\/Import\/Catalogue\/Kreisgrenzen_Deutschland_2005","type":"boundary","wikidata":"Q2013767","wikipedia":"de:Berlin-Mitte"}},{"type":"area","id":3600051477,"tags":{"ISO3166-1":"DE","ISO3166-1:alpha2":"DE","ISO3166-1:alpha3":"DEU","ISO3166-1:numeric":"276","TMC:cid_58:tabcd_1:Class":"Area","TMC:cid_58:tabcd_1:LCLversion":"8.00","TMC:cid_58:tabcd_1:LocationCode":"1","admin_level":"2","alt_name:eo":"Germanujo","alt_name:pa-Arab":"\u062c\u0631\u0645\u0646\u06cc","alt_name:pnb":"\u062c\u0631\u0645\u0646\u06cc","border_type":"country","boundary":"administrative","coat_of_arms":"File:Coat of arms of Germany.svg","currency":"EUR","default_language":"de","driving_side":"right","flag":"File:Flag of Germany.svg","int_name":"Germany","long_name":"Bundesrepublik Deutschland","long_name:ar":"\u062c\u0645\u0647\u0648\u0631\u064a\u0629 \u0623\u0644\u0645\u0627\u0646\u064a\u0627 \u0627\u0644\u0627\u062a\u062d\u0627\u062f\u064a\u0629","long_name:azb":"\u0622\u0644\u0645\u0627\u0646 \u0641\u062f\u0631\u0627\u062a\u06cc\u0648 \u062c\u0648\u0645\u0647\u0648\u0631\u06cc\u062a\u06cc","long_name:de":"Bundesrepublik Deutschland","long_name:en":"Federal Republic of Germany","long_name:es":"Rep\u00fablica Federal de Alemania","long_name:eu":"Alemaniako Errepublika Federala","long_name:fa":"\u062c\u0645\u0647\u0648\u0631\u06cc \u0641\u062f\u0631\u0627\u0644 \u0622\u0644\u0645\u0627\u0646","long_name:fr":"R\u00e9publique f\u00e9d\u00e9rale d'Allemagne","long_name:gsw":"Bundesrepublik Ditschland","long_name:hsb":"Zwjazkowa republika N\u011bmska","long_name:hu":"N\u00e9metorsz\u00e1gi Sz\u00f6vets\u00e9gi K\u00f6zt\u00e1rsas\u00e1g","long_name:it":"Repubblica Federale di Germania","long_name:nl":"Bondsrepubliek Duitsland","long_name:pl":"Republika Federalna Niemiec","long_name:ps":"\u0627\u0644\u0645\u0627\u0646 \u0641\u062f\u0631\u0627\u0644\u064a \u062c\u0645\u0647\u0648\u0631\u06cc\u062a","long_name:pt":"Reb\u00fablica Federal da Alemanha","long_name:ru":"\u0424\u0435\u0434\u0435\u0440\u0430\u0442\u0438\u0432\u043d\u0430\u044f \u0420\u0435\u0441\u043f\u0443\u0431\u043b\u0438\u043a\u0430 \u0413\u0435\u0440\u043c\u0430\u043d\u0438\u044f","long_name:sv":"F\u00f6rbundsrepubliken Tyskland","long_name:uk":"\u0424\u0435\u0434\u0435\u0440\u0430\u0442\u0438\u0432\u043d\u0430 \u0420\u0435\u0441\u043f\u0443\u0431\u043b\u0456\u043a\u0430 \u041d\u0456\u043c\u0435\u0447\u0447\u0438\u043d\u0430","long_name:ur":"\u0648\u0641\u0627\u0642\u06cc \u062c\u0645\u06c1\u0648\u0631\u06cc\u06c1 \u062c\u0631\u0645\u0646\u06cc","name":"Deutschland","name:ab":"\u0410\u043b\u043c\u0430\u043d\u0442\u04d9\u044b\u043b\u0430","name:ace":"Jeureuman","name:af":"Duitsland","name:ak":"Germany","name:am":"\u1300\u122d\u1218\u1295","name:an":"Alemanya","name:ang":"\u00de\u0113odscland","name:ar":"\u0623\u0644\u0645\u0627\u0646\u064a\u0627","name:arc":"\u0713\u072a\u0721\u0722","name:arz":"\u0627\u0644\u0645\u0627\u0646\u064a\u0627","name:ast":"Alema\u00f1a","name:av":"\u0410\u043b\u043c\u0430\u043d\u0438\u044f","name:ay":"Alima\u00f1a","name:az":"Almaniya","name:ba":"\u0413\u0435\u0440\u043c\u0430\u043d\u0438\u044f","name:bar":"Deitschland","name:bat-smg":"Vuok\u012bt\u0117j\u0117","name:bcl":"Alemanya","name:be":"\u0413\u0435\u0440\u043c\u0430\u043d\u0456\u044f","name:be-tarask":"\u041d\u044f\u043c\u0435\u0447\u0447\u044b\u043d\u0430","name:bg":"\u0413\u0435\u0440\u043c\u0430\u043d\u0438\u044f","name:bi":"Germany","name:bm":"Jermani","name:bn":"\u099c\u09be\u09b0\u09cd\u09ae\u09be\u09a8\u09bf","name:bo":"\u0f60\u0f47\u0f62\u0f0b\u0f58\u0f53\u0f0d","name:bpy":"\u099c\u09be\u09b0\u09cd\u09ae\u09be\u09a8\u09bf","name:br":"Alamagn","name:bs":"Njema\u010dka","name:bug":"Jerman","name:bxr":"\u0413\u0435\u0440\u043c\u0430\u043d\u0438","name:ca":"Alemanya","name:cbk-zam":"Alemania","name:cdo":"D\u00e1ik-gu\u00f3k","name:ce":"\u0413\u0435\u0440\u043c\u0430\u043d\u0438","name:ceb":"Alemanya","name:chr":"\u13a0\u13db\u13e5","name:chy":"Ma'ev\u00e9'ho'\u00e9no","name:ckb":"\u0626\u0627\u06b5\u0645\u0627\u0646\u06cc\u0627","name:co":"Germania","name:crh":"Almaniya","name:cs":"N\u011bmecko","name:csb":"Miemieck\u00f4","name:cu":"\u041d\u0463\u043c\u044c\u0446\u0438","name:cv":"\u0413\u0435\u0440\u043c\u0430\u043d\u0438","name:cy":"Yr Almaen","name:da":"Tyskland","name:de":"Deutschland","name:diq":"Almanya","name:dsb":"Nimska","name:dv":"\u0796\u07a6\u0783\u07aa\u0789\u07a6\u0782\u07aa\u0788\u07a8\u078d\u07a7\u078c\u07b0","name:dz":"\u0f47\u0f71\u0f62\u0f0b\u0f58\u0f0b\u0f53\u0f72","name:ee":"Germany","name:el":"\u0393\u03b5\u03c1\u03bc\u03b1\u03bd\u03af\u03b1","name:eml":"Germ\u00e2gna","name:en":"Germany","name:eo":"Germanio","name:es":"Alemania","name:et":"Saksamaa","name:eu":"Alemania","name:ext":"Alema\u00f1a","name:fa":"\u0622\u0644\u0645\u0627\u0646","name:ff":"Almaanya","name:fi":"Saksa","name:fo":"T\u00fdskland","name:fr":"Allemagne","name:frp":"Alemagne","name:frr":"Tj\u00fcschl\u00f6nj","name:fur":"Gjermanie","name:fy":"D\u00fatsl\u00e2n","name:ga":"An Ghearm\u00e1in","name:gag":"Germaniya","name:gan":"\u5fb7\u570b","name:gd":"A' Ghearmailt","name:gl":"Alema\u00f1a","name:glk":"\u0622\u0644\u0645\u0627\u0646","name:gn":"Alema\u00f1a","name:gsw":"Ditschland","name:gu":"\u0a9c\u0ab0\u0acd\u0aae\u0aa8\u0ac0","name:gv":"Yn Ghermaan","name:ha":"Jamus","name:hak":"Tet-koet","name:haw":"Kelem\u0101nia","name:he":"\u05d2\u05e8\u05de\u05e0\u05d9\u05d4","name:hi":"\u091c\u0930\u094d\u092e\u0928\u0940","name:hif":"Germany","name:hr":"Njema\u010dka","name:hsb":"N\u011bmska","name:ht":"Almay","name:hu":"N\u00e9metorsz\u00e1g","name:hy":"\u0533\u0565\u0580\u0574\u0561\u0576\u056b\u0561","name:ia":"Germania","name:id":"Jerman","name:ie":"Germania","name:ig":"J\u00e9man\u1ecb","name:ilo":"Alemania","name:io":"Germania","name:is":"\u00de\u00fdskaland","name:it":"Germania","name:iu":"\u152e\u14aa\u14c2","name:ja":"\u30c9\u30a4\u30c4","name:jbo":"dotygu'e","name:jv":"Jerman","name:ka":"\u10d2\u10d4\u10e0\u10db\u10d0\u10dc\u10d8\u10d0","name:kaa":"Germaniya","name:kab":"Lalman","name:kbd":"\u0414\u0436\u044d\u0440\u043c\u044d\u043d","name:kg":"Alemanyi","name:ki":"Germany","name:kk":"\u0413\u0435\u0440\u043c\u0430\u043d\u0438\u044f \u0424\u0435\u0434\u0435\u0440\u0430\u0442\u0438\u0432\u0442\u0456\u043a \u0420\u0435\u0441\u043f\u0443\u0431\u043b\u0438\u043a\u0430\u0441\u044b","name:kl":"Tyskit Nunaat","name:km":"\u17a2\u17b6\u179b\u17d2\u179b\u17ba\u1798\u17c9\u1784\u17cb","name:kn":"\u0c9c\u0cb0\u0ccd\u0cae\u0ca8\u0cbf","name:ko":"\ub3c5\uc77c","name:koi":"\u041d\u0435\u043c\u0435\u0447\u043c\u0443","name:krc":"\u0413\u0435\u0440\u043c\u0430\u043d\u0438\u044f","name:ks":"\u062c\u0631\u0645\u0654\u0646\u06cc","name:ksh":"D\u00fctschland","name:ku":"Almanya","name:kv":"\u0413\u0435\u0440\u043c\u0430\u043d\u0438\u044f","name:kw":"Almayn","name:ky":"\u0413\u0435\u0440\u043c\u0430\u043d\u0438\u044f","name:la":"Germania","name:lad":"Almania","name:lb":"D\u00e4itschland","name:lez":"\u0413\u0435\u0440\u043c\u0430\u043d\u0438\u044f","name:lg":"Girimane","name:li":"Duutsjlandj","name:lij":"Germania","name:lmo":"Germania","name:ln":"Al\u00e9mani","name:lo":"\u0e9b\u0eb0\u0ec0\u0e97\u0e94\u0ec0\u0ea2\u0eb1\u0ebd\u0ea5\u0eb0\u0ea1\u0eb1\u0e99","name:lrc":"\u0622\u0644\u0645\u0627\u0646","name:lt":"Vokietija","name:ltg":"Vuoceja","name:lv":"V\u0101cija","name:lzh":"\u5fb7\u570b","name:map-bms":"Jerman","name:mdf":"\u0413\u0435\u0440\u043c\u0430\u043d\u0438\u0435 \u043c\u0430\u0441\u0442\u043e\u0440","name:mg":"Alemaina","name:mhr":"\u041d\u0435\u043c\u044b\u0447 \u042d\u043b","name:mi":"Tiamana","name:min":"Jerman","name:mk":"\u0413\u0435\u0440\u043c\u0430\u043d\u0438\u0458\u0430","name:ml":"\u0d1c\u0d7c\u0d2e\u0d4d\u0d2e\u0d28\u0d3f","name:mn":"\u0413\u0435\u0440\u043c\u0430\u043d","name:mo":"\u04c1\u0435\u0440\u043c\u0430\u043d\u0438\u044f","name:mr":"\u091c\u0930\u094d\u092e\u0928\u0940","name:ms":"Jerman","name:mt":"\u0120ermanja","name:mwl":"Almanha","name:my":"\u1002\u103b\u102c\u1019\u1014\u102e\u1014\u102d\u102f\u1004\u103a\u1004\u1036","name:myv":"\u0413\u0435\u0440\u043c\u0430\u043d\u0438\u044f \u041c\u0430\u0441\u0442\u043e\u0440","name:mzn":"\u0622\u0644\u0645\u0627\u0646","name:na":"Djermani","name:nah":"Teutontl\u0101lpan","name:nan":"Tek-kok","name:nap":"Germania","name:nds":"D\u00fc\u00fctschland","name:nds-nl":"Duutslaand","name:ne":"\u091c\u0930\u094d\u092e\u0928\u0940","name:new":"\u091c\u0930\u094d\u092e\u0928\u0940","name:nl":"Duitsland","name:nn":"Tyskland","name:no":"Tyskland","name:nov":"Germania","name:nrm":"Allemangne","name:nv":"B\u00e9\u00e9sh Bich\u02bcahii Bik\u00e9yah","name:oc":"Alemanha","name:oj":"Agongosiwaki","name:or":"\u0b1c\u0b30\u0b4d\u0b2e\u0b3e\u0b28\u0b40","name:os":"\u0413\u0435\u0440\u043c\u0430\u043d","name:pa":"\u0a1c\u0a30\u0a2e\u0a28\u0a40","name:pa-Arab":"\u062c\u0631\u0645\u0646","name:pag":"Alemanya","name:pam":"Alemania","name:pap":"Alemania","name:pcd":"Alemanne","name:pdc":"Deitschland","name:pfl":"Daitschlond","name:pih":"Doichland","name:pl":"Niemcy","name:pms":"G\u00ebrmania","name:pnb":"\u062c\u0631\u0645\u0646","name:pnt":"\u0393\u03b5\u03c1\u03bc\u03b1\u03bd\u03af\u03b1","name:ps":"\u0622\u0644\u0645\u0627\u0646","name:pt":"Alemanha","name:qu":"Alimanya","name:rm":"Germania","name:rmy":"Jermaniya","name:rn":"Ubudagi","name:ro":"Germania","name:roa-tara":"Germanie","name:ru":"\u0413\u0435\u0440\u043c\u0430\u043d\u0438\u044f","name:rue":"\u041d\u0457\u043c\u0435\u0446\u044c\u043a\u043e","name:rw":"Ubudage","name:sa":"\u091c\u0930\u094d\u092e\u0928\u0940","name:sah":"\u0413\u0435\u0440\u043c\u0430\u043d\u0438\u044f","name:sc":"Germ\u00e0nia","name:scn":"Girmania","name:sco":"Germany","name:se":"Duiska","name:sh":"Nema\u010dka","name:si":"\u0da2\u0dbb\u0dca\u0db8\u0db1\u0dd2\u0dba","name:sk":"Nemecko","name:sl":"Nem\u010dija","name:sm":"Siamani","name:smn":"Saksa","name:sms":"Saksslaj\u00e2nnam","name:so":"Jarmalka","name:sq":"Gjermania","name:sr":"\u041d\u0435\u043c\u0430\u0447\u043a\u0430","name:sr-Latn":"Nema\u010dka","name:srn":"Doysrikondre","name:ss":"IJalimane","name:stq":"D\u00fc\u00fctsklound","name:su":"J\u00e9rman","name:sv":"Tyskland","name:sw":"Ujerumani","name:szl":"Niymce","name:ta":"\u0b9a\u0bc6\u0bb0\u0bc1\u0bae\u0ba9\u0bbf","name:te":"\u0c1c\u0c30\u0c4d\u0c2e\u0c28\u0c40","name:tet":"Alema\u00f1a","name:tg":"\u041e\u043b\u043c\u043e\u043d","name:th":"\u0e1b\u0e23\u0e30\u0e40\u0e17\u0e28\u0e40\u0e22\u0e2d\u0e23\u0e21\u0e19\u0e35","name:ti":"\u1300\u122d\u1218\u1295","name:tk":"Germani\u00fda","name:tl":"Alemanya","name:tok":"ma Tosi","name:tpi":"Siamani","name:tr":"Almanya","name:ts":"Jarimani","name:tt":"\u0410\u043b\u043c\u0430\u043d\u0438\u044f","name:tum":"Germany","name:tw":"Gyaaman","name:ty":"Heremani","name:tzl":"Tzarat\u00fctsch","name:udm":"\u0413\u0435\u0440\u043c\u0430\u043d\u0438\u044f","name:ug":"\u06af\u06d0\u0631\u0645\u0627\u0646\u0649\u064a\u06d5","name:uk":"\u041d\u0456\u043c\u0435\u0447\u0447\u0438\u043d\u0430","name:ur":"\u062c\u0631\u0645\u0646\u06cc","name:uz":"Olmoniya","name:vec":"Germania","name:vep":"Saksanma","name:vi":"\u0110\u1ee9c","name:vls":"Duutsland","name:vo":"Deut\u00e4n","name:vro":"S'aksamaa","name:wa":"Almagne","name:war":"Alemanya","name:win":"Taa\u01e7iri M\u0105\u0105","name:wo":"Almaa\u00f1","name:xal":"\u041d\u0438\u0438\u0446\u04d9\u0442\u04d9 \u041d\u0435\u043c\u0448\u0438\u043d \u041e\u0440\u043d","name:xh":"IJamani","name:xmf":"\u10d2\u10d4\u10e0\u10db\u10d0\u10dc\u10d8\u10d0","name:yi":"\u05d3\u05d9\u05d9\u05d8\u05e9\u05dc\u05d0\u05e0\u05d3","name:yo":"J\u1eb9\u0301m\u00e1n\u00ec","name:yue":"\u5fb7\u570b","name:za":"Dwzgoz","name:zea":"Duutsland","name:zh":"\u5fb7\u56fd","name:zh-Hans":"\u5fb7\u56fd","name:zh-Hant":"\u5fb7\u570b","name:zu":"IJalimani","note":"this is the full administrative area including borders in territorial waters","note:2":"see relation id:62781 for the landmass only (multipolygon, not boundary)","official_name":"Bundesrepublik Deutschland","official_name:ar":"\u062c\u0645\u0647\u0648\u0631\u064a\u0629 \u0623\u0644\u0645\u0627\u0646\u064a\u0627 \u0627\u0644\u0627\u062a\u062d\u0627\u062f\u064a\u0629","official_name:azb":"\u0622\u0644\u0645\u0627\u0646 \u0641\u062f\u0631\u0627\u062a\u06cc\u0648 \u062c\u0648\u0645\u0647\u0648\u0631\u06cc\u062a\u06cc","official_name:be":"\u0424\u0435\u0434\u044d\u0440\u0430\u0442\u044b\u045e\u043d\u0430\u044f \u0420\u044d\u0441\u043f\u0443\u0431\u043b\u0456\u043a\u0430 \u0413\u0435\u0440\u043c\u0430\u043d\u0456\u044f","official_name:ca":"Rep\u00fablica Federal d'Alemanya","official_name:cs":"Spolkov\u00e1 republika N\u011bmecko","official_name:de":"Bundesrepublik Deutschland","official_name:el":"\u039f\u03bc\u03bf\u03c3\u03c0\u03bf\u03bd\u03b4\u03b9\u03b1\u03ba\u03ae \u0394\u03b7\u03bc\u03bf\u03ba\u03c1\u03b1\u03c4\u03af\u03b1 \u03c4\u03b7\u03c2 \u0393\u03b5\u03c1\u03bc\u03b1\u03bd\u03af\u03b1\u03c2","official_name:en":"Federal Republic of Germany","official_name:eo":"Federacia Respubliko Germanio","official_name:fa":"\u062c\u0645\u0647\u0648\u0631\u06cc \u0641\u062f\u0631\u0627\u0644 \u0622\u0644\u0645\u0627\u0646","official_name:fi":"Saksan liittotasavalta","official_name:fr":"R\u00e9publique f\u00e9d\u00e9rale d'Allemagne","official_name:mi":"T\u016bwehe Whakaminenga o Tiamana","official_name:nl":"Bondsrepubliek Duitsland","official_name:pl":"Republika Federalna Niemiec","official_name:ps":"\u0627\u0644\u0645\u0627\u0646 \u0641\u062f\u0631\u0627\u0644\u064a \u062c\u0645\u0647\u0648\u0631\u06cc\u062a","official_name:pt":"Rep\u00fablica Federal da Alemanha","official_name:ru":"\u0424\u0435\u0434\u0435\u0440\u0430\u0442\u0438\u0432\u043d\u0430\u044f \u0420\u0435\u0441\u043f\u0443\u0431\u043b\u0438\u043a\u0430 \u0413\u0435\u0440\u043c\u0430\u043d\u0438\u044f","official_name:ur":"\u0648\u0641\u0627\u0642\u06cc \u062c\u0645\u06c1\u0648\u0631\u06cc\u06c1 \u062c\u0631\u0645\u0646\u06cc","ref:nuts":"DE","short_name:be":"\u0424\u0420\u0413","short_name:ru":"\u0424\u0420\u0413","type":"boundary","wikidata":"Q183","wikipedia":"de:Deutschland"}},{"type":"area","id":3600062422,"tags":{"ISO3166-2":"DE-BE","TMC:cid_58:tabcd_1:Class":"Area","TMC:cid_58:tabcd_1:LCLversion":"12.0","TMC:cid_58:tabcd_1:LocationCode":"266","admin_level":"4","alt_name:vi":"B\u00e9c-lin","boundary":"administrative","coat_of_arms":"File:Coat of arms of Berlin.svg","contact:facebook":"http:\/\/www.facebook.com\/Berlin","de:amtlicher_gemeindeschluessel":"11000000","de:place":"city","de:regionalschluessel":"110000000000","flag":"File:Flag of Berlin.svg","geographical_region":"Barnim;Berliner Urstromtal;Teltow;Nauener Platte","license_plate_code":"B","name":"Berlin","name:af":"Berlyn","name:als":"Berlin","name:am":"\u1260\u122d\u120a\u1295","name:an":"Berl\u00edn","name:ang":"Berlin","name:ar":"\u0628\u0631\u0644\u064a\u0646","name:arc":"\u0712\u072a\u0720\u071d\u0722","name:ast":"Berl\u00edn","name:az":"Berlin","name:ba":"\u0411\u0435\u0440\u043b\u0438\u043d","name:bar":"Berlin","name:bat-smg":"Berl\u012bns","name:be":"\u0411\u0435\u0440\u043b\u0456\u043d","name:be-tarask":"\u0411\u044d\u0440\u043b\u0456\u043d","name:bg":"\u0411\u0435\u0440\u043b\u0438\u043d","name:bi":"Berlin","name:bn":"\u09ac\u09be\u09b0\u09cd\u09b2\u09bf\u09a8","name:bo":"\u0f54\u0f7a\u0f0b\u0f63\u0f72\u0f44\u0f0b","name:br":"Berlin","name:bs":"Berlin","name:ca":"Berl\u00edn","name:cbk-zam":"Berl\u00edn","name:crh":"Berlin","name:cs":"Berl\u00edn","name:csb":"Berl\u00ebno","name:cu":"\u0411\u0435\u0440\u043b\u0438\u043d\u044a","name:cv":"\u0411\u0435\u0440\u043b\u0438\u043d","name:cy":"Berlin","name:da":"Berlin","name:de":"Berlin","name:diq":"Berlin","name:dsb":"Barli\u0144","name:el":"\u0392\u03b5\u03c1\u03bf\u03bb\u03af\u03bd\u03bf","name:en":"Berlin","name:eo":"Berlino","name:es":"Berl\u00edn","name:et":"Berliin","name:eu":"Berlin","name:fa":"\u0628\u0631\u0644\u06cc\u0646","name:fi":"Berliini","name:fo":"Berlin","name:fr":"Berlin","name:frp":"B\u00e8rlin","name:fur":"Berlin","name:fy":"Berlyn","name:ga":"Beirl\u00edn","name:gd":"Berlin","name:gl":"Berl\u00edn","name:gn":"Berlin","name:gv":"Berleen","name:haw":"Pelelina","name:he":"\u05d1\u05e8\u05dc\u05d9\u05df","name:hi":"\u092c\u0930\u094d\u0932\u093f\u0928","name:hr":"Berlin","name:hsb":"Berlin","name:ht":"B\u00e8len","name:hu":"Berlin","name:hy":"\u0532\u0565\u057c\u056c\u056b\u0576","name:ia":"Berlin","name:id":"Berlin","name:ie":"Berlin","name:ilo":"Berlin","name:io":"Berlin","name:is":"Berl\u00edn","name:it":"Berlino","name:ja":"\u30d9\u30eb\u30ea\u30f3","name:ja-Hira":"\u3079\u308b\u308a\u3093","name:ja_rm":"berurin","name:jbo":"berlin","name:jv":"Berlin","name:ka":"\u10d1\u10d4\u10e0\u10da\u10d8\u10dc\u10d8","name:kab":"Berlin","name:kk":"\u0411\u0435\u0440\u043b\u0438\u043d","name:ko":"\ubca0\ub97c\ub9b0","name:ksh":"B\u00e4lliin","name:ku":"Berl\u00een","name:kv":"\u0411\u0435\u0440\u043b\u0438\u043d","name:kw":"Berlin","name:la":"Berolinum","name:lb":"Berlin","name:lg":"Berlin","name:li":"Berlien","name:lij":"Berlin","name:lmo":"Berlin","name:ln":"Berlin","name:lt":"Berlynas","name:lv":"Berl\u012bne","name:lzh":"\u67cf\u6797","name:mg":"Berlin","name:mk":"\u0411\u0435\u0440\u043b\u0438\u043d","name:ml":"\u0d2c\u0d46\u0d30\u0d4d\u200d\u0d32\u0d3f\u0d28\u0d4d","name:mn":"\u0411\u0435\u0440\u043b\u0438\u043d","name:mr":"\u092c\u0930\u094d\u0932\u093f\u0928","name:ms":"Berlin","name:mt":"Berlin","name:myv":"\u0411\u0435\u0440\u043b\u0438\u043d \u043e\u0448","name:na":"Berlin","name:nah":"Berlin","name:nan":"Berlin","name:nap":"Berlino","name:nds":"Berlin","name:nl":"Berlijn","name:nn":"Berlin","name:no":"Berlin","name:nov":"Berlin","name:nrm":"B\u00e8rl\u00een","name:oc":"Berlin","name:os":"\u0411\u0435\u0440\u043b\u0438\u043d","name:pam":"Berlin","name:pdc":"Berlin","name:pl":"Berlin","name:pms":"Berlin","name:prefix:city":"Kreisfreie Stadt","name:prefix:state":"Land","name:pt":"Berlim","name:qu":"Berlin","name:rm":"Berlin","name:rmy":"Berlin","name:ro":"Berlin","name:roa-rup":"Berlin","name:roa-tara":"Berline","name:ru":"\u0411\u0435\u0440\u043b\u0438\u043d","name:sah":"\u0411\u0435\u0440\u043b\u0438\u043d","name:sc":"Berlinu","name:scn":"Birlinu","name:sco":"Berlin","name:se":"Berlin","name:sh":"Berlin","name:short":"BE","name:sk":"Berl\u00edn","name:sl":"Berlin","name:so":"Berlin","name:sq":"Berlini","name:sr":"\u0411\u0435\u0440\u043b\u0438\u043d","name:stq":"Berlin","name:su":"Berliini","name:sv":"Berlin","name:sw":"Berlin","name:szl":"Berlin","name:ta":"\u0baa\u0bc6\u0bb0\u0bcd\u0bb2\u0bbf\u0ba9\u0bcd","name:te":"\u0c2c\u0c46\u0c30\u0c4d\u0c32\u0c3f\u0c28\u0c4d","name:tet":"Berl\u00edn","name:tg":"\u0411\u0435\u0440\u043b\u0438\u043d","name:th":"\u0e40\u0e1a\u0e2d\u0e23\u0e4c\u0e25\u0e34\u0e19","name:tl":"Berlin","name:tpi":"Berlin","name:tr":"Berlin","name:tt":"\u0411\u0435\u0440\u043b\u0438\u043d","name:ty":"Berlin","name:tzl":"Berlin","name:uk":"\u0411\u0435\u0440\u043b\u0456\u043d","name:ur":"\u0628\u0631\u0644\u0646","name:uz":"Berlin","name:vec":"Berlin","name:vi":"Berlin","name:vls":"Berlyn","name:wo":"Berlin","name:yi":"\u05d1\u05e2\u05e8\u05dc\u05d9\u05df","name:yo":"Berlin","name:yue":"\u67cf\u6797","name:zh":"\u67cf\u6797","name:zu":"Berlin","official_name":"Berlin","official_status":"Land","official_status:de":"Land","official_status:en":"State","official_status:ru":"\u0437\u0435\u043c\u043b\u044f","old_name:vi":"B\u00e1 Linh","place":"city","population":"3769962","ref:nuts":"DE3;DE30;DE300","ref:nuts:1":"DE3","ref:nuts:2":"DE30","ref:nuts:3":"DE300","report_problems:website":"https:\/\/ordnungsamt.berlin.de\/","source:population":"https:\/\/download.statistik-berlin-brandenburg.de\/fa93e3bd19a2e885\/a5ecfb2fff6a\/SB_A01-05-00_2020h02_BE.pdf","state_code":"BE","type":"boundary","website":"https:\/\/www.berlin.de","wikidata":"Q64","wikipedia":"de:Berlin"}},{"type":"area","id":3600062781,"tags":{"admin_level":"2","boundary":"land_area","land_area":"administrative","long_name:nl":"Bondsrepubliek Duitsland (landsmassa)","name":"Deutschland (Landmasse)","name:ca":"Alemanya (Terres)","name:cs":"N\u011bmecko (zem\u011b)","name:de":"Deutschland (Landmasse)","name:en":"Federal Republic of Germany (land mass)","name:fr":"Allemagne (terres)","name:hsb":"N\u011bmska","name:hu":"N\u00e9metorsz\u00e1g (sz\u00e1razf\u00f6ldi ter\u00fclet)","name:lt":"Vokietija (\u017eem\u0117)","name:nds-nl":"Duutslaand","name:nl":"Duitsland (landsmassa)","name:pl":"Niemcy (l\u0105d)","name:sk":"Nemecko (krajina)","name:sr":"\u041d\u0435\u043c\u0430\u0447\u043a\u0430","note":"this is not a boundary for Germany, only its land_area (see http:\/\/wiki.openstreetmap.org\/wiki\/Relation:boundary)","type":"land_area"}},{"type":"area","id":3601402129,"tags":{"boundary":"postal_code","note":"10179 Berlin Mitte","postal_code":"10179","postal_code_level":"8","type":"boundary"}},{"type":"area","id":3602218270,"tags":{"alt_name":"Warschau-Berliner Urstromtal","boundary":"physiogeographical","boundary:fuzziness":"5km","description":"Young Drift morainic valley \"Berliner Urstromtal\", formed during Weichselian glaciation.","description:de":"Jungmor\u00e4nental \"Berliner Urstromtal\", gebildet w\u00e4hrend der Weichsel-Kaltzeit.","layer":"-5","moraine":"young_drift","name":"Berliner Urstromtal","note":"Grenze stimmt nicht mit einschl\u00e4gigen Naturraumgrenzen \u00fcberein... :(","place:note":"\"region\" is reserved for nominatim","plateau":"moraine","ref:wikipedia":"de:Naturr\u00e4umliche Gro\u00dfregionen Deutschlands","type":"boundary","valley":"moraine","wikidata":"Q161799","wikipedia":"de:Warschau-Berliner Urstromtal"}},{"type":"area","id":3603133637,"tags":{"boundary":"political","election:parliament":"Deutscher Bundestag","election:part":"Wahlkreis","election:year":"2013","is_in:state_code":"BE","name":"Berlin-Mitte","political":"election","ref":"75","type":"boundary","wikidata":"Q1007986","wikipedia":"de:Bundestagswahlkreis Berlin-Mitte"}},{"type":"area","id":3607670015,"tags":{"boundary":"neighborhood","name":"Scheunenviertel","place":"neighbourhood","type":"boundary","wikidata":"Q896209","wikipedia":"de:Scheunenviertel (Berlin)"}},{"type":"area","id":3611905744,"tags":{"boundary":"traditional","description":"Different definitions of Innenstadt exist. The one based on the S-Bahn-Ring is used as basis for the Berlin Environmentl Zone and VBB tariff\/fare zone A. It is also used as basis for Planwerk Innere Stadt 2010, amd in https:\/\/www.stadtentwicklung.berlin.","name":"Berliner Innenstadt","note":"border of Innenstadt of Berlin using outer tracks of S-Bahn-Ring 6020","type":"boundary"}},{"type":"area","id":3615863720,"tags":{"boundary":"timezone","name":"Europe\/Berlin Timezone","timezone":"Europe\/Berlin","type":"boundary"}},{"type":"area","id":3616819467,"tags":{"boundary":"timezone","name":"UTC+01:00 standard time","name:de":"UTC+01:00 Standardzeit","name:en":"UTC+01:00 standard time","name:mk":"\u0421\u0440\u0435\u0434\u043d\u043e\u0435\u0432\u0440\u043e\u043f\u0441\u043a\u043e \u0432\u0440\u0435\u043c\u0435 (UTC+01:00)","name:pl":"UTC+01:00 czas standardowy","note":"Work in progress.","type":"boundary","wikidata":"Q6655","wikipedia":"en:UTC+01:00"}},{"type":"node","id":3239758922,"lat":52.5236169,"lon":13.402596},{"type":"node","id":3239758923,"lat":52.523653,"lon":13.4025939},{"type":"node","id":3895249860,"lat":52.5232284,"lon":13.4082319},{"type":"node","id":3895249861,"lat":52.5232995,"lon":13.408001},{"type":"node","id":3895249862,"lat":52.5233915,"lon":13.4076386},{"type":"node","id":3895249864,"lat":52.5234366,"lon":13.40743},{"type":"node","id":3895249966,"lat":52.523255,"lon":13.4081522},{"type":"node","id":3895250083,"lat":52.5231287,"lon":13.4085156},{"type":"node","id":3895250090,"lat":52.5232166,"lon":13.4083888},{"type":"node","id":3895250102,"lat":52.5233727,"lon":13.4083689},{"type":"node","id":3895250268,"lat":52.523159,"lon":13.4085475},{"type":"node","id":3895250270,"lat":52.5231997,"lon":13.4083202},{"type":"node","id":3895250271,"lat":52.523258,"lon":13.4082674},{"type":"node","id":3895250283,"lat":52.5234683,"lon":13.4072836},{"type":"node","id":3895250287,"lat":52.5234856,"lon":13.4072728},{"type":"node","id":3895250378,"lat":52.5234586,"lon":13.4073247},{"type":"node","id":3895250379,"lat":52.5234624,"lon":13.4072999},{"type":"node","id":3895250382,"lat":52.5234765,"lon":13.4072745},{"type":"node","id":3895250412,"lat":52.5237509,"lon":13.4074483},{"type":"node","id":3918854706,"lat":52.5231627,"lon":13.4036131},{"type":"node","id":3918854707,"lat":52.523166,"lon":13.4036825},{"type":"node","id":3918854708,"lat":52.5231679,"lon":13.4035934},{"type":"node","id":3918854709,"lat":52.5231968,"lon":13.4037913},{"type":"node","id":3918854710,"lat":52.5232114,"lon":13.4037817},{"type":"node","id":3918854711,"lat":52.5232374,"lon":13.4034397},{"type":"node","id":3918854712,"lat":52.5232582,"lon":13.4039706},{"type":"node","id":3918854713,"lat":52.5233117,"lon":13.4032652},{"type":"node","id":3918854714,"lat":52.5233234,"lon":13.4042294},{"type":"node","id":3918854715,"lat":52.5233815,"lon":13.4044653},{"type":"node","id":3918854717,"lat":52.5234163,"lon":13.4030283},{"type":"node","id":3918854719,"lat":52.5234312,"lon":13.4046878},{"type":"node","id":3918854722,"lat":52.5234621,"lon":13.4048585},{"type":"node","id":3918854725,"lat":52.5234799,"lon":13.407168},{"type":"node","id":3918854727,"lat":52.5234903,"lon":13.4070693},{"type":"node","id":3918854731,"lat":52.5235046,"lon":13.4051424},{"type":"node","id":3918854735,"lat":52.5235172,"lon":13.4068756},{"type":"node","id":3918854740,"lat":52.5235254,"lon":13.4027828},{"type":"node","id":3918854741,"lat":52.523526,"lon":13.4067785},{"type":"node","id":3918854746,"lat":52.5235322,"lon":13.4054108},{"type":"node","id":3918854755,"lat":52.5235461,"lon":13.4065378},{"type":"node","id":3918854756,"lat":52.5235465,"lon":13.4056088},{"type":"node","id":3918854759,"lat":52.523552,"lon":13.4057251},{"type":"node","id":3918854761,"lat":52.5235569,"lon":13.4058996},{"type":"node","id":3918854763,"lat":52.5235595,"lon":13.4061787},{"type":"node","id":3918854771,"lat":52.5235698,"lon":13.4026798},{"type":"node","id":3918854778,"lat":52.5235942,"lon":13.4026227},{"type":"node","id":3918854790,"lat":52.5236387,"lon":13.4025896},{"type":"node","id":4847734482,"lat":52.5232051,"lon":13.4037858},{"type":"node","id":9829191545,"lat":52.5232399,"lon":13.408255},{"type":"node","id":9829191546,"lat":52.5233155,"lon":13.4080084},{"type":"node","id":9829191547,"lat":52.5234109,"lon":13.4076403},{"type":"node","id":9829191548,"lat":52.5234733,"lon":13.4073213},{"type":"node","id":9829191549,"lat":52.5237518,"lon":13.4074645},{"type":"node","id":9829191554,"lat":52.5234631,"lon":13.4073732},{"type":"node","id":9829191558,"lat":52.5235063,"lon":13.4073114},{"type":"node","id":9829191559,"lat":52.5235115,"lon":13.407288},{"type":"node","id":9829191560,"lat":52.5234569,"lon":13.4073097},{"type":"node","id":9829191561,"lat":52.5234545,"lon":13.4073239},{"type":"node","id":3895249879,"lat":52.5237053,"lon":13.411364},{"type":"node","id":3895249959,"lat":52.5226725,"lon":13.4096709},{"type":"node","id":3895249960,"lat":52.5229173,"lon":13.4090357},{"type":"node","id":3895249963,"lat":52.5231093,"lon":13.4086959},{"type":"node","id":3895249980,"lat":52.5235632,"lon":13.4092103},{"type":"node","id":3895250059,"lat":52.5226756,"lon":13.4096343},{"type":"node","id":3895250060,"lat":52.5226852,"lon":13.4097366},{"type":"node","id":3895250061,"lat":52.5226968,"lon":13.4097577},{"type":"node","id":3895250063,"lat":52.5227273,"lon":13.4095001},{"type":"node","id":3895250065,"lat":52.5228153,"lon":13.4099645},{"type":"node","id":3895250074,"lat":52.5230119,"lon":13.4087764},{"type":"node","id":3895250075,"lat":52.5230093,"lon":13.4087985},{"type":"node","id":3895250076,"lat":52.5230209,"lon":13.4087307},{"type":"node","id":3895250077,"lat":52.5230362,"lon":13.408861},{"type":"node","id":3895250079,"lat":52.5230446,"lon":13.4088343},{"type":"node","id":3895250082,"lat":52.5231178,"lon":13.4086734},{"type":"node","id":3895250091,"lat":52.5232478,"lon":13.4086988},{"type":"node","id":3895250095,"lat":52.5232664,"lon":13.4087179},{"type":"node","id":3895250098,"lat":52.5233232,"lon":13.4090378},{"type":"node","id":3895250157,"lat":52.5226773,"lon":13.4097082},{"type":"node","id":3895250164,"lat":52.5235141,"lon":13.4091733},{"type":"node","id":3895250264,"lat":52.5230175,"lon":13.4088432},{"type":"node","id":3895250265,"lat":52.5230385,"lon":13.4087404},{"type":"node","id":3895250361,"lat":52.5230115,"lon":13.4088238},{"type":"node","id":3895250362,"lat":52.5230114,"lon":13.4087485},{"type":"node","id":3895250364,"lat":52.5230682,"lon":13.4087688},{"type":"node","id":3895250365,"lat":52.5231007,"lon":13.4086897},{"type":"node","id":3895250366,"lat":52.5231105,"lon":13.4086658},{"type":"node","id":3895250368,"lat":52.5232734,"lon":13.4086921},{"type":"node","id":3895250371,"lat":52.5233246,"lon":13.4089519},{"type":"node","id":3895250375,"lat":52.5233742,"lon":13.4087648},{"type":"node","id":3895250416,"lat":52.5237625,"lon":13.4114437},{"type":"node","id":9828580284,"lat":52.5230279,"lon":13.4087299},{"type":"node","id":9828580285,"lat":52.5230441,"lon":13.4087458},{"type":"node","id":9829191544,"lat":52.5230408,"lon":13.4087952},{"type":"node","id":10760477348,"lat":52.5233032,"lon":13.4089366},{"type":"node","id":10760477350,"lat":52.5232933,"lon":13.4089764},{"type":"node","id":10760477352,"lat":52.5233961,"lon":13.4090501},{"type":"node","id":11236075599,"lat":52.5227073,"lon":13.409776},{"type":"node","id":9802183154,"lat":52.5290363,"lon":13.4020286},{"type":"node","id":9802183161,"lat":52.5295518,"lon":13.4017264},{"type":"node","id":9802183182,"lat":52.5292135,"lon":13.4019102},{"type":"node","id":11233600215,"lat":52.5289181,"lon":13.4019913},{"type":"node","id":266590369,"lat":52.5293266,"lon":13.4054855},{"type":"node","id":1389419253,"lat":52.5290509,"lon":13.4071906},{"type":"node","id":1552581485,"lat":52.5290996,"lon":13.4068954},{"type":"node","id":3239758924,"lat":52.5240789,"lon":13.4028548},{"type":"node","id":3239758935,"lat":52.5242221,"lon":13.4029434},{"type":"node","id":3239759495,"lat":52.524613,"lon":13.4031835},{"type":"node","id":3239759890,"lat":52.5254068,"lon":13.4036015},{"type":"node","id":3239760027,"lat":52.5256547,"lon":13.4037169},{"type":"node","id":3239760187,"lat":52.5258998,"lon":13.4037883},{"type":"node","id":3895249760,"lat":52.5244169,"lon":13.4079063},{"type":"node","id":3895249882,"lat":52.523855,"lon":13.4075224},{"type":"node","id":3895249908,"lat":52.5244411,"lon":13.4079252},{"type":"node","id":3895250025,"lat":52.5241687,"lon":13.4077533},{"type":"node","id":3895250029,"lat":52.5244506,"lon":13.4079975},{"type":"node","id":3895250030,"lat":52.5244538,"lon":13.4079669},{"type":"node","id":3895250179,"lat":52.524022,"lon":13.4076472},{"type":"node","id":3895250190,"lat":52.5244374,"lon":13.4080286},{"type":"node","id":3895251558,"lat":52.5244222,"lon":13.4080185},{"type":"node","id":3895252268,"lat":52.5244102,"lon":13.4079291},{"type":"node","id":3919243559,"lat":52.5248084,"lon":13.4033196},{"type":"node","id":5180912937,"lat":52.5281736,"lon":13.4026068},{"type":"node","id":5180912938,"lat":52.5275846,"lon":13.4031031},{"type":"node","id":5180912939,"lat":52.5270183,"lon":13.4034772},{"type":"node","id":5180912940,"lat":52.5269033,"lon":13.4034987},{"type":"node","id":5180912941,"lat":52.5263142,"lon":13.403677},{"type":"node","id":5236117750,"lat":52.5277183,"lon":13.4029904},{"type":"node","id":9802183167,"lat":52.5296447,"lon":13.4036258},{"type":"node","id":9802183168,"lat":52.5296274,"lon":13.4031114},{"type":"node","id":9802183169,"lat":52.5296037,"lon":13.4039121},{"type":"node","id":9802183170,"lat":52.5293639,"lon":13.4053603},{"type":"node","id":9829191550,"lat":52.5244263,"lon":13.4079703},{"type":"node","id":9830554049,"lat":52.5243669,"lon":13.4078948},{"type":"node","id":9830554050,"lat":52.5244499,"lon":13.4079454},{"type":"node","id":2095742294,"lat":52.5282844,"lon":13.4113822},{"type":"node","id":2095742296,"lat":52.5284587,"lon":13.4103866},{"type":"node","id":2163914936,"lat":52.527248,"lon":13.4147019},{"type":"node","id":2163914937,"lat":52.5273757,"lon":13.4144554},{"type":"node","id":3730313092,"lat":52.5283301,"lon":13.4111492},{"type":"node","id":3792544939,"lat":52.5285587,"lon":13.409894},{"type":"node","id":3792553957,"lat":52.5286301,"lon":13.4095262},{"type":"node","id":3832556265,"lat":52.5241349,"lon":13.4119505},{"type":"node","id":3832556283,"lat":52.5242649,"lon":13.4121179},{"type":"node","id":3832573040,"lat":52.5250948,"lon":13.4131546},{"type":"node","id":3895249885,"lat":52.5239317,"lon":13.4094701},{"type":"node","id":3895249890,"lat":52.5241119,"lon":13.4089372},{"type":"node","id":3895250328,"lat":52.5239138,"lon":13.4094625},{"type":"node","id":3895250447,"lat":52.5239479,"lon":13.4094591},{"type":"node","id":3895250448,"lat":52.5239662,"lon":13.409447},{"type":"node","id":3895250449,"lat":52.5239767,"lon":13.4094277},{"type":"node","id":3895252261,"lat":52.5241698,"lon":13.4087491},{"type":"node","id":3895254085,"lat":52.5282356,"lon":13.4115932},{"type":"node","id":3895254281,"lat":52.526886,"lon":13.4152029},{"type":"node","id":3895254282,"lat":52.5269021,"lon":13.4152088},{"type":"node","id":3895254312,"lat":52.528137,"lon":13.4119372},{"type":"node","id":3895254529,"lat":52.526753,"lon":13.4150527},{"type":"node","id":3895254544,"lat":52.5269185,"lon":13.415208},{"type":"node","id":3895254670,"lat":52.5266896,"lon":13.4149919},{"type":"node","id":3895254697,"lat":52.5274413,"lon":13.414322},{"type":"node","id":3895255296,"lat":52.5269314,"lon":13.4151987},{"type":"node","id":3895255306,"lat":52.5269896,"lon":13.415137},{"type":"node","id":3895255500,"lat":52.527507,"lon":13.4141418},{"type":"node","id":3895255516,"lat":52.528222,"lon":13.4116407},{"type":"node","id":3981337404,"lat":52.5268328,"lon":13.4151381},{"type":"node","id":3981337435,"lat":52.52685,"lon":13.415159},{"type":"node","id":9412672078,"lat":52.5256089,"lon":13.4137462},{"type":"node","id":9827932875,"lat":52.528695,"lon":13.4091766},{"type":"node","id":9828580290,"lat":52.5239098,"lon":13.4094187},{"type":"node","id":9828580291,"lat":52.5239702,"lon":13.4094059},{"type":"node","id":9828580292,"lat":52.523958,"lon":13.4094305},{"type":"node","id":9828580293,"lat":52.5239424,"lon":13.4094394},{"type":"node","id":9829191551,"lat":52.5241781,"lon":13.4086758},{"type":"node","id":9829191552,"lat":52.5240547,"lon":13.409104},{"type":"node","id":10761261489,"lat":52.5240953,"lon":13.4089631},{"type":"node","id":10761261490,"lat":52.5241424,"lon":13.4087992},{"type":"node","id":11236060392,"lat":52.5239806,"lon":13.4094134},{"type":"node","id":11236060395,"lat":52.5239005,"lon":13.4094529},{"type":"node","id":11236060399,"lat":52.524234,"lon":13.4120783}]}