{"version":0.6,"generator":"Overpass API 0.7.62.5 1bd436f1","osm3s":{"timestamp_osm_base":"2025-03-12T11:31:09Z","copyright":"The data included in this document is from www.openstreetmap.org. The data is made available under ODbL."},"elements":[{"type":"node","id":539358887,"lat":52.519961,"lon":13.4082985,"tags":{"historic:place":"city","name":"Alt-Berlin","place":"locality","wikidata":"Q321674","wikipedia":"de:Alt-Berlin"}},{"type":"node","id":6253766569,"lat":52.5201161,"lon":13.4090844,"tags":{"leaf_cycle":"deciduous","leaf_type":"broadleaved","natural":"tree"}},{"type":"node","id":6254291484,"lat":52.5197703,"lon":13.4082614,"tags":{"highway":"street_lamp"}},{"type":"node","id":9899650273,"lat":52.520096,"lon":13.4087977,"tags":{"leaf_cycle":"deciduous","leaf_type":"broadleaved","natural":"tree"}},{"type":"node","id":9899650274,"lat":52.520067,"lon":13.408735,"tags":{"leaf_cycle":"deciduous","leaf_type":"broadleaved","natural":"tree"}},{"type":"node","id":9899650275,"lat":52.5200454,"lon":13.4086921,"tags":{"leaf_cycle":"deciduous","leaf_type":"broadleaved","natural":"tree"}},{"type":"node","id":9899650276,"lat":52.5200217,"lon":13.4086378,"tags":{"leaf_cycle":"deciduous","leaf_type":"broadleaved","natural":"tree"}},{"type":"node","id":9899650277,"lat":52.5199993,"lon":13.4085862,"tags":{"leaf_cycle":"deciduous","leaf_type":"broadleaved","natural":"tree"}},{"type":"node","id":9899650278,"lat":52.5199748,"lon":13.4085329,"tags":{"leaf_cycle":"deciduous","leaf_type":"broadleaved","natural":"tree"}},{"type":"node","id":9899650279,"lat":52.519955,"lon":13.4084879,"tags":{"leaf_cycle":"deciduous","leaf_type":"broadleaved","natural":"tree"}},{"type":"node","id":9899650280,"lat":52.5199305,"lon":13.408441,"tags":{"leaf_cycle":"deciduous","leaf_type":"broadleaved","natural":"tree"}},{"type":"node","id":9899650281,"lat":52.519901,"lon":13.408381,"tags":{"leaf_cycle":"deciduous","leaf_type":"broadleaved","natural":"tree"}},{"type":"node","id":9899650282,"lat":52.5198812,"lon":13.4083324,"tags":{"leaf_cycle":"deciduous","leaf_type":"broadleaved","natural":"tree"}},{"type":"node","id":9899650283,"lat":52.5198557,"lon":13.4082847,"tags":{"leaf_cycle":"deciduous","leaf_type":"broadleaved","natural":"tree"}},{"type":"node","id":9899650284,"lat":52.5198296,"lon":13.4082308,"tags":{"leaf_cycle":"deciduous","leaf_type":"broadleaved","natural":"tree"}},{"type":"node","id":9899650285,"lat":52.5198073,"lon":13.4081825,"tags":{"leaf_cycle":"deciduous","leaf_type":"broadleaved","natural":"tree"}},{"type":"node","id":9899650286,"lat":52.5197814,"lon":13.4081329,"tags":{"leaf_cycle":"deciduous","leaf_type":"broadleaved","natural":"tree"}},{"type":"node","id":9899650287,"lat":52.5197602,"lon":13.4080812,"tags":{"leaf_cycle":"deciduous","leaf_type":"broadleaved","natural":"tree"}},{"type":"node","id":9899650288,"lat":52.5197339,"lon":13.4080293,"tags":{"leaf_cycle":"deciduous","leaf_type":"broadleaved","natural":"tree"}},{"type":"node","id":9899650300,"lat":52.5196149,"lon":13.4080162,"tags":{"leaf_cycle":"deciduous","leaf_type":"broadleaved","natural":"tree"}},{"type":"node","id":9899650306,"lat":52.5195868,"lon":13.4083293,"tags":{"leaf_cycle":"deciduous","leaf_type":"broadleaved","natural":"tree"}},{"type":"node","id":9899650307,"lat":52.5195537,"lon":13.4081329,"tags":{"leaf_cycle":"deciduous","leaf_type":"broadleaved","natural":"tree"}},{"type":"node","id":9899650309,"lat":52.5196329,"lon":13.4086405,"tags":{"leaf_cycle":"deciduous","leaf_type":"broadleaved","natural":"tree"}},{"type":"node","id":9899650310,"lat":52.5197516,"lon":13.408613,"tags":{"leaf_cycle":"deciduous","leaf_type":"broadleaved","natural":"tree"}},{"type":"node","id":9899650311,"lat":52.5197659,"lon":13.4085768,"tags":{"leaf_cycle":"deciduous","leaf_type":"broadleaved","natural":"tree"}},{"type":"node","id":9899650312,"lat":52.5198169,"lon":13.4086063,"tags":{"leaf_cycle":"deciduous","leaf_type":"broadleaved","natural":"tree"}},{"type":"node","id":9899650313,"lat":52.5198304,"lon":13.4084742,"tags":{"leaf_cycle":"deciduous","leaf_type":"broadleaved","natural":"tree"}},{"type":"node","id":9899650314,"lat":52.5198855,"lon":13.4085339,"tags":{"leaf_cycle":"deciduous","leaf_type":"broadleaved","natural":"tree"}},{"type":"node","id":9899650315,"lat":52.5199042,"lon":13.4086318,"tags":{"leaf_cycle":"deciduous","leaf_type":"broadleaved","natural":"tree"}},{"type":"node","id":9899654717,"lat":52.5199944,"lon":13.4088497,"tags":{"leaf_cycle":"deciduous","leaf_type":"broadleaved","natural":"tree"}},{"type":"node","id":9899654718,"lat":52.5200425,"lon":13.4089442,"tags":{"leaf_cycle":"deciduous","leaf_type":"broadleaved","natural":"tree"}},{"type":"node","id":9899654719,"lat":52.5200328,"lon":13.4090173,"tags":{"leaf_cycle":"deciduous","leaf_type":"broadleaved","natural":"tree"}},{"type":"node","id":9899654737,"lat":52.5195211,"lon":13.4088537,"tags":{"leaf_cycle":"deciduous","leaf_type":"broadleaved","natural":"tree"}},{"type":"node","id":9899654738,"lat":52.519597,"lon":13.4088135,"tags":{"leaf_cycle":"deciduous","leaf_type":"broadleaved","natural":"tree"}},{"type":"node","id":9899654739,"lat":52.5196721,"lon":13.4087397,"tags":{"leaf_cycle":"deciduous","leaf_type":"broadleaved","natural":"tree"}},{"type":"node","id":9899654740,"lat":52.5199014,"lon":13.4088752,"tags":{"leaf_cycle":"deciduous","leaf_type":"broadleaved","natural":"tree"}},{"type":"node","id":9899654741,"lat":52.5198834,"lon":13.4090589,"tags":{"leaf_cycle":"deciduous","leaf_type":"broadleaved","natural":"tree"}},{"type":"node","id":10196188873,"lat":52.5200662,"lon":13.4090037,"tags":{"amenity":"bench","backrest":"yes"}},{"type":"node","id":10196188874,"lat":52.5200967,"lon":13.4089753,"tags":{"advertising":"column"}},{"type":"node","id":10196188875,"lat":52.5200874,"lon":13.40877,"tags":{"amenity":"bench","backrest":"yes"}},{"type":"node","id":10196188876,"lat":52.5200615,"lon":13.4087197,"tags":{"amenity":"bench","backrest":"yes"}},{"type":"node","id":10196188877,"lat":52.5200382,"lon":13.4086673,"tags":{"amenity":"bench","backrest":"yes"}},{"type":"node","id":10196188878,"lat":52.5200163,"lon":13.4086149,"tags":{"amenity":"bench","backrest":"yes"}},{"type":"node","id":10196188879,"lat":52.5199924,"lon":13.4085603,"tags":{"amenity":"bench","backrest":"yes"}},{"type":"node","id":10196188880,"lat":52.5199724,"lon":13.4085133,"tags":{"amenity":"bench","backrest":"yes"}},{"type":"node","id":10196188881,"lat":52.5199478,"lon":13.4084663,"tags":{"amenity":"bench","backrest":"yes"}},{"type":"node","id":10196188882,"lat":52.5199219,"lon":13.4084161,"tags":{"amenity":"bench","backrest":"yes"}},{"type":"node","id":10196188883,"lat":52.5198953,"lon":13.4083615,"tags":{"amenity":"bench","backrest":"yes"}},{"type":"node","id":10196188884,"lat":52.5198741,"lon":13.4083156,"tags":{"amenity":"bench","backrest":"yes"}}]}