{"version":0.6,"generator":"Overpass API 0.7.62.5 1bd436f1","osm3s":{"timestamp_osm_base":"2025-03-12T11:25:00Z","copyright":"The data included in this document is from www.openstreetmap.org. The data is made available under ODbL."},"elements":[{"type":"way","id":4791000,"nodes":[52153639,1630500698,1828018031,1630500700,9658870592,30732068,1828018084,1709226057,6795935362,9220398903,9220398904,967017837,1840326416,9677652705],"tags":{"electrified":"contact_line","frequency":"0","gauge":"1435","operator":"Berliner Verkehrsbetriebe","railway":"tram","railway:electricity:ref":"104.02","voltage":"750"}},{"type":"way","id":23723115,"nodes":[2094749194,2348101349,2094749195,10873950532,256898522,2094749196,2094749197,256898619,256898621,2094749193,2094749191,256898523,256898524,7134879417,2094749189,2094749188,7134879418,7134879419,2094749194],"tags":{"addr:city":"Berlin","addr:city:fa":"\u0628\u0631\u0644\u06cc\u0646","addr:country":"DE","addr:housenumber":"9","addr:place":"Alexanderplatz","addr:postcode":"10178","addr:suburb":"Mitte","atm":"yes","atm:operator":"Bankhaus Lenz","branch":"Berlin Alexanderplatz","brand":"Galeria","brand:wikidata":"Q80220059","brand:wikipedia":"en:Galeria Kaufhof","building":"retail","building:colour":"#cfc6b5","building:levels":"6","building:material":"stone","contact:phone":"+49 30 247430","contact:website":"http:\/\/www.galeria-kaufhof.de\/filialen\/berlin-alexanderplatz","email":"service@galeria-kaufhof.de","height":"42","internet_access":"wlan","internet_access:fee":"no","name":"Galeria","opening_hours":"Mo-We 09:30-20:00; Th-Sa 09:30-22:00","phone":"+49 30 247430","shop":"department_store","start_date":"1970-11-25;2006-5-24","surveillance":"indoor","toilets":"yes","toilets:wheelchair":"yes","wheelchair":"yes","wikidata":"Q1491834","wikimedia_commons":"Category:Galeria Kaufhof Berlin-Alexanderplatz","wikipedia":"de:Galeria Kaufhof Berlin-Alexanderplatz"}},{"type":"way","id":23748038,"nodes":[3895250299,3895249865,3895250367,3895249859,3895250360,3895250261,3895250069,3895250067,3895250066,3895250064,3895250259,3895250068,3895250257,3895250258,3895250072,3895250071,3895250080,3895249962,3895250081,3895250363,3895250085,3895250267,3895250088,3895250087,3895250093,3895250094,3895250097,3895250096,3895250374,3895250101,3895250275,3895250274,3895249863,3895250106,4685880748,2516757233,257222658,3895251459,3895250292,3895250294,3895250167,3895251557,4685880747,3895249869,3895249981,3895250402,3895249870,3895249875,3895250407,3895250306,3895250311,3895249991,3895249881,3895250413,3895249993,3895250411,3895250310,3895250299],"tags":{"building":"apartments","building:levels":"8"}},{"type":"way","id":86220069,"nodes":[1615531695,1086368390,310069196,4547201159,2058497168],"tags":{"electrified":"contact_line","frequency":"0","gauge":"1435","maxspeed":"10","operator":"Berliner Verkehrsbetriebe","railway":"tram","railway:electricity:ref":"104.02","voltage":"750"}},{"type":"way","id":112128419,"nodes":[29123672,1828018093,3832556266,1289736794,5907113492,1828018040,270719334],"tags":{"cycleway:left":"no","cycleway:right":"share_busway","foot":"use_sidepath","highway":"primary","lanes":"3","lit":"yes","maxspeed":"50","name":"Karl-Liebknecht-Stra\u00dfe","name:etymology:wikidata":"Q75886","oneway":"yes","parking:both":"no","ref":"B 2;B 5","sidewalk:left":"no","sidewalk:right":"separate","smoothness":"excellent","surface":"asphalt","wikidata":"Q551773","wikimedia_commons":"Category:Karl-Liebknecht-Stra\u00dfe (Berlin-Mitte)","wikipedia":"en:Karl-Liebknecht-Stra\u00dfe","zone:traffic":"DE:urban"}},{"type":"way","id":139877309,"nodes":[270719334,5907113489],"tags":{"cycleway:left":"no","cycleway:right":"share_busway","foot":"use_sidepath","highway":"primary","lanes":"3","lit":"yes","maxspeed":"50","name":"Karl-Liebknecht-Stra\u00dfe","name:etymology:wikidata":"Q75886","oneway":"yes","parking:both":"no","ref":"B 2;B 5","sidewalk:left":"no","sidewalk:right":"separate","smoothness":"good","surface":"asphalt","wikidata":"Q551773","wikimedia_commons":"Category:Karl-Liebknecht-Stra\u00dfe (Berlin-Mitte)","wikipedia":"en:Karl-Liebknecht-Stra\u00dfe","zone:traffic":"DE:urban"}},{"type":"way","id":139877314,"nodes":[270718978,1828018014,768038183,7312391564],"tags":{"check_date:cycleway":"2022-12-11","cycleway:left":"no","cycleway:right":"share_busway","highway":"primary","lanes":"3","lit":"yes","maxspeed":"50","name":"Karl-Liebknecht-Stra\u00dfe","name:etymology:wikidata":"Q75886","oneway":"yes","parking:both":"no","ref":"B 2;B 5","sidewalk":"right","sidewalk:right:surface":"paving_stones","smoothness":"excellent","surface":"asphalt","wikidata":"Q551773","wikimedia_commons":"Category:Karl-Liebknecht-Stra\u00dfe (Berlin-Mitte)","wikipedia":"en:Karl-Liebknecht-Stra\u00dfe","zone:traffic":"DE:urban"}},{"type":"way","id":148452597,"nodes":[1615477649,1615531695,11582988105,1628877140,1769671804,2831092403,1628877131,1628877127,1615531694,6795935363,1628877125,9891723335,1628877122,1615531693,11582988103,1628877119,9891723341,1615531692,9891723340,1615564397],"tags":{"electrified":"contact_line","frequency":"0","gauge":"1435","maxspeed":"20","operator":"Berliner Verkehrsbetriebe","railway":"tram","railway:electricity:ref":"104.02","voltage":"750"}},{"type":"way","id":165416919,"nodes":[1769671795,2777249245,2777249243,11236075591,1769671791,1769671795],"tags":{"area":"yes","bench":"yes","bin":"yes","lit":"yes","local_ref":"4","name":"S+U Alexanderplatz\/Memhardstra\u00dfe","public_transport":"platform","railway":"platform","shelter":"yes","tactile_paving":"yes","tram":"yes","wheelchair":"yes"}},{"type":"way","id":165416923,"nodes":[1769671788,2777249244,2777249242,11236075592,1769671806,1769671788],"tags":{"area":"yes","bench":"yes","bin":"yes","lit":"yes","local_ref":"5","name":"S+U Alexanderplatz\/Memhardstra\u00dfe","passenger_information_display":"yes","public_transport":"platform","railway":"platform","shelter":"yes","tactile_paving":"yes","tram":"yes","wheelchair":"yes"}},{"type":"way","id":171829092,"nodes":[1828018027,11236075592],"tags":{"highway":"footway","lit":"yes","smoothness":"good","surface":"paving_stones"}},{"type":"way","id":171829093,"nodes":[1828018038,11236075591],"tags":{"highway":"footway","lit":"yes","smoothness":"excellent","surface":"paving_stones"}},{"type":"way","id":171829099,"nodes":[7959991698,1828018014,12610401016],"tags":{"crossing":"unmarked","crossing:markings":"no","footway":"crossing","highway":"footway","lit":"yes","surface":"asphalt"}},{"type":"way","id":173194950,"nodes":[1840333911,4936829082,4936829083,1840333910,1840333911],"tags":{"amenity":"shelter","shelter_type":"public_transport"}},{"type":"way","id":173194954,"nodes":[1840333915,4936829080,4936829081,1840333913,1840333915],"tags":{"amenity":"shelter","shelter_type":"public_transport"}},{"type":"way","id":179341904,"nodes":[1896900723,1896900683,1896900693,1896900679,1896900677,1896900671,1896900673,1896900695,1896900699,1896900697,1896900701,1896900702,1896900706,1896900712,1896900708,1828018036,1896900723],"tags":{"landuse":"grass"}},{"type":"way","id":179341905,"nodes":[1896900717,1896900715,1896900704,1896900681,1896900682,1896900717],"tags":{"landuse":"grass"}},{"type":"way","id":179341906,"nodes":[1896900710,1828018023,1828018011,1828018010,1896900655,1896900661,1896900669,1896900675,1896900710],"tags":{"landuse":"grass"}},{"type":"way","id":199579024,"nodes":[2094267054,2095738486,5130344167,2095738494,2095738499,5130344172,2095738502,2095738505,2095738511],"tags":{"electrified":"rail","frequency":"0","gauge":"1435","layer":"-1","level":"-1","loading_gauge":"Kleinprofil","operator":"Berliner Verkehrsbetriebe","railway":"subway","service":"siding","tunnel":"yes","voltage":"750"}},{"type":"way","id":199579028,"nodes":[315140135,2095738490,5130344166,2095738496,2095738500,5130344173,2095738503,3895250266,2095738506],"tags":{"electrified":"rail","frequency":"0","gauge":"1435","layer":"-1","level":"-1","loading_gauge":"Kleinprofil","operator":"Berliner Verkehrsbetriebe","railway":"subway","service":"siding","tunnel":"yes","voltage":"750"}},{"type":"way","id":200422335,"nodes":[2917710988,2095742304,2095742303,5130344185,5625424630,5625424629,2095742302,5625424627,5130344184,2095742301,2095742300,5130344181,5057579397,3730313116,2095742299,2095742298,3457234695,2094266782,2095742274,2095738535,5130344177,2095738533,2095738531,2095738530,2095738529,2095738528,2095738526,2095738523,2095738521,2095738519,2095738518,2095738516,3895249892,2095738515,2095738513,2095738512,2094267068,5130344175,2094267067,5130344170,5130344169,2094267054,2094267044,2094267040],"tags":{"detail":"track","electrified":"rail","electrified:rail":"top","frequency":"0","gauge":"1435","layer":"-2","level":"-1","loading_gauge":"Kleinprofil","operator":"Berliner Verkehrsbetriebe","railway":"subway","tunnel":"yes","voltage":"750"}},{"type":"way","id":272795470,"nodes":[616478046,315140135,2095738495,2095738501,2094267065,196720959,618572057,5130344176,648895983,2095738514,648895982,3895249895,2095738517,114104901,2095738520,648895984,2095738522,4820557111,2095738527,648895986,1599776978,2095738532,2095738534,5130344178,2095738536,3730313061,4961125734,564733487,5130344179,29494557,3730313115,5130344180,5130344182,564733489,1773340285,5130344183,5625424628,519262801,29494561,5130344186,2917710986,196758118],"tags":{"electrified":"rail","electrified:rail":"top","frequency":"0","gauge":"1435","layer":"-2","level":"-1","loading_gauge":"Kleinprofil","operator":"Berliner Verkehrsbetriebe","railway":"subway","tunnel":"yes","voltage":"750"}},{"type":"way","id":383505789,"nodes":[3867922480,5907113491],"tags":{"bench":"no","bin":"yes","bus":"yes","highway":"platform","lit":"yes","local_ref":"3","name":"S+U Alexanderplatz\/Memhardstra\u00dfe","public_transport":"platform","shelter":"no","tactile_paving":"no","wheelchair":"yes"}},{"type":"way","id":386199328,"nodes":[3895250262,3895250357,3895250260,9828580286,9828580288,9828580287,3895249961,9828580283,3895250063,3895250059,3895249959,3895250157,3895250060,3895250061,11236075599,3895250065,7959991697,3895250395,3895249879,3895250416,3832556272,3832556287,9828580274,3832550639,3832556260,4673135631,3895250326,3832556297,3895250000,3895249998,3895250426,3895250330,11236060387,3895250439,3895250438,3895250327,3895250002,3895250430,3895250320,3895250262],"tags":{"landuse":"residential"}},{"type":"way","id":405100405,"nodes":[4073216546,270718978],"tags":{"cycleway:left":"no","cycleway:right":"share_busway","highway":"primary","lanes":"3","lit":"yes","maxspeed":"50","name":"Karl-Liebknecht-Stra\u00dfe","name:etymology:wikidata":"Q75886","oneway":"yes","parking:both":"no","ref":"B 2;B 5","sidewalk":"right","sidewalk:right:surface":"asphalt","smoothness":"excellent","surface":"asphalt","wikidata":"Q551773","wikimedia_commons":"Category:Karl-Liebknecht-Stra\u00dfe (Berlin-Mitte)","wikipedia":"en:Karl-Liebknecht-Stra\u00dfe","zone:traffic":"DE:urban"}},{"type":"way","id":405101794,"nodes":[270727260,4163212867],"tags":{"cycleway:left":"no","cycleway:right":"share_busway","foot":"use_sidepath","highway":"primary","lanes":"3","lit":"yes","maxspeed":"50","name":"Karl-Liebknecht-Stra\u00dfe","name:etymology:wikidata":"Q75886","oneway":"yes","parking:both":"no","ref":"B 2;B 5","sidewalk:left":"no","sidewalk:right":"separate","smoothness":"good","surface":"asphalt","wikidata":"Q551773","wikimedia_commons":"Category:Karl-Liebknecht-Stra\u00dfe (Berlin-Mitte)","wikipedia":"en:Karl-Liebknecht-Stra\u00dfe","zone:traffic":"DE:urban"}},{"type":"way","id":473149640,"nodes":[9828580296,9828580297,9828580298,5446414929,9828580299,9828580300,9828580294,4673135639],"tags":{"footway":"sidewalk","highway":"footway","lit":"yes","surface":"paving_stones"}},{"type":"way","id":474687884,"nodes":[4685880747,9828580270],"tags":{"highway":"footway","lit":"yes","smoothness":"excellent","surface":"paving_stones"}},{"type":"way","id":474687885,"nodes":[4685880748,4685880747],"tags":{"highway":"footway","lit":"no","surface":"paving_stones","tunnel":"building_passage"}},{"type":"way","id":503549461,"nodes":[9828580297,4685880748],"tags":{"highway":"footway","lit":"no","surface":"paving_stones"}},{"type":"way","id":625647962,"nodes":[5907113489,270727260],"tags":{"cycleway:left":"no","cycleway:right":"share_busway","foot":"use_sidepath","highway":"primary","lanes":"3","lit":"yes","maxspeed":"50","name":"Karl-Liebknecht-Stra\u00dfe","name:etymology:wikidata":"Q75886","oneway":"yes","parking:both":"no","ref":"B 2;B 5","sidewalk:left":"no","sidewalk:right":"separate","smoothness":"good","surface":"asphalt","wikidata":"Q551773","wikimedia_commons":"Category:Karl-Liebknecht-Stra\u00dfe (Berlin-Mitte)","wikipedia":"en:Karl-Liebknecht-Stra\u00dfe","zone:traffic":"DE:urban"}},{"type":"way","id":687966679,"nodes":[12610401016,6449731033,9075938657,6449731032,768038188],"tags":{"highway":"pedestrian","lit":"yes","noname":"yes","smoothness":"excellent","surface":"paving_stones"}},{"type":"way","id":714295595,"nodes":[6714532488,3832556280,3832550655,3832556281,3832556306,1840326396,3832556273,3832550656,3832550625,3893241481,3893241475,9856051673,3893241473,3893241482,9122675259,12095104432,6714506672,6714506673,6714506674,12610401053,12610401050,6714506675,1831965445,5446414928,1828018059,9122675262,1828018045,12610401029,12610401026,1828018030,1828018025,6714532486,6714532488],"tags":{"area:highway":"footway","lit":"yes","surface":"paving_stones"}},{"type":"way","id":757729592,"nodes":[7076449615,5907113490],"tags":{"bench":"yes","bin":"yes","bus":"yes","highway":"platform","lit":"yes","local_ref":"2","name":"S+U Alexanderplatz\/Memhardstra\u00dfe","public_transport":"platform","shelter":"yes","tactile_paving":"no","wheelchair":"limited"}},{"type":"way","id":757729593,"nodes":[7076449616,4164607294],"tags":{"bench":"no","bin":"yes","bus":"yes","highway":"platform","lit":"yes","name":"S+U Alexanderplatz\/Memhardstra\u00dfe","public_transport":"platform","shelter":"no","tactile_paving":"no","wheelchair":"limited"}},{"type":"way","id":783052052,"nodes":[3733368791,3733305301,10189375738,3733305302,10969840174,4809636656,4809636661,4809636662,4809636660,3828179972,3828180021,3733305312,3828180022,3828179964,3828179970,3828179959,3733305313,3174192368,3828179998,3733305315,3828180010,12098559984,4763685850,4763685852,4763685853,4763685854,196761842,9122675259,3893241482,3893241473,9856051673,3893241475,3893241481,3832550625,3832550656,3832556273,1840326396,3832556306,3832556281,3832550655,3832556280,6714532488,3733305321,3895250058,3895250057,196761829,3733305320,3895249958,3733305318,3733305319,196763707,7312484872,7312484873,3733368796,3180211045,3733368791],"tags":{"loc_name":"Alex","name":"Alexanderplatz","name:be":"\u041f\u043b\u043e\u0448\u0447\u0430 \u0410\u043b\u044f\u043a\u0441\u0430\u043d\u0434\u0440\u0430","name:de":"Alexanderplatz","name:etymology:wikidata":"Q15193","name:ja":"\u30a2\u30ec\u30af\u30b5\u30f3\u30c0\u30fc\u5e83\u5834","name:ko":"\uc54c\ub809\uc0b0\ub354 \uad11\uc7a5","name:ru":"\u0410\u043b\u0435\u043a\u0441\u0430\u043d\u0434\u0435\u0440\u043f\u043b\u0430\u0446","name:zh":"\u4e9a\u5386\u5c71\u5927\u5e7f\u573a","place":"square","wikidata":"Q152783","wikipedia":"de:Alexanderplatz"}},{"type":"way","id":973969447,"nodes":[6449731032,6714532486,6714506669,6714506670,6714532485,6714506684],"tags":{"footway":"sidewalk","highway":"footway","is_sidepath":"yes","is_sidepath:of":"primary","lit":"yes","smoothness":"good","surface":"paving_stones"}},{"type":"way","id":981174977,"nodes":[12610401015,12610401014,12610401012,12610401013,12610401011,12610401019,12610401018,12610401017,9075938659,12610401020,12610401025,9075938658,256898619,2094749197,2094749196,256898522,10873950532,2094749195,2348101349,2094749194,12610401015],"tags":{"landuse":"construction","name":"MYND","note":"website not reachable anymore. (18\/11\/24)\n\n\nconstruction site includes future northwestern office extension of department store building (construction has not yet started (18\/11\/24))","operator":"Commerz Real","operator:construction":"Z\u00fcblin"}},{"type":"way","id":1053166659,"nodes":[9677652706,1840326419,6795935360,1630500711,9220398901,6795935361,1615477662,1828018088,9658870591,1628877142,1840333892,1828018034,1615477653,1615477649],"tags":{"electrified":"contact_line","frequency":"0","gauge":"1435","maxspeed":"60","operator":"Berliner Verkehrsbetriebe","railway":"tram","railway:electricity:ref":"104.02","voltage":"750"}},{"type":"way","id":1071049528,"nodes":[5907113491,9828580298],"tags":{"footway":"sidewalk","highway":"footway","lit":"yes","surface":"paving_stones"}},{"type":"way","id":1071049529,"nodes":[5907113490,9828580299],"tags":{"footway":"sidewalk","highway":"footway","lit":"yes","surface":"paving_stones"}},{"type":"way","id":1186475231,"nodes":[257222257,3895250299,3895249865,3895250360,3895250263,11019705345,11019705344,11019705343,11019705342,11019705341,11019705340,11019705339,3895249968,3895250377,3895251461,3895250303,257222257],"tags":{"building":"roof","layer":"2","level":"0"}},{"type":"way","id":1212782002,"nodes":[7959991697,1828018040,11236075593],"tags":{"crossing":"unmarked","crossing:markings":"no","footway":"crossing","highway":"footway","lit":"yes","surface":"asphalt"}},{"type":"way","id":1212782003,"nodes":[11236075593,1828018038,11236075594],"tags":{"footway":"traffic_island","highway":"footway","lit":"yes","surface":"paving_stones"}},{"type":"way","id":1212782004,"nodes":[11236075594,1828018034,1828018031,11236075595],"tags":{"crossing":"unmarked","crossing:markings":"no","footway":"crossing","highway":"footway","lit":"yes","surface":"asphalt"}},{"type":"way","id":1212782005,"nodes":[11236075595,1828018027,7959991698],"tags":{"footway":"traffic_island","highway":"footway","lit":"yes","surface":"paving_stones"}},{"type":"way","id":1212782006,"nodes":[5446414929,7959991697],"tags":{"footway":"sidewalk","highway":"footway","lit":"yes","surface":"paving_stones"}},{"type":"way","id":1307444958,"nodes":[2348101349,2094749195,10873950532,256898522,2094749196,2094749197,256898619,256898621,2094749193,2094749191,256898523,256898524,7134879417,2094749189,2094749188,7134879418,7134879419,2094749194,2348101349],"tags":{"building:levels":"5","building:part":"yes","height":"40"}},{"type":"way","id":1362022534,"nodes":[12610401020,12610401021,12610401022,12610401023,12610401024,12610401025,12610401020],"tags":{"building":"yes"}},{"type":"way","id":1362022538,"nodes":[2094749194,12610401015,12610401014,12610401012,12610401013,12610401011,12610401019,12610401018,12610401017,9075938659,12610401020,12610401025,9075938658],"tags":{"barrier":"fence"}},{"type":"node","id":30732068,"lat":52.5236711,"lon":13.4116514},{"type":"node","id":52153639,"lat":52.5228663,"lon":13.4103898},{"type":"node","id":196720959,"lat":52.5229398,"lon":13.4117531},{"type":"node","id":196761829,"lat":52.5225804,"lon":13.4103198},{"type":"node","id":196761842,"lat":52.5225452,"lon":13.4149434},{"type":"node","id":196763707,"lat":52.5222413,"lon":13.4108001},{"type":"node","id":256898522,"lat":52.5229951,"lon":13.4113422},{"type":"node","id":256898523,"lat":52.5223289,"lon":13.4124734},{"type":"node","id":256898524,"lat":52.5218474,"lon":13.4117138},{"type":"node","id":256898619,"lat":52.5228323,"lon":13.4116577},{"type":"node","id":256898621,"lat":52.5225038,"lon":13.4122142},{"type":"node","id":257222257,"lat":52.5236269,"lon":13.4101945},{"type":"node","id":257222658,"lat":52.5235847,"lon":13.4110217},{"type":"node","id":270718978,"lat":52.5231638,"lon":13.4109804},{"type":"node","id":270719334,"lat":52.5232829,"lon":13.4108295},{"type":"node","id":270727260,"lat":52.5229131,"lon":13.410248},{"type":"node","id":310069196,"lat":52.5226495,"lon":13.4099275},{"type":"node","id":315140135,"lat":52.5222623,"lon":13.4132179},{"type":"node","id":616478046,"lat":52.5221423,"lon":13.4134925},{"type":"node","id":618572057,"lat":52.5234832,"lon":13.4108798},{"type":"node","id":648895983,"lat":52.5238372,"lon":13.4102577},{"type":"node","id":768038183,"lat":52.5232829,"lon":13.4111802},{"type":"node","id":768038188,"lat":52.5229223,"lon":13.4117988},{"type":"node","id":1086368390,"lat":52.5227844,"lon":13.4101689},{"type":"node","id":1289736794,"lat":52.5237115,"lon":13.4114959},{"type":"node","id":1615477649,"lat":52.5229486,"lon":13.4104563},{"type":"node","id":1615477653,"lat":52.5230647,"lon":13.4106437},{"type":"node","id":1615477662,"lat":52.5238316,"lon":13.4118244},{"type":"node","id":1615531692,"lat":52.5221961,"lon":13.4107663},{"type":"node","id":1615531693,"lat":52.5224631,"lon":13.4102911},{"type":"node","id":1615531694,"lat":52.5226344,"lon":13.410171},{"type":"node","id":1615531695,"lat":52.5229253,"lon":13.4104189},{"type":"node","id":1615564397,"lat":52.5220099,"lon":13.4110544},{"type":"node","id":1628877119,"lat":52.5222588,"lon":13.4106594},{"type":"node","id":1628877122,"lat":52.5225014,"lon":13.4102418},{"type":"node","id":1628877125,"lat":52.5225669,"lon":13.410192},{"type":"node","id":1628877127,"lat":52.5226681,"lon":13.410171},{"type":"node","id":1628877131,"lat":52.5226999,"lon":13.4101785},{"type":"node","id":1628877140,"lat":52.522803,"lon":13.4102437},{"type":"node","id":1628877142,"lat":52.5234259,"lon":13.4112051},{"type":"node","id":1630500698,"lat":52.5230437,"lon":13.4106717},{"type":"node","id":1630500700,"lat":52.5234101,"lon":13.4112397},{"type":"node","id":1709226057,"lat":52.5238288,"lon":13.4118755},{"type":"node","id":1769671788,"lat":52.5236817,"lon":13.4116937},{"type":"node","id":1769671791,"lat":52.5233206,"lon":13.4110106},{"type":"node","id":1769671795,"lat":52.5237149,"lon":13.4116256},{"type":"node","id":1769671804,"lat":52.5227707,"lon":13.4102153},{"type":"node","id":1769671806,"lat":52.5232779,"lon":13.4110736},{"type":"node","id":1828018010,"lat":52.5228159,"lon":13.4104035},{"type":"node","id":1828018011,"lat":52.5230701,"lon":13.4107891},{"type":"node","id":1828018014,"lat":52.5232008,"lon":13.4110363},{"type":"node","id":1828018023,"lat":52.5231999,"lon":13.4109794},{"type":"node","id":1828018025,"lat":52.5232181,"lon":13.4113719},{"type":"node","id":1828018027,"lat":52.5232201,"lon":13.4110031},{"type":"node","id":1828018030,"lat":52.5232374,"lon":13.4113921},{"type":"node","id":1828018031,"lat":52.5232378,"lon":13.4109728},{"type":"node","id":1828018034,"lat":52.5232562,"lon":13.4109414},{"type":"node","id":1828018036,"lat":52.5232517,"lon":13.4108913},{"type":"node","id":1828018038,"lat":52.52327,"lon":13.4109177},{"type":"node","id":1828018040,"lat":52.5233036,"lon":13.4108603},{"type":"node","id":1828018045,"lat":52.5233909,"lon":13.4116357},{"type":"node","id":1828018059,"lat":52.5236135,"lon":13.4119833},{"type":"node","id":1828018084,"lat":52.5237652,"lon":13.4117894},{"type":"node","id":1828018088,"lat":52.5237707,"lon":13.4117387},{"type":"node","id":1828018093,"lat":52.5237862,"lon":13.4115968},{"type":"node","id":1831965445,"lat":52.5235935,"lon":13.4124707},{"type":"node","id":1840326396,"lat":52.5238113,"lon":13.4121814},{"type":"node","id":1840333892,"lat":52.5233439,"lon":13.4110773},{"type":"node","id":1840333910,"lat":52.5233795,"lon":13.4110731},{"type":"node","id":1840333911,"lat":52.5234041,"lon":13.4111113},{"type":"node","id":1840333913,"lat":52.5234403,"lon":13.4111687},{"type":"node","id":1840333915,"lat":52.5234971,"lon":13.4112577},{"type":"node","id":1896900655,"lat":52.5227516,"lon":13.4102958},{"type":"node","id":1896900661,"lat":52.5227938,"lon":13.4103258},{"type":"node","id":1896900669,"lat":52.5228474,"lon":13.4103945},{"type":"node","id":1896900671,"lat":52.5228985,"lon":13.410345},{"type":"node","id":1896900673,"lat":52.5229145,"lon":13.4103213},{"type":"node","id":1896900675,"lat":52.5229225,"lon":13.4105153},{"type":"node","id":1896900677,"lat":52.5229251,"lon":13.4103933},{"type":"node","id":1896900679,"lat":52.5229294,"lon":13.4103877},{"type":"node","id":1896900681,"lat":52.5229413,"lon":13.4104867},{"type":"node","id":1896900682,"lat":52.5229455,"lon":13.4104788},{"type":"node","id":1896900683,"lat":52.5229948,"lon":13.4105078},{"type":"node","id":1896900693,"lat":52.523,"lon":13.4104988},{"type":"node","id":1896900695,"lat":52.5230139,"lon":13.4104779},{"type":"node","id":1896900697,"lat":52.5230315,"lon":13.4105557},{"type":"node","id":1896900699,"lat":52.5230368,"lon":13.4105443},{"type":"node","id":1896900701,"lat":52.5230435,"lon":13.410574},{"type":"node","id":1896900702,"lat":52.523053,"lon":13.4105597},{"type":"node","id":1896900704,"lat":52.5230634,"lon":13.4106849},{"type":"node","id":1896900706,"lat":52.5231293,"lon":13.4106858},{"type":"node","id":1896900708,"lat":52.5232109,"lon":13.4108256},{"type":"node","id":1896900710,"lat":52.5232139,"lon":13.4109555},{"type":"node","id":1896900712,"lat":52.5232141,"lon":13.4108152},{"type":"node","id":1896900715,"lat":52.5232221,"lon":13.4109415},{"type":"node","id":1896900717,"lat":52.5232306,"lon":13.4109271},{"type":"node","id":1896900723,"lat":52.5232415,"lon":13.4109085},{"type":"node","id":2058497168,"lat":52.522516,"lon":13.4096818},{"type":"node","id":2094267040,"lat":52.522069,"lon":13.4133459},{"type":"node","id":2094267044,"lat":52.5221139,"lon":13.4132528},{"type":"node","id":2094267054,"lat":52.5221892,"lon":13.413097},{"type":"node","id":2094267065,"lat":52.522783,"lon":13.4120601},{"type":"node","id":2094267067,"lat":52.5228759,"lon":13.411635},{"type":"node","id":2094267068,"lat":52.5234565,"lon":13.4108389},{"type":"node","id":2094749188,"lat":52.5219175,"lon":13.4115609},{"type":"node","id":2094749189,"lat":52.5219283,"lon":13.4115777},{"type":"node","id":2094749191,"lat":52.5224122,"lon":13.4123357},{"type":"node","id":2094749193,"lat":52.5224226,"lon":13.4123518},{"type":"node","id":2094749194,"lat":52.5223253,"lon":13.4108658},{"type":"node","id":2094749195,"lat":52.5224949,"lon":13.4111339},{"type":"node","id":2094749196,"lat":52.5229843,"lon":13.4113624},{"type":"node","id":2094749197,"lat":52.5229954,"lon":13.4113813},{"type":"node","id":2095738486,"lat":52.5222666,"lon":13.4129932},{"type":"node","id":2095738490,"lat":52.5223065,"lon":13.4130621},{"type":"node","id":2095738494,"lat":52.5223902,"lon":13.4127582},{"type":"node","id":2095738495,"lat":52.5224063,"lon":13.4129169},{"type":"node","id":2095738496,"lat":52.5224137,"lon":13.4127967},{"type":"node","id":2095738499,"lat":52.5225115,"lon":13.4124871},{"type":"node","id":2095738500,"lat":52.5225374,"lon":13.4125202},{"type":"node","id":2095738501,"lat":52.5225646,"lon":13.4125462},{"type":"node","id":2095738502,"lat":52.5228898,"lon":13.4116848},{"type":"node","id":2095738503,"lat":52.5229162,"lon":13.4117179},{"type":"node","id":2095738505,"lat":52.5234124,"lon":13.4109518},{"type":"node","id":2095738506,"lat":52.5234049,"lon":13.4109156},{"type":"node","id":2095738511,"lat":52.5237297,"lon":13.410378},{"type":"node","id":2095738512,"lat":52.5238103,"lon":13.4101917},{"type":"node","id":2348101349,"lat":52.5223554,"lon":13.4109133},{"type":"node","id":2516757233,"lat":52.5235438,"lon":13.4109587},{"type":"node","id":2777249242,"lat":52.5232692,"lon":13.4110888},{"type":"node","id":2777249243,"lat":52.5233298,"lon":13.4109946},{"type":"node","id":2777249244,"lat":52.5236724,"lon":13.4117124},{"type":"node","id":2777249245,"lat":52.5237241,"lon":13.4116096},{"type":"node","id":2831092403,"lat":52.5227418,"lon":13.4101952},{"type":"node","id":3180211045,"lat":52.5201576,"lon":13.4136942},{"type":"node","id":3733305301,"lat":52.5203112,"lon":13.4141152},{"type":"node","id":3733305302,"lat":52.5206313,"lon":13.4145991},{"type":"node","id":3733305318,"lat":52.5224245,"lon":13.4105229},{"type":"node","id":3733305319,"lat":52.5223879,"lon":13.4105782},{"type":"node","id":3733305320,"lat":52.522538,"lon":13.4103564},{"type":"node","id":3733305321,"lat":52.5226549,"lon":13.4103297},{"type":"node","id":3733368791,"lat":52.5201457,"lon":13.4137686},{"type":"node","id":3733368796,"lat":52.5202085,"lon":13.413624},{"type":"node","id":3832550625,"lat":52.52379,"lon":13.4122839},{"type":"node","id":3832550639,"lat":52.5238328,"lon":13.4114284},{"type":"node","id":3832550655,"lat":52.5237387,"lon":13.4120327},{"type":"node","id":3832550656,"lat":52.523803,"lon":13.4122577},{"type":"node","id":3832556266,"lat":52.5237655,"lon":13.4115677},{"type":"node","id":3832556272,"lat":52.5237791,"lon":13.4114477},{"type":"node","id":3832556273,"lat":52.52381,"lon":13.4122254},{"type":"node","id":3832556280,"lat":52.5237044,"lon":13.4119778},{"type":"node","id":3832556281,"lat":52.5237828,"lon":13.4121002},{"type":"node","id":3832556287,"lat":52.5238024,"lon":13.4114479},{"type":"node","id":3832556306,"lat":52.5238035,"lon":13.4121462},{"type":"node","id":3867922480,"lat":52.5236412,"lon":13.4112415},{"type":"node","id":3893241473,"lat":52.5231758,"lon":13.4136798},{"type":"node","id":3893241475,"lat":52.523224,"lon":13.4135775},{"type":"node","id":3893241481,"lat":52.5232209,"lon":13.4135066},{"type":"node","id":3893241482,"lat":52.5231375,"lon":13.413684},{"type":"node","id":3895249859,"lat":52.5230381,"lon":13.4099416},{"type":"node","id":3895249863,"lat":52.5233981,"lon":13.4107438},{"type":"node","id":3895249865,"lat":52.5234451,"lon":13.4105821},{"type":"node","id":3895249869,"lat":52.5235142,"lon":13.410687},{"type":"node","id":3895249870,"lat":52.5236054,"lon":13.4105026},{"type":"node","id":3895249875,"lat":52.523611,"lon":13.4105108},{"type":"node","id":3895249879,"lat":52.5237053,"lon":13.411364},{"type":"node","id":3895249881,"lat":52.5237469,"lon":13.4102633},{"type":"node","id":3895249958,"lat":52.5224947,"lon":13.4104057},{"type":"node","id":3895249959,"lat":52.5226725,"lon":13.4096709},{"type":"node","id":3895249961,"lat":52.5229085,"lon":13.4090305},{"type":"node","id":3895249962,"lat":52.523044,"lon":13.4101682},{"type":"node","id":3895249968,"lat":52.5234017,"lon":13.4095399},{"type":"node","id":3895249981,"lat":52.5235844,"lon":13.4105591},{"type":"node","id":3895249991,"lat":52.5237133,"lon":13.4103246},{"type":"node","id":3895249993,"lat":52.5237941,"lon":13.4102208},{"type":"node","id":3895249998,"lat":52.5238175,"lon":13.4111853},{"type":"node","id":3895250057,"lat":52.5226034,"lon":13.4103102},{"type":"node","id":3895250058,"lat":52.5226278,"lon":13.4103097},{"type":"node","id":3895250059,"lat":52.5226756,"lon":13.4096343},{"type":"node","id":3895250060,"lat":52.5226852,"lon":13.4097366},{"type":"node","id":3895250061,"lat":52.5226968,"lon":13.4097577},{"type":"node","id":3895250063,"lat":52.5227273,"lon":13.4095001},{"type":"node","id":3895250064,"lat":52.5228016,"lon":13.4097614},{"type":"node","id":3895250065,"lat":52.5228153,"lon":13.4099645},{"type":"node","id":3895250066,"lat":52.5228365,"lon":13.4096757},{"type":"node","id":3895250067,"lat":52.5229146,"lon":13.4098029},{"type":"node","id":3895250068,"lat":52.5229252,"lon":13.4099912},{"type":"node","id":3895250069,"lat":52.5229405,"lon":13.4098454},{"type":"node","id":3895250071,"lat":52.522957,"lon":13.410042},{"type":"node","id":3895250072,"lat":52.5229608,"lon":13.4100355},{"type":"node","id":3895250080,"lat":52.5230401,"lon":13.4101747},{"type":"node","id":3895250081,"lat":52.5230692,"lon":13.4102083},{"type":"node","id":3895250085,"lat":52.5231504,"lon":13.4103507},{"type":"node","id":3895250087,"lat":52.523179,"lon":13.4103962},{"type":"node","id":3895250088,"lat":52.5231828,"lon":13.4103896},{"type":"node","id":3895250093,"lat":52.5232594,"lon":13.4105245},{"type":"node","id":3895250094,"lat":52.5232634,"lon":13.4105181},{"type":"node","id":3895250096,"lat":52.5232871,"lon":13.4105687},{"type":"node","id":3895250097,"lat":52.5232909,"lon":13.410562},{"type":"node","id":3895250101,"lat":52.5233704,"lon":13.4106887},{"type":"node","id":3895250106,"lat":52.5234021,"lon":13.4107378},{"type":"node","id":3895250157,"lat":52.5226773,"lon":13.4097082},{"type":"node","id":3895250167,"lat":52.5236144,"lon":13.4109681},{"type":"node","id":3895250257,"lat":52.522933,"lon":13.4100037},{"type":"node","id":3895250258,"lat":52.5229368,"lon":13.4099972},{"type":"node","id":3895250259,"lat":52.522937,"lon":13.4099721},{"type":"node","id":3895250260,"lat":52.5229689,"lon":13.4089477},{"type":"node","id":3895250261,"lat":52.5229778,"lon":13.4099068},{"type":"node","id":3895250262,"lat":52.5229981,"lon":13.409001},{"type":"node","id":3895250263,"lat":52.5230051,"lon":13.4098631},{"type":"node","id":3895250266,"lat":52.5230713,"lon":13.4114659},{"type":"node","id":3895250267,"lat":52.5231543,"lon":13.4103441},{"type":"node","id":3895250274,"lat":52.5233937,"lon":13.4107371},{"type":"node","id":3895250275,"lat":52.5233974,"lon":13.4107306},{"type":"node","id":3895250292,"lat":52.5236153,"lon":13.4110066},{"type":"node","id":3895250294,"lat":52.5236266,"lon":13.4109862},{"type":"node","id":3895250299,"lat":52.5236419,"lon":13.4102184},{"type":"node","id":3895250303,"lat":52.5236592,"lon":13.4100706},{"type":"node","id":3895250306,"lat":52.523681,"lon":13.4103651},{"type":"node","id":3895250310,"lat":52.5237021,"lon":13.4101059},{"type":"node","id":3895250311,"lat":52.5237077,"lon":13.4103164},{"type":"node","id":3895250320,"lat":52.5238373,"lon":13.4096067},{"type":"node","id":3895250357,"lat":52.5230056,"lon":13.4089724},{"type":"node","id":3895250360,"lat":52.5229969,"lon":13.4098768},{"type":"node","id":3895250363,"lat":52.5230653,"lon":13.4102148},{"type":"node","id":3895250367,"lat":52.5231115,"lon":13.410057},{"type":"node","id":3895250374,"lat":52.5233667,"lon":13.4106957},{"type":"node","id":3895250377,"lat":52.5234039,"lon":13.4095337},{"type":"node","id":3895250395,"lat":52.5235267,"lon":13.4110762},{"type":"node","id":3895250402,"lat":52.5235789,"lon":13.4105509},{"type":"node","id":3895250407,"lat":52.5236865,"lon":13.4103733},{"type":"node","id":3895250411,"lat":52.5237447,"lon":13.4101411},{"type":"node","id":3895250413,"lat":52.5237591,"lon":13.4102838},{"type":"node","id":3895250416,"lat":52.5237625,"lon":13.4114437},{"type":"node","id":3895250426,"lat":52.523838,"lon":13.410654},{"type":"node","id":3895251459,"lat":52.5236031,"lon":13.4109885},{"type":"node","id":3895251461,"lat":52.5237379,"lon":13.4097686},{"type":"node","id":3895251557,"lat":52.5236483,"lon":13.4109067},{"type":"node","id":4073216546,"lat":52.5227581,"lon":13.4103381},{"type":"node","id":4163212867,"lat":52.5227489,"lon":13.409986},{"type":"node","id":4164607294,"lat":52.5229249,"lon":13.4101139},{"type":"node","id":4547201159,"lat":52.5226228,"lon":13.4098775},{"type":"node","id":4673135639,"lat":52.5227272,"lon":13.4097506},{"type":"node","id":4685880747,"lat":52.5235455,"lon":13.4107384},{"type":"node","id":4685880748,"lat":52.5234784,"lon":13.4108569},{"type":"node","id":4763685850,"lat":52.5224517,"lon":13.4151463},{"type":"node","id":4763685852,"lat":52.5224679,"lon":13.4151111},{"type":"node","id":4763685853,"lat":52.5224889,"lon":13.4150652},{"type":"node","id":4763685854,"lat":52.5225169,"lon":13.415004},{"type":"node","id":4809636656,"lat":52.5207382,"lon":13.4147295},{"type":"node","id":4809636660,"lat":52.5211484,"lon":13.4151745},{"type":"node","id":4809636661,"lat":52.5208571,"lon":13.4148598},{"type":"node","id":4809636662,"lat":52.5210155,"lon":13.4150324},{"type":"node","id":4936829080,"lat":52.523493,"lon":13.4112648},{"type":"node","id":4936829081,"lat":52.5234362,"lon":13.4111758},{"type":"node","id":4936829082,"lat":52.5233986,"lon":13.4111208},{"type":"node","id":4936829083,"lat":52.523374,"lon":13.4110826},{"type":"node","id":5130344166,"lat":52.5223548,"lon":13.4129268},{"type":"node","id":5130344167,"lat":52.5223286,"lon":13.412895},{"type":"node","id":5130344169,"lat":52.5224842,"lon":13.4124579},{"type":"node","id":5130344170,"lat":52.522693,"lon":13.4119695},{"type":"node","id":5130344172,"lat":52.5227289,"lon":13.4120048},{"type":"node","id":5130344173,"lat":52.5227564,"lon":13.4120325},{"type":"node","id":5130344175,"lat":52.5231005,"lon":13.4113022},{"type":"node","id":5130344176,"lat":52.5237977,"lon":13.4103116},{"type":"node","id":5446414928,"lat":52.5237372,"lon":13.4121723},{"type":"node","id":5446414929,"lat":52.523362,"lon":13.4107604},{"type":"node","id":5907113489,"lat":52.5230433,"lon":13.4104523},{"type":"node","id":5907113490,"lat":52.5230633,"lon":13.410324},{"type":"node","id":5907113491,"lat":52.5234062,"lon":13.4108624},{"type":"node","id":5907113492,"lat":52.5235961,"lon":13.4113137},{"type":"node","id":6449731032,"lat":52.5232274,"lon":13.4113016},{"type":"node","id":6449731033,"lat":52.5232054,"lon":13.4111359},{"type":"node","id":6714506669,"lat":52.5234476,"lon":13.4116494},{"type":"node","id":6714506670,"lat":52.5237246,"lon":13.412091},{"type":"node","id":6714506672,"lat":52.5229822,"lon":13.413794},{"type":"node","id":6714506673,"lat":52.5231185,"lon":13.4134994},{"type":"node","id":6714506674,"lat":52.5233764,"lon":13.4129409},{"type":"node","id":6714506675,"lat":52.5235677,"lon":13.4125266},{"type":"node","id":6714506684,"lat":52.5237619,"lon":13.4122078},{"type":"node","id":6714532485,"lat":52.5237562,"lon":13.4121381},{"type":"node","id":6714532486,"lat":52.5232425,"lon":13.4113246},{"type":"node","id":6714532488,"lat":52.5232601,"lon":13.4112905},{"type":"node","id":6795935363,"lat":52.5225968,"lon":13.4101779},{"type":"node","id":7076449615,"lat":52.5233248,"lon":13.4107367},{"type":"node","id":7076449616,"lat":52.5230492,"lon":13.4103026},{"type":"node","id":7134879417,"lat":52.5219017,"lon":13.4116224},{"type":"node","id":7134879418,"lat":52.5219635,"lon":13.4114826},{"type":"node","id":7134879419,"lat":52.5221265,"lon":13.4112047},{"type":"node","id":7312391564,"lat":52.5233699,"lon":13.4113572},{"type":"node","id":7312484872,"lat":52.5208434,"lon":13.4129143},{"type":"node","id":7312484873,"lat":52.5203532,"lon":13.4134607},{"type":"node","id":7959991697,"lat":52.5233441,"lon":13.4107909},{"type":"node","id":7959991698,"lat":52.5232114,"lon":13.4110179},{"type":"node","id":9075938657,"lat":52.5232492,"lon":13.4112079},{"type":"node","id":9075938658,"lat":52.5229064,"lon":13.4117736},{"type":"node","id":9075938659,"lat":52.5232002,"lon":13.4112935},{"type":"node","id":9122675259,"lat":52.523031,"lon":13.4139251},{"type":"node","id":9122675262,"lat":52.5234774,"lon":13.4117708},{"type":"node","id":9658870591,"lat":52.5236231,"lon":13.4115106},{"type":"node","id":9658870592,"lat":52.5236013,"lon":13.4115412},{"type":"node","id":9828580274,"lat":52.5238139,"lon":13.4114448},{"type":"node","id":9828580283,"lat":52.522922,"lon":13.4090449},{"type":"node","id":9828580286,"lat":52.5229546,"lon":13.4089468},{"type":"node","id":9828580287,"lat":52.5229315,"lon":13.4089679},{"type":"node","id":9828580288,"lat":52.5229426,"lon":13.4089535},{"type":"node","id":9828580294,"lat":52.5228019,"lon":13.4098813},{"type":"node","id":9828580296,"lat":52.5236533,"lon":13.4112166},{"type":"node","id":9828580297,"lat":52.5234525,"lon":13.4109022},{"type":"node","id":9828580298,"lat":52.523416,"lon":13.4108468},{"type":"node","id":9828580299,"lat":52.5230747,"lon":13.4103065},{"type":"node","id":9828580300,"lat":52.5229349,"lon":13.4100961},{"type":"node","id":9856051673,"lat":52.5232003,"lon":13.4136278},{"type":"node","id":9891723335,"lat":52.5225322,"lon":13.410217},{"type":"node","id":9891723340,"lat":52.5221112,"lon":13.4108977},{"type":"node","id":9891723341,"lat":52.5222079,"lon":13.4107461},{"type":"node","id":10189375738,"lat":52.5205645,"lon":13.4145068},{"type":"node","id":10873950532,"lat":52.5226749,"lon":13.41083},{"type":"node","id":10969840174,"lat":52.5206856,"lon":13.4146646},{"type":"node","id":11019705339,"lat":52.5233731,"lon":13.4096454},{"type":"node","id":11019705340,"lat":52.5234188,"lon":13.4096783},{"type":"node","id":11019705341,"lat":52.5233957,"lon":13.4097646},{"type":"node","id":11019705342,"lat":52.5233498,"lon":13.4097314},{"type":"node","id":11019705343,"lat":52.5233203,"lon":13.4098402},{"type":"node","id":11019705344,"lat":52.5230495,"lon":13.4099058},{"type":"node","id":11019705345,"lat":52.5230133,"lon":13.4098496},{"type":"node","id":11236075591,"lat":52.5233252,"lon":13.4110026},{"type":"node","id":11236075592,"lat":52.5232734,"lon":13.4110815},{"type":"node","id":11236075593,"lat":52.5232833,"lon":13.4108951},{"type":"node","id":11236075594,"lat":52.5232649,"lon":13.4109264},{"type":"node","id":11236075595,"lat":52.523229,"lon":13.4109879},{"type":"node","id":11236075599,"lat":52.5227073,"lon":13.409776},{"type":"node","id":11582988103,"lat":52.5223576,"lon":13.4104704},{"type":"node","id":11582988105,"lat":52.5228417,"lon":13.4102917},{"type":"node","id":12095104432,"lat":52.5229617,"lon":13.4138401},{"type":"node","id":12098559984,"lat":52.5224305,"lon":13.4151927},{"type":"node","id":12610401011,"lat":52.5227465,"lon":13.4103831},{"type":"node","id":12610401012,"lat":52.5226324,"lon":13.4103437},{"type":"node","id":12610401013,"lat":52.5226852,"lon":13.4104393},{"type":"node","id":12610401014,"lat":52.5225368,"lon":13.4104098},{"type":"node","id":12610401015,"lat":52.522301,"lon":13.4108164},{"type":"node","id":12610401016,"lat":52.5231732,"lon":13.4110847},{"type":"node","id":12610401017,"lat":52.5232353,"lon":13.4112089},{"type":"node","id":12610401018,"lat":52.5231687,"lon":13.4110965},{"type":"node","id":12610401019,"lat":52.5231658,"lon":13.4110655},{"type":"node","id":12610401020,"lat":52.5231428,"lon":13.4113873},{"type":"node","id":12610401021,"lat":52.5230972,"lon":13.4113182},{"type":"node","id":12610401022,"lat":52.5229305,"lon":13.4115996},{"type":"node","id":12610401023,"lat":52.5229409,"lon":13.4116156},{"type":"node","id":12610401024,"lat":52.5229249,"lon":13.4116437},{"type":"node","id":12610401025,"lat":52.5229556,"lon":13.4116932},{"type":"node","id":12610401026,"lat":52.5232558,"lon":13.4114213},{"type":"node","id":12610401029,"lat":52.5233487,"lon":13.4115688},{"type":"node","id":12610401050,"lat":52.5235392,"lon":13.4125883},{"type":"node","id":12610401053,"lat":52.5234,"lon":13.4128898},{"type":"node","id":3174192368,"lat":52.5220339,"lon":13.4160503},{"type":"node","id":3733305312,"lat":52.5219611,"lon":13.4160657},{"type":"node","id":3733305313,"lat":52.5220233,"lon":13.4160663},{"type":"node","id":3733305315,"lat":52.5220497,"lon":13.416025},{"type":"node","id":3828179959,"lat":52.5220149,"lon":13.4160737},{"type":"node","id":3828179964,"lat":52.5219888,"lon":13.4160801},{"type":"node","id":3828179970,"lat":52.522006,"lon":13.4160792},{"type":"node","id":3828179972,"lat":52.5219217,"lon":13.416022},{"type":"node","id":3828179998,"lat":52.5220403,"lon":13.4160437},{"type":"node","id":3828180010,"lat":52.52206,"lon":13.4160025},{"type":"node","id":3828180021,"lat":52.5219407,"lon":13.4160428},{"type":"node","id":3828180022,"lat":52.521974,"lon":13.4160766},{"type":"node","id":29123672,"lat":52.5238949,"lon":13.4117364},{"type":"node","id":29494557,"lat":52.5290189,"lon":13.4098939},{"type":"node","id":114104901,"lat":52.5242603,"lon":13.409975},{"type":"node","id":564733487,"lat":52.5283961,"lon":13.410198},{"type":"node","id":564733489,"lat":52.5294165,"lon":13.4100276},{"type":"node","id":648895982,"lat":52.5240114,"lon":13.4100803},{"type":"node","id":648895984,"lat":52.5244188,"lon":13.4099879},{"type":"node","id":648895986,"lat":52.5260719,"lon":13.4111414},{"type":"node","id":967017837,"lat":52.5240509,"lon":13.412158},{"type":"node","id":1599776978,"lat":52.5261777,"lon":13.4111671},{"type":"node","id":1630500711,"lat":52.5239716,"lon":13.4120022},{"type":"node","id":1773340285,"lat":52.5298185,"lon":13.4103644},{"type":"node","id":1840326416,"lat":52.5241885,"lon":13.4123286},{"type":"node","id":1840326419,"lat":52.5241964,"lon":13.4122856},{"type":"node","id":2094266782,"lat":52.5273084,"lon":13.4105643},{"type":"node","id":2095738513,"lat":52.5238965,"lon":13.4100928},{"type":"node","id":2095738514,"lat":52.5239233,"lon":13.410161},{"type":"node","id":2095738515,"lat":52.5239892,"lon":13.410008},{"type":"node","id":2095738516,"lat":52.5241486,"lon":13.4099196},{"type":"node","id":2095738517,"lat":52.5241624,"lon":13.4099961},{"type":"node","id":2095738518,"lat":52.5242666,"lon":13.4098949},{"type":"node","id":2095738519,"lat":52.5243447,"lon":13.409899},{"type":"node","id":2095738520,"lat":52.5243455,"lon":13.4099795},{"type":"node","id":2095738521,"lat":52.5244274,"lon":13.4099212},{"type":"node","id":2095738522,"lat":52.5245086,"lon":13.4100204},{"type":"node","id":2095738523,"lat":52.5245241,"lon":13.4099649},{"type":"node","id":2095738526,"lat":52.5258732,"lon":13.4109892},{"type":"node","id":2095738527,"lat":52.5259654,"lon":13.4111006},{"type":"node","id":2095738528,"lat":52.5259807,"lon":13.4110468},{"type":"node","id":2095738529,"lat":52.5260786,"lon":13.411085},{"type":"node","id":2095738530,"lat":52.52618,"lon":13.4111088},{"type":"node","id":2095738531,"lat":52.5262916,"lon":13.4111114},{"type":"node","id":2095738532,"lat":52.5262911,"lon":13.4111704},{"type":"node","id":2095738533,"lat":52.526388,"lon":13.411092},{"type":"node","id":2095738534,"lat":52.5263986,"lon":13.4111495},{"type":"node","id":2095738535,"lat":52.5267991,"lon":13.4108724},{"type":"node","id":2095738536,"lat":52.5268154,"lon":13.4109557},{"type":"node","id":2095742274,"lat":52.5270668,"lon":13.410683},{"type":"node","id":2095742298,"lat":52.5288641,"lon":13.4098128},{"type":"node","id":2095742299,"lat":52.5289963,"lon":13.4097531},{"type":"node","id":2095742300,"lat":52.5294753,"lon":13.4098718},{"type":"node","id":2095742301,"lat":52.5297756,"lon":13.4101295},{"type":"node","id":2095742302,"lat":52.5303163,"lon":13.4107203},{"type":"node","id":3457234695,"lat":52.528381,"lon":13.4100573},{"type":"node","id":3730313061,"lat":52.527078,"lon":13.4108326},{"type":"node","id":3730313115,"lat":52.5291098,"lon":13.4098793},{"type":"node","id":3730313116,"lat":52.5291121,"lon":13.4097375},{"type":"node","id":3832556260,"lat":52.5238461,"lon":13.4114023},{"type":"node","id":3832556297,"lat":52.5238597,"lon":13.4112856},{"type":"node","id":3895249892,"lat":52.5240644,"lon":13.4099556},{"type":"node","id":3895249895,"lat":52.5240856,"lon":13.4100297},{"type":"node","id":3895250000,"lat":52.5238634,"lon":13.4111882},{"type":"node","id":3895250002,"lat":52.5238729,"lon":13.4096527},{"type":"node","id":3895250326,"lat":52.5238575,"lon":13.4113557},{"type":"node","id":3895250327,"lat":52.5238853,"lon":13.4096799},{"type":"node","id":3895250330,"lat":52.5238961,"lon":13.4097814},{"type":"node","id":3895250430,"lat":52.5238547,"lon":13.4096205},{"type":"node","id":3895250438,"lat":52.5238934,"lon":13.4097126},{"type":"node","id":3895250439,"lat":52.523896,"lon":13.4097384},{"type":"node","id":4673135631,"lat":52.5238534,"lon":13.4113762},{"type":"node","id":4820557111,"lat":52.5258601,"lon":13.4110448},{"type":"node","id":4961125734,"lat":52.5280129,"lon":13.4103794},{"type":"node","id":5057579397,"lat":52.5291966,"lon":13.4097477},{"type":"node","id":5130344177,"lat":52.5264952,"lon":13.4110492},{"type":"node","id":5130344178,"lat":52.5265091,"lon":13.4111047},{"type":"node","id":5130344179,"lat":52.5288357,"lon":13.4099673},{"type":"node","id":5130344180,"lat":52.5291991,"lon":13.4098947},{"type":"node","id":5130344181,"lat":52.5292993,"lon":13.4097721},{"type":"node","id":5130344182,"lat":52.5292721,"lon":13.4099225},{"type":"node","id":5130344183,"lat":52.5300201,"lon":13.4105575},{"type":"node","id":5130344184,"lat":52.5300273,"lon":13.4103813},{"type":"node","id":5625424627,"lat":52.5301808,"lon":13.4105552},{"type":"node","id":5625424628,"lat":52.5301745,"lon":13.4107213},{"type":"node","id":6795935360,"lat":52.5240454,"lon":13.4120963},{"type":"node","id":6795935361,"lat":52.523894,"lon":13.4119039},{"type":"node","id":6795935362,"lat":52.5238936,"lon":13.4119624},{"type":"node","id":9220398901,"lat":52.5239536,"lon":13.4119794},{"type":"node","id":9220398903,"lat":52.5239322,"lon":13.4120116},{"type":"node","id":9220398904,"lat":52.5239543,"lon":13.4120352},{"type":"node","id":9677652705,"lat":52.5244969,"lon":13.4127164},{"type":"node","id":9677652706,"lat":52.5245145,"lon":13.4126668},{"type":"node","id":9828580270,"lat":52.5238526,"lon":13.410208},{"type":"node","id":11236060387,"lat":52.5238961,"lon":13.409761},{"type":"node","id":29494561,"lat":52.5312176,"lon":13.4121802},{"type":"node","id":196758118,"lat":52.5317442,"lon":13.4126268},{"type":"node","id":519262801,"lat":52.5303979,"lon":13.4109885},{"type":"node","id":2095742303,"lat":52.5313943,"lon":13.4122061},{"type":"node","id":2095742304,"lat":52.5315598,"lon":13.4123292},{"type":"node","id":2917710986,"lat":52.5315714,"lon":13.4125181},{"type":"node","id":2917710988,"lat":52.5317721,"lon":13.4124311},{"type":"node","id":5130344185,"lat":52.5312552,"lon":13.4120633},{"type":"node","id":5130344186,"lat":52.5313968,"lon":13.4123814},{"type":"node","id":5625424629,"lat":52.5304189,"lon":13.410852},{"type":"node","id":5625424630,"lat":52.5309927,"lon":13.4116958}]}