{"version":0.6,"generator":"Overpass API 0.7.62.5 1bd436f1","osm3s":{"timestamp_osm_base":"2025-03-12T11:32:13Z","copyright":"The data included in this document is from www.openstreetmap.org. The data is made available under ODbL."},"elements":[{"type":"node","id":677195270,"lat":52.5238211,"lon":13.4190715,"tags":{"leaf_cycle":"deciduous","leaf_type":"broadleaved","natural":"tree"}},{"type":"node","id":677195282,"lat":52.5236071,"lon":13.4189253,"tags":{"leaf_cycle":"deciduous","leaf_type":"broadleaved","natural":"tree"}},{"type":"node","id":677195289,"lat":52.5237714,"lon":13.4190046,"tags":{"leaf_cycle":"deciduous","leaf_type":"broadleaved","natural":"tree"}},{"type":"node","id":677195324,"lat":52.5236297,"lon":13.4188486,"tags":{"leaf_cycle":"deciduous","leaf_type":"broadleaved","natural":"tree"}},{"type":"node","id":1631101092,"lat":52.5241927,"lon":13.4185643,"tags":{"railway":"tram_level_crossing"}},{"type":"node","id":1862786361,"lat":52.5242652,"lon":13.4190117,"tags":{"leaf_cycle":"deciduous","leaf_type":"broadleaved","natural":"tree"}},{"type":"node","id":2813486106,"lat":52.5240055,"lon":13.4180496,"tags":{"addr:city":"Berlin","addr:country":"DE","addr:housenumber":"67","addr:postcode":"10178","addr:street":"Otto-Braun-Stra\u00dfe","addr:suburb":"Mitte"}},{"type":"node","id":3169829587,"lat":52.5242468,"lon":13.4184465,"tags":{"barrier":"kerb","button_operated":"no","crossing":"traffic_signals","highway":"crossing","kerb":"lowered","tactile_paving":"yes","traffic_signals:sound":"yes","traffic_signals:vibration":"yes"}},{"type":"node","id":3179720020,"lat":52.5241799,"lon":13.4183781,"tags":{"barrier":"kerb","kerb":"lowered","tactile_paving":"yes"}},{"type":"node","id":3216719421,"lat":52.5242224,"lon":13.4184216,"tags":{"crossing":"traffic_signals","railway":"tram_crossing"}},{"type":"node","id":3216719422,"lat":52.5242666,"lon":13.4184668,"tags":{"crossing":"traffic_signals","railway":"tram_crossing"}},{"type":"node","id":6576241818,"lat":52.5242451,"lon":13.4182248,"tags":{"amenity":"bicycle_parking","bicycle_parking":"stands","capacity":"18","covered":"no","fee":"no"}},{"type":"node","id":6795798227,"lat":52.5242416,"lon":13.4184413,"tags":{"crossing":"traffic_signals","railway":"tram_crossing"}},{"type":"node","id":6795798228,"lat":52.5242374,"lon":13.4184723,"tags":{"railway":"tram_level_crossing"}},{"type":"node","id":6795798229,"lat":52.5242636,"lon":13.4186294,"tags":{"railway":"tram_level_crossing"}},{"type":"node","id":6795798230,"lat":52.5242346,"lon":13.4186027,"tags":{"railway":"tram_level_crossing"}},{"type":"node","id":9243768379,"lat":52.5237089,"lon":13.4189941,"tags":{"amenity":"community_centre","description":"Ein B\u00fcndnis um und f\u00fcr Lebensmittel \u2013 klimafreundlich und sozial, \u00f6kologisch angebaut, fair gehandelt, gemeinsam geg\u00e4rtnert, gegessen und gekocht.","function":"Ern\u00e4hrungswende","name":"LebensMittelPunkt","website":"https:\/\/hausderstatistik.org\/pioniere\/lebensmittelpunkt-hds\/"}},{"type":"node","id":9856051663,"lat":52.5240548,"lon":13.4190457,"tags":{"leaf_cycle":"deciduous","leaf_type":"broadleaved","natural":"tree"}},{"type":"node","id":10010504591,"lat":52.5242324,"lon":13.4182549,"tags":{"highway":"street_lamp"}},{"type":"node","id":11920576269,"lat":52.5241332,"lon":13.4181765,"tags":{"addr:housenumber":"66","addr:postcode":"10178","addr:street":"Otto-Braun-Stra\u00dfe","name":"VISIONAPARTMENTS Berlin","tourism":"apartment","website":"https:\/\/visionapartments.com\/en\/locations\/berlin\/"}},{"type":"node","id":12297706023,"lat":52.5242246,"lon":13.4189331,"tags":{"power":"catenary_mast"}},{"type":"node","id":12297706024,"lat":52.5241231,"lon":13.4187816,"tags":{"power":"catenary_mast"}},{"type":"node","id":12297706026,"lat":52.5241357,"lon":13.4183602,"tags":{"power":"catenary_mast"}},{"type":"node","id":12297706027,"lat":52.5242464,"lon":13.4182091,"tags":{"power":"catenary_mast"}}]}