{"version":0.6,"generator":"Overpass API 0.7.62.5 1bd436f1","osm3s":{"timestamp_osm_base":"2025-03-12T11:32:13Z","copyright":"The data included in this document is from www.openstreetmap.org. The data is made available under ODbL."},"elements":[{"type":"node","id":473121240,"lat":52.5247324,"lon":13.4160442,"tags":{"addr:city":"Berlin","addr:country":"DE","addr:housenumber":"36","addr:postcode":"10178","addr:street":"Keibelstra\u00dfe","addr:suburb":"Mitte"}},{"type":"node","id":2558589522,"lat":52.5247312,"lon":13.4161848,"tags":{"name":"Zentrale Serviceeinheit","police":"offices","website":"http:\/\/www.berlin.de\/polizei\/wir-ueber-uns\/struktur\/zse\/"}},{"type":"node","id":12087068626,"lat":52.5248092,"lon":13.415811,"tags":{"denotation":"avenue","leaf_cycle":"deciduous","leaf_type":"broadleaved","natural":"tree"}},{"type":"node","id":12087068627,"lat":52.5248867,"lon":13.4159028,"tags":{"denotation":"avenue","leaf_cycle":"deciduous","leaf_type":"broadleaved","natural":"tree"}},{"type":"node","id":12357897312,"lat":52.5243656,"lon":13.4165412,"tags":{"addr:city":"Berlin","addr:country":"DE","addr:housenumber":"6","addr:postcode":"10178","addr:street":"Bernhard-Wei\u00df-Stra\u00dfe","contact:email":"kontakt@keibelstrasse.de","contact:facebook":"https:\/\/www.facebook.com\/keibelstrasse\/","contact:instagram":"https:\/\/www.instagram.com\/keibelstrasse\/","contact:phone":"+49 30 28098011","contact:twitter":"https:\/\/twitter.com\/keibelstrasse","contact:website":"https:\/\/www.keibelstrasse.de\/","museum":"history","name":"Lernort Keibelstra\u00dfe","old_name":"Untersuchungshaftanstalt Keibelstra\u00dfe","opening_hours":"\"nur im Rahmen von F\u00fchrungen und Lernwerkst\u00e4tten\"","operator":"Agentur f\u00fcr Bildung, Geschichte und Politik e.V.","operator:type":"private_non_profit","start_date":"2019-02","tourism":"museum","wikidata":"Q84322842","wikipedia":"de:Lernort Keibelstra\u00dfe"}}]}