{"version":0.6,"generator":"Overpass API 0.7.62.5 1bd436f1","osm3s":{"timestamp_osm_base":"2025-03-12T11:24:02Z","copyright":"The data included in this document is from www.openstreetmap.org. The data is made available under ODbL."},"elements":[{"type":"node","id":735967921,"lat":52.5208971,"lon":13.415463,"tags":{"button_operated":"no","crossing":"traffic_signals","highway":"crossing","kerb":"lowered","tactile_paving":"yes","traffic_signals:sound":"yes","traffic_signals:vibration":"yes"}},{"type":"node","id":735967923,"lat":52.5211196,"lon":13.4152893,"tags":{"highway":"traffic_signals"}},{"type":"node","id":1421791175,"lat":52.5214543,"lon":13.4146679,"tags":{"addr:city":"Berlin","addr:country":"DE","addr:housenumber":"3","addr:place":"Alexanderplatz","addr:postcode":"10178","addr:suburb":"Mitte","brand":"New Yorker","brand:wikidata":"Q706421","brand:wikipedia":"en:New Yorker (clothing)","check_date:opening_hours":"2023-11-11","name":"New Yorker","opening_hours":"Mo-Sa 10:00-21:00","shop":"clothes","source":"local knowledge","website":"http:\/\/www.newyorker.de","wheelchair":"yes"}},{"type":"node","id":1421791176,"lat":52.5212612,"lon":13.4147913,"tags":{"addr:city":"Berlin","addr:country":"DE","addr:housenumber":"3","addr:place":"Alexanderplatz","addr:postcode":"10178","addr:suburb":"Mitte","brand":"O2","brand:wikidata":"Q1759255","brand:wikipedia":"en:O2 (brand)","check_date:opening_hours":"2023-11-11","internet_access":"wlan","name":"O2","opening_hours":"Mo-Sa 10:00-20:00","phone":"+49 30 92122188","shop":"mobile_phone","source":"survey;local knowledge","website":"https:\/\/www.o2online.de\/shops\/berlin\/134\/","wheelchair":"yes"}},{"type":"node","id":1421791180,"lat":52.5211768,"lon":13.4148822,"tags":{"brand":"JD Sports","brand:wikidata":"Q6108019","brand:wikipedia":"en:JD Sports","check_date:opening_hours":"2023-06-19","internet_access":"yes","name":"JD Sports","opening_hours":"Mo-Sa 10:00-20:00; PH,Su off","shop":"sports","source":"survey","wheelchair":"yes"}},{"type":"node","id":2440890868,"lat":52.5210286,"lon":13.4150354,"tags":{"amenity":"post_box","check_date":"2022-02-08","collection_times":"Mo-Fr 20:00","operator":"PIN AG"}},{"type":"node","id":3178759584,"lat":52.5210832,"lon":13.4152495,"tags":{"button_operated":"no","crossing":"traffic_signals","highway":"crossing","kerb":"lowered","tactile_paving":"yes","traffic_signals:sound":"yes","traffic_signals:vibration":"yes"}},{"type":"node","id":4298835594,"lat":52.5211518,"lon":13.4149628,"tags":{"addr:city":"Berlin","addr:country":"DE","addr:housenumber":"3","addr:place":"Alexanderplatz","addr:postcode":"10178","addr:suburb":"Mitte","air_conditioning":"yes","amenity":"cafe","brand":"Einstein Kaffee","brand:wikidata":"Q107987401","check_date":"2024-06-11","cuisine":"coffee_shop","indoor_seating":"yes","internet_access":"no","level":"0","name":"Einstein Kaffee","opening_hours":"Mo-Su 08:00-23:00","outdoor_seating":"yes","payment:american_express":"yes","payment:cash":"yes","payment:cryptocurrencies":"no","payment:electronic_purses":"no","payment:maestro":"yes","payment:mastercard":"yes","payment:visa":"yes","smoking":"outside","takeaway":"yes","toilets":"yes","toilets:access":"customers","toilets:fee":"yes","toilets:wheelchair":"yes","website":"https:\/\/einstein-kaffee.de\/standorte\/standorte-berlin\/alexanderplatz\/","wheelchair":"yes"}},{"type":"node","id":4809636660,"lat":52.5211484,"lon":13.4151745,"tags":{"barrier":"kerb","kerb":"lowered","tactile_paving":"yes"}},{"type":"node","id":6297518807,"lat":52.5211025,"lon":13.4149851,"tags":{"camera:direction":"290","camera:mount":"wall","camera:type":"fixed","check_date":"2023-04-10","man_made":"surveillance","ref":"13","surveillance":"outdoor","surveillance:type":"camera","surveillance:zone":"entrance"}},{"type":"node","id":6376433888,"lat":52.5213829,"lon":13.4146759,"tags":{"camera:mount":"wall","camera:type":"fixed","check_date":"2022-09-26","man_made":"surveillance","surveillance":"outdoor","surveillance:type":"camera","surveillance:zone":"entrance"}},{"type":"node","id":6964438888,"lat":52.5212938,"lon":13.4147342,"tags":{"couplings":"2","couplings:diameters":"B;B","emergency":"fire_service_inlet","fire_mains":"dry"}},{"type":"node","id":10189375732,"lat":52.5208986,"lon":13.4155693,"tags":{"amenity":"waste_basket"}},{"type":"node","id":10581705181,"lat":52.5214459,"lon":13.4152296,"tags":{"addr:city":"Berlin","addr:housenumber":"3","addr:postcode":"10178","addr:street":"Alexanderplatz","description":"Gaming Eventlocation im Saturn","fixme":"location inside building","leisure":"amusement_arcade","name":"Xperion Berlin","website":"https:\/\/www.xperion-saturn.de"}},{"type":"node","id":10800211950,"lat":52.5211021,"lon":13.4149893,"tags":{"camera:direction":"25","camera:mount":"wall","camera:type":"fixed","check_date":"2023-04-10","man_made":"surveillance","ref":"1","surveillance":"outdoor","surveillance:type":"camera","surveillance:zone":"entrance"}},{"type":"node","id":10969814703,"lat":52.5209378,"lon":13.4154165,"tags":{"barrier":"kerb","kerb":"lowered","tactile_paving":"yes"}},{"type":"node","id":10969814704,"lat":52.5210069,"lon":13.4153371,"tags":{"barrier":"kerb","kerb":"lowered","tactile_paving":"yes"}},{"type":"node","id":11238390308,"lat":52.5208921,"lon":13.4157466,"tags":{"man_made":"manhole"}},{"type":"node","id":11238390329,"lat":52.5211374,"lon":13.4152489,"tags":{"man_made":"manhole"}},{"type":"node","id":11247145894,"lat":52.5210653,"lon":13.4154896,"tags":{"artwork_type":"sculpture","image":"https:\/\/photos.app.goo.gl\/gKpK1dJEBTh2Bt6v9","material":"plastic","tourism":"artwork"}},{"type":"node","id":11908893990,"lat":52.5215003,"lon":13.4155427,"tags":{"natural":"tree"}},{"type":"node","id":11908893991,"lat":52.5212216,"lon":13.4152495,"tags":{"natural":"tree"}},{"type":"node","id":11908893992,"lat":52.5211212,"lon":13.4151395,"tags":{"leaf_type":"broadleaved","natural":"tree"}},{"type":"node","id":11908893993,"lat":52.5210517,"lon":13.4150563,"tags":{"natural":"tree"}},{"type":"node","id":11908893994,"lat":52.5209677,"lon":13.414976,"tags":{"leaf_type":"broadleaved","natural":"tree"}},{"type":"node","id":11908893995,"lat":52.520893,"lon":13.41489,"tags":{"leaf_type":"broadleaved","natural":"tree"}},{"type":"node","id":12082780559,"lat":52.5210549,"lon":13.4146819,"tags":{"historic":"memorial","material":"steel","memorial":"stele","name":"Friedliche Revolution","website":"https:\/\/revolution89.de\/"}}]}