{"version":0.6,"generator":"Overpass API 0.7.62.5 1bd436f1","osm3s":{"timestamp_osm_base":"2025-03-12T11:31:09Z","copyright":"The data included in this document is from www.openstreetmap.org. The data is made available under ODbL."},"elements":[{"type":"node","id":736787795,"lat":52.5247421,"lon":13.4099617,"tags":{"addr:city":"Berlin","addr:country":"DE","addr:housenumber":"13","addr:postcode":"10178","addr:street":"Rosa-Luxemburg-Stra\u00dfe","addr:suburb":"Mitte"}},{"type":"node","id":736787829,"lat":52.5248815,"lon":13.4100745,"tags":{"addr:city":"Berlin","addr:country":"DE","addr:housenumber":"15","addr:postcode":"10178","addr:street":"Rosa-Luxemburg-Stra\u00dfe","addr:suburb":"Mitte"}},{"type":"node","id":736787837,"lat":52.5242895,"lon":13.4096121,"tags":{"addr:city":"Berlin","addr:country":"DE","addr:housenumber":"9","addr:postcode":"10178","addr:street":"Rosa-Luxemburg-Stra\u00dfe","addr:suburb":"Mitte"}},{"type":"node","id":736787868,"lat":52.5244458,"lon":13.4097124,"tags":{"addr:city":"Berlin","addr:country":"DE","addr:housenumber":"11","addr:postcode":"10178","addr:street":"Rosa-Luxemburg-Stra\u00dfe","addr:suburb":"Mitte"}},{"type":"node","id":1552575427,"lat":52.5242947,"lon":13.4093253,"tags":{"addr:city":"Berlin","addr:country":"DE","addr:housenumber":"4A","addr:postcode":"10119","addr:street":"Almstadtstra\u00dfe","addr:suburb":"Mitte"}},{"type":"node","id":2558612463,"lat":52.5248351,"lon":13.4093287,"tags":{"addr:city":"Berlin","addr:country":"DE","addr:housenumber":"10","addr:postcode":"10119","addr:street":"Almstadtstra\u00dfe","addr:suburb":"Mitte"}},{"type":"node","id":2558612468,"lat":52.5249072,"lon":13.4093691,"tags":{"addr:city":"Berlin","addr:country":"DE","addr:housenumber":"12","addr:postcode":"10119","addr:street":"Almstadtstra\u00dfe","addr:suburb":"Mitte"}},{"type":"node","id":2558612487,"lat":52.5243303,"lon":13.4091644,"tags":{"addr:city":"Berlin","addr:country":"DE","addr:housenumber":"2","addr:postcode":"10119","addr:street":"Almstadtstra\u00dfe","addr:suburb":"Mitte"}},{"type":"node","id":2558612514,"lat":52.524445,"lon":13.409194,"tags":{"addr:city":"Berlin","addr:country":"DE","addr:housenumber":"4","addr:postcode":"10119","addr:street":"Almstadtstra\u00dfe","addr:suburb":"Mitte"}},{"type":"node","id":2558612515,"lat":52.5245598,"lon":13.4092479,"tags":{"addr:city":"Berlin","addr:country":"DE","addr:housenumber":"6","addr:postcode":"10119","addr:street":"Almstadtstra\u00dfe","addr:suburb":"Mitte"}},{"type":"node","id":2558612522,"lat":52.5247073,"lon":13.4092964,"tags":{"addr:city":"Berlin","addr:country":"DE","addr:housenumber":"8","addr:postcode":"10119","addr:street":"Almstadtstra\u00dfe","addr:suburb":"Mitte"}},{"type":"node","id":2840691654,"lat":52.5242898,"lon":13.4101132,"tags":{"addr:city":"Berlin","addr:country":"DE","addr:housenumber":"10","addr:postcode":"10178","addr:street":"Memhardstra\u00dfe","addr:suburb":"Mitte","source":"Geoportal Berlin \/ Hauskoordinaten"}},{"type":"node","id":3457776293,"lat":52.524934,"lon":13.410133,"tags":{"addr:city":"Berlin","addr:country":"DE","addr:housenumber":"15","addr:postcode":"10178","addr:street":"Rosa-Luxemburg-Stra\u00dfe","addr:suburb":"Mitte","name":"Mail Boxes Etc.","opening_hours":"Mo-Fr 10:00-16:00","shop":"stationery","wheelchair":"limited"}},{"type":"node","id":3895249667,"lat":52.5246126,"lon":13.4099755,"tags":{"leaf_cycle":"deciduous","leaf_type":"broadleaved","natural":"tree"}},{"type":"node","id":3895249763,"lat":52.5245184,"lon":13.4099049,"tags":{"leaf_cycle":"deciduous","leaf_type":"broadleaved","natural":"tree"}},{"type":"node","id":3895249910,"lat":52.5245714,"lon":13.4101685,"tags":{"leaf_cycle":"deciduous","leaf_type":"broadleaved","natural":"tree"}},{"type":"node","id":3895249911,"lat":52.524836,"lon":13.410149,"tags":{"leaf_cycle":"deciduous","leaf_type":"broadleaved","natural":"tree"}},{"type":"node","id":3895250031,"lat":52.5244575,"lon":13.4098581,"tags":{"leaf_cycle":"deciduous","leaf_type":"broadleaved","natural":"tree"}},{"type":"node","id":3895251472,"lat":52.5247734,"lon":13.4101008,"tags":{"leaf_cycle":"deciduous","leaf_type":"broadleaved","natural":"tree"}},{"type":"node","id":3895252267,"lat":52.5243813,"lon":13.4097998,"tags":{"leaf_cycle":"deciduous","leaf_type":"broadleaved","natural":"tree"}},{"type":"node","id":3993664069,"lat":52.5242693,"lon":13.4091569,"tags":{"addr:city":"Berlin","addr:country":"DE","addr:housenumber":"2","addr:postcode":"10178","addr:street":"M\u00fcnzstra\u00dfe","addr:suburb":"Mitte","name":"Elvine","shop":"clothes","wheelchair":"no"}},{"type":"node","id":4313910789,"lat":52.5244929,"lon":13.4097372,"tags":{"addr:city":"Berlin","addr:country":"DE","addr:housenumber":"9-11","addr:postcode":"10178","addr:street":"Rosa-Luxemburg-Stra\u00dfe","addr:suburb":"Mitte","alt_name":"Prince Restaurant","amenity":"restaurant","contact:website":"http:\/\/prince-restaurant.com\/","cuisine":"asian","name":"Prince","phone":"+49 30 70 09 39 67","wheelchair":"no"}},{"type":"node","id":4403482397,"lat":52.5244086,"lon":13.4101043,"tags":{"amenity":"atm","brand":"Euronet","brand:wikidata":"Q5412010","brand:wikipedia":"en:Euronet Worldwide","cash_in":"no","check_date":"2023-02-19","indoor":"no","name":"Euronet","operator":"Euronet","operator:wikidata":"Q5412010","operator:wikipedia":"en:Euronet Worldwide"}},{"type":"node","id":5336750821,"lat":52.5247036,"lon":13.4099587,"tags":{"addr:city":"Berlin","addr:country":"DE","addr:housenumber":"11-13","addr:postcode":"10178","addr:street":"Rosa-Luxemburg-Stra\u00dfe","addr:suburb":"Mitte","amenity":"bar","check_date":"2024-03-03","name":"Lux 11"}},{"type":"node","id":5656522297,"lat":52.5245805,"lon":13.4098834,"tags":{"entrance":"yes"}},{"type":"node","id":5656522306,"lat":52.5245961,"lon":13.4098329,"tags":{"addr:city":"Berlin","addr:country":"DE","addr:housenumber":"11-13","addr:postcode":"10178","addr:street":"Rosa-Luxemburg-Stra\u00dfe","addr:suburb":"Mitte","check_date":"2024-02-25","contact:phone":"+49 30 9362800","contact:website":"http:\/\/www.lux-eleven.com\/","name":"Lux 11","opening_hours":"24\/7","rooms":"72","smoking":"no","tourism":"hotel","wheelchair":"no"}},{"type":"node","id":7340670250,"lat":52.5245074,"lon":13.4101102,"tags":{"access":"yes","addr:floor":"0","amenity":"bicycle_parking","bicycle_parking":"stands","bicycle_parking:position":"sidewalk","capacity":"4","covered":"no","fee":"no","indoor":"no","level":"0","lit":"yes","operator:type":"public","source":"survey"}},{"type":"node","id":7340670669,"lat":52.5246444,"lon":13.4099917,"tags":{"amenity":"bicycle_parking","bicycle_parking":"stands","bicycle_parking:position":"sidewalk","capacity":"4","check_date:capacity":"2024-04-29","covered":"no"}},{"type":"node","id":7340682780,"lat":52.5247978,"lon":13.410113,"tags":{"amenity":"bicycle_parking","bicycle_parking":"stands","bicycle_parking:position":"sidewalk","capacity":"4","check_date:capacity":"2024-04-29","covered":"no"}},{"type":"node","id":9686800946,"lat":52.5244736,"lon":13.4100982,"tags":{"highway":"street_lamp"}},{"type":"node","id":10760477360,"lat":52.5243066,"lon":13.4099667,"tags":{"amenity":"waste_basket","colour":"orange","covered":"no","indoor":"no","material":"steel","operator":"BSR","source":"survey","waste":"cigarettes;dog_excrement;trash"}},{"type":"node","id":10760477363,"lat":52.52475,"lon":13.410015,"tags":{"barrier":"gate"}},{"type":"node","id":10761261497,"lat":52.5244917,"lon":13.4091603,"tags":{"barrier":"gate"}},{"type":"node","id":10761261500,"lat":52.5245328,"lon":13.4091748,"tags":{"entrance":"yes"}},{"type":"node","id":10761261501,"lat":52.5247393,"lon":13.4092472,"tags":{"entrance":"yes"}},{"type":"node","id":10761261502,"lat":52.5248064,"lon":13.4092699,"tags":{"entrance":"yes"}},{"type":"node","id":10761261504,"lat":52.5248992,"lon":13.4093014,"tags":{"barrier":"gate","colour":"grey","locked":"yes","material":"steel","source":"survey"}}]}