{"version":0.6,"generator":"Overpass API 0.7.62.5 1bd436f1","osm3s":{"timestamp_osm_base":"2025-03-12T11:25:00Z","copyright":"The data included in this document is from www.openstreetmap.org. The data is made available under ODbL."},"elements":[{"type":"node","id":196763698,"lat":52.5217868,"lon":13.4103371,"tags":{"entrance":"yes","entrance_marker:s-train":"yes","public_transport":"entrance","wheelchair":"yes"}},{"type":"node","id":322565363,"lat":52.5218636,"lon":13.4107221,"tags":{"addr:city":"Berlin","addr:city:fa":"\u0628\u0631\u0644\u06cc\u0646","addr:country":"DE","addr:housenumber":"2","addr:postcode":"10179","addr:street":"Dircksenstra\u00dfe","addr:suburb":"Mitte","check_date":"2022-11-08","contact:phone":"+4980024085443","contact:website":"http:\/\/www.neptun-apotheke-berlin.de\/","dispensing":"yes","disused:amenity":"pharmacy","name":"Neptun Apotheke","opening_hours":"Mo-Fr 06:30-20:30; Sa 08:00-20:30; Su 13:00-18:00","wheelchair":"yes"}},{"type":"node","id":322565365,"lat":52.5219256,"lon":13.4108669,"tags":{"amenity":"atm","brand":"Berliner Volksbank","brand:wikidata":"Q821855","brand:wikipedia":"de:Berliner Volksbank","cash_in":"yes","check_date":"2023-03-18","description":"SB-Standort","level":"0","name":"Berliner Volksbank","opening_hours":"06:00-22:00","operator":"Berliner Volksbank","operator:wikidata":"Q821855","operator:wikipedia":"de:Berliner Volksbank","wheelchair":"limited"}},{"type":"node","id":382905018,"lat":52.5217878,"lon":13.4110343,"tags":{"man_made":"surveillance","operator":"vodafone","surveillance":"indoor"}},{"type":"node","id":888365921,"lat":52.5217424,"lon":13.4104474,"tags":{"brand":"BackWerk","brand:wikidata":"Q798298","brand:wikipedia":"de:BackWerk","indoor_seating":"yes","name":"Backwerk","opening_hours":"Mo-Fr 06:00-20:00; Sa,Su 08:00-20:00","outdoor_seating":"yes","shop":"bakery","smoking":"outside","wheelchair":"yes"}},{"type":"node","id":888375474,"lat":52.5219665,"lon":13.4106394,"tags":{"level":"0"}},{"type":"node","id":926359040,"lat":52.5221389,"lon":13.4112166,"tags":{"amenity":"ice_cream","cuisine":"ice_cream","name":"San Marco"}},{"type":"node","id":1615564397,"lat":52.5220099,"lon":13.4110544,"tags":{"railway":"switch","railway:local_operated":"yes","railway:switch":"default","railway:switch:electric":"yes","railway:switch:movable_frog":"no","railway:switch:resetting":"no","railway:turnout_side":"left","ref":"398"}},{"type":"node","id":1615564399,"lat":52.5220321,"lon":13.4110935,"tags":{"railway":"switch","railway:local_operated":"yes","railway:switch":"default","railway:switch:electric":"no","railway:switch:movable_frog":"no","railway:turnout_side":"right","ref":"898"}},{"type":"node","id":1816817817,"lat":52.5218044,"lon":13.4110631,"tags":{"brand":"O2","brand:wikidata":"Q1759255","brand:wikipedia":"en:Vodafone","check_date":"2023-03-18","level":"0","name":"O2","opening_hours":"Mo-Fr 10:00-20:00, Sa 10:00-18:00","operator":"franchise","shop":"mobile_phone","wheelchair":"yes"}},{"type":"node","id":1818862992,"lat":52.5218661,"lon":13.4103445,"tags":{"brand":"Deutsche Bahn","brand:wikidata":"Q9322","brand:wikipedia":"de:Reisezentrum","name":"DB Reisezentrum","opening_hours":"Mo-Fr 07:00-20:00; Sa,Su,PH 09:00-18:30","public_transport":"ticket_office","shop":"ticket"}},{"type":"node","id":1818863013,"lat":52.5218427,"lon":13.4104558,"tags":{"amenity":"vending_machine","brand":"Deutsche Bahn","brand:wikidata":"Q9322","brand:wikipedia":"de:Deutsche Bahn","indoor":"yes","name":"Deutsche Bahn","official_name":"Deutsche Bahn AG","operator":"DB Vertrieb GmbH","operator:wikidata":"Q1152124","operator:wikipedia":"de:DB Vertrieb","payment:coins":"yes","payment:notes":"yes","short_name":"DB","vending":"public_transport_tickets"}},{"type":"node","id":2776837338,"lat":52.5215584,"lon":13.4109383,"tags":{"level":"0"}},{"type":"node","id":2776837346,"lat":52.521637,"lon":13.4108169,"tags":{"level":"1"}},{"type":"node","id":2776837351,"lat":52.5216593,"lon":13.4111058,"tags":{"level":"0"}},{"type":"node","id":2776837354,"lat":52.5216719,"lon":13.4111275,"tags":{"level":"0"}},{"type":"node","id":2776837360,"lat":52.5217372,"lon":13.4109843,"tags":{"level":"1"}},{"type":"node","id":2776837363,"lat":52.5217498,"lon":13.4110061,"tags":{"level":"1"}},{"type":"node","id":2776837370,"lat":52.521772,"lon":13.4105834,"tags":{"level":"1"}},{"type":"node","id":2776837372,"lat":52.5217847,"lon":13.4106047,"tags":{"level":"1"}},{"type":"node","id":2776837381,"lat":52.5218493,"lon":13.4104595,"tags":{"level":"0"}},{"type":"node","id":2776837383,"lat":52.5218619,"lon":13.4104808,"tags":{"level":"0"}},{"type":"node","id":2776837384,"lat":52.5218609,"lon":13.4104621,"tags":{"level":"0"}},{"type":"node","id":2776837390,"lat":52.5218783,"lon":13.4107612,"tags":{"level":"1"}},{"type":"node","id":2776837392,"lat":52.5218914,"lon":13.4107834,"tags":{"level":"1"}},{"type":"node","id":2776837398,"lat":52.5219556,"lon":13.4106376,"tags":{"level":"0"}},{"type":"node","id":2776837401,"lat":52.5219688,"lon":13.4106598,"tags":{"level":"0"}},{"type":"node","id":2831092401,"lat":52.5219007,"lon":13.411262,"tags":{"railway":"railway_crossing","railway:railway_crossing:movable_frog":"no"}},{"type":"node","id":3126570829,"lat":52.5215809,"lon":13.4110723,"tags":{"comment":"Der Buchbestand scheint tats\u00e4chlich etwas mehr zu sein als die Reihen mit den Zeitschriften, auch wenn es insgesamt genau so viel ist wie in der \"Buchhandlung\" (laut Website) im Bahnhof Friedrichstra\u00dfe, wo reihenweise Presse rum liegt","email":"ludwig-berlin-163600@ugde.com","level":"0","name":"Ludwig","opening_hours":"Mo-Fr 07:00-21:30, Sa 06:00-21:30, Su 07:00-21:30; PH 07:00-21:30","operator":"Unternehmensgruppe Dr. Eckert GmbH","phone":"+49 30 24657112","shop":"books"}},{"type":"node","id":3733305314,"lat":52.5220409,"lon":13.4107718,"tags":{"entrance":"yes","entrance_marker:s-train":"yes","public_transport":"entrance","wheelchair":"yes"}},{"type":"node","id":3908141014,"lat":52.5215661,"lon":13.4112804,"tags":{"contact:website":"http:\/\/www.s-bahn-berlin.de\/fahrplanundnetz\/bahnhof\/alexanderplatz\/26","internet_access":"wlan","light_rail":"yes","name":"Alexanderplatz","network":"Verkehrsverbund Berlin-Brandenburg","network:short":"VBB","official_name":"Berlin Alexanderplatz S-Bahn","operator":"DB Netz AG","public_transport":"station","railway":"station","railway:ref":"BALX","railway:station_category":"3","station":"light_rail","toilets:wheelchair":"yes","uic_ref":"8089001","wheelchair":"yes","wikidata":"Q698497","wikipedia":"de:Bahnhof Berlin Alexanderplatz"}},{"type":"node","id":4388989115,"lat":52.5215565,"lon":13.4111016,"tags":{"check_date":"2023-07-21","information":"office","level":"0","name":"DB Information","tourism":"information"}},{"type":"node","id":4863934103,"lat":52.5221791,"lon":13.4102568,"tags":{"amenity":"grit_bin","level":"1","seasonal":"winter"}},{"type":"node","id":5511600372,"lat":52.521761,"lon":13.4109429,"tags":{"addr:city":"Berlin","addr:country":"DE","addr:housenumber":"121","addr:place":"Stadtbahnbogen","addr:postcode":"10179","addr:suburb":"Mitte","de:strassenschluessel":"11000000000009138","source":"Geoportal Berlin: RBS-Adressen"}},{"type":"node","id":5511605599,"lat":52.5219617,"lon":13.4106296,"tags":{"addr:city":"Berlin","addr:country":"DE","addr:housenumber":"122","addr:place":"Stadtbahnbogen","addr:postcode":"10179","addr:suburb":"Mitte","de:strassenschluessel":"11000000000009138","source":"Geoportal Berlin: RBS-Adressen"}},{"type":"node","id":5988176441,"lat":52.5215675,"lon":13.4109238,"tags":{"cuisine":"coffee_shop","delivery":"no","level":"1","name":"Cuccis","opening_hours":"Mo-Su 05:00-22:00","operator":"Scoom GmbH","payment:cash":"yes","payment:credit_cards":"yes","payment:mastercard":"yes","payment:visa":"yes","shop":"kiosk","surveillance":"public"}},{"type":"node","id":6058172602,"lat":52.5221414,"lon":13.4110244,"tags":{"natural":"tree"}},{"type":"node","id":6058172603,"lat":52.5220245,"lon":13.4112186,"tags":{"natural":"tree"}},{"type":"node","id":7355082579,"lat":52.5220504,"lon":13.4109528,"tags":{"amenity":"bicycle_rental","bicycle_rental":"docking_station","capacity":"13","contact:phone":"+49 30 12086364","contact:website":"https:\/\/www.nextbike.de\/","covered":"no","fee":"yes","network":"nextbike Berlin","operator":"nextbike GmbH","ref":"1239","ref_name":"S+U Alexanderplatz (Dircksenstra\u00dfe)"}},{"type":"node","id":7355127399,"lat":52.5216989,"lon":13.4104115,"tags":{"amenity":"bicycle_parking","bicycle_parking":"stands","capacity":"2","check_date:capacity":"2024-07-06","covered":"no"}},{"type":"node","id":7355132604,"lat":52.5217187,"lon":13.4103782,"tags":{"amenity":"bicycle_parking","bicycle_parking":"stands","capacity":"2","check_date:capacity":"2024-07-06","covered":"no"}},{"type":"node","id":7355133289,"lat":52.5217605,"lon":13.4103144,"tags":{"amenity":"bicycle_parking","bicycle_parking":"stands","capacity":"2","check_date:capacity":"2024-07-06","covered":"no"}},{"type":"node","id":7355134947,"lat":52.5218012,"lon":13.4102509,"tags":{"amenity":"bicycle_parking","bicycle_parking":"stands","capacity":"2","check_date:capacity":"2024-07-06","covered":"no"}},{"type":"node","id":7355148894,"lat":52.5217859,"lon":13.4112884,"tags":{"amenity":"bicycle_parking","bicycle_parking":"stands","capacity":"10","covered":"no"}},{"type":"node","id":7355149843,"lat":52.521781,"lon":13.4102805,"tags":{"amenity":"bicycle_parking","bicycle_parking":"stands","capacity":"2","covered":"no"}},{"type":"node","id":7355152390,"lat":52.52174,"lon":13.4103455,"tags":{"amenity":"bicycle_parking","bicycle_parking":"stands","capacity":"2","check_date:capacity":"2024-07-06","covered":"no"}},{"type":"node","id":7952812614,"lat":52.5220942,"lon":13.4105561,"tags":{"operator":"DB Netz AG","railway":"signal","railway:signal:combined":"DE-ESO:ks","railway:signal:combined:deactivated":"no","railway:signal:combined:form":"light","railway:signal:combined:function":"block","railway:signal:combined:height":"normal","railway:signal:combined:shortened":"no","railway:signal:combined:states":"DE-ESO:hp0;DE-ESO:ks1;DE-ESO:ks2","railway:signal:combined:substitute_signal":"DE-ESO:db:zs12;DE-ESO:db:zs7;DE-ESO:dr:zs1","railway:signal:departure":"DE-ESO:zp","railway:signal:departure:deactivated":"no","railway:signal:departure:form":"light","railway:signal:departure:states":"DE-ESO:zp9;DE-ESO:zp10","railway:signal:direction":"forward","railway:signal:position":"left","railway:signal:speed_limit":"DE-ESO:zs3","railway:signal:speed_limit:deactivated":"no","railway:signal:speed_limit:form":"light","railway:signal:speed_limit:height":"normal","railway:signal:speed_limit:speed":"50;off","railway:signal:speed_limit_distant":"DE-ESO:zs3v","railway:signal:speed_limit_distant:deactivated":"no","railway:signal:speed_limit_distant:form":"light","railway:signal:speed_limit_distant:height":"normal","railway:signal:speed_limit_distant:speed":"40;50;off","railway:signal:traversable":"DE-ESO:mastschild_rot-weiss","railway:signal:traversable:type":"written_default_speed;dictated_default_speed","ref":"63"}},{"type":"node","id":7952812615,"lat":52.5220239,"lon":13.4104282,"tags":{"operator":"DB Netz AG","railway":"signal","railway:signal:departure":"DE-ESO:zp","railway:signal:departure:deactivated":"no","railway:signal:departure:form":"light","railway:signal:departure:states":"DE-ESO:zp9;DE-ESO:zp10","railway:signal:direction":"backward","railway:signal:main":"DE-ESO:ks","railway:signal:main:deactivated":"no","railway:signal:main:form":"light","railway:signal:main:function":"block","railway:signal:main:height":"normal","railway:signal:main:states":"DE-ESO:hp0;DE-ESO:ks1","railway:signal:main:substitute_signal":"DE-ESO:dr:zs1","railway:signal:position":"left","railway:signal:traversable":"DE-ESO:mastschild_rot-weiss","railway:signal:traversable:type":"written_default_speed;dictated_default_speed","ref":"61"}},{"type":"node","id":9659133123,"lat":52.5216017,"lon":13.4103805,"tags":{"railway:electricity":"joint","railway:electricity:jumpering":"possible","railway:electricity:ref":"104 VS 4","source":"survey"}},{"type":"node","id":9659133124,"lat":52.5216251,"lon":13.4104135,"tags":{"railway:electricity":"joint","railway:electricity:jumpering":"possible","railway:electricity:ref":"104 VS 4","source":"survey"}},{"type":"node","id":9687727242,"lat":52.5219886,"lon":13.4102663,"tags":{"highway":"street_lamp"}},{"type":"node","id":9891723340,"lat":52.5221112,"lon":13.4108977,"tags":{"railway":"tram_crossing"}},{"type":"node","id":10149034978,"lat":52.521575,"lon":13.4107859,"tags":{"amenity":"fast_food","check_date":"2024-12-01","cuisine":"asian","indoor_seating":"yes","level":"0","name":"\u0103n\u0103n","opening_hours":"08:00-23:00","outdoor_seating":"no"}},{"type":"node","id":10168352208,"lat":52.5219245,"lon":13.4106368,"tags":{"brand":"VITALIA Reformhaus","brand:wikidata":"Q2528558","check_date":"2022-11-08","level":"0","name":"VITALIA Reformhaus","opening_hours":"Mo-Fr 08:00-20:00; Sa 11:00-19:00; Su,PH off","shop":"health_food","wheelchair":"yes"}},{"type":"node","id":10168352209,"lat":52.5219875,"lon":13.4107549,"tags":{"amenity":"fast_food","check_date":"2023-03-18","cuisine":"salad;burrito","diet:vegan":"yes","diet:vegetarian":"yes","indoor_seating":"yes","level":"0","name":"Eat Culture","opening_hours":"08:00-20:00","outdoor_seating":"yes","wheelchair":"yes"}},{"type":"node","id":10168385160,"lat":52.5217378,"lon":13.4109126,"tags":{"amenity":"money_transfer","brand":"Ria","brand:wikidata":"Q18643673","check_date":"2022-11-08","level":"0","name":"Ria","opening_hours":"Oct-May Mo-Fr 08:00-20:30; Jun-Sep Mo-Fr 08:00-21:00; Sa 09:00-19:30; Su, PH 10:00-18:00","wheelchair":"yes"}},{"type":"node","id":10168385161,"lat":52.5216835,"lon":13.4112582,"tags":{"alt_name":"Dunkin' Donuts","amenity":"fast_food","brand":"Dunkin'","brand:wikidata":"Q847743","check_date":"2023-03-18","cuisine":"donut;coffee_shop","diet:vegetarian":"yes","indoor_seating":"yes","level":"0","name":"Dunkin'","opening_hours":"Mo-Th 06:00-23:00; Fr 06:00-24:00; Sa 07:00-24:00; Su,PH 07:00-23:00","outdoor_seating":"yes","takeaway":"yes","wheelchair":"yes"}},{"type":"node","id":11427300520,"lat":52.5220058,"lon":13.4104569,"tags":{"railway":"signal","railway:signal:direction":"backward","railway:signal:position":"right","railway:signal:stop":"DE-ESO:ne5","railway:signal:stop:form":"sign","railway:signal:stop:height":"dwarf"}},{"type":"node","id":11427300521,"lat":52.5220733,"lon":13.4105947,"tags":{"operator":"DB InfraGO AG","railway":"signal","railway:signal:direction":"forward","railway:signal:position":"right","railway:signal:stop":"DE-ESO:ne5","railway:signal:stop:deactivated":"no","railway:signal:stop:form":"sign","railway:signal:stop:height":"dwarf"}},{"type":"node","id":11427300522,"lat":52.5219232,"lon":13.410588,"tags":{"railway":"signal","railway:signal:direction":"backward","railway:signal:position":"right","railway:signal:stop":"DE-ESO:ne5","railway:signal:stop:caption":"Kurzzug","railway:signal:stop:form":"sign","railway:signal:stop:height":"dwarf"}},{"type":"node","id":11427300523,"lat":52.5219937,"lon":13.4107212,"tags":{"railway":"signal","railway:signal:direction":"backward","railway:signal:position":"right","railway:signal:stop":"DE-ESO:ne5","railway:signal:stop:caption":"Kurzzug","railway:signal:stop:form":"sign","railway:signal:stop:height":"dwarf"}},{"type":"node","id":12041296458,"lat":52.5219315,"lon":13.4110499,"tags":{"colour":"grey","height":"1.7","man_made":"street_cabinet","operator":"BVG Bl EA34","ref":"Weiche 398","source":"survey","street_cabinet":"train_control"}},{"type":"node","id":12041296459,"lat":52.5222198,"lon":13.4108755,"tags":{"amenity":"waste_basket","colour":"orange","covered":"no","indoor":"no","material":"steel","operator":"BSR","waste":"cigarettes;dog_excrement;trash"}},{"type":"node","id":12041296460,"lat":52.5221299,"lon":13.4107182,"tags":{"amenity":"waste_basket","colour":"orange","covered":"no","indoor":"no","material":"steel","operator":"BSR","waste":"cigarettes;dog_excrement;trash"}},{"type":"node","id":12041296461,"lat":52.5221831,"lon":13.4106358,"tags":{"access":"yes","addr:floor":"0","amenity":"bicycle_parking","bicycle_parking":"stands","capacity":"8","covered":"no","fee":"no","indoor":"no","level":"0","operator:type":"public","source":"survey"}},{"type":"node","id":12041296462,"lat":52.522224,"lon":13.4105623,"tags":{"access":"yes","addr:floor":"0","amenity":"bicycle_parking","bicycle_parking":"stands","capacity":"8","covered":"no","fee":"no","indoor":"no","level":"0","operator:type":"public","source":"survey"}},{"type":"node","id":12041296463,"lat":52.5221639,"lon":13.4105506,"tags":{"access":"yes","addr:floor":"0","amenity":"bicycle_parking","bicycle_parking":"stands","capacity":"10","covered":"no","fee":"no","indoor":"no","level":"0","operator:type":"public","source":"survey"}}]}