{"version":0.6,"generator":"Overpass API 0.7.62.5 1bd436f1","osm3s":{"timestamp_osm_base":"2025-03-12T11:26:02Z","copyright":"The data included in this document is from www.openstreetmap.org. The data is made available under ODbL."},"elements":[{"type":"node","id":89274635,"lat":52.5232377,"lon":13.4157495,"tags":{"addr:city":"Berlin","addr:housenumber":"5","addr:postcode":"10178","addr:street":"Alexanderstra\u00dfe","amenity":"bank","atm":"yes","atm:network":"Cash Group","brand":"Deutsche Bank","brand:wikidata":"Q66048","brand:wikipedia":"en:Deutsche Bank","check_date":"2024-06-11","check_date:opening_hours":"2022-09-13","contact:phone":"+49 30 34070","level":"0","name":"Deutsche Bank","opening_hours":"Mo-Tu 10:00-18:00; We 10:00-16:00; Th 10:00-18:00; Fr 10:00-14:00; Sa,Su,PH off","operator":"Deutsche Bank","wheelchair":"yes"}},{"type":"node","id":340847737,"lat":52.5234346,"lon":13.4152097,"tags":{"man_made":"surveillance","surveillance":"indoor"}},{"type":"node","id":3248235685,"lat":52.5233235,"lon":13.4154229,"tags":{"addr:city":"Berlin","addr:country":"DE","addr:housenumber":"5","addr:postcode":"10178","addr:street":"Alexanderstra\u00dfe","addr:suburb":"Mitte","source":"Geoportal Berlin \/ Hauskoordinaten"}},{"type":"node","id":3907105049,"lat":52.5229447,"lon":13.4148268,"tags":{"bus":"yes","local_ref":"9","name":"U Alexanderplatz","name:BVG":"U Alexanderplatz [Bus]","name:ja":"U\u30a2\u30ec\u30af\u30b5\u30f3\u30c0\u30fc\u5e83\u5834","public_transport":"stop_position","ref:BVG":"107154","website":"https:\/\/qr.bvg.de\/h107154"}},{"type":"node","id":4389211794,"lat":52.5234171,"lon":13.4152761,"tags":{"check_date":"2025-01-06","shop":"vacant"}},{"type":"node","id":4786640254,"lat":52.5235113,"lon":13.4150485,"tags":{"check_date":"2025-01-06","shop":"vacant"}},{"type":"node","id":7355152319,"lat":52.5232241,"lon":13.4154023,"tags":{"amenity":"bicycle_parking","bicycle_parking":"stands","capacity":"10","check_date:capacity":"2024-06-19","covered":"no"}},{"type":"node","id":7945557730,"lat":52.5230334,"lon":13.4149435,"tags":{"highway":"street_lamp","lamp_mount":"straight_mast","light:count":"2","support":"pole"}},{"type":"node","id":10892289375,"lat":52.523322,"lon":13.4147423,"tags":{"denotation":"urban","leaf_cycle":"deciduous","leaf_type":"broadleaved","natural":"tree"}},{"type":"node","id":10892289376,"lat":52.5232383,"lon":13.4149178,"tags":{"denotation":"urban","leaf_cycle":"deciduous","leaf_type":"broadleaved","natural":"tree"}},{"type":"node","id":10892289377,"lat":52.5232056,"lon":13.4150015,"tags":{"denotation":"urban","leaf_cycle":"deciduous","leaf_type":"broadleaved","natural":"tree"}},{"type":"node","id":10892289378,"lat":52.5231613,"lon":13.4150862,"tags":{"denotation":"urban","leaf_cycle":"deciduous","leaf_type":"broadleaved","natural":"tree"}},{"type":"node","id":10892289379,"lat":52.5230481,"lon":13.4153596,"tags":{"denotation":"urban","leaf_cycle":"deciduous","leaf_type":"broadleaved","natural":"tree"}},{"type":"node","id":11908888446,"lat":52.5229175,"lon":13.4151568,"tags":{"leaf_type":"broadleaved","natural":"tree"}},{"type":"node","id":11908888447,"lat":52.522991,"lon":13.4150043,"tags":{"leaf_type":"broadleaved","natural":"tree"}},{"type":"node","id":11908888448,"lat":52.5230491,"lon":13.4148752,"tags":{"leaf_type":"broadleaved","natural":"tree"}},{"type":"node","id":11908888449,"lat":52.5231144,"lon":13.414731,"tags":{"leaf_type":"broadleaved","natural":"tree"}},{"type":"node","id":12057880692,"lat":52.5231819,"lon":13.4147505,"tags":{"amenity":"shelter","shelter":"yes","shelter_type":"public_transport"}},{"type":"node","id":12057880693,"lat":52.5231325,"lon":13.4146945,"tags":{"man_made":"street_cabinet"}},{"type":"node","id":12057880695,"lat":52.5230123,"lon":13.4149089,"tags":{"man_made":"manhole","manhole":"drain"}},{"type":"node","id":12057880696,"lat":52.5229169,"lon":13.4147899,"tags":{"man_made":"manhole","manhole":"drain"}},{"type":"node","id":12057880703,"lat":52.5229318,"lon":13.414724,"tags":{"leaf_type":"broadleaved","natural":"tree"}},{"type":"node","id":12311574603,"lat":52.523049,"lon":13.415561,"tags":{"man_made":"manhole"}}]}