{"version":0.6,"generator":"Overpass API 0.7.62.5 1bd436f1","osm3s":{"timestamp_osm_base":"2025-03-12T11:31:09Z","copyright":"The data included in this document is from www.openstreetmap.org. The data is made available under ODbL."},"elements":[{"type":"node","id":78252235,"lat":52.5240976,"lon":13.4088283,"tags":{"addr:city":"Berlin","addr:country":"DE","addr:housenumber":"5","addr:postcode":"10178","addr:street":"M\u00fcnzstra\u00dfe","addr:suburb":"Mitte","check_date":"2024-07-01","name":"Vintage Revivals","opening_hours":"Mo-Sa 11:00-19:00","second_hand":"only","shop":"clothes","website":"https:\/\/www.vintagerevivals.de","wheelchair":"no"}},{"type":"node","id":429739905,"lat":52.5241701,"lon":13.4085463,"tags":{"addr:city":"Berlin","addr:country":"DE","addr:housenumber":"7","addr:postcode":"10178","addr:street":"M\u00fcnzstra\u00dfe","addr:suburb":"Mitte"}},{"type":"node","id":429739919,"lat":52.5242417,"lon":13.4083271,"tags":{"addr:city":"Berlin","addr:country":"DE","addr:housenumber":"11a","addr:postcode":"10178","addr:street":"M\u00fcnzstra\u00dfe","addr:suburb":"Mitte"}},{"type":"node","id":736787873,"lat":52.5235982,"lon":13.4091105,"tags":{"addr:city":"Berlin","addr:country":"DE","addr:housenumber":"5","addr:postcode":"10178","addr:street":"Rosa-Luxemburg-Stra\u00dfe","addr:suburb":"Mitte"}},{"type":"node","id":4405527120,"lat":52.5242636,"lon":13.4083185,"tags":{"addr:city":"Berlin","addr:country":"DE","addr:housenumber":"11a","addr:postcode":"10178","addr:street":"M\u00fcnzstra\u00dfe","addr:suburb":"Mitte","brand":"Carhartt","brand:wikidata":"Q527877","brand:wikipedia":"en:Carhartt","check_date":"2024-07-01","name":"Asia Ava","opening_hours":"Mo-Fr 12:00-19:00; Sa 12:00-18:00","shop":"clothes","wheelchair":"no"}},{"type":"node","id":4405527121,"lat":52.5242121,"lon":13.4084886,"tags":{"addr:city":"Berlin","addr:country":"DE","addr:housenumber":"7","addr:postcode":"10178","addr:street":"M\u00fcnzstra\u00dfe","addr:suburb":"Mitte","brand:wikidata":"Q1658018","check_date":"2024-07-01","name":"Mads N\u00f8rgaard Copenhagen","opening_hours":"Mo-Sa 11:00-19:00","shop":"clothes","wheelchair":"no"}},{"type":"node","id":5221413618,"lat":52.5241323,"lon":13.4086974,"tags":{"addr:city":"Berlin","addr:country":"DE","addr:housenumber":"5","addr:postcode":"10178","addr:street":"M\u00fcnzstra\u00dfe","addr:suburb":"Mitte","check_date":"2024-07-01","contact:website":"http:\/\/www.ic-berlin.de","name":"ic! Berlin","opening_hours":"Mo-Sa 11:00-19:00","payment:credit_cards":"yes","payment:debit_cards":"yes","payment:mastercard":"yes","payment:visa":"yes","shop":"optician","wheelchair":"no"}},{"type":"node","id":6795457143,"lat":52.5240246,"lon":13.4090951,"tags":{"addr:city":"Berlin","addr:country":"DE","addr:housenumber":"3","addr:postcode":"10178","addr:street":"M\u00fcnzstra\u00dfe","addr:suburb":"Mitte","check_date":"2024-07-01","cuisine":"asian","diet:vegetarian":"yes","disused:amenity":"fast_food","indoor_seating":"yes","level":"0","name":"Com Viet"}},{"type":"node","id":9687705202,"lat":52.5242601,"lon":13.4088642,"tags":{"highway":"street_lamp"}},{"type":"node","id":9829191572,"lat":52.5242447,"lon":13.4089597,"tags":{"crossing":"unmarked","crossing:markings":"no","highway":"crossing","tactile_paving":"no"}},{"type":"node","id":10761261486,"lat":52.5242076,"lon":13.4088485,"tags":{"crossing":"unmarked","crossing:island":"no","crossing:markings":"no","highway":"crossing","tactile_paving":"no"}},{"type":"node","id":10761261487,"lat":52.5241552,"lon":13.4090075,"tags":{"crossing":"unmarked","crossing:island":"no","crossing:markings":"no","highway":"crossing","tactile_paving":"no"}},{"type":"node","id":10761261488,"lat":52.5241984,"lon":13.4090435,"tags":{"amenity":"waste_basket","colour":"orange","covered":"no","indoor":"no","material":"steel","operator":"BSR","source":"survey","waste":"cigarettes;dog_excrement;trash"}},{"type":"node","id":10761261495,"lat":52.5241259,"lon":13.4088915,"tags":{"highway":"street_lamp"}},{"type":"node","id":10761261496,"lat":52.5241564,"lon":13.4086596,"tags":{"barrier":"gate","maxwidth:physical":"2"}},{"type":"node","id":11012756286,"lat":52.5242348,"lon":13.4083787,"tags":{"addr:housenumber":"11a","addr:street":"M\u00fcnzstra\u00dfe","air_conditioning":"yes","check_date":"2025-01-18","email":"berlin@colorfulstandard.com","level":"0","name":"Colorful Standard","opening_hours":"Mo-Sa 11:00-20:00","organic":"only","payment:cash":"yes","payment:credit_cards":"yes","payment:debit_cards":"yes","phone":"+49 30 23283639","shop":"clothes","website":"https:\/\/colorfulstandard.com\/de\/pages\/flagship-store-berlin","wheelchair":"no"}},{"type":"node","id":11226531937,"lat":52.5240481,"lon":13.4087115,"tags":{"addr:housenumber":"5","addr:postcode":"10178","addr:street":"M\u00fcnzstra\u00dfe","amenity":"doctors","healthcare":"doctor","healthcare:speciality":"ophthalmology","name":"Dagmar Steinbr\u00fcck","phone":"030 2476981"}},{"type":"node","id":12041299974,"lat":52.5240786,"lon":13.409053,"tags":{"addr:floor":"0","addr:housenumber":"3","addr:street":"M\u00fcnzstra\u00dfe","amenity":"vending_machine","check_date":"2024-07-08","covered":"no","currency:EUR":"yes","indoor":"no","level":"0","opening_hours":"24\/7","operator":"Bezirksamt Mitte","payment:app":"yes","payment:cash":"yes","payment:credit_cards":"yes","payment:debit_cards":"yes","ref":"29-566","source":"survey","vending":"parking_tickets"}},{"type":"node","id":12041299977,"lat":52.5241183,"lon":13.4089287,"tags":{"man_made":"manhole","manhole":"drain"}},{"type":"node","id":12072258431,"lat":52.5241865,"lon":13.4090943,"tags":{"colour":"grey","man_made":"street_cabinet"}},{"type":"node","id":12072258435,"lat":52.5242476,"lon":13.4089051,"tags":{"man_made":"manhole","manhole":"drain"}}]}