{"version":0.6,"generator":"Overpass API 0.7.62.5 1bd436f1","osm3s":{"timestamp_osm_base":"2025-03-12T11:27:05Z","copyright":"The data included in this document is from www.openstreetmap.org. The data is made available under ODbL."},"elements":[{"type":"node","id":30731504,"lat":52.522162,"lon":13.4094496,"tags":{"railway":"tram_crossing"}},{"type":"node","id":89274697,"lat":52.521847,"lon":13.4098188,"tags":{"addr:city":"Berlin","addr:city:fa":"\u0628\u0631\u0644\u06cc\u0646","addr:country":"DE","addr:housenumber":"1","addr:postcode":"10178","addr:street":"Panoramastra\u00dfe","addr:suburb":"Mitte","amenity":"pharmacy","contact:phone":"+49 30 24720707","contact:website":"http:\/\/www.panoramaapotheke.de\/","dispensing":"yes","drive_through":"no","healthcare":"pharmacy","name":"Panorama Apotheke","opening_hours":"Mo-Fr 08:00-20:00; Sa 08:30-18:00","wheelchair":"no"}},{"type":"node","id":2134323787,"lat":52.5221768,"lon":13.4101647,"tags":{"fixme":"Hier kann eigentlich kein Zs 3v sein, weil am folgenden Signal 56 kein Zs 3 vorhanden ist. Evtl. Zs 2v?","operator":"DB Netz AG","railway":"signal","railway:signal:combined":"DE-ESO:ks","railway:signal:combined:form":"light","railway:signal:combined:function":"block","railway:signal:combined:height":"normal","railway:signal:combined:states":"DE-ESO:hp0;DE-ESO:ks1;DE-ESO:ks2","railway:signal:combined:substitute_signal":"DE-ESO:db:zs12;DE-ESO:dr:zs1","railway:signal:direction":"forward","railway:signal:position":"bridge","railway:signal:speed_limit_distant":"DE-ESO:zs3v","railway:signal:speed_limit_distant:deactivated":"no","railway:signal:speed_limit_distant:form":"light","railway:signal:speed_limit_distant:height":"normal","railway:signal:speed_limit_distant:speed":"?;off","railway:signal:traversable":"DE-ESO:mastschild_rot-weiss","railway:signal:traversable:type":"written_default_speed;dictated_default_speed","ref":"60"}},{"type":"node","id":2694711505,"lat":52.5217395,"lon":13.4097403,"tags":{"addr:city":"Berlin","addr:country":"DE","addr:housenumber":"1","addr:postcode":"10178","addr:street":"Panoramastra\u00dfe","addr:suburb":"Mitte","entrance":"yes","name":"Aufgang A"}},{"type":"node","id":2831092402,"lat":52.5222082,"lon":13.4092028,"tags":{"railway":"railway_crossing"}},{"type":"node","id":6447810050,"lat":52.5222254,"lon":13.4095786,"tags":{"button_operated":"yes","crossing":"traffic_signals","crossing:island":"yes","highway":"crossing","tactile_paving":"yes","traffic_signals:sound":"yes","traffic_signals:vibration":"yes"}},{"type":"node","id":7355126872,"lat":52.5219196,"lon":13.4100553,"tags":{"amenity":"bicycle_parking","bicycle_parking":"stands","capacity":"2","check_date:capacity":"2024-07-06","covered":"no"}},{"type":"node","id":7355134948,"lat":52.5220797,"lon":13.4095465,"tags":{"amenity":"bicycle_parking","bicycle_parking":"stands","capacity":"42","covered":"no"}},{"type":"node","id":7355146010,"lat":52.5219084,"lon":13.4100793,"tags":{"amenity":"bicycle_parking","bicycle_parking":"stands","capacity":"2","check_date:capacity":"2024-07-06","covered":"no"}},{"type":"node","id":7355146798,"lat":52.5218682,"lon":13.4101447,"tags":{"amenity":"bicycle_parking","bicycle_parking":"stands","capacity":"2","check_date:capacity":"2024-07-06","covered":"no"}},{"type":"node","id":7355147656,"lat":52.5219333,"lon":13.4100367,"tags":{"amenity":"bicycle_parking","bicycle_parking":"stands","capacity":"2","check_date:capacity":"2024-07-06","covered":"no"}},{"type":"node","id":7355147686,"lat":52.5218899,"lon":13.4101131,"tags":{"amenity":"bicycle_parking","bicycle_parking":"stands","capacity":"2","check_date:capacity":"2024-07-06","covered":"no"}},{"type":"node","id":9687727239,"lat":52.5221897,"lon":13.4099208,"tags":{"highway":"street_lamp"}},{"type":"node","id":9687727240,"lat":52.522141,"lon":13.4100089,"tags":{"highway":"street_lamp"}},{"type":"node","id":9687727241,"lat":52.5220962,"lon":13.4100836,"tags":{"highway":"street_lamp"}},{"type":"node","id":9687727251,"lat":52.5220856,"lon":13.4092366,"tags":{"highway":"street_lamp"}},{"type":"node","id":9891678215,"lat":52.5221865,"lon":13.4094949,"tags":{"railway":"tram_crossing"}},{"type":"node","id":10183133113,"lat":52.5221476,"lon":13.4094142,"tags":{"barrier":"kerb","kerb":"lowered","tactile_paving":"yes"}},{"type":"node","id":11236075600,"lat":52.5222293,"lon":13.409515,"tags":{"barrier":"kerb","kerb":"lowered","tactile_paving":"yes"}},{"type":"node","id":11236075604,"lat":52.5221956,"lon":13.4095118,"tags":{"barrier":"kerb","kerb":"lowered","tactile_paving":"yes"}},{"type":"node","id":11236075605,"lat":52.5222199,"lon":13.4095514,"tags":{"barrier":"kerb","kerb":"lowered","tactile_paving":"yes"}},{"type":"node","id":12044798934,"lat":52.5218558,"lon":13.4101695,"tags":{"amenity":"waste_basket","colour":"orange","covered":"no","indoor":"no","material":"steel","operator":"BsR","source":"survey","waste":"cigarettes;dog_excrement;trash"}},{"type":"node","id":12175194448,"lat":52.5216737,"lon":13.4099982,"tags":{"amenity":"cafe","brand":"Coffee Fellows","brand:wikidata":"Q23461429","check_date":"2024-11-12","check_date:opening_hours":"2024-11-12","cuisine":"coffee_shop","name":"Coffee Fellows","opening_hours":"Mo-Th 08:00-20:00; Fr,Sa 08:00-21:00; Su,PH 09:00-20:00","outdoor_seating":"yes","takeaway":"yes"}},{"type":"node","id":12292191742,"lat":52.522066,"lon":13.4096831,"tags":{"power":"catenary_mast"}}]}