{"version":0.6,"generator":"Overpass API 0.7.62.5 1bd436f1","osm3s":{"timestamp_osm_base":"2025-03-12T11:26:02Z","copyright":"The data included in this document is from www.openstreetmap.org. The data is made available under ODbL."},"elements":[{"type":"node","id":1275468905,"lat":52.52324,"lon":13.4136776,"tags":{"button_operated":"yes","crossing":"traffic_signals","crossing:island":"no","highway":"crossing","mapillary":"311290573724868","survey:date":"2017-12-05","tactile_paving":"yes","traffic_signals:sound":"yes","traffic_signals:vibration":"yes","wheelchair":"yes"}},{"type":"node","id":1275468907,"lat":52.5233904,"lon":13.4138665,"tags":{"button_operated":"yes","crossing":"traffic_signals","crossing:island":"no","highway":"crossing","tactile_paving":"yes","traffic_signals:sound":"yes","traffic_signals:vibration":"yes"}},{"type":"node","id":4389211800,"lat":52.5232153,"lon":13.414525,"tags":{"addr:floor":"0","bench":"yes","bin":"yes","bus":"yes","highway":"bus_stop","level":"0","lit":"yes","local_ref":"9","name":"Alexanderplatz","network":"Flixbus","network:wikidata":"Q15712258","operator":"Flixbus","public_transport":"platform","ref":"9","route_ref":"Flixbus 002, 031, 054, 057, 065, 070, 125, 170, 270, 348, 370, 1385, N13, N44, N70, N232, N1385","shelter":"no","source":"survey","survey:date":"2016-09-07","tactile_paving":"no"}},{"type":"node","id":5397577489,"lat":52.5232649,"lon":13.4136243,"tags":{"highway":"traffic_signals"}},{"type":"node","id":5397577490,"lat":52.523367,"lon":13.4139171,"tags":{"highway":"traffic_signals"}},{"type":"node","id":6350571574,"lat":52.5234632,"lon":13.4139578,"tags":{"barrier":"kerb","kerb":"lowered","tactile_paving":"yes"}},{"type":"node","id":6828410667,"lat":52.5231357,"lon":13.414418,"tags":{"bus":"yes","name":"Alexanderplatz","operator":"Flixbus","public_transport":"stop_position","route_ref":"Flixbus 002, 031, 054, 057, 065, 070, 125, 170, 270, 348, 1385, N13, N44, N70, N232, N1385"}},{"type":"node","id":7355123407,"lat":52.5235571,"lon":13.4145962,"tags":{"amenity":"bicycle_parking","bicycle_parking":"stands","capacity":"6","covered":"no"}},{"type":"node","id":7945557727,"lat":52.5234137,"lon":13.4141036,"tags":{"highway":"street_lamp","lamp_mount":"straight_mast","light:count":"2","support":"pole"}},{"type":"node","id":10892289369,"lat":52.52355,"lon":13.414195,"tags":{"denotation":"urban","leaf_cycle":"deciduous","leaf_type":"broadleaved","natural":"tree"}},{"type":"node","id":10892289370,"lat":52.5235146,"lon":13.4142964,"tags":{"denotation":"urban","leaf_cycle":"deciduous","leaf_type":"broadleaved","natural":"tree"}},{"type":"node","id":10892289371,"lat":52.5234776,"lon":13.4143716,"tags":{"denotation":"urban","leaf_cycle":"deciduous","leaf_type":"broadleaved","natural":"tree"}},{"type":"node","id":10892289372,"lat":52.52343,"lon":13.4144562,"tags":{"denotation":"urban","leaf_cycle":"deciduous","leaf_type":"broadleaved","natural":"tree"}},{"type":"node","id":10892289373,"lat":52.5233936,"lon":13.4145449,"tags":{"denotation":"urban","leaf_cycle":"deciduous","leaf_type":"broadleaved","natural":"tree"}},{"type":"node","id":10892289374,"lat":52.5233639,"lon":13.4146357,"tags":{"denotation":"urban","leaf_cycle":"deciduous","leaf_type":"broadleaved","natural":"tree"}},{"type":"node","id":11236062319,"lat":52.5233621,"lon":13.4138309,"tags":{"barrier":"kerb","kerb":"lowered","tactile_paving":"yes"}},{"type":"node","id":11236062320,"lat":52.5232784,"lon":13.4137258,"tags":{"barrier":"kerb","kerb":"lowered","tactile_paving":"yes"}},{"type":"node","id":11908888450,"lat":52.5231746,"lon":13.4145969,"tags":{"leaf_type":"broadleaved","natural":"tree"}},{"type":"node","id":11908888457,"lat":52.523248,"lon":13.4144477,"tags":{"leaf_type":"broadleaved","natural":"tree"}},{"type":"node","id":11908888458,"lat":52.5233102,"lon":13.4143035,"tags":{"leaf_type":"broadleaved","natural":"tree"}},{"type":"node","id":11908888459,"lat":52.5233765,"lon":13.4141678,"tags":{"leaf_type":"broadleaved","natural":"tree"}},{"type":"node","id":11908888460,"lat":52.5234336,"lon":13.4140404,"tags":{"leaf_type":"broadleaved","natural":"tree"}},{"type":"node","id":11908888461,"lat":52.523503,"lon":13.4139012,"tags":{"leaf_type":"broadleaved","natural":"tree"}},{"type":"node","id":11908888462,"lat":52.5235705,"lon":13.4137545,"tags":{"leaf_type":"broadleaved","natural":"tree"}},{"type":"node","id":11908893975,"lat":52.5231283,"lon":13.4136608,"tags":{"denotation":"avenue","leaf_cycle":"deciduous","leaf_type":"broadleaved","natural":"tree"}},{"type":"node","id":11908893976,"lat":52.5230648,"lon":13.4137933,"tags":{"denotation":"avenue","leaf_cycle":"deciduous","leaf_type":"broadleaved","natural":"tree"}},{"type":"node","id":11908893977,"lat":52.5229988,"lon":13.4139356,"tags":{"denotation":"avenue","leaf_cycle":"deciduous","leaf_type":"broadleaved","natural":"tree"}},{"type":"node","id":11908893978,"lat":52.5229353,"lon":13.414071,"tags":{"denotation":"avenue","leaf_cycle":"deciduous","leaf_type":"broadleaved","natural":"tree"}},{"type":"node","id":12057880688,"lat":52.5234086,"lon":13.4141023,"tags":{"highway":"street_lamp"}},{"type":"node","id":12057880689,"lat":52.5234086,"lon":13.4141023,"tags":{"amenity":"waste_basket","colour":"orange","covered":"no","indoor":"no","material":"steel","operator":"BSR","waste":"cigarettes;dog_excrement;trash"}},{"type":"node","id":12057880690,"lat":52.5234036,"lon":13.4142858,"tags":{"access":"yes","addr:floor":"0","amenity":"bench","backrest":"yes","direction":"217","level":"0","material":"wood","seats":"3","source":"survey"}},{"type":"node","id":12057880691,"lat":52.5232421,"lon":13.4146233,"tags":{"amenity":"shelter","shelter":"yes","shelter_type":"public_transport"}},{"type":"node","id":12057880694,"lat":52.5231522,"lon":13.4146073,"tags":{"man_made":"manhole","manhole":"drain"}},{"type":"node","id":12057880697,"lat":52.5230575,"lon":13.4144887,"tags":{"man_made":"manhole","manhole":"drain"}},{"type":"node","id":12057880698,"lat":52.5232217,"lon":13.4145222,"tags":{"highway":"street_lamp","lamp_mount":"straight_mast","light:count":"2","support":"pole"}},{"type":"node","id":12057880699,"lat":52.5232177,"lon":13.4145189,"tags":{"amenity":"waste_basket","colour":"orange","covered":"no","indoor":"no","material":"steel","operator":"BSR","source":"survey","waste":"cigarettes;dog_excrement;trash"}},{"type":"node","id":12057880700,"lat":52.5229703,"lon":13.4143733,"tags":{"man_made":"manhole","manhole":"drain"}},{"type":"node","id":12057880704,"lat":52.5229976,"lon":13.4145845,"tags":{"leaf_type":"broadleaved","natural":"tree"}},{"type":"node","id":12057880705,"lat":52.5230639,"lon":13.4144488,"tags":{"leaf_type":"broadleaved","natural":"tree"}},{"type":"node","id":12057880706,"lat":52.5231248,"lon":13.4142907,"tags":{"leaf_type":"broadleaved","natural":"tree"}},{"type":"node","id":12057880707,"lat":52.5230583,"lon":13.4142226,"tags":{"leaf_type":"broadleaved","natural":"tree"}},{"type":"node","id":12057880708,"lat":52.5229932,"lon":13.4143781,"tags":{"leaf_type":"broadleaved","natural":"tree"}},{"type":"node","id":12057880730,"lat":52.52292,"lon":13.4145106,"tags":{"leaf_type":"broadleaved","natural":"tree"}}]}