{"version":0.6,"generator":"Overpass API 0.7.62.5 1bd436f1","osm3s":{"timestamp_osm_base":"2025-03-12T11:27:05Z","copyright":"The data included in this document is from www.openstreetmap.org. The data is made available under ODbL."},"elements":[{"type":"node","id":89274888,"lat":52.519834,"lon":13.4111159,"tags":{"addr:city":"Berlin","addr:housenumber":"5","addr:postcode":"10178","addr:street":"Rathausstra\u00dfe","amenity":"pharmacy","check_date":"2023-03-10","dispensing":"yes","healthcare":"pharmacy","level":"0","name":"Bezirksapotheke am Roten Rathaus","opening_hours":"Mo-Fr 09:00-19:30; Sa 10:00-19:00","operator":"BEZIRKSapotheke","phone":"+49 30 27 58 30 83","website":"https:\/\/www.bezirksapotheke.de\/amrotenrathaus\/","wheelchair":"yes"}},{"type":"node","id":89274938,"lat":52.5195321,"lon":13.4103508,"tags":{"amenity":"cafe","brand":"Segafredo","brand:wikidata":"Q21282762","check_date:opening_hours":"2023-06-10","cuisine":"coffee_shop","indoor_seating":"yes","level":"0","name":"Segafredo","outdoor_seating":"yes","smoking":"outside","takeaway":"yes"}},{"type":"node","id":298352344,"lat":52.5199279,"lon":13.4106211,"tags":{"railway":"switch","railway:turnout_side":"right"}},{"type":"node","id":322662307,"lat":52.5197913,"lon":13.410713,"tags":{"addr:city":"Berlin","addr:country":"DE","addr:housenumber":"7","addr:postcode":"10178","addr:street":"Rathausstra\u00dfe","addr:suburb":"Mitte"}},{"type":"node","id":322662308,"lat":52.5197185,"lon":13.4105608,"tags":{"addr:city":"Berlin","addr:country":"DE","addr:housenumber":"9","addr:postcode":"10178","addr:street":"Rathausstra\u00dfe","addr:suburb":"Mitte"}},{"type":"node","id":1552581959,"lat":52.5198373,"lon":13.4105314,"tags":{"addr:city":"Berlin","addr:country":"DE","addr:housenumber":"79","addr:postcode":"10178","addr:street":"Rathausstra\u00dfe","addr:suburb":"Mitte"}},{"type":"node","id":3340890774,"lat":52.5196849,"lon":13.4106391,"tags":{"addr:city":"Berlin","addr:country":"DE","addr:housenumber":"5","addr:postcode":"10178","addr:street":"Rathausstra\u00dfe","addr:suburb":"Mitte","brand":"Lush","brand:wikidata":"Q1585448","brand:wikipedia":"en:Lush (company)","check_date:opening_hours":"2024-10-26","level":"0","name":"Lush","opening_hours":"Mo-Sa 10:00-20:00","operator":"Lush GmbH","shop":"cosmetics","wheelchair":"yes"}},{"type":"node","id":3831132304,"lat":52.5198277,"lon":13.4109934,"tags":{"addr:city":"Berlin","addr:country":"DE","addr:housenumber":"7","addr:postcode":"10178","addr:street":"Rathausstra\u00dfe","addr:suburb":"Mitte","amenity":"dentist","contact:phone":"+49 30 2403090","healthcare":"dentist","level":"1","name":"Zahn\u00e4rzte am Alex","opening_hours":"Mo-Th 08:00-20:00; Fr 08:00-14:00","wheelchair":"limited"}},{"type":"node","id":3930117757,"lat":52.5196341,"lon":13.4111595,"tags":{"addr:city":"Berlin","addr:housenumber":"5","addr:postcode":"10178","addr:street":"Rathausstra\u00dfe","air_conditioning":"yes","brand":"Decathlon","brand:wikidata":"Q509349","brand:wikipedia":"en:Decathlon (retailer)","check_date":"2024-05-26","internet_access":"wlan","level":"1","name":"Decathlon","opening_hours":"Mo-Sa 10:00-21:00","operator":"Decathlon","payment:contactless":"yes","payment:credit_cards":"yes","payment:debit_cards":"yes","payment:mastercard":"yes","payment:payback_pay":"yes","payment:visa":"yes","service:bicycle:retail":"yes","shop":"sports","wheelchair":"yes","wheelchair:description":"Zugang \u00fcber das Parkhaus 1. Ebene direkt zug\u00e4nglich."}},{"type":"node","id":4303799209,"lat":52.5195991,"lon":13.4104972,"tags":{"addr:city":"Berlin","addr:housenumber":"5","addr:postcode":"10178","addr:street":"Rathausstra\u00dfe","brand":"liberty woman","brand:wikidata":"Q17577339","check_date:opening_hours":"2024-10-26","clothes":"women","level":"0","name":"liberty woman","opening_hours:signed":"no","shop":"clothes","wheelchair":"yes"}},{"type":"node","id":4303831893,"lat":52.5199935,"lon":13.4112992,"tags":{"addr:city":"Berlin","addr:housenumber":"5","addr:postcode":"10178","addr:street":"Rathausstra\u00dfe","brand":"Ulla Popken","brand:wikidata":"Q2475146","clothes":"oversize","level":"0","name":"Ulla Popken","opening_hours":"Mo-Sa 10:00-18:00","shop":"clothes","wheelchair":"yes"}},{"type":"node","id":4625226255,"lat":52.519693,"lon":13.4107408,"tags":{"amenity":"atm","brand":"Berliner Volksbank","brand:wikidata":"Q821855","brand:wikipedia":"de:Berliner Volksbank","cash_in":"no","name":"Berliner Volksbank","operator":"Berliner Volksbank","operator:wikidata":"Q821855","operator:wikipedia":"de:Berliner Volksbank","wheelchair":"yes"}},{"type":"node","id":5446414944,"lat":52.5201968,"lon":13.4103578,"tags":{"denotation":"urban","leaf_cycle":"deciduous","leaf_type":"broadleaved","natural":"tree"}},{"type":"node","id":5792474338,"lat":52.5199322,"lon":13.4111573,"tags":{"access":"customers","amenity":"toilets","check_date":"2023-10-28","level":"1","operator":"Decathlon","toilets:disposal":"flush"}},{"type":"node","id":6494918323,"lat":52.5198815,"lon":13.4104517,"tags":{"railway":"switch","railway:turnout_side":"right"}},{"type":"node","id":6494918324,"lat":52.5200272,"lon":13.4108477,"tags":{"railway":"switch","railway:turnout_side":"right"}},{"type":"node","id":6494918327,"lat":52.5201785,"lon":13.4108219,"tags":{"railway":"switch","railway:turnout_side":"right"}},{"type":"node","id":9759486959,"lat":52.5198814,"lon":13.4107235,"tags":{"emergency":"fire_hydrant","fire_hydrant:diameter":"300","fire_hydrant:position":"sidewalk","fire_hydrant:type":"underground"}},{"type":"node","id":11045325244,"lat":52.5195651,"lon":13.4104214,"tags":{"check_date:opening_hours":"2024-10-26","level":"0","name":"Aktivschuh Markt","opening_hours":"Mo-Sa 10:00-20:00","shop":"shoes"}},{"type":"node","id":12568305672,"lat":52.5199467,"lon":13.4111348,"tags":{"name":"Best of Berlin","shop":"gift"}},{"type":"node","id":12568310205,"lat":52.5199709,"lon":13.4112027,"tags":{"amenity":"ice_cream","level":"0","name":"Softinis"}},{"type":"node","id":12568332283,"lat":52.5195697,"lon":13.4110743,"tags":{"female":"yes","male":"yes","shop":"hairdresser"}},{"type":"node","id":12568335639,"lat":52.519624,"lon":13.4111957,"tags":{"shop":"vacant"}}]}