{"version":0.6,"generator":"Overpass API 0.7.62.5 1bd436f1","osm3s":{"timestamp_osm_base":"2025-03-12T11:25:00Z","copyright":"The data included in this document is from www.openstreetmap.org. The data is made available under ODbL."},"elements":[{"type":"node","id":270719334,"lat":52.5232829,"lon":13.4108295,"tags":{"bus":"yes","gtfs:stop_id":"de:11000:900100031::1","local_ref":"3","name":"S+U Alexanderplatz\/Memhardstra\u00dfe","public_transport":"stop_position","ref:BVG":"106736","source":"survey","website":"https:\/\/qr.bvg.de\/h106736"}},{"type":"node","id":270727260,"lat":52.5229131,"lon":13.410248,"tags":{"bus":"yes","gtfs:stop_id":"de:11000:900100031::3","name":"S+U Alexanderplatz\/Memhardstra\u00dfe","public_transport":"stop_position","ref:BVG":"107177","source":"survey","website":"https:\/\/fahrinfo.vbb.de\/bin\/stboard.exe\/dn?start=yes&input=900100031"}},{"type":"node","id":1552565056,"lat":52.5235701,"lon":13.4104934,"tags":{"addr:city":"Berlin","addr:country":"DE","addr:housenumber":"1","addr:postcode":"10178","addr:street":"Memhardstra\u00dfe","addr:suburb":"Mitte"}},{"type":"node","id":1615531695,"lat":52.5229253,"lon":13.4104189,"tags":{"railway":"switch","railway:local_operated":"yes","railway:switch":"default","railway:switch:electric":"yes","railway:switch:movable_frog":"no","railway:switch:resetting":"no","railway:turnout_side":"left","ref":"113","source":"survey"}},{"type":"node","id":1828018014,"lat":52.5232008,"lon":13.4110363,"tags":{"crossing":"unmarked","crossing:markings":"no","highway":"crossing","tactile_paving":"incorrect"}},{"type":"node","id":1828018031,"lat":52.5232378,"lon":13.4109728,"tags":{"crossing":"traffic_signals","railway":"tram_crossing","tactile_paving":"yes"}},{"type":"node","id":1828018034,"lat":52.5232562,"lon":13.4109414,"tags":{"crossing":"traffic_signals","railway":"tram_crossing","tactile_paving":"yes"}},{"type":"node","id":1828018040,"lat":52.5233036,"lon":13.4108603,"tags":{"crossing":"unmarked","crossing:markings":"no","highway":"crossing","tactile_paving":"yes"}},{"type":"node","id":1840333892,"lat":52.5233439,"lon":13.4110773,"tags":{"gtfs:stop_id":"de:11000:900100030::5","local_ref":"4","name":"S+U Alexanderplatz\/Memhardstra\u00dfe","name:BVG":"S+U Alexanderplatz\/Memhardstra\u00dfe [4-5]","public_transport":"stop_position","railway":"tram_stop","ref":"4","ref:BVG":"308815","tram":"yes","website":"https:\/\/qr.bvg.de\/h308815","wheelchair":"yes"}},{"type":"node","id":1898343315,"lat":52.523345,"lon":13.4105983,"tags":{"addr:city":"Berlin","addr:country":"DE","addr:housenumber":"21","addr:postcode":"10178","addr:street":"Karl-Liebknecht-Stra\u00dfe","addr:suburb":"Mitte","check_date":"2024-07-01","check_date:opening_hours":"2024-04-29","contact:website":"http:\/\/saidrubaii.com","female:signed":"no","male:signed":"no","name":"Said Rubaii","opening_hours":"Tu-Fr 09:00-20:00; Sa 09:00-17:00; Mo,Su,PH off","shop":"hairdresser","wheelchair":"yes","wheelchair:description":"Laden ist vollstaendig rollstuhlgerecht erreichbar und befahrbar."}},{"type":"node","id":2095738506,"lat":52.5234049,"lon":13.4109156,"tags":{"railway":"buffer_stop"}},{"type":"node","id":2516757233,"lat":52.5235438,"lon":13.4109587,"tags":{"addr:city":"Berlin","addr:country":"DE","addr:housenumber":"23","addr:postcode":"10178","addr:street":"Karl-Liebknecht-Stra\u00dfe","addr:suburb":"Mitte"}},{"type":"node","id":2840691679,"lat":52.5231878,"lon":13.4103337,"tags":{"addr:city":"Berlin","addr:country":"DE","addr:housenumber":"19","addr:postcode":"10178","addr:street":"Karl-Liebknecht-Stra\u00dfe","addr:suburb":"Mitte","source":"Geoportal Berlin \/ Hauskoordinaten"}},{"type":"node","id":2840691687,"lat":52.523296,"lon":13.4105071,"tags":{"addr:city":"Berlin","addr:country":"DE","addr:housenumber":"21","addr:postcode":"10178","addr:street":"Karl-Liebknecht-Stra\u00dfe","addr:suburb":"Mitte","source":"Geoportal Berlin \/ Hauskoordinaten"}},{"type":"node","id":2840691689,"lat":52.5234056,"lon":13.4106825,"tags":{"addr:city":"Berlin","addr:country":"DE","addr:housenumber":"23","addr:postcode":"10178","addr:street":"Karl-Liebknecht-Stra\u00dfe","addr:suburb":"Mitte","source":"Geoportal Berlin \/ Hauskoordinaten"}},{"type":"node","id":4752552106,"lat":52.5234571,"lon":13.4107782,"tags":{"addr:city":"Berlin","addr:housenumber":"23","addr:postcode":"10178","addr:street":"Karl-Liebknecht-Stra\u00dfe","check_date":"2024-07-01","name":"Anjoy Pastry","opening_hours":"Mo-Sa 12:00-19:00; Su off","payment:credit_cards":"yes","payment:debit_cards":"yes","shop":"pastry","wheelchair":"limited"}},{"type":"node","id":4996018639,"lat":52.5232571,"lon":13.4104531,"tags":{"addr:city":"Berlin","addr:country":"DE","addr:housenumber":"21","addr:postcode":"10178","addr:street":"Karl-Liebknecht-Stra\u00dfe","addr:suburb":"Mitte","check_date:opening_hours":"2024-12-13","name":"Hookah Island","opening_hours:signed":"no","shop":"tobacco"}},{"type":"node","id":5907113489,"lat":52.5230433,"lon":13.4104523,"tags":{"bus":"yes","gtfs:stop_id":"de:11000:900100031::3","local_ref":"2","name":"S+U Alexanderplatz\/Memhardstra\u00dfe","public_transport":"stop_position","ref:BVG":"107174","website":"https:\/\/qr.bvg.de\/h107174"}},{"type":"node","id":5907113490,"lat":52.5230633,"lon":13.410324,"tags":{"bench":"no","bin":"no","bus":"yes","highway":"bus_stop","lit":"no","local_ref":"3","name":"S+U Alexanderplatz\/Memhardstra\u00dfe","public_transport":"platform","ref":"3","shelter":"no","tactile_paving":"no"}},{"type":"node","id":5907113491,"lat":52.5234062,"lon":13.4108624,"tags":{"bench":"no","bin":"yes","bus":"yes","highway":"bus_stop","lit":"no","name":"S+U Alexanderplatz\/Memhardstra\u00dfe","public_transport":"platform","shelter":"no","tactile_paving":"yes"}},{"type":"node","id":7945396923,"lat":52.5235257,"lon":13.4112784,"tags":{"highway":"street_lamp"}},{"type":"node","id":7945396924,"lat":52.5234417,"lon":13.4111473,"tags":{"highway":"street_lamp"}},{"type":"node","id":7945396925,"lat":52.5233375,"lon":13.4109796,"tags":{"highway":"street_lamp"}},{"type":"node","id":7945396926,"lat":52.5232405,"lon":13.4112904,"tags":{"advertising":"column","check_date":"2024-11-02"}},{"type":"node","id":7945396927,"lat":52.5231689,"lon":13.4111643,"tags":{"highway":"street_lamp"}},{"type":"node","id":7959991697,"lat":52.5233441,"lon":13.4107909,"tags":{"barrier":"kerb","kerb":"lowered","tactile_paving":"yes"}},{"type":"node","id":7959991698,"lat":52.5232114,"lon":13.4110179,"tags":{"barrier":"kerb","kerb":"lowered","tactile_paving":"yes"}},{"type":"node","id":11114074873,"lat":52.5235283,"lon":13.4106234,"tags":{"addr:floor":"0","addr:housenumber":"1","addr:street":"Memhardstra\u00dfe","check_date":"2024-08-04","contact:whatsapp":"+4917622167078","currency:EUR":"yes","internet_access":"wlan","internet_access:fee":"no","internet_access:ssid":"Schleudertraum Gast","level":"0","name":"Schleudertraum","opening_hours":"06:00-22:00","operator":"Schleudertraum","payment:coins":"yes","payment:credit_cards":"yes","payment:debit_cards":"yes","payment:mastercard":"yes","payment:notes":"yes","payment:visa":"yes","self_service":"yes","shop":"laundry","source":"survey","toilets":"no","website":"https:\/\/schleudertraum.de\/mitte\/","wheelchair":"limited"}},{"type":"node","id":11236075593,"lat":52.5232833,"lon":13.4108951,"tags":{"barrier":"kerb","kerb":"lowered","tactile_paving":"yes"}},{"type":"node","id":11236075594,"lat":52.5232649,"lon":13.4109264,"tags":{"barrier":"kerb","kerb":"lowered","tactile_paving":"yes"}},{"type":"node","id":11236075595,"lat":52.523229,"lon":13.4109879,"tags":{"barrier":"kerb","kerb":"lowered","tactile_paving":"yes"}},{"type":"node","id":12029120400,"lat":52.5231288,"lon":13.4102599,"tags":{"addr:housenumber":"17","addr:street":"Karl-Liebknecht-Stra\u00dfe","bicycle:type":"electric","check_date":"2024-12-13","check_date:service:bicycle:pump":"2024-12-13","name":"Lemmo","opening_hours":"Mo-Sa 11:00-19:00; Su,PH off","operator":"Hypath GmbH","service:bicycle:pump":"no","shop":"bicycle","wheelchair":"yes"}},{"type":"node","id":12610401016,"lat":52.5231732,"lon":13.4110847,"tags":{"tactile_paving":"yes"}}]}