{"version":0.6,"generator":"Overpass API 0.7.62.5 1bd436f1","osm3s":{"timestamp_osm_base":"2025-03-12T11:33:15Z","copyright":"The data included in this document is from www.openstreetmap.org. The data is made available under ODbL."},"elements":[{"type":"node","id":1479009854,"lat":52.5183372,"lon":13.4153449,"tags":{"access":"permissive","addr:city":"Berlin","addr:city:fa":"\u0628\u0631\u0644\u06cc\u0646","addr:country":"DE","addr:housenumber":"95","addr:postcode":"10178","addr:street":"Dircksenstra\u00dfe","addr:suburb":"Mitte","amenity":"restaurant","check_date:opening_hours":"2024-04-26","contact:website":"http:\/\/www.kochbox.com\/","indoor_seating":"yes","name":"Kochbox","opening_hours:signed":"no","outdoor_seating":"yes","wheelchair":"no"}},{"type":"node","id":1479009857,"lat":52.5186934,"lon":13.4151745,"tags":{"addr:city":"Berlin","addr:country":"DE","addr:housenumber":"98","addr:postcode":"10178","addr:street":"Dircksenstra\u00dfe","addr:suburb":"Mitte","check_date":"2024-04-26","disused:shop":"yes"}},{"type":"node","id":3987051063,"lat":52.5185606,"lon":13.4157467,"tags":{"level":"0","shop":"vacant"}},{"type":"node","id":3987051071,"lat":52.5187608,"lon":13.4156065,"tags":{"brand":"mister*lady","brand:wikidata":"Q18640136","brand:wikipedia":"de:Mister*lady","level":"2","name":"mister*lady","shop":"clothes","wheelchair":"yes"}},{"type":"node","id":5511604136,"lat":52.5188233,"lon":13.4149156,"tags":{"addr:city":"Berlin","addr:country":"DE","addr:housenumber":"102","addr:place":"Stadtbahnbogen","addr:postcode":"10179","addr:suburb":"Mitte","de:strassenschluessel":"11000000000009138","source":"Geoportal Berlin: RBS-Adressen"}},{"type":"node","id":5511604137,"lat":52.5187111,"lon":13.4149766,"tags":{"addr:city":"Berlin","addr:country":"DE","addr:housenumber":"101","addr:place":"Stadtbahnbogen","addr:postcode":"10179","addr:suburb":"Mitte","de:strassenschluessel":"11000000000009138","source":"Geoportal Berlin: RBS-Adressen"}},{"type":"node","id":5511604138,"lat":52.5185988,"lon":13.4150434,"tags":{"addr:city":"Berlin","addr:country":"DE","addr:housenumber":"100","addr:place":"Stadtbahnbogen","addr:postcode":"10179","addr:suburb":"Mitte","de:strassenschluessel":"11000000000009138","source":"Geoportal Berlin: RBS-Adressen"}},{"type":"node","id":5511604139,"lat":52.5185037,"lon":13.4150969,"tags":{"addr:city":"Berlin","addr:country":"DE","addr:housenumber":"099","addr:place":"Stadtbahnbogen","addr:postcode":"10179","addr:suburb":"Mitte","de:strassenschluessel":"11000000000009138","source":"Geoportal Berlin: RBS-Adressen"}},{"type":"node","id":5511604140,"lat":52.5183843,"lon":13.4151461,"tags":{"addr:city":"Berlin","addr:country":"DE","addr:housenumber":"098","addr:place":"Stadtbahnbogen","addr:postcode":"10179","addr:suburb":"Mitte","de:strassenschluessel":"11000000000009138","source":"Geoportal Berlin: RBS-Adressen"}},{"type":"node","id":5511604141,"lat":52.5182846,"lon":13.4151834,"tags":{"addr:city":"Berlin","addr:country":"DE","addr:housenumber":"097","addr:place":"Stadtbahnbogen","addr:postcode":"10179","addr:suburb":"Mitte","de:strassenschluessel":"11000000000009138","source":"Geoportal Berlin: RBS-Adressen"}},{"type":"node","id":5511604142,"lat":52.5181678,"lon":13.4152252,"tags":{"addr:city":"Berlin","addr:country":"DE","addr:housenumber":"096","addr:place":"Stadtbahnbogen","addr:postcode":"10179","addr:suburb":"Mitte","de:strassenschluessel":"11000000000009138","source":"Geoportal Berlin: RBS-Adressen"}},{"type":"node","id":5836908227,"lat":52.5181787,"lon":13.4153916,"tags":{"addr:city":"Berlin","addr:country":"DE","addr:housenumber":"94","addr:postcode":"10178","addr:street":"Dircksenstra\u00dfe","addr:suburb":"Mitte","amenity":"restaurant","check_date:opening_hours":"2024-04-26","contact:website":"http:\/\/indian-village.berlin\/","cuisine":"indian","diet:halal":"yes","name":"Indian Village","opening_hours":"Mo-Su 11:00-23:00","opening_hours:signed":"no"}},{"type":"node","id":7945564286,"lat":52.5181818,"lon":13.4155923,"tags":{"highway":"street_lamp"}},{"type":"node","id":7945564287,"lat":52.5183347,"lon":13.4153802,"tags":{"highway":"street_lamp"}},{"type":"node","id":7945564288,"lat":52.5183585,"lon":13.4155221,"tags":{"highway":"street_lamp"}},{"type":"node","id":7945564289,"lat":52.5185055,"lon":13.4153116,"tags":{"highway":"street_lamp"}},{"type":"node","id":7945564290,"lat":52.5185288,"lon":13.4154527,"tags":{"highway":"street_lamp"}},{"type":"node","id":7945564291,"lat":52.5186884,"lon":13.4152191,"tags":{"highway":"street_lamp"}},{"type":"node","id":7945564292,"lat":52.518717,"lon":13.4153586,"tags":{"highway":"street_lamp"}},{"type":"node","id":7945564293,"lat":52.5188374,"lon":13.4151242,"tags":{"highway":"street_lamp"}},{"type":"node","id":10282680110,"lat":52.5187846,"lon":13.415099,"tags":{"addr:city":"Berlin","addr:housenumber":"99","addr:postcode":"10178","addr:street":"Dircksenstra\u00dfe","brand":"Beat81","brand:wikidata":"Q129168256","check_date:opening_hours":"2023-05-23","leisure":"fitness_centre","name":"Beat81","opening_hours:signed":"no"}},{"type":"node","id":10282680209,"lat":52.5184763,"lon":13.4152782,"tags":{"addr:city":"Berlin","addr:housenumber":"97","addr:postcode":"10178","addr:street":"Dircksenstra\u00dfe","check_date":"2023-05-23","name":"Americanfood4u.de","opening_hours":"Mo-Sa 11:00-20:00; PH off","origin":"american","shop":"convenience","wheelchair":"yes"}},{"type":"node","id":10800109279,"lat":52.5187507,"lon":13.4154097,"tags":{"camera:direction":"-15","camera:mount":"wall","camera:type":"fixed","man_made":"surveillance","surveillance":"public","surveillance:type":"camera"}},{"type":"node","id":10922260039,"lat":52.5183116,"lon":13.4157397,"tags":{"amenity":"food_court","indoor_seating":"yes","level":"2","outdoor_seating":"no"}},{"type":"node","id":11427599939,"lat":52.5185831,"lon":13.4151885,"tags":{"railway":"signal","railway:signal:combined":"DE-ESO:ks","railway:signal:combined:form":"light","railway:signal:combined:function":"block","railway:signal:combined:height":"normal","railway:signal:combined:states":"DE-ESO:hp0;DE-ESO:ks1;DE-ESO:ks2","railway:signal:combined:substitute_signal":"DE-ESO:db:zs12;DE-ESO:dr:zs1","railway:signal:direction":"forward","railway:signal:position":"right","railway:signal:speed_limit":"DE-ESO:zs3","railway:signal:speed_limit:form":"light","railway:signal:speed_limit:height":"normal","railway:signal:speed_limit_distant":"DE-ESO:zs3v","railway:signal:speed_limit_distant:form":"light","railway:signal:speed_limit_distant:height":"normal","railway:signal:traversable":"DE-ESO:mastschild_rot-weiss","railway:signal:traversable:type":"written_default_speed;dictated_default_speed","ref":"47"}}]}