{"version":0.6,"generator":"Overpass API 0.7.62.5 1bd436f1","osm3s":{"timestamp_osm_base":"2025-03-12T11:27:05Z","copyright":"The data included in this document is from www.openstreetmap.org. The data is made available under ODbL."},"elements":[{"type":"node","id":322490364,"lat":52.5198615,"lon":13.4147909,"tags":{"addr:city":"Berlin","addr:country":"DE","addr:housename":"MediaMarkt","addr:housenumber":"20","addr:postcode":"10179","addr:street":"Grunerstra\u00dfe","addr:suburb":"Mitte","brand":"MediaMarkt","brand:wikidata":"Q2381223","brand:wikipedia":"en:Media Markt","contact:phone":"+49 30 2408840","internet_access":"wlan","level":"0","name":"MediaMarkt","opening_hours":"Mo-Sa 10:00-20:00","shop":"electronics","website":"https:\/\/www.mediamarkt.de\/de\/store\/berlin-mitte-190","wheelchair":"yes"}},{"type":"node","id":1814747561,"lat":52.5197869,"lon":13.4156335,"tags":{"addr:city":"Berlin","addr:housenumber":"20","addr:postcode":"10179","addr:street":"Grunerstra\u00dfe","brand":"Fielmann","brand:wikidata":"Q457822","brand:wikipedia":"de:Fielmann","level":"0","name":"Fielmann","opening_hours":"Mo-Sa 09:00-20:00","phone":"+49 30 27878890","shop":"optician","website":"https:\/\/www.fielmann.de\/niederlassungen\/berlin\/10179-grunerstrasse-20\/","wheelchair":"yes"}},{"type":"node","id":2938440447,"lat":52.5200454,"lon":13.4151522,"tags":{"access":"permissive","entrance":"main","name":"Haupteingang Alexanderplatz"}},{"type":"node","id":3987051075,"lat":52.5195867,"lon":13.4152257,"tags":{"amenity":"cafe","brand":"Starbucks","brand:wikidata":"Q37158","brand:wikipedia":"en:Starbucks","cuisine":"coffee_shop","diet:vegetarian":"yes","indoor_seating":"yes","level":"1","name":"Starbucks","official_name":"Starbucks Coffee","opening_hours":"Mo-Sa 09:00-20:00","outdoor_seating":"no","takeaway":"yes","wheelchair":"yes"}},{"type":"node","id":4120701560,"lat":52.5196217,"lon":13.4151183,"tags":{"amenity":"atm","brand":"Berliner Sparkasse","brand:wikidata":"Q821760","cash_in":"no","check_date":"2023-07-25","level":"2","name":"Berliner Sparkasse","operator":"Berliner Sparkasse","operator:wikidata":"Q821760","wheelchair":"yes"}},{"type":"node","id":5468991489,"lat":52.519949,"lon":13.414854,"tags":{"amenity":"atm","brand":"Euronet","brand:wikidata":"Q5412010","brand:wikipedia":"en:Euronet Worldwide","cash_in":"no","level":"0","name":"Euronet","notice":"Within Market","opening_hours":"Mo-Sa 10:00-21:00; Su 13:00-18:00","operator":"Euronet","operator:wikidata":"Q5412010","operator:wikipedia":"en:Euronet Worldwide"}},{"type":"node","id":10728646515,"lat":52.5195741,"lon":13.4146971,"tags":{"access":"no","barrier":"chain","locked":"yes"}},{"type":"node","id":10800172333,"lat":52.5201382,"lon":13.414741,"tags":{"camera:direction":"225","camera:mount":"wall","camera:type":"fixed","man_made":"surveillance","surveillance":"outdoor","surveillance:type":"camera"}},{"type":"node","id":10800172334,"lat":52.5201625,"lon":13.4147573,"tags":{"camera:direction":"95","camera:mount":"wall","camera:type":"fixed","man_made":"surveillance","surveillance":"outdoor","surveillance:type":"camera"}},{"type":"node","id":11247145906,"lat":52.5201943,"lon":13.4149796,"tags":{"artist:wikidata":"Q95296195","artist_name":"Mirko Siakkou-Flodin","artwork_type":"statue","description":"Die Alexa-Statue besteht aus einem Metallger\u00fcst, in derem Inneren ist ein Herz mit Berliner B\u00e4r zu sehen ist.","image":"https:\/\/photos.app.goo.gl\/dW8PZnUkm93GdsRS6","material":"edelstahl,_kupfer,_messing","start_date":"2007","tourism":"artwork","wikidata":"Q123360310","wikimedia_commons":"Category:Alexa sculpture (Mirko Siakkou-Flodin)"}},{"type":"node","id":12312670205,"lat":52.5196721,"lon":13.415486,"tags":{"brand":"eyes + more","brand:wikidata":"Q1385775","name":"eyes + more","shop":"optician"}}]}