{"version":0.6,"generator":"Overpass API 0.7.62.5 1bd436f1","osm3s":{"timestamp_osm_base":"2025-03-12T11:24:02Z","copyright":"The data included in this document is from www.openstreetmap.org. The data is made available under ODbL."},"elements":[{"type":"way","id":47016365,"nodes":[21432799,961807409,3893241487,12098559986,1566942204],"tags":{"cycleway:left":"no","cycleway:right":"lane","cycleway:right:lane":"advisory","cycleway:right:surface":"asphalt","dual_carriageway":"yes","foot":"use_sidepath","highway":"primary","lanes":"3","lit":"yes","maxspeed":"50","name":"Alexanderstra\u00dfe","name:etymology:wikidata":"Q15193","name:ja":"\u30a2\u30ec\u30af\u30b5\u30f3\u30c0\u30fc\u901a\u308a","old_name":"Alexanderstra\u00dfe (22.05.1819-1933);Alexanderplatz (1933-01.02.2006)","oneway":"yes","parking:both":"no","ref":"B 2;B 5","sidewalk:left":"no","sidewalk:right":"separate","smoothness":"good","source:maxspeed":"DE:urban","surface":"asphalt","wikidata":"Q17486182","zone:traffic":"DE:urban"}},{"type":"way","id":100944802,"nodes":[1273546310,7769466031,9828580265,12311574616,1166137172,12311574609,3527869958,3527869952,1166137166,12311574617,12311574602,7769466027,1166137168],"tags":{"highway":"service","lit":"yes","maxspeed":"30","name":"Alexanderstra\u00dfe","name:etymology:wikidata":"Q15193","name:ja":"\u30a2\u30ec\u30af\u30b5\u30f3\u30c0\u30fc\u901a\u308a","oneway":"yes","parking:left":"separate","parking:right":"no","sidewalk":"no","smoothness":"excellent","surface":"asphalt","wikidata":"Q17486182","wikimedia_commons":"Category:Alexanderstra\u00dfe (Berlin-Mitte)"}},{"type":"way","id":109819341,"nodes":[12437498294,12437498279,12437498282,12437498280,12437498295,3527869960,7769466026,11236453286],"tags":{"footway":"sidewalk","highway":"footway","lit":"yes","smoothness":"good","surface":"paving_stones"}},{"type":"way","id":112128423,"nodes":[2054664430,1104281016],"tags":{"foot":"no","highway":"service","incline":"down","lit":"yes","maxspeed":"30","service":"parking_aisle","sidewalk":"no","smoothness":"good","surface":"asphalt"}},{"type":"way","id":163368988,"nodes":[667465428,3101344339,3101344340,1566942145,3056826813],"tags":{"cycleway:left":"no","cycleway:right":"lane","cycleway:right:lane":"advisory","cycleway:right:surface":"asphalt","dual_carriageway":"yes","foot":"use_sidepath","highway":"primary","lanes":"3","lit":"yes","maxspeed":"50","name":"Alexanderstra\u00dfe","name:etymology:wikidata":"Q15193","name:ja":"\u30a2\u30ec\u30af\u30b5\u30f3\u30c0\u30fc\u901a\u308a","old_name":"Alexanderstra\u00dfe (22.05.1819-1933);Alexanderplatz (1933-01.02.2006)","oneway":"yes","parking:both":"no","ref":"B 2;B 5","sidewalk:left":"no","sidewalk:right":"separate","smoothness":"good","source:maxspeed":"DE:urban","surface":"asphalt","wikidata":"Q17486182","zone:traffic":"DE:urban"}},{"type":"way","id":165416921,"nodes":[1769671796,2777249239,2777249241,1769671805,1769671796],"tags":{"area":"yes","bench":"yes","bin":"yes","lit":"yes","local_ref":"11","name":"U Alexanderplatz","passenger_information_display":"yes","public_transport":"platform","railway":"platform","shelter":"yes","tactile_paving":"yes","tram":"yes","wheelchair":"no"}},{"type":"way","id":165416925,"nodes":[1769671789,2777249240,4763685857,2777249238,1769671787,1769671789],"tags":{"area":"yes","bench":"yes","bin":"yes","lit":"yes","local_ref":"12","name":"U Alexanderplatz","passenger_information_display":"yes","public_transport":"platform","railway":"platform","shelter":"yes","tactile_paving":"yes","tram":"yes","wheelchair":"no"}},{"type":"way","id":194952575,"nodes":[2054664376,2054664375,3828180016,2054664378,2054664380,2054664376],"tags":{"area:highway":"traffic_island","kerb":"yes","landuse":"grass"}},{"type":"way","id":194952577,"nodes":[2054664386,3893241474,1104281016,3893241484,2054664393,2054664385,2054664383,2054664386],"tags":{"landcover":"grass","landuse":"grass"}},{"type":"way","id":199426994,"nodes":[2094267036,5221164935,5221164934,5221164933,5221164932,5221164931,6184062892,2094267063],"tags":{"electrified":"rail","frequency":"0","gauge":"1435","layer":"-3","loading_gauge":"Gro\u00dfprofil","maxspeed":"70","operator":"Berliner Verkehrsbetriebe","railway":"subway","service":"siding","tunnel":"yes","voltage":"750"}},{"type":"way","id":202162477,"nodes":[4763685854,667465428,11236453288],"tags":{"access":"no","crossing":"traffic_signals","crossing:island":"no","crossing:markings":"dashes","footway":"crossing","highway":"footway","lit":"yes","note":"Wegen Baustelle AXL Tower gesperrt.","surface":"asphalt"}},{"type":"way","id":202162478,"nodes":[2121378261,12095104431,9122675260,12095104432,9122675259,9122675264,9122675263,12610371398,12610371382,12610371388,12610371389,12610371383,12610371384,12610371381,12610371387,2094267050,9122675268,12610371385,12610371386,12610371395,9122675266,12610371397,2348038034,2348038041,256898547,2121378261],"tags":{"check_date":"2025-02-22","construction":"commercial","landuse":"construction","name":"ALX Tower","old_name":"Covivio Tower","opening_date":"2026","operator":"Covivio","short_name":"ALX"}},{"type":"way","id":281029309,"nodes":[2850522070,1256247780,4446314261,2850522099,2850522095,2850522097,4500273998,2850520398],"tags":{"diameter":"1,5-2,5","layer":"-1","location":"underground","man_made":"pipeline","operator":"Berliner Wasserbetriebe","operator:short":"BWB","operator:wikidata":"Q821856","substance":"sewage"}},{"type":"way","id":301241480,"nodes":[8280893011,8280893010],"tags":{"highway":"cycleway","lit":"yes","smoothness":"excellent","surface":"asphalt","width":"2.6"}},{"type":"way","id":301241483,"nodes":[1566942204,967017840,1256247780,6795798241,667465427,1166137168],"tags":{"cycleway:left":"no","cycleway:right":"lane","cycleway:right:lane":"exclusive","cycleway:right:surface":"asphalt","dual_carriageway":"yes","foot":"use_sidepath","highway":"primary","lanes":"3","lit":"yes","maxspeed":"50","name":"Alexanderstra\u00dfe","name:etymology:wikidata":"Q15193","old_name":"Alexanderstra\u00dfe (22.05.1819-1933);Alexanderplatz (1933-01.02.2006)","oneway":"yes","parking:both":"no","ref":"B 2;B 5","sidewalk:left":"no","sidewalk:right":"separate","source:maxspeed":"DE:urban","surface":"asphalt","wikidata":"Q17486182","zone:traffic":"DE:urban"}},{"type":"way","id":301610520,"nodes":[3056826813,12098559985,3058268517],"tags":{"cycleway:left":"no","cycleway:right":"lane","cycleway:right:lane":"advisory","cycleway:right:surface":"asphalt","dual_carriageway":"yes","foot":"use_sidepath","highway":"primary","lanes":"3","lit":"yes","maxspeed":"50","name":"Alexanderstra\u00dfe","name:etymology:wikidata":"Q15193","name:ja":"\u30a2\u30ec\u30af\u30b5\u30f3\u30c0\u30fc\u901a\u308a","old_name":"Alexanderstra\u00dfe (22.05.1819-1933);Alexanderplatz (1933-01.02.2006)","oneway":"yes","parking:both":"no","priority_road":"designated","ref":"B 2;B 5","sidewalk:left":"no","sidewalk:right":"separate","smoothness":"good","source:maxspeed":"DE:urban","surface":"asphalt","turn:lanes":"left|through|through;right","wikidata":"Q17486182","zone:traffic":"DE:urban"}},{"type":"way","id":301733774,"nodes":[3101344340,967017840,7769466033,11582988107],"tags":{"electrified":"contact_line","frequency":"0","gauge":"1435","maxspeed":"20","operator":"Berliner Verkehrsbetriebe","railway":"tram","railway:electricity:ref":"103.02","voltage":"750"}},{"type":"way","id":301733776,"nodes":[3058268517,3058268518],"tags":{"cycleway:left":"no","cycleway:right":"lane","cycleway:right:lane":"advisory","cycleway:right:surface":"asphalt","dual_carriageway":"yes","foot":"use_sidepath","highway":"primary","lanes":"4","lit":"yes","maxspeed":"50","name":"Alexanderstra\u00dfe","name:etymology:wikidata":"Q15193","name:ja":"\u30a2\u30ec\u30af\u30b5\u30f3\u30c0\u30fc\u901a\u308a","old_name":"Alexanderstra\u00dfe (22.05.1819-1933);Alexanderplatz (1933-01.02.2006)","oneway":"yes","parking:both":"no","priority_road":"designated","ref":"B 2;B 5","sidewalk:left":"no","sidewalk:right":"separate","smoothness":"good","source:maxspeed":"DE:urban","surface":"asphalt","turn:lanes":"left|through|through|right","wikidata":"Q17486182","zone:traffic":"DE:urban"}},{"type":"way","id":305093328,"nodes":[271670135,2054664382,1752085816,667465428],"tags":{"cycleway:left":"no","cycleway:right":"lane","cycleway:right:lane":"advisory","cycleway:right:surface":"asphalt","dual_carriageway":"yes","foot":"use_sidepath","highway":"primary","lanes":"3","lit":"yes","maxspeed":"50","name":"Alexanderstra\u00dfe","name:etymology:wikidata":"Q15193","name:ja":"\u30a2\u30ec\u30af\u30b5\u30f3\u30c0\u30fc\u901a\u308a","old_name":"Alexanderstra\u00dfe (22.05.1819-1933);Alexanderplatz (1933-01.02.2006)","oneway":"yes","parking:both":"no","ref":"B 2;B 5","sidewalk:left":"no","sidewalk:right":"separate","smoothness":"good","source:maxspeed":"DE:urban","surface":"asphalt","wikidata":"Q17486182","zone:traffic":"DE:urban"}},{"type":"way","id":317013528,"nodes":[11582988110,7769466032,6795798241,3101344339,4763685853,11357387516,1633093596],"tags":{"electrified":"contact_line","frequency":"0","gauge":"1435","maxspeed":"20","operator":"Berliner Verkehrsbetriebe","railway":"tram","railway:electricity:ref":"103.02","voltage":"750"}},{"type":"way","id":346206389,"nodes":[3527851373,3527851383,4223494577,3528562105,11357387512,6714506683,4763685854],"tags":{"highway":"pedestrian","lit":"yes","noname":"yes","smoothness":"excellent","surface":"paving_stones"}},{"type":"way","id":379513108,"nodes":[3828165752,3828165728,3828165670,3828165666,3828165739,3828165669,3828165727,3828165752],"tags":{"landuse":"grass"}},{"type":"way","id":385981773,"nodes":[3893241465,3893241474,2054664386,3893241485,3893241465],"tags":{"landcover":"grass","landuse":"grass"}},{"type":"way","id":385981774,"nodes":[3893241463,3893241470,11199718123,3828165746,3828165713,3828165694,3828165724,3828165675,3828165681,3828165678,7769466028,3143315278,6350571574,3832556264,3832556290,11236060401,3832550637,3832556288,11236060398,3832550641,3893241463],"tags":{"area:highway":"footway"}},{"type":"way","id":385981775,"nodes":[3893241481,3832550625,3832556278,3832550651,2054668858,2054668832,2054668786,2054668767,11236062320,2054668747,2054668726,3893241485,2054664386,2054664383,11236453288,12098559987,2054664378,3828180016,3157297150,3828180010,3893241464,3893241467,3893241483,3893241466,3893241477,4763685854,196761842,9122675259,3893241482,3893241473,9856051673,3893241475,3893241481],"tags":{"area:highway":"primary"}},{"type":"way","id":385981776,"nodes":[3893241484,2054664393,3893241486,3893241479,3893241484],"tags":{"landcover":"grass","landuse":"grass"}},{"type":"way","id":385981777,"nodes":[3828179984,3893241487,2054664376,2054664380,12098559988,11236453287,2054664385,2054664393,3893241486,2054668761,2054668774,11236062319,2054668794,2054668820,2054668845,3832556286,3832550652,3832556264,6350571574,3143315278,11236453286,3828179984],"tags":{"area:highway":"primary"}},{"type":"way","id":387411865,"nodes":[3907105052,3907105053],"tags":{"bench":"yes","bin":"yes","bus":"yes","disused:public_transport":"platform","name":"U Alexanderplatz","passenger_information_display":"no","shelter":"yes","tactile_paving":"yes","wheelchair":"yes"}},{"type":"way","id":438860770,"nodes":[2440453156,5221164787,5221164788,2440453167,5221164789,2440453171,5221164930,2440453172,2094267058,2440453174,2094267059,2094267060,2094267057,2094267056,5221164936,2094267045,2094267035],"tags":{"electrified":"rail","electrified:rail":"bottom","frequency":"0","gauge":"1435","layer":"-2","level":"-3","loading_gauge":"Gro\u00dfprofil","maxspeed":"70","operator":"Berliner Verkehrsbetriebe","railway":"subway","tunnel":"yes","voltage":"750"}},{"type":"way","id":447533490,"nodes":[2054668761,6350571573,2054668754,6350571572,2054668740,6350571571,2054668733,6350571570,2054668719,6350571569,2054668726,2054664386,2054664393,2054668761],"tags":{"access":"yes","amenity":"parking","fee":"yes","layer":"-1","parking":"underground"}},{"type":"way","id":613955600,"nodes":[5808159689,6184062895,2094267031],"tags":{"layer":"-2","loading_gauge":"Gro\u00dfprofil","note":"U10","proposed:railway":"subway","railway":"proposed","tunnel":"yes"}},{"type":"way","id":660510099,"nodes":[6184062259,6184062264,6184062263,6184062262],"tags":{"access":"no","disused:highway":"footway","end_date":"2008","layer":"-2","lit":"no","name":"Fu\u00dfg\u00e4ngertunnel Grunerstra\u00dfe","note":"Zugangsbauwerke entfernt","smoothness":"excellent","start_date":"1969","surface":"asphalt","tunnel":"yes"}},{"type":"way","id":660510102,"nodes":[6184062891,6184062890,6184062889,6184062888,6184062887,6184062886,6184062885,6184062284,6184062283,6184062282,6184062281,6184062280,6184062279,6184062278,6184062277,6184062276,6184062275,6184062274,6184062273,6184062272,6184062271,6184062270,6184062269,6184062268,6184062891],"tags":{"layer":"-1","level":"-2","man_made":"tunnel"}},{"type":"way","id":687752788,"nodes":[2777249240,1769671789,8581758400,6795798242,1769671805,2777249241,3528562105],"tags":{"highway":"footway","lit":"yes","smoothness":"good","surface":"paving_stones"}},{"type":"way","id":700686013,"nodes":[6580029080,6580029081,6580029082,6580029083,6580029080],"tags":{"access":"yes","addr:floor":"0","amenity":"bicycle_parking","bicycle_parking":"stands","capacity":"36","check_date:capacity":"2023-11-11","covered":"no","fee":"no","indoor":"no","level":"0","lit":"yes","operator:type":"public","source":"survey"}},{"type":"way","id":700686014,"nodes":[6580029084,6580081985,6580081986,6580081987,6580029084],"tags":{"access":"yes","addr:floor":"0","amenity":"bicycle_parking","bicycle_parking":"stands","capacity":"30","check_date:capacity":"2023-11-11","covered":"no","fee":"no","indoor":"no","level":"0","lit":"yes","operator:type":"public","source":"survey"}},{"type":"way","id":728838409,"nodes":[1166137168,3907105049,6828410667],"tags":{"check_date:sidewalk":"2022-07-17","cycleway:left":"no","cycleway:right":"lane","cycleway:right:lane":"advisory","cycleway:right:surface":"asphalt","dual_carriageway":"yes","foot":"use_sidepath","highway":"primary","lanes":"3","lit":"yes","maxspeed":"50","name":"Alexanderstra\u00dfe","name:etymology:wikidata":"Q15193","name:ja":"\u30a2\u30ec\u30af\u30b5\u30f3\u30c0\u30fc\u901a\u308a","old_name":"Alexanderstra\u00dfe (22.05.1819-1933);Alexanderplatz (1933-01.02.2006)","oneway":"yes","parking:both":"no","ref":"B 2;B 5","sidewalk:left":"no","sidewalk:right":"separate","smoothness":"good","source:maxspeed":"DE:urban","surface":"asphalt","wikidata":"Q17486182","wikimedia_commons":"Category:Alexanderstra\u00dfe (Berlin-Mitte)","zone:traffic":"DE:urban"}},{"type":"way","id":755686747,"nodes":[3096724668,271670135],"tags":{"cycleway:left":"no","cycleway:right":"lane","cycleway:right:lane":"exclusive","cycleway:right:surface":"asphalt","dual_carriageway":"yes","foot":"use_sidepath","highway":"primary","lanes":"3","lit":"yes","maxspeed":"50","name":"Alexanderstra\u00dfe","name:etymology:wikidata":"Q15193","name:ja":"\u30a2\u30ec\u30af\u30b5\u30f3\u30c0\u30fc\u901a\u308a","old_name":"Alexanderstra\u00dfe (22.05.1819-1933);Alexanderplatz (1933-01.02.2006)","oneway":"yes","parking:both":"no","ref":"B 2;B 5","sidewalk:left":"no","sidewalk:right":"separate","smoothness":"good","source:maxspeed":"DE:urban","surface":"asphalt","wikidata":"Q17486182","wikimedia_commons":"Category:Alexanderstra\u00dfe (Berlin-Mitte)","zone:traffic":"DE:urban"}},{"type":"way","id":783052052,"nodes":[3733368791,3733305301,10189375738,3733305302,10969840174,4809636656,4809636661,4809636662,4809636660,3828179972,3828180021,3733305312,3828180022,3828179964,3828179970,3828179959,3733305313,3174192368,3828179998,3733305315,3828180010,12098559984,4763685850,4763685852,4763685853,4763685854,196761842,9122675259,3893241482,3893241473,9856051673,3893241475,3893241481,3832550625,3832550656,3832556273,1840326396,3832556306,3832556281,3832550655,3832556280,6714532488,3733305321,3895250058,3895250057,196761829,3733305320,3895249958,3733305318,3733305319,196763707,7312484872,7312484873,3733368796,3180211045,3733368791],"tags":{"loc_name":"Alex","name":"Alexanderplatz","name:be":"\u041f\u043b\u043e\u0448\u0447\u0430 \u0410\u043b\u044f\u043a\u0441\u0430\u043d\u0434\u0440\u0430","name:de":"Alexanderplatz","name:etymology:wikidata":"Q15193","name:ja":"\u30a2\u30ec\u30af\u30b5\u30f3\u30c0\u30fc\u5e83\u5834","name:ko":"\uc54c\ub809\uc0b0\ub354 \uad11\uc7a5","name:ru":"\u0410\u043b\u0435\u043a\u0441\u0430\u043d\u0434\u0435\u0440\u043f\u043b\u0430\u0446","name:zh":"\u4e9a\u5386\u5c71\u5927\u5e7f\u573a","place":"square","wikidata":"Q152783","wikipedia":"de:Alexanderplatz"}},{"type":"way","id":832173064,"nodes":[5403954259,9282068881,9282068882,12437504004,7769466025],"tags":{"bicycle":"designated","highway":"cycleway","lit":"yes","oneway":"no","smoothness":"good","surface":"paving_stones","traffic_sign":"DE:237","width":"3.1"}},{"type":"way","id":832173068,"nodes":[11236453284,7769466026,7769466027,7769466028,7769466029,7769466030,12311574612,7769466031,11199718124,5907961749,11236060398],"tags":{"footway":"sidewalk","highway":"footway","is_sidepath":"yes","is_sidepath:of":"primary","lit":"yes","smoothness":"good","surface":"paving_stones"}},{"type":"way","id":890972128,"nodes":[8280893010,1566942145,4763685850],"tags":{"crossing":"traffic_signals","crossing:island":"no","cycleway":"crossing","highway":"cycleway","lit":"yes","smoothness":"good","source:width":"ARCore","surface":"asphalt","tactile_paving":"no","width":"2.6"}},{"type":"way","id":890972129,"nodes":[8280893012,1566942204,8280893011],"tags":{"crossing":"traffic_signals","cycleway":"crossing","highway":"cycleway","lit":"yes","smoothness":"good","surface":"asphalt","width":"2.6"}},{"type":"way","id":890972131,"nodes":[7769466025,8280893012],"tags":{"highway":"cycleway","lit":"yes","oneway":"no","smoothness":"excellent","surface":"asphalt","width":"2.6"}},{"type":"way","id":890972132,"nodes":[3155755392,9828580269,11236453285],"tags":{"footway":"sidewalk","highway":"footway","is_sidepath":"yes","is_sidepath:of":"primary","lit":"yes","smoothness":"good","surface":"paving_stones"}},{"type":"way","id":890972133,"nodes":[11236453286,667465427],"tags":{"access":"no","bicycle":"no","crossing":"traffic_signals","crossing:island":"no","crossing:markings":"dashes","footway":"crossing","highway":"footway","lit":"yes","name":"Bernhard-Wei\u00df-Stra\u00dfe","name:etymology:wikidata":"Q64891","note":"Wegen Baustelle AXL Tower gesperrt.","surface":"asphalt","wikidata":"Q96278950"}},{"type":"way","id":890972134,"nodes":[11236453285,7769466025,7769466033,12437498297,7769466032,11236453284],"tags":{"crossing":"traffic_signals","crossing:island":"no","crossing:markings":"dashes","footway":"crossing","highway":"footway","is_sidepath":"yes","is_sidepath:of":"primary","lit":"yes","surface":"asphalt","tactile_paving":"yes"}},{"type":"way","id":1000805535,"nodes":[6184062265,6184062264],"tags":{"access":"no","disused:highway":"footway","end_date":"2008","layer":"-2","lit":"no","name":"Fu\u00dfg\u00e4ngertunnel Grunerstra\u00dfe","note":"Zugangsbauwerke entfernt","smoothness":"excellent","start_date":"1969","surface":"asphalt","tunnel":"yes"}},{"type":"way","id":1071049518,"nodes":[3527869957,9828580268,9828580269],"tags":{"footway":"sidewalk","highway":"footway","lit":"yes","smoothness":"good","surface":"paving_stones"}},{"type":"way","id":1212795005,"nodes":[11236453287,667465427],"tags":{"access":"no","crossing":"traffic_signals","crossing:island":"no","crossing:markings":"dashes","footway":"crossing","highway":"footway","lit":"yes","note":"Wegen Baustelle AXL Tower gesperrt.","surface":"asphalt"}},{"type":"way","id":1212795006,"nodes":[11236453288,11236453287],"tags":{"access":"no","footway":"traffic_island","highway":"footway","lit":"yes","note":"Wegen Baustelle AXL Tower gesperrt.","surface":"asphalt"}},{"type":"way","id":1224670636,"nodes":[11357387512,11357387516,11357387517,11357387513],"tags":{"crossing":"traffic_signals","crossing:island":"no","crossing:markings":"dashes","footway":"crossing","highway":"footway","is_sidepath":"yes","is_sidepath:of":"primary","lit":"yes","surface":"paving_stones","tactile_paving":"yes"}},{"type":"way","id":1224670637,"nodes":[11357387513,12057874636,11357387514,11357387515],"tags":{"footway":"sidewalk","highway":"footway","is_sidepath":"yes","is_sidepath:of":"primary","lit":"yes","surface":"paving_stones"}},{"type":"way","id":1245947667,"nodes":[1633093596,6795798242,2094749190,1789092673,9658783923,6795798243,11582988113],"tags":{"electrified":"contact_line","frequency":"0","gauge":"1435","maxspeed":"20","operator":"Berliner Verkehrsbetriebe","railway":"tram","railway:electricity:ref":"103.02","voltage":"750"}},{"type":"way","id":1245947669,"nodes":[11582988112,11357387517,967017883,4763685852,3101344340],"tags":{"electrified":"contact_line","frequency":"0","gauge":"1435","maxspeed":"20","operator":"Berliner Verkehrsbetriebe","railway":"tram","railway:electricity:ref":"103.02","voltage":"750"}},{"type":"way","id":1245947670,"nodes":[11582988107,11582988106],"tags":{"electrified":"contact_line","frequency":"0","gauge":"1435","maxspeed":"20","operator":"Berliner Verkehrsbetriebe","railway":"tram","railway:electricity:ref":"103.02","voltage":"750"}},{"type":"way","id":1245947674,"nodes":[6795798240,11582988110],"tags":{"electrified":"contact_line","frequency":"0","gauge":"1435","maxspeed":"20","operator":"Berliner Verkehrsbetriebe","railway":"tram","railway:electricity:ref":"103.02","voltage":"750"}},{"type":"way","id":1245947676,"nodes":[11582988114,9856051674,30731457,30731497,8581758400,11582988112],"tags":{"electrified":"contact_line","frequency":"0","gauge":"1435","maxspeed":"20","operator":"Berliner Verkehrsbetriebe","railway":"tram","railway:electricity:ref":"103.02","voltage":"750"}},{"type":"way","id":1306330467,"nodes":[9828580269,12098559986,12098559988],"tags":{"crossing":"traffic_signals","crossing:island":"yes","footway":"crossing","highway":"footway","surface":"asphalt","tactile_paving":"no","traffic_signals:sound":"no"}},{"type":"way","id":1306330468,"nodes":[12098559987,12098559985,12098559984,11357387513],"tags":{"crossing":"traffic_signals","crossing:island":"yes","footway":"crossing","highway":"footway","surface":"asphalt","tactile_paving":"no","traffic_signals:sound":"no"}},{"type":"way","id":1306330469,"nodes":[12098559988,12098559987],"tags":{"footway":"traffic_island","highway":"footway","surface":"asphalt","tactile_paving":"no"}},{"type":"way","id":1306330470,"nodes":[8793912198,12098559989,8793912199,11357387513],"tags":{"highway":"pedestrian","lit":"yes","noname":"yes","surface":"paving_stones"}},{"type":"way","id":1344403696,"nodes":[12437498283,12437498296,12437498297,1256247780],"tags":{"bicycle":"use_sidepath","check_date:smoothness":"2023-03-04","cycleway:left":"separate","emergency":"yes","highway":"service","lit":"yes","maxspeed":"30","name":"Bernhard-Wei\u00df-Stra\u00dfe","name:etymology:wikidata":"Q64891","postal_code":"10178","smoothness":"good","surface":"asphalt","traffic_sign":"DE:250,1026-33","vehicle":"no","wikidata":"Q96278950"}},{"type":"way","id":1362022529,"nodes":[256898547,12610371378,12610371393,12610371392,12610371379,12610371380,2121378254,9122675266,256898548,2348038034,2348038041,256898547],"tags":{"building":"construction","check_date":"2025-02-22","construction":"office","construction:height":"30","description":"construction progress has reached first level (elevator core at ~3 to 4) as of 22-02-2025.","height":"4","name":"ALX Tower","old_name":"Covivio Tower","opening_date":"2026","operator":"Covivio","operator:construction":"Hochtief","short_name":"ALX"}},{"type":"way","id":1362022530,"nodes":[12610371390,12610371391,12610371392,12610371393,12610371390],"tags":{"building:part":"yes","construction:height":"138","height":"12"}},{"type":"way","id":1362022539,"nodes":[2121378261,12095104431,9122675260,12095104432,9122675259,9122675264,9122675263,12610371398,12610371382,12610371388,12610371389,12610371383,12610371384,12610371381,12610371387,2094267050],"tags":{"barrier":"fence"}},{"type":"node","id":30731457,"lat":52.5219222,"lon":13.4144191},{"type":"node","id":30731497,"lat":52.5221645,"lon":13.4147332},{"type":"node","id":196761829,"lat":52.5225804,"lon":13.4103198},{"type":"node","id":196761842,"lat":52.5225452,"lon":13.4149434},{"type":"node","id":196763707,"lat":52.5222413,"lon":13.4108001},{"type":"node","id":256898547,"lat":52.522694,"lon":13.4138098},{"type":"node","id":256898548,"lat":52.5223026,"lon":13.4133338},{"type":"node","id":271670135,"lat":52.5227206,"lon":13.4147974},{"type":"node","id":667465428,"lat":52.5225841,"lon":13.415088},{"type":"node","id":967017883,"lat":52.5224616,"lon":13.4151031},{"type":"node","id":1104281016,"lat":52.5228292,"lon":13.4148325},{"type":"node","id":1166137168,"lat":52.5227698,"lon":13.4152008},{"type":"node","id":1273546310,"lat":52.5236826,"lon":13.4132378},{"type":"node","id":1633093596,"lat":52.5223915,"lon":13.4149448},{"type":"node","id":1752085816,"lat":52.5226042,"lon":13.4150453},{"type":"node","id":1769671787,"lat":52.5218868,"lon":13.414409},{"type":"node","id":1769671789,"lat":52.522323,"lon":13.4149572},{"type":"node","id":1769671796,"lat":52.5219221,"lon":13.4143197},{"type":"node","id":1769671805,"lat":52.522362,"lon":13.414868},{"type":"node","id":1789092673,"lat":52.5219449,"lon":13.4143847},{"type":"node","id":1840326396,"lat":52.5238113,"lon":13.4121814},{"type":"node","id":2054664382,"lat":52.5226451,"lon":13.4149603},{"type":"node","id":2054664383,"lat":52.5226388,"lon":13.4151054},{"type":"node","id":2054664385,"lat":52.5227223,"lon":13.4152105},{"type":"node","id":2054664386,"lat":52.5227921,"lon":13.4147852},{"type":"node","id":2054664393,"lat":52.5228721,"lon":13.4148882},{"type":"node","id":2054664430,"lat":52.5231686,"lon":13.4141131},{"type":"node","id":2054668719,"lat":52.5231989,"lon":13.4139357},{"type":"node","id":2054668726,"lat":52.5232038,"lon":13.4138815},{"type":"node","id":2054668733,"lat":52.5232097,"lon":13.4139739},{"type":"node","id":2054668740,"lat":52.5232298,"lon":13.4139998},{"type":"node","id":2054668747,"lat":52.523263,"lon":13.4137579},{"type":"node","id":2054668754,"lat":52.5232613,"lon":13.4140066},{"type":"node","id":2054668761,"lat":52.5232867,"lon":13.4139899},{"type":"node","id":2054668767,"lat":52.5232935,"lon":13.4136944},{"type":"node","id":2054668774,"lat":52.523346,"lon":13.4138648},{"type":"node","id":2054668786,"lat":52.5233563,"lon":13.4135619},{"type":"node","id":2054668794,"lat":52.5233767,"lon":13.4137999},{"type":"node","id":2054668820,"lat":52.5234392,"lon":13.4136681},{"type":"node","id":2054668832,"lat":52.5236466,"lon":13.412939},{"type":"node","id":2054668845,"lat":52.5237231,"lon":13.4130331},{"type":"node","id":2094267031,"lat":52.5218721,"lon":13.4141551},{"type":"node","id":2094267035,"lat":52.521998,"lon":13.4147283},{"type":"node","id":2094267036,"lat":52.521973,"lon":13.4150296},{"type":"node","id":2094267045,"lat":52.5220993,"lon":13.4149322},{"type":"node","id":2094267050,"lat":52.5222108,"lon":13.4131521},{"type":"node","id":2094749190,"lat":52.5220012,"lon":13.4144519},{"type":"node","id":2121378254,"lat":52.5219253,"lon":13.4140905},{"type":"node","id":2121378261,"lat":52.5227516,"lon":13.4136855},{"type":"node","id":2348038034,"lat":52.5223444,"lon":13.4133866},{"type":"node","id":2348038041,"lat":52.5226347,"lon":13.4137396},{"type":"node","id":2777249238,"lat":52.5218802,"lon":13.4144257},{"type":"node","id":2777249239,"lat":52.5219297,"lon":13.4143005},{"type":"node","id":2777249240,"lat":52.5223159,"lon":13.4149734},{"type":"node","id":2777249241,"lat":52.5223701,"lon":13.4148494},{"type":"node","id":2850522095,"lat":52.5237694,"lon":13.4115002},{"type":"node","id":3096724668,"lat":52.5228654,"lon":13.4144809},{"type":"node","id":3101344339,"lat":52.5225549,"lon":13.4151473},{"type":"node","id":3101344340,"lat":52.5225324,"lon":13.4151928},{"type":"node","id":3180211045,"lat":52.5201576,"lon":13.4136942},{"type":"node","id":3527851373,"lat":52.5220008,"lon":13.4137646},{"type":"node","id":3527851383,"lat":52.5218196,"lon":13.4140751},{"type":"node","id":3527869952,"lat":52.5233647,"lon":13.4148642},{"type":"node","id":3527869958,"lat":52.5236769,"lon":13.4141649},{"type":"node","id":3528562105,"lat":52.5223819,"lon":13.4148225},{"type":"node","id":3733305301,"lat":52.5203112,"lon":13.4141152},{"type":"node","id":3733305302,"lat":52.5206313,"lon":13.4145991},{"type":"node","id":3733305318,"lat":52.5224245,"lon":13.4105229},{"type":"node","id":3733305319,"lat":52.5223879,"lon":13.4105782},{"type":"node","id":3733305320,"lat":52.522538,"lon":13.4103564},{"type":"node","id":3733305321,"lat":52.5226549,"lon":13.4103297},{"type":"node","id":3733368791,"lat":52.5201457,"lon":13.4137686},{"type":"node","id":3733368796,"lat":52.5202085,"lon":13.413624},{"type":"node","id":3828165675,"lat":52.5232303,"lon":13.4146768},{"type":"node","id":3828165681,"lat":52.5232095,"lon":13.414726},{"type":"node","id":3828165694,"lat":52.5235502,"lon":13.4139827},{"type":"node","id":3828165713,"lat":52.5238144,"lon":13.4134212},{"type":"node","id":3828165724,"lat":52.5235299,"lon":13.4140319},{"type":"node","id":3832550625,"lat":52.52379,"lon":13.4122839},{"type":"node","id":3832550655,"lat":52.5237387,"lon":13.4120327},{"type":"node","id":3832550656,"lat":52.523803,"lon":13.4122577},{"type":"node","id":3832556273,"lat":52.52381,"lon":13.4122254},{"type":"node","id":3832556280,"lat":52.5237044,"lon":13.4119778},{"type":"node","id":3832556281,"lat":52.5237828,"lon":13.4121002},{"type":"node","id":3832556306,"lat":52.5238035,"lon":13.4121462},{"type":"node","id":3893241465,"lat":52.5230865,"lon":13.4142053},{"type":"node","id":3893241466,"lat":52.5225341,"lon":13.4150643},{"type":"node","id":3893241473,"lat":52.5231758,"lon":13.4136798},{"type":"node","id":3893241474,"lat":52.5228071,"lon":13.4148038},{"type":"node","id":3893241475,"lat":52.523224,"lon":13.4135775},{"type":"node","id":3893241477,"lat":52.5225074,"lon":13.4150261},{"type":"node","id":3893241479,"lat":52.5231407,"lon":13.4142676},{"type":"node","id":3893241481,"lat":52.5232209,"lon":13.4135066},{"type":"node","id":3893241482,"lat":52.5231375,"lon":13.413684},{"type":"node","id":3893241483,"lat":52.5224646,"lon":13.4152168},{"type":"node","id":3893241484,"lat":52.5228536,"lon":13.4148641},{"type":"node","id":3893241485,"lat":52.5230706,"lon":13.4141851},{"type":"node","id":3893241486,"lat":52.5231547,"lon":13.414286},{"type":"node","id":3895249958,"lat":52.5224947,"lon":13.4104057},{"type":"node","id":3895250057,"lat":52.5226034,"lon":13.4103102},{"type":"node","id":3895250058,"lat":52.5226278,"lon":13.4103097},{"type":"node","id":3907105049,"lat":52.5229447,"lon":13.4148268},{"type":"node","id":3907105052,"lat":52.522617,"lon":13.4146754},{"type":"node","id":3907105053,"lat":52.5226949,"lon":13.4144985},{"type":"node","id":4223494577,"lat":52.521945,"lon":13.4142618},{"type":"node","id":4446314261,"lat":52.5232866,"lon":13.4139887},{"type":"node","id":4763685850,"lat":52.5224517,"lon":13.4151463},{"type":"node","id":4763685852,"lat":52.5224679,"lon":13.4151111},{"type":"node","id":4763685853,"lat":52.5224889,"lon":13.4150652},{"type":"node","id":4763685854,"lat":52.5225169,"lon":13.415004},{"type":"node","id":4763685857,"lat":52.5221944,"lon":13.4148207},{"type":"node","id":4809636656,"lat":52.5207382,"lon":13.4147295},{"type":"node","id":4809636660,"lat":52.5211484,"lon":13.4151745},{"type":"node","id":4809636661,"lat":52.5208571,"lon":13.4148598},{"type":"node","id":4809636662,"lat":52.5210155,"lon":13.4150324},{"type":"node","id":5221164935,"lat":52.5220411,"lon":13.4151577},{"type":"node","id":5221164936,"lat":52.5221773,"lon":13.4151499},{"type":"node","id":5808159689,"lat":52.5223475,"lon":13.4149735},{"type":"node","id":6184062259,"lat":52.5220764,"lon":13.4149217},{"type":"node","id":6184062265,"lat":52.5223333,"lon":13.4151351},{"type":"node","id":6184062273,"lat":52.5223759,"lon":13.415124},{"type":"node","id":6184062274,"lat":52.522296,"lon":13.4150324},{"type":"node","id":6184062275,"lat":52.5222645,"lon":13.4151033},{"type":"node","id":6184062276,"lat":52.522294,"lon":13.4151431},{"type":"node","id":6184062277,"lat":52.522263,"lon":13.4152044},{"type":"node","id":6184062278,"lat":52.5221022,"lon":13.4148373},{"type":"node","id":6184062279,"lat":52.5220237,"lon":13.4149416},{"type":"node","id":6184062895,"lat":52.5221006,"lon":13.4146344},{"type":"node","id":6350571569,"lat":52.5231983,"lon":13.4139085},{"type":"node","id":6350571570,"lat":52.5232029,"lon":13.4139558},{"type":"node","id":6350571571,"lat":52.5232188,"lon":13.4139888},{"type":"node","id":6350571572,"lat":52.5232452,"lon":13.414007},{"type":"node","id":6350571573,"lat":52.5232753,"lon":13.4139994},{"type":"node","id":6350571574,"lat":52.5234632,"lon":13.4139578},{"type":"node","id":6580029080,"lat":52.5222022,"lon":13.4151304},{"type":"node","id":6580029083,"lat":52.5222382,"lon":13.4151825},{"type":"node","id":6580081987,"lat":52.5222563,"lon":13.4152073},{"type":"node","id":6714506683,"lat":52.5224965,"lon":13.4149766},{"type":"node","id":6714532488,"lat":52.5232601,"lon":13.4112905},{"type":"node","id":6795798242,"lat":52.522351,"lon":13.4148932},{"type":"node","id":6795798243,"lat":52.5219127,"lon":13.4143436},{"type":"node","id":6828410667,"lat":52.5231357,"lon":13.414418},{"type":"node","id":7312484872,"lat":52.5208434,"lon":13.4129143},{"type":"node","id":7312484873,"lat":52.5203532,"lon":13.4134607},{"type":"node","id":7769466029,"lat":52.5231851,"lon":13.4146681},{"type":"node","id":7769466030,"lat":52.5235122,"lon":13.4139727},{"type":"node","id":7769466031,"lat":52.5237929,"lon":13.4133639},{"type":"node","id":8581758400,"lat":52.5223305,"lon":13.41494},{"type":"node","id":8793912198,"lat":52.5217118,"lon":13.414224},{"type":"node","id":8793912199,"lat":52.5221787,"lon":13.4148514},{"type":"node","id":9122675259,"lat":52.523031,"lon":13.4139251},{"type":"node","id":9122675260,"lat":52.5229058,"lon":13.4137674},{"type":"node","id":9122675263,"lat":52.5225759,"lon":13.4149882},{"type":"node","id":9122675264,"lat":52.5230502,"lon":13.4139518},{"type":"node","id":9122675266,"lat":52.5222762,"lon":13.4133008},{"type":"node","id":9122675268,"lat":52.522128,"lon":13.4133269},{"type":"node","id":9658783923,"lat":52.5219279,"lon":13.4143629},{"type":"node","id":9856051673,"lat":52.5232003,"lon":13.4136278},{"type":"node","id":9856051674,"lat":52.521896,"lon":13.4143857},{"type":"node","id":10189375738,"lat":52.5205645,"lon":13.4145068},{"type":"node","id":10969840174,"lat":52.5206856,"lon":13.4146646},{"type":"node","id":11236062319,"lat":52.5233621,"lon":13.4138309},{"type":"node","id":11236062320,"lat":52.5232784,"lon":13.4137258},{"type":"node","id":11236453288,"lat":52.5226235,"lon":13.4151372},{"type":"node","id":11357387512,"lat":52.5224851,"lon":13.4149613},{"type":"node","id":11357387513,"lat":52.5223994,"lon":13.4151479},{"type":"node","id":11357387516,"lat":52.5224561,"lon":13.4150245},{"type":"node","id":11357387517,"lat":52.5224351,"lon":13.4150702},{"type":"node","id":11582988112,"lat":52.5223701,"lon":13.4149893},{"type":"node","id":11582988113,"lat":52.5218751,"lon":13.4142957},{"type":"node","id":11582988114,"lat":52.5218584,"lon":13.4143377},{"type":"node","id":12095104431,"lat":52.5228221,"lon":13.4137708},{"type":"node","id":12095104432,"lat":52.5229617,"lon":13.4138401},{"type":"node","id":12098559984,"lat":52.5224305,"lon":13.4151927},{"type":"node","id":12098559989,"lat":52.5220358,"lon":13.4146596},{"type":"node","id":12311574612,"lat":52.5235504,"lon":13.4138898},{"type":"node","id":12610371378,"lat":52.5228643,"lon":13.4140194},{"type":"node","id":12610371379,"lat":52.5224864,"lon":13.4148695},{"type":"node","id":12610371380,"lat":52.5220015,"lon":13.4142593},{"type":"node","id":12610371381,"lat":52.5217698,"lon":13.4139768},{"type":"node","id":12610371382,"lat":52.522336,"lon":13.4147391},{"type":"node","id":12610371383,"lat":52.5219682,"lon":13.4142732},{"type":"node","id":12610371384,"lat":52.5219106,"lon":13.4141941},{"type":"node","id":12610371385,"lat":52.5221593,"lon":13.4133674},{"type":"node","id":12610371386,"lat":52.522221,"lon":13.4132346},{"type":"node","id":12610371387,"lat":52.5221675,"lon":13.4130945},{"type":"node","id":12610371388,"lat":52.5222833,"lon":13.4146754},{"type":"node","id":12610371389,"lat":52.5222137,"lon":13.4145893},{"type":"node","id":12610371390,"lat":52.5225968,"lon":13.4139117},{"type":"node","id":12610371391,"lat":52.5223466,"lon":13.4144508},{"type":"node","id":12610371392,"lat":52.5225583,"lon":13.4147161},{"type":"node","id":12610371393,"lat":52.5228042,"lon":13.4141572},{"type":"node","id":12610371395,"lat":52.5222337,"lon":13.4132498},{"type":"node","id":12610371397,"lat":52.5223026,"lon":13.4133338},{"type":"node","id":12610371398,"lat":52.5225557,"lon":13.4150344},{"type":"node","id":21432799,"lat":52.5221923,"lon":13.4164399},{"type":"node","id":667465427,"lat":52.5227346,"lon":13.415276},{"type":"node","id":961807409,"lat":52.5222577,"lon":13.4162988},{"type":"node","id":967017840,"lat":52.5226877,"lon":13.4153766},{"type":"node","id":1166137166,"lat":52.5230897,"lon":13.4154875},{"type":"node","id":1256247780,"lat":52.5226976,"lon":13.4153553},{"type":"node","id":1566942145,"lat":52.5225163,"lon":13.4152257},{"type":"node","id":1566942204,"lat":52.5226699,"lon":13.4154146},{"type":"node","id":2054664375,"lat":52.5221528,"lon":13.4161383},{"type":"node","id":2054664376,"lat":52.5222444,"lon":13.4162357},{"type":"node","id":2054664378,"lat":52.522532,"lon":13.4153275},{"type":"node","id":2054664380,"lat":52.522622,"lon":13.4154321},{"type":"node","id":2094267056,"lat":52.5222184,"lon":13.4153177},{"type":"node","id":2094267057,"lat":52.5222454,"lon":13.4154637},{"type":"node","id":2094267058,"lat":52.5222515,"lon":13.4161675},{"type":"node","id":2094267059,"lat":52.5222715,"lon":13.4157989},{"type":"node","id":2094267060,"lat":52.5222616,"lon":13.4156074},{"type":"node","id":2094267063,"lat":52.5227737,"lon":13.4157389},{"type":"node","id":2440453156,"lat":52.5211712,"lon":13.4200448},{"type":"node","id":2440453167,"lat":52.52203,"lon":13.4171923},{"type":"node","id":2440453171,"lat":52.5220798,"lon":13.4169801},{"type":"node","id":2440453172,"lat":52.5222321,"lon":13.4163011},{"type":"node","id":2440453174,"lat":52.5222699,"lon":13.4159604},{"type":"node","id":2850522070,"lat":52.5220403,"lon":13.4168702},{"type":"node","id":3056826813,"lat":52.5224999,"lon":13.4152585},{"type":"node","id":3058268517,"lat":52.5224356,"lon":13.4153983},{"type":"node","id":3058268518,"lat":52.5222454,"lon":13.4158136},{"type":"node","id":3143315278,"lat":52.5228637,"lon":13.4152486},{"type":"node","id":3155755392,"lat":52.5223681,"lon":13.416425},{"type":"node","id":3157297150,"lat":52.5221245,"lon":13.4160726},{"type":"node","id":3174192368,"lat":52.5220339,"lon":13.4160503},{"type":"node","id":3527869957,"lat":52.5229028,"lon":13.4158798},{"type":"node","id":3527869960,"lat":52.5231137,"lon":13.4157524},{"type":"node","id":3733305312,"lat":52.5219611,"lon":13.4160657},{"type":"node","id":3733305313,"lat":52.5220233,"lon":13.4160663},{"type":"node","id":3733305315,"lat":52.5220497,"lon":13.416025},{"type":"node","id":3828165666,"lat":52.5228736,"lon":13.4157906},{"type":"node","id":3828165669,"lat":52.5225067,"lon":13.4165126},{"type":"node","id":3828165670,"lat":52.5228679,"lon":13.4157574},{"type":"node","id":3828165678,"lat":52.5229271,"lon":13.415336},{"type":"node","id":3828165727,"lat":52.5224818,"lon":13.4164917},{"type":"node","id":3828165728,"lat":52.5227745,"lon":13.4156615},{"type":"node","id":3828165739,"lat":52.5225366,"lon":13.4165186},{"type":"node","id":3828165752,"lat":52.5224201,"lon":13.4164232},{"type":"node","id":3828179959,"lat":52.5220149,"lon":13.4160737},{"type":"node","id":3828179964,"lat":52.5219888,"lon":13.4160801},{"type":"node","id":3828179970,"lat":52.522006,"lon":13.4160792},{"type":"node","id":3828179972,"lat":52.5219217,"lon":13.416022},{"type":"node","id":3828179984,"lat":52.5223473,"lon":13.4163492},{"type":"node","id":3828179998,"lat":52.5220403,"lon":13.4160437},{"type":"node","id":3828180010,"lat":52.52206,"lon":13.4160025},{"type":"node","id":3828180016,"lat":52.5221634,"lon":13.4161148},{"type":"node","id":3828180021,"lat":52.5219407,"lon":13.4160428},{"type":"node","id":3828180022,"lat":52.521974,"lon":13.4160766},{"type":"node","id":3893241464,"lat":52.5223699,"lon":13.4153268},{"type":"node","id":3893241467,"lat":52.5224319,"lon":13.4152719},{"type":"node","id":3893241487,"lat":52.5222729,"lon":13.4162671},{"type":"node","id":5221164787,"lat":52.5219258,"lon":13.4175437},{"type":"node","id":5221164788,"lat":52.5219824,"lon":13.4173584},{"type":"node","id":5221164789,"lat":52.5220573,"lon":13.417084},{"type":"node","id":5221164930,"lat":52.5221991,"lon":13.416458},{"type":"node","id":5221164931,"lat":52.5225387,"lon":13.4156361},{"type":"node","id":5221164932,"lat":52.5223681,"lon":13.4155205},{"type":"node","id":5221164933,"lat":52.5222418,"lon":13.4154134},{"type":"node","id":5221164934,"lat":52.5221462,"lon":13.4153081},{"type":"node","id":5403954259,"lat":52.5229717,"lon":13.4158383},{"type":"node","id":6184062262,"lat":52.5218091,"lon":13.4169811},{"type":"node","id":6184062263,"lat":52.5223431,"lon":13.4155302},{"type":"node","id":6184062264,"lat":52.522251,"lon":13.4153201},{"type":"node","id":6184062268,"lat":52.5221123,"lon":13.4175513},{"type":"node","id":6184062269,"lat":52.5220881,"lon":13.4176142},{"type":"node","id":6184062270,"lat":52.5218521,"lon":13.4169859},{"type":"node","id":6184062271,"lat":52.522396,"lon":13.4154999},{"type":"node","id":6184062272,"lat":52.5223028,"lon":13.4152968},{"type":"node","id":6184062280,"lat":52.5222907,"lon":13.415558},{"type":"node","id":6184062281,"lat":52.5217887,"lon":13.4169118},{"type":"node","id":6184062282,"lat":52.5215396,"lon":13.4168194},{"type":"node","id":6184062283,"lat":52.5214979,"lon":13.4169667},{"type":"node","id":6184062284,"lat":52.5215692,"lon":13.4170233},{"type":"node","id":6184062885,"lat":52.5215881,"lon":13.4169596},{"type":"node","id":6184062886,"lat":52.5217882,"lon":13.4170344},{"type":"node","id":6184062887,"lat":52.5218444,"lon":13.4171945},{"type":"node","id":6184062888,"lat":52.5220421,"lon":13.4177249},{"type":"node","id":6184062889,"lat":52.5220062,"lon":13.4178244},{"type":"node","id":6184062890,"lat":52.5220523,"lon":13.4178674},{"type":"node","id":6184062891,"lat":52.5221564,"lon":13.4176014},{"type":"node","id":6184062892,"lat":52.5226452,"lon":13.4156959},{"type":"node","id":6580029081,"lat":52.5221519,"lon":13.4152244},{"type":"node","id":6580029082,"lat":52.5221879,"lon":13.4152765},{"type":"node","id":6580029084,"lat":52.5222058,"lon":13.4152998},{"type":"node","id":6580081985,"lat":52.5222356,"lon":13.4153437},{"type":"node","id":6580081986,"lat":52.5222861,"lon":13.4152512},{"type":"node","id":6795798240,"lat":52.5234653,"lon":13.4162794},{"type":"node","id":6795798241,"lat":52.5227066,"lon":13.415336},{"type":"node","id":7769466025,"lat":52.5227761,"lon":13.4155462},{"type":"node","id":7769466026,"lat":52.5228389,"lon":13.4154107},{"type":"node","id":7769466027,"lat":52.5228744,"lon":13.4153313},{"type":"node","id":7769466028,"lat":52.5228935,"lon":13.4152897},{"type":"node","id":7769466032,"lat":52.5228123,"lon":13.4154671},{"type":"node","id":7769466033,"lat":52.5227921,"lon":13.4155112},{"type":"node","id":8280893010,"lat":52.5225605,"lon":13.4152801},{"type":"node","id":8280893011,"lat":52.5226428,"lon":13.4153813},{"type":"node","id":8280893012,"lat":52.5227208,"lon":13.4154772},{"type":"node","id":9282068881,"lat":52.522929,"lon":13.4157877},{"type":"node","id":9282068882,"lat":52.5228886,"lon":13.4156931},{"type":"node","id":9828580268,"lat":52.5228773,"lon":13.4157467},{"type":"node","id":9828580269,"lat":52.5227553,"lon":13.4155916},{"type":"node","id":11236453284,"lat":52.522824,"lon":13.4154415},{"type":"node","id":11236453285,"lat":52.5227657,"lon":13.4155689},{"type":"node","id":11236453286,"lat":52.5228079,"lon":13.4153675},{"type":"node","id":11236453287,"lat":52.5227078,"lon":13.4152425},{"type":"node","id":11357387514,"lat":52.5222227,"lon":13.4155455},{"type":"node","id":11357387515,"lat":52.5220087,"lon":13.4160224},{"type":"node","id":11582988106,"lat":52.5234301,"lon":13.4162999},{"type":"node","id":11582988107,"lat":52.5228507,"lon":13.4155852},{"type":"node","id":11582988110,"lat":52.5228723,"lon":13.4155418},{"type":"node","id":12057874636,"lat":52.5222627,"lon":13.4154554},{"type":"node","id":12098559985,"lat":52.5224942,"lon":13.415271},{"type":"node","id":12098559986,"lat":52.5226485,"lon":13.4154605},{"type":"node","id":12098559987,"lat":52.5225349,"lon":13.4153214},{"type":"node","id":12098559988,"lat":52.5226232,"lon":13.4154294},{"type":"node","id":12311574602,"lat":52.5230126,"lon":13.4155042},{"type":"node","id":12311574617,"lat":52.523047,"lon":13.4155158},{"type":"node","id":12437498279,"lat":52.5235217,"lon":13.4162191},{"type":"node","id":12437498280,"lat":52.5234918,"lon":13.4161838},{"type":"node","id":12437498282,"lat":52.5235005,"lon":13.416194},{"type":"node","id":12437498283,"lat":52.5234534,"lon":13.4163082},{"type":"node","id":12437498294,"lat":52.5236879,"lon":13.4164155},{"type":"node","id":12437498295,"lat":52.5234479,"lon":13.4161338},{"type":"node","id":12437498296,"lat":52.5234298,"lon":13.416269},{"type":"node","id":12437498297,"lat":52.5228032,"lon":13.415487},{"type":"node","id":12437504004,"lat":52.5228107,"lon":13.4155914},{"type":"node","id":2850520398,"lat":52.5248,"lon":13.4066126},{"type":"node","id":4500273998,"lat":52.5244213,"lon":13.4078165},{"type":"node","id":1166137172,"lat":52.5239166,"lon":13.4136222},{"type":"node","id":2054668858,"lat":52.5238833,"lon":13.41242},{"type":"node","id":2850522097,"lat":52.5238731,"lon":13.4095591},{"type":"node","id":2850522099,"lat":52.5239558,"lon":13.4124413},{"type":"node","id":3828165746,"lat":52.5238407,"lon":13.4133616},{"type":"node","id":3832550637,"lat":52.5241095,"lon":13.4125929},{"type":"node","id":3832550641,"lat":52.5241681,"lon":13.4126038},{"type":"node","id":3832550651,"lat":52.523888,"lon":13.4124072},{"type":"node","id":3832550652,"lat":52.5239855,"lon":13.4125821},{"type":"node","id":3832556264,"lat":52.5240594,"lon":13.4126739},{"type":"node","id":3832556278,"lat":52.5238508,"lon":13.4123613},{"type":"node","id":3832556286,"lat":52.5239571,"lon":13.4125464},{"type":"node","id":3832556288,"lat":52.5241301,"lon":13.412589},{"type":"node","id":3832556290,"lat":52.5240768,"lon":13.4126347},{"type":"node","id":3893241463,"lat":52.524166,"lon":13.4126809},{"type":"node","id":3893241470,"lat":52.5240993,"lon":13.4128106},{"type":"node","id":5907961749,"lat":52.52412,"lon":13.4126692},{"type":"node","id":9828580265,"lat":52.5239069,"lon":13.4134943},{"type":"node","id":11199718123,"lat":52.5239689,"lon":13.4130885},{"type":"node","id":11199718124,"lat":52.5239151,"lon":13.4131062},{"type":"node","id":11236060398,"lat":52.5241417,"lon":13.4125935},{"type":"node","id":11236060401,"lat":52.5240935,"lon":13.4126134},{"type":"node","id":12311574609,"lat":52.5238551,"lon":13.4137658},{"type":"node","id":12311574616,"lat":52.5239265,"lon":13.4135487}]}