{"version":0.6,"generator":"Overpass API 0.7.62.5 1bd436f1","osm3s":{"timestamp_osm_base":"2025-03-12T11:30:09Z","copyright":"The data included in this document is from www.openstreetmap.org. The data is made available under ODbL."},"elements":[{"type":"node","id":322662607,"lat":52.5191954,"lon":13.4111068,"tags":{"addr:city":"Berlin","addr:country":"DE","addr:housenumber":"5","addr:postcode":"10179","addr:street":"Grunerstra\u00dfe","addr:suburb":"Mitte"}},{"type":"node","id":437194563,"lat":52.5190506,"lon":13.4102575,"tags":{"amenity":"cafe","name":"Blixen"}},{"type":"node","id":437195224,"lat":52.5194319,"lon":13.4108241,"tags":{"addr:city":"Berlin","amenity":"fast_food","level":"0","name":"Hong Kong Express","wheelchair":"yes"}},{"type":"node","id":437609972,"lat":52.5190258,"lon":13.4109395,"tags":{"entrance":"main"}},{"type":"node","id":2840468367,"lat":52.5188693,"lon":13.4109433,"tags":{"addr:city":"Berlin","addr:country":"DE","addr:housenumber":"5","addr:postcode":"10179","addr:street":"Grunerstra\u00dfe","addr:suburb":"Mitte","source":"Geoportal Berlin \/ Hauskoordinaten"}},{"type":"node","id":2840468376,"lat":52.5189981,"lon":13.4112005,"tags":{"addr:city":"Berlin","addr:country":"DE","addr:housenumber":"7","addr:postcode":"10179","addr:street":"Grunerstra\u00dfe","addr:suburb":"Mitte","source":"Geoportal Berlin \/ Hauskoordinaten"}},{"type":"node","id":3834994582,"lat":52.5191163,"lon":13.4111573,"tags":{"addr:city":"Berlin","addr:housenumber":"7","addr:postcode":"10179","addr:street":"Grunerstra\u00dfe","brand":"KiK","brand:wikidata":"Q883965","brand:wikipedia":"de:KiK;en:KiK","level":"0","name":"KiK","opening_hours":"Mo-Sa 09:00-20:00; Mo-Sa 9:00-20:00; Su,PH off","organic":"no","second_hand":"no","shop":"clothes","wheelchair":"yes"}},{"type":"node","id":4703146491,"lat":52.5191569,"lon":13.410661,"tags":{"addr:city":"Berlin","addr:city:fa":"\u0628\u0631\u0644\u06cc\u0646","addr:housenumber":"5","addr:postcode":"10178","addr:street":"Rathausstra\u00dfe","level":"0","name":"Robin Look","opening_hours":"Mo-Fr 10:00-20:00; Sa 10:00-18:00","phone":"+49 30 24631670","shop":"optician","website":"https:\/\/www.robinlook.de\/","wheelchair":"yes"}},{"type":"node","id":5792474339,"lat":52.519226,"lon":13.4110329,"tags":{"access":"yes","amenity":"toilets","charge":"0.50\u20ac","fee":"yes","level":"0","toilets:disposal":"flush","unisex":"yes","wheelchair":"yes"}},{"type":"node","id":9580890270,"lat":52.5189872,"lon":13.4111118,"tags":{"access":"permissive","amenity":"bicycle_parking","bicycle_parking":"stands","bicycle_parking:position":"private_property","capacity":"8","covered":"partial","fee":"no"}},{"type":"node","id":9583740878,"lat":52.5190058,"lon":13.4110842,"tags":{"amenity":"waste_basket","check_date":"2022-03-16"}},{"type":"node","id":9583740879,"lat":52.5190465,"lon":13.4110302,"tags":{"amenity":"bench","backrest":"no","check_date":"2022-03-16","direction":"53;233"}},{"type":"node","id":9583740880,"lat":52.5190139,"lon":13.4110734,"tags":{"amenity":"bench","backrest":"no","check_date":"2022-03-16","direction":"53;233"}},{"type":"node","id":9583740881,"lat":52.5190384,"lon":13.411041,"tags":{"amenity":"waste_basket","check_date":"2022-03-16"}},{"type":"node","id":9583740882,"lat":52.5189719,"lon":13.410895,"tags":{"amenity":"waste_basket","check_date":"2022-03-16"}},{"type":"node","id":9583740883,"lat":52.51898,"lon":13.4108842,"tags":{"amenity":"bench","backrest":"no","check_date":"2022-03-16","direction":"53;233"}},{"type":"node","id":9583740884,"lat":52.5189556,"lon":13.4109166,"tags":{"amenity":"waste_basket","check_date":"2022-03-16"}},{"type":"node","id":9583740885,"lat":52.5189638,"lon":13.4109058,"tags":{"amenity":"bench","backrest":"no","check_date":"2022-03-16","direction":"53;233"}},{"type":"node","id":9583740886,"lat":52.5189475,"lon":13.4109274,"tags":{"amenity":"bench","backrest":"no","check_date":"2022-03-16","direction":"53;233"}},{"type":"node","id":9583740887,"lat":52.5189393,"lon":13.4109382,"tags":{"amenity":"waste_basket","check_date":"2022-03-16"}},{"type":"node","id":9583740888,"lat":52.518933,"lon":13.4111926,"tags":{"access":"yes","amenity":"bicycle_parking","bicycle_parking":"stands","bicycle_parking:position":"sidewalk","capacity":"10","covered":"no","fee":"no"}},{"type":"node","id":9583740890,"lat":52.5189221,"lon":13.4109581,"tags":{"access":"permissive","amenity":"bicycle_parking","bicycle_parking":"stands","bicycle_parking:position":"private_property","capacity":"8","covered":"partial","fee":"no"}},{"type":"node","id":9898077977,"lat":52.5191049,"lon":13.4105564,"tags":{"addr:postcode":"10178","air_conditioning":"yes","brand":"JYSK","brand:wikidata":"Q138913","level":"0","name":"JYSK","opening_hours":"Mo-Sa 10:00-20:00","shop":"furniture","stroller":"yes","website":"https:\/\/jysk.de\/stores-locator?storeId=2173","wheelchair":"yes"}},{"type":"node","id":10567768988,"lat":52.5188457,"lon":13.4110373,"tags":{"barrier":"kerb","kerb":"lowered","tactile_paving":"yes"}},{"type":"node","id":10567769019,"lat":52.5188887,"lon":13.4112333,"tags":{"highway":"traffic_signals"}},{"type":"node","id":10567769020,"lat":52.5188984,"lon":13.4111157,"tags":{"leaf_cycle":"deciduous","leaf_type":"broadleaved","natural":"tree"}},{"type":"node","id":10567769028,"lat":52.5189768,"lon":13.4112812,"tags":{"leaf_cycle":"deciduous","leaf_type":"broadleaved","natural":"tree"}},{"type":"node","id":12098446001,"lat":52.5193175,"lon":13.4112585,"tags":{"addr:housenumber":"5","addr:postcode":"10178","addr:street":"Rathausstra\u00dfe","craft":"electronics_repair","level":"0","name":"Handy 24 Berlin","opening_hours":"Mo-Sa 10:00-20:00","website":"https:\/\/handy24berlin.de\/"}},{"type":"node","id":12112549801,"lat":52.5188821,"lon":13.4109376,"tags":{"amenity":"fast_food","cuisine":"german","food:currywurst":"yes","name":"Curry & More Berlin","opening_hours":"Mo-Fr 07:30-16:00"}},{"type":"node","id":12568332963,"lat":52.5194677,"lon":13.4109195,"tags":{"name":"Schmetterling","shop":"travel_agency"}},{"type":"node","id":12568333047,"lat":52.5189905,"lon":13.4103271,"tags":{"brand":"EuroShop","brand:wikidata":"Q15846763","name":"EuroShop","shop":"variety_store"}}]}