{"version":0.6,"generator":"Overpass API 0.7.62.5 1bd436f1","osm3s":{"timestamp_osm_base":"2025-03-12T11:30:09Z","copyright":"The data included in this document is from www.openstreetmap.org. The data is made available under ODbL."},"elements":[{"type":"node","id":343561391,"lat":52.5188664,"lon":13.4131409,"tags":{"amenity":"post_box","collection_times":"Mo-Fr 15:45,17:00,20:45; Sa 14:00; Su 21:00","operator":"Deutsche Post","operator:wikidata":"Q157645","operator:wikipedia":"de:Deutsche Post AG","ref":"Littenstr. 16-17, 10179 Berlin"}},{"type":"node","id":496009270,"lat":52.5192676,"lon":13.4128864,"tags":{"operator":"Vattenfall","operator:wikidata":"Q1649778","power":"substation","ref":"64","source":"survey","substation":"minor_distribution"}},{"type":"node","id":2094266865,"lat":52.5192189,"lon":13.4125225,"tags":{"railway":"switch","railway:turnout_side":"right"}},{"type":"node","id":3155678625,"lat":52.5190705,"lon":13.4126096,"tags":{"barrier":"kerb","kerb":"lowered","tactile_paving":"no"}},{"type":"node","id":3179614625,"lat":52.5191228,"lon":13.4127098,"tags":{"crossing":"unmarked","crossing:island":"yes","crossing:markings":"no","highway":"crossing","kerb":"lowered","tactile_paving":"yes"}},{"type":"node","id":3179614626,"lat":52.5191367,"lon":13.4127397,"tags":{"barrier":"kerb","kerb":"lowered","tactile_paving":"no"}},{"type":"node","id":3216711403,"lat":52.5189009,"lon":13.4131804,"tags":{"addr:city":"Berlin","addr:country":"DE","addr:housenumber":"16","addr:postcode":"10179","addr:street":"Littenstra\u00dfe","addr:suburb":"Mitte"}},{"type":"node","id":3216711405,"lat":52.5190601,"lon":13.4129883,"tags":{"addr:city":"Berlin","addr:country":"DE","addr:housenumber":"17","addr:postcode":"10179","addr:street":"Littenstra\u00dfe","addr:suburb":"Mitte"}},{"type":"node","id":7945564309,"lat":52.5195179,"lon":13.4134372,"tags":{"highway":"street_lamp"}},{"type":"node","id":11238390332,"lat":52.5194046,"lon":13.4132114,"tags":{"man_made":"manhole"}},{"type":"node","id":11771933398,"lat":52.5191987,"lon":13.4126855,"tags":{"crossing":"unmarked","crossing:island":"no","crossing:markings":"no","highway":"crossing","tactile_paving":"yes"}},{"type":"node","id":11861840397,"lat":52.5192008,"lon":13.4124751,"tags":{"crossing":"unmarked","crossing:island":"no","crossing:markings":"no","highway":"crossing","tactile_paving":"yes"}},{"type":"node","id":12035159940,"lat":52.5190835,"lon":13.412633,"tags":{"crossing":"unmarked","crossing:island":"yes","crossing:markings":"no","highway":"crossing","kerb":"lowered","tactile_paving":"yes"}}]}