{"version":0.6,"generator":"Overpass API 0.7.62.5 1bd436f1","osm3s":{"timestamp_osm_base":"2025-03-12T11:23:02Z","copyright":"The data included in this document is from www.openstreetmap.org. The data is made available under ODbL."},"elements":[{"type":"way","id":24273422,"nodes":[262820031,10800211950,961816244,6297518807,262820033,6376433888,10800211955,10800211956,262820034,6297518805,10800211954,10800211953,10800211951,6376433889,10800211952,262820031],"tags":{"addr:city":"Berlin","addr:country":"DE","addr:housenumber":"3","addr:place":"Alexanderplatz","addr:postcode":"10178","addr:suburb":"Mitte","building":"retail","building:colour":"#b6b0af","building:levels":"6","building:material":"stone","height":"40","name":"Die Mitte","roof:colour":"#64664c","roof:material":"grass","roof:shape":"flat","shop":"mall","start_date":"2009-3-25","wheelchair":"limited","wikidata":"Q1219037","wikimedia_commons":"Category:Die mitte","wikipedia":"de:Die mitte"}},{"type":"way","id":29030957,"nodes":[2094266776,2094267020,610527566],"tags":{"electrified":"rail","electrified:rail":"bottom","frequency":"0","gauge":"1435","layer":"-5","level":"-5","loading_gauge":"Gro\u00dfprofil","maxspeed":"70","operator":"Berliner Verkehrsbetriebe","railway":"subway","subway":"yes","tunnel":"yes","voltage":"750"}},{"type":"way","id":48524801,"nodes":[616476947,2094267029,2094283183,2094283182,2777296570],"tags":{"highway":"footway","layer":"-1","level":"-1","lit":"yes","smoothness":"good","surface":"paving_stones","tunnel":"yes"}},{"type":"way","id":93628049,"nodes":[11582988108,1086368388,4565322445,30731508,4565322442,244486128,1633112584,1769671802,30731454,1769671793,2094749187,30731506,595039227,10247148370,11247145897,11247145898,196699243,4565322439,1769671798,1769671799,9678606080,30731493,4565322437,2094800874,11582988114],"tags":{"electrified":"contact_line","frequency":"0","gauge":"1435","maxspeed":"10","operator":"Berliner Verkehrsbetriebe","railway":"tram","railway:electricity:ref":"103.02","voltage":"750"}},{"type":"way","id":165416921,"nodes":[1769671796,2777249239,2777249241,1769671805,1769671796],"tags":{"area":"yes","bench":"yes","bin":"yes","lit":"yes","local_ref":"11","name":"U Alexanderplatz","passenger_information_display":"yes","public_transport":"platform","railway":"platform","shelter":"yes","tactile_paving":"yes","tram":"yes","wheelchair":"no"}},{"type":"way","id":165416925,"nodes":[1769671789,2777249240,4763685857,2777249238,1769671787,1769671789],"tags":{"area":"yes","bench":"yes","bin":"yes","lit":"yes","local_ref":"12","name":"U Alexanderplatz","passenger_information_display":"yes","public_transport":"platform","railway":"platform","shelter":"yes","tactile_paving":"yes","tram":"yes","wheelchair":"no"}},{"type":"way","id":194973329,"nodes":[2094267015,2777153463,2094266980,2777026038,2094266946,2777026034,2094266954,2777026083,2777153503,2094267018,2777296563,2094283181,2777296559,2094267015],"tags":{"area":"yes","bench":"yes","bin":"yes","check_date:bench":"2022-09-12","description":"U Alexanderplatz U5 Bahnsteig Abfahrt Richtung H\u00f6now","layer":"-5","level":"-5","name":"Alexanderplatz","public_transport":"platform","railway":"platform","subway":"yes","tactile_paving":"yes"}},{"type":"way","id":199425786,"nodes":[2094267026,2777296574,2777296577,2777296579,2094267028,4397315896,2777026106,2094266971,2777026085,2094266964,2777026092,2777153526,2094267026],"tags":{"area":"yes","bench":"yes","bin":"yes","check_date:bench":"2022-09-12","description":"U Alexanderplatz U5 Bahnsteig Ankunft","layer":"-5","level":"-5","name":"Alexanderplatz","public_transport":"platform","railway":"platform","subway":"yes","tactile_paving":"yes"}},{"type":"way","id":199425790,"nodes":[2094266862,1184066899,298352344,6494918324,2094266900,2094266921,2094266930,2094266944,2094266979,2094267025,5221164938,2094267036],"tags":{"electrified":"rail","electrified:rail":"bottom","frequency":"0","gauge":"1435","layer":"-5","level":"-5","loading_gauge":"Gro\u00dfprofil","maxspeed":"70","operator":"Berliner Verkehrsbetriebe","railway":"subway","service":"siding","subway":"yes","tunnel":"yes","voltage":"750"}},{"type":"way","id":199425800,"nodes":[2094267010,2094267016,2094267011,2094267004,2094267010],"tags":{"building":"train_station","building:levels":"1","building:material":"glass","max_level":"0","min_level":"-5","nohousenumber":"yes","roof:shape":"flat","stairwell":"elevator"}},{"type":"way","id":199425808,"nodes":[2094267023,2094266777],"tags":{"electrified":"rail","electrified:rail":"bottom","frequency":"0","gauge":"1435","layer":"-5","level":"-5","loading_gauge":"Gro\u00dfprofil","maxspeed":"70","operator":"Berliner Verkehrsbetriebe","railway":"subway","subway":"yes","tunnel":"yes","voltage":"750"}},{"type":"way","id":199426766,"nodes":[2094283181,2094283182],"tags":{"highway":"steps","incline":"up","indoor":"yes","level":"-5;-1","lit":"24\/7","tunnel":"yes"}},{"type":"way","id":199426768,"nodes":[2094267029,616476681,2777296590],"tags":{"highway":"footway","layer":"-1","level":"-1","lit":"yes","smoothness":"good","surface":"paving_stones","tunnel":"yes"}},{"type":"way","id":199430452,"nodes":[2094347352,2094345006,2094347365,2094347368,2094345009,9122675268,11247145895,2094267047,2094345010,2094347370,2094347367,2094347359,2094347361,2094347357,2094347354,2094345005,2094347350,2094345001,2777153455,2777153449,2094344998,2094347348,2094347352],"tags":{"indoor":"area","layer":"-1","level":"-1","subway":"yes","tunnel":"yes"}},{"type":"way","id":199489523,"nodes":[2094345000,2777026081,2777026077,2777026057,2094347346,4947095076,2094344997,2777153434,2777153437,4936820460,2777153447,2094347352,2094345006,2094362222,2094362224,2094362223,2094362221,2094345000],"tags":{"indoor":"area","layer":"-2","level":"-2","tunnel":"yes"}},{"type":"way","id":199579029,"nodes":[2095738484,2094267031],"tags":{"barrier":"wall","layer":"-2"}},{"type":"way","id":202162478,"nodes":[2121378261,12095104431,9122675260,12095104432,9122675259,9122675264,9122675263,12610371398,12610371382,12610371388,12610371389,12610371383,12610371384,12610371381,12610371387,2094267050,9122675268,12610371385,12610371386,12610371395,9122675266,12610371397,2348038034,2348038041,256898547,2121378261],"tags":{"check_date":"2025-02-22","construction":"commercial","landuse":"construction","name":"ALX Tower","old_name":"Covivio Tower","opening_date":"2026","operator":"Covivio","short_name":"ALX"}},{"type":"way","id":272780764,"nodes":[2777026042,2777026046,2777026100,2777026115,2777026118,2777153515,2777026119,4947074225,4933911835,4933911841,4933911849,2777026120,2777153553,2777026116,4933911844,3810179825,2777026010,2777026042],"tags":{"description":"Untergeschoss mit Ladenzeile von der U2 zur S-und U-Bahn","indoor":"yes","layer":"-2","level":"-2"}},{"type":"way","id":272795471,"nodes":[2094267040,2094267030,5867575844,2094266778,5867575843,5130344163,2094266982,4936820443,2094266973],"tags":{"detail":"track","electrified":"rail","electrified:rail":"top","frequency":"0","gauge":"1435","layer":"-1","level":"-1","loading_gauge":"Kleinprofil","operator":"Berliner Verkehrsbetriebe","railway":"subway","tunnel":"yes","voltage":"750"}},{"type":"way","id":272795474,"nodes":[610527620,3810179822,5867575849,60662274,5867575848,2094266989,610527621,5867575850,5130344164,5867575851,2094266780,5867575852,940462882,616478046],"tags":{"electrified":"rail","electrified:rail":"top","frequency":"0","gauge":"1435","layer":"-1","level":"-1","loading_gauge":"Kleinprofil","operator":"Berliner Verkehrsbetriebe","railway":"subway","tunnel":"yes","voltage":"750"}},{"type":"way","id":272795476,"nodes":[2777153553,2777153573],"tags":{"highway":"steps","incline":"down","indoor":"yes","level":"-2;-3","lit":"24\/7","tunnel":"yes"}},{"type":"way","id":272795481,"nodes":[2777153521,2777153482],"tags":{"highway":"steps","incline":"up","indoor":"yes","level":"-1;-3","lit":"24\/7","tunnel":"yes"}},{"type":"way","id":272795487,"nodes":[4397315896,2777153538,4934187007,2777153526],"tags":{"highway":"footway","indoor":"yes","level":"-5","lit":"24\/7","tunnel":"yes"}},{"type":"way","id":272795491,"nodes":[2777153606,2777153617],"tags":{"highway":"steps","incline":"up","indoor":"yes","level":"-3;-1","lit":"24\/7","tunnel":"yes"}},{"type":"way","id":272795492,"nodes":[2777153591,2777153562],"tags":{"highway":"steps","incline":"down","indoor":"yes","level":"-3;-5","lit":"24\/7","tunnel":"yes"}},{"type":"way","id":272795495,"nodes":[2777153615,2777153622,2777153617],"tags":{"highway":"footway","indoor":"yes","level":"-1","lit":"24\/7","tunnel":"yes"}},{"type":"way","id":272795497,"nodes":[2777153635,4936820450,5867575840,2777153622,2777153626],"tags":{"highway":"footway","indoor":"yes","level":"-1","lit":"24\/7","tunnel":"yes"}},{"type":"way","id":272795500,"nodes":[2777153521,4947074226,2777153528,3810179831,4934187009,3810179832,2777153606],"tags":{"highway":"footway","indoor":"yes","level":"-3","lit":"24\/7","tunnel":"yes"}},{"type":"way","id":272795502,"nodes":[2777153553,2777153497,2777153451,2777153441,2777026046],"tags":{"description:de":"Fu\u00dfweg Ladenzeile zwischen U2 und U8 \u00fcber U5","highway":"footway","indoor":"yes","level":"-2","lit":"24\/7","tunnel":"yes"}},{"type":"way","id":272795504,"nodes":[2777153591,3810179832],"tags":{"highway":"footway","indoor":"yes","level":"-3","lit":"24\/7","tunnel":"yes"}},{"type":"way","id":272795507,"nodes":[2777153461,3810179828,2777153573,2777153591,2777153611,2777153624,2777153535,2777153461],"tags":{"area":"yes","description":"U Alexanderplatz, Zwischengeschoss","indoor":"corridor","layer":"-3","level":"-3","name":"U Alexanderplatz","subway":"yes","tunnel":"yes"}},{"type":"way","id":272810802,"nodes":[2777296577,616476945],"tags":{"highway":"steps","incline":"up","indoor":"yes","level":"-5;-1","lit":"24\/7","tunnel":"yes"}},{"type":"way","id":272810804,"nodes":[2777296570,2777296563],"tags":{"conveying":"backward","highway":"steps","incline":"down","indoor":"yes","level":"-1;-5","lit":"24\/7","tunnel":"yes"}},{"type":"way","id":272810805,"nodes":[2777296559,2777296567],"tags":{"conveying":"forward","highway":"steps","incline":"up","indoor":"yes","level":"-5;-1","lit":"24\/7","tunnel":"yes"}},{"type":"way","id":272810806,"nodes":[2777296574,2777296583],"tags":{"conveying":"forward","highway":"steps","incline":"up","indoor":"yes","level":"-5;-1","lit":"24\/7","tunnel":"yes"}},{"type":"way","id":272810808,"nodes":[2777296592,2777296579],"tags":{"conveying":"backward","highway":"steps","incline":"down","indoor":"yes","level":"-1;-5","lit":"24\/7","tunnel":"yes"}},{"type":"way","id":272810809,"nodes":[2777296567,2094283182],"tags":{"highway":"footway","layer":"-1","level":"-1","lit":"yes","smoothness":"excellent","surface":"paving_stones","tunnel":"yes"}},{"type":"way","id":272810811,"nodes":[2777296592,616476945],"tags":{"highway":"footway","layer":"-1","level":"-1","lit":"yes","smoothness":"good","surface":"paving_stones","tunnel":"yes"}},{"type":"way","id":321754182,"nodes":[2094266972,3810179824,5221164751,5221164753,5221164752,2095738482,2094267031],"tags":{"electrified":"rail","electrified:rail":"bottom","frequency":"0","gauge":"1435","layer":"-5","level":"-5","loading_gauge":"Gro\u00dfprofil","maxspeed":"70","operator":"Berliner Verkehrsbetriebe","railway":"subway","service":"siding","subway":"yes","tunnel":"yes","voltage":"750"}},{"type":"way","id":346206381,"nodes":[3527851384,3527851388,3527851389,3527851373,3527851367,3527851387],"tags":{"highway":"pedestrian","lit":"yes","noname":"yes","surface":"paving_stones"}},{"type":"way","id":346206389,"nodes":[3527851373,3527851383,4223494577,3528562105,11357387512,6714506683,4763685854],"tags":{"highway":"pedestrian","lit":"yes","noname":"yes","smoothness":"excellent","surface":"paving_stones"}},{"type":"way","id":346212656,"nodes":[3527866822,8793912198,4763685843,4565322437,4565322438,3527851383,4217373212,3527851371,4763685864,4763685861,196763703],"tags":{"highway":"pedestrian","lit":"yes","noname":"yes","smoothness":"good","surface":"paving_stones"}},{"type":"way","id":346212660,"nodes":[4809636662,3527866821,3527866833,3527866822,3527866829,4809636664,11357387514],"tags":{"highway":"pedestrian","lit":"yes","noname":"yes","smoothness":"excellent","surface":"paving_stones"}},{"type":"way","id":377634131,"nodes":[2094267035,2094267023],"tags":{"electrified":"rail","electrified:rail":"bottom","frequency":"0","gauge":"1435","layer":"-5","level":"-5","loading_gauge":"Gro\u00dfprofil","maxspeed":"70","operator":"Berliner Verkehrsbetriebe","railway":"subway","tunnel":"yes","voltage":"750"}},{"type":"way","id":377634138,"nodes":[3810179836,2095738481],"tags":{"highway":"footway","indoor":"yes","layer":"-1","level":"-1","tunnel":"yes"}},{"type":"way","id":377634139,"nodes":[3810179831,2777153573],"tags":{"highway":"footway","indoor":"yes","level":"-3","lit":"24\/7","tunnel":"yes"}},{"type":"way","id":377634143,"nodes":[2777153538,2777153562],"tags":{"highway":"footway","indoor":"yes","level":"-5","lit":"24\/7","tunnel":"yes"}},{"type":"way","id":377634144,"nodes":[2777153528,3810179828],"tags":{"highway":"footway","indoor":"yes","level":"-3","lit":"24\/7","tunnel":"yes"}},{"type":"way","id":377634145,"nodes":[3810179838,3810179836,5867575838],"tags":{"highway":"footway","indoor":"yes","layer":"-1","level":"-1","tunnel":"yes"}},{"type":"way","id":377634148,"nodes":[2777296583,616476945,616476947],"tags":{"highway":"footway","layer":"-1","level":"-1","lit":"yes","smoothness":"good","surface":"paving_stones","tunnel":"yes"}},{"type":"way","id":377634149,"nodes":[3810179835,3810179837,3810179834,3810179833,3810179835],"tags":{"indoor":"yes","level":"-5;-3;-1","stairwell":"elevator"}},{"type":"way","id":500794560,"nodes":[2095738480,4917707293,4917707292],"tags":{"highway":"footway","indoor":"yes","layer":"-1","level":"-1","location":"underground"}},{"type":"way","id":503037481,"nodes":[4933911842,4933911836,4933911835,4933911841,4933911842],"tags":{"indoor":"room","level":"-2","name":"Kaffee | Crepes","room":"shop","shop":"coffee"}},{"type":"way","id":503037485,"nodes":[4933911849,4933911848,4933911847,4933911846,4933911845,4933911844,2777026116,2777026120,4933911849],"tags":{"indoor":"room","level":"-3","name":"BVG Leitzentrale","room":"office"}},{"type":"way","id":503037486,"nodes":[4933911853,4933911852,4933911851,4933911850,4933911853],"tags":{"indoor":"room","level":"-3","room":"shop","shop":"newsagent","toilets:wheelchair":"no","wheelchair":"yes"}},{"type":"way","id":503037487,"nodes":[4933911857,4933911856,4933911855,4933911854,4933911857],"tags":{"brand":"Le Crobag","brand:wikidata":"Q1558025","brand:wikipedia":"de:Le Crobag","indoor":"room","level":"-3","name":"Le Crobag","room":"shop","shop":"bakery"}},{"type":"way","id":503037488,"nodes":[4933911861,4933911860,4933911859,4933911858,4933911861],"tags":{"amenity":"restaurant","cuisine":"asian","indoor":"room","level":"-1","name":"Samui","room":"restaurant"}},{"type":"way","id":503071090,"nodes":[4934187005,4934187004,2095738480],"tags":{"highway":"footway","indoor":"yes","level":"-5","lit":"24\/7","tunnel":"yes"}},{"type":"way","id":503071091,"nodes":[4934187007,4934187006,2095738481],"tags":{"highway":"footway","indoor":"yes","level":"-5","lit":"24\/7","tunnel":"yes"}},{"type":"way","id":503071092,"nodes":[4934187009,4934187008,2095738481],"tags":{"highway":"footway","indoor":"yes","layer":"-3","level":"-3","tunnel":"yes"}},{"type":"way","id":504560726,"nodes":[2095738480,4947074227,4947074226],"tags":{"highway":"footway","indoor":"yes","layer":"-3","level":"-3","tunnel":"yes"}},{"type":"way","id":613955600,"nodes":[5808159689,6184062895,2094267031],"tags":{"layer":"-2","loading_gauge":"Gro\u00dfprofil","note":"U10","proposed:railway":"subway","railway":"proposed","tunnel":"yes"}},{"type":"way","id":621119596,"nodes":[4917707293,5867575839],"tags":{"highway":"footway","indoor":"yes","layer":"-1","level":"-1","location":"underground"}},{"type":"way","id":660510097,"nodes":[6184062256,6184062257],"tags":{"footway":"sidewalk","highway":"footway","layer":"-2","lit":"24\/7","location":"underground","smoothness":"excellent","surface":"asphalt","tunnel":"yes"}},{"type":"way","id":660510098,"nodes":[6184062258,6184062257],"tags":{"handrail":"yes","handrail:left":"yes","handrail:right":"yes","highway":"steps","layer":"-1","lit":"24\/7","location":"underground","ramp":"no","surface":"paving_stones","tunnel":"yes"}},{"type":"way","id":660510103,"nodes":[6184062902,6184062901,6184062900,6184062899,6184062898,6184062897,6184062896,6184062902],"tags":{"layer":"-1","level":"-2","man_made":"tunnel"}},{"type":"way","id":687752789,"nodes":[2777249238,1769671787,9856051674,6795798243,1769671796,2777249239,4223494577],"tags":{"footway":"link","highway":"footway","lit":"yes","surface":"concrete"}},{"type":"way","id":807043967,"nodes":[2094266961,2094266776],"tags":{"electrified":"rail","electrified:rail":"bottom","frequency":"0","gauge":"1435","layer":"-5","level":"-5","loading_gauge":"Gro\u00dfprofil","maxspeed":"70","operator":"Berliner Verkehrsbetriebe","railway":"subway","subway":"yes","tunnel":"yes","voltage":"750"}},{"type":"way","id":1245947667,"nodes":[1633093596,6795798242,2094749190,1789092673,9658783923,6795798243,11582988113],"tags":{"electrified":"contact_line","frequency":"0","gauge":"1435","maxspeed":"20","operator":"Berliner Verkehrsbetriebe","railway":"tram","railway:electricity:ref":"103.02","voltage":"750"}},{"type":"way","id":1245947675,"nodes":[11582988113,2094800879,1769671801,4565322438,1633093595,1769671790,1769671792,1633093594,4565322440,1633113689],"tags":{"electrified":"contact_line","frequency":"0","gauge":"1435","maxspeed":"10","operator":"Berliner Verkehrsbetriebe","railway":"tram","railway:electricity:ref":"103.02","voltage":"750"}},{"type":"way","id":1245947676,"nodes":[11582988114,9856051674,30731457,30731497,8581758400,11582988112],"tags":{"electrified":"contact_line","frequency":"0","gauge":"1435","maxspeed":"20","operator":"Berliner Verkehrsbetriebe","railway":"tram","railway:electricity:ref":"103.02","voltage":"750"}},{"type":"way","id":1306330470,"nodes":[8793912198,12098559989,8793912199,11357387513],"tags":{"highway":"pedestrian","lit":"yes","noname":"yes","surface":"paving_stones"}},{"type":"way","id":1362022529,"nodes":[256898547,12610371378,12610371393,12610371392,12610371379,12610371380,2121378254,9122675266,256898548,2348038034,2348038041,256898547],"tags":{"building":"construction","check_date":"2025-02-22","construction":"office","construction:height":"30","description":"construction progress has reached first level (elevator core at ~3 to 4) as of 22-02-2025.","height":"4","name":"ALX Tower","old_name":"Covivio Tower","opening_date":"2026","operator":"Covivio","operator:construction":"Hochtief","short_name":"ALX"}},{"type":"way","id":1362022539,"nodes":[2121378261,12095104431,9122675260,12095104432,9122675259,9122675264,9122675263,12610371398,12610371382,12610371388,12610371389,12610371383,12610371384,12610371381,12610371387,2094267050],"tags":{"barrier":"fence"}},{"type":"node","id":30731454,"lat":52.5207086,"lon":13.4119267},{"type":"node","id":30731457,"lat":52.5219222,"lon":13.4144191},{"type":"node","id":30731493,"lat":52.5217159,"lon":13.4141385},{"type":"node","id":30731497,"lat":52.5221645,"lon":13.4147332},{"type":"node","id":30731506,"lat":52.520722,"lon":13.4121136},{"type":"node","id":30731508,"lat":52.5208822,"lon":13.4115103},{"type":"node","id":60662274,"lat":52.5213058,"lon":13.4146525},{"type":"node","id":196699243,"lat":52.5211427,"lon":13.4130024},{"type":"node","id":196763703,"lat":52.521083,"lon":13.4124106},{"type":"node","id":244486128,"lat":52.5207634,"lon":13.4117024},{"type":"node","id":256898547,"lat":52.522694,"lon":13.4138098},{"type":"node","id":256898548,"lat":52.5223026,"lon":13.4133338},{"type":"node","id":262820033,"lat":52.5211721,"lon":13.4148121},{"type":"node","id":262820034,"lat":52.5216395,"lon":13.41451},{"type":"node","id":298352344,"lat":52.5199279,"lon":13.4106211},{"type":"node","id":595039227,"lat":52.5207502,"lon":13.4121967},{"type":"node","id":610527566,"lat":52.5219725,"lon":13.4147613},{"type":"node","id":610527620,"lat":52.5209782,"lon":13.4147951},{"type":"node","id":610527621,"lat":52.5215401,"lon":13.414482},{"type":"node","id":616476681,"lat":52.5220007,"lon":13.414745},{"type":"node","id":616476945,"lat":52.5219227,"lon":13.414393},{"type":"node","id":616476947,"lat":52.5219665,"lon":13.4144752},{"type":"node","id":616478046,"lat":52.5221423,"lon":13.4134925},{"type":"node","id":940462882,"lat":52.5219786,"lon":13.413858},{"type":"node","id":961816244,"lat":52.5211012,"lon":13.4149883},{"type":"node","id":1086368388,"lat":52.5214083,"lon":13.4106829},{"type":"node","id":1184066899,"lat":52.5197601,"lon":13.410265},{"type":"node","id":1633093594,"lat":52.5212753,"lon":13.4131833},{"type":"node","id":1633093595,"lat":52.5217375,"lon":13.4141023},{"type":"node","id":1633093596,"lat":52.5223915,"lon":13.4149448},{"type":"node","id":1633112584,"lat":52.5207334,"lon":13.4117821},{"type":"node","id":1633113689,"lat":52.5211996,"lon":13.4130315},{"type":"node","id":1769671787,"lat":52.5218868,"lon":13.414409},{"type":"node","id":1769671789,"lat":52.522323,"lon":13.4149572},{"type":"node","id":1769671790,"lat":52.5216809,"lon":13.4139985},{"type":"node","id":1769671792,"lat":52.5216049,"lon":13.4138484},{"type":"node","id":1769671793,"lat":52.5207081,"lon":13.4120077},{"type":"node","id":1769671796,"lat":52.5219221,"lon":13.4143197},{"type":"node","id":1769671798,"lat":52.5215993,"lon":13.4139131},{"type":"node","id":1769671799,"lat":52.5216558,"lon":13.4140289},{"type":"node","id":1769671801,"lat":52.5217863,"lon":13.4141759},{"type":"node","id":1769671802,"lat":52.5207159,"lon":13.411857},{"type":"node","id":1769671805,"lat":52.522362,"lon":13.414868},{"type":"node","id":1789092673,"lat":52.5219449,"lon":13.4143847},{"type":"node","id":2094266776,"lat":52.5216433,"lon":13.4140891},{"type":"node","id":2094266777,"lat":52.5212081,"lon":13.4130283},{"type":"node","id":2094266778,"lat":52.5217734,"lon":13.413854},{"type":"node","id":2094266780,"lat":52.5218722,"lon":13.4140694},{"type":"node","id":2094266862,"lat":52.519092,"lon":13.4088214},{"type":"node","id":2094266900,"lat":52.520457,"lon":13.4117419},{"type":"node","id":2094266921,"lat":52.5207975,"lon":13.4124298},{"type":"node","id":2094266930,"lat":52.5208539,"lon":13.4125721},{"type":"node","id":2094266944,"lat":52.5209619,"lon":13.4129235},{"type":"node","id":2094266946,"lat":52.5210088,"lon":13.4129956},{"type":"node","id":2094266954,"lat":52.5210702,"lon":13.4129121},{"type":"node","id":2094266961,"lat":52.521072,"lon":13.4128769},{"type":"node","id":2094266964,"lat":52.5211319,"lon":13.4128307},{"type":"node","id":2094266971,"lat":52.5211945,"lon":13.4127456},{"type":"node","id":2094266972,"lat":52.5211679,"lon":13.4126533},{"type":"node","id":2094266973,"lat":52.5212957,"lon":13.4144001},{"type":"node","id":2094266979,"lat":52.5212903,"lon":13.4137002},{"type":"node","id":2094266980,"lat":52.5213016,"lon":13.4136861},{"type":"node","id":2094266982,"lat":52.5215023,"lon":13.4142106},{"type":"node","id":2094266989,"lat":52.5214588,"lon":13.4145499},{"type":"node","id":2094267004,"lat":52.5216529,"lon":13.4142784},{"type":"node","id":2094267010,"lat":52.5216297,"lon":13.4142344},{"type":"node","id":2094267011,"lat":52.5216867,"lon":13.4142304},{"type":"node","id":2094267015,"lat":52.5216723,"lon":13.4144052},{"type":"node","id":2094267016,"lat":52.5216635,"lon":13.4141864},{"type":"node","id":2094267018,"lat":52.5217326,"lon":13.4143232},{"type":"node","id":2094267020,"lat":52.5217628,"lon":13.4142835},{"type":"node","id":2094267023,"lat":52.5218396,"lon":13.4143709},{"type":"node","id":2094267025,"lat":52.5217502,"lon":13.4145717},{"type":"node","id":2094267026,"lat":52.5217907,"lon":13.4142468},{"type":"node","id":2094267028,"lat":52.5218553,"lon":13.4141657},{"type":"node","id":2094267029,"lat":52.5219067,"lon":13.4145588},{"type":"node","id":2094267030,"lat":52.5219007,"lon":13.4136515},{"type":"node","id":2094267031,"lat":52.5218721,"lon":13.4141551},{"type":"node","id":2094267035,"lat":52.521998,"lon":13.4147283},{"type":"node","id":2094267036,"lat":52.521973,"lon":13.4150296},{"type":"node","id":2094267040,"lat":52.522069,"lon":13.4133459},{"type":"node","id":2094267047,"lat":52.5221593,"lon":13.4133674},{"type":"node","id":2094267050,"lat":52.5222108,"lon":13.4131521},{"type":"node","id":2094283181,"lat":52.5217031,"lon":13.4143623},{"type":"node","id":2094283182,"lat":52.5217998,"lon":13.4145532},{"type":"node","id":2094283183,"lat":52.5218463,"lon":13.4146432},{"type":"node","id":2094344997,"lat":52.5211548,"lon":13.4135449},{"type":"node","id":2094344998,"lat":52.5212308,"lon":13.4144103},{"type":"node","id":2094345000,"lat":52.5211791,"lon":13.4125859},{"type":"node","id":2094345001,"lat":52.521291,"lon":13.4146965},{"type":"node","id":2094345005,"lat":52.5215969,"lon":13.4144646},{"type":"node","id":2094345006,"lat":52.5217406,"lon":13.4137631},{"type":"node","id":2094345009,"lat":52.5221102,"lon":13.4133603},{"type":"node","id":2094345010,"lat":52.5221426,"lon":13.4134165},{"type":"node","id":2094347346,"lat":52.5209322,"lon":13.4128865},{"type":"node","id":2094347348,"lat":52.5213524,"lon":13.414287},{"type":"node","id":2094347350,"lat":52.5214534,"lon":13.4145883},{"type":"node","id":2094347352,"lat":52.521491,"lon":13.4141238},{"type":"node","id":2094347354,"lat":52.5216418,"lon":13.414416},{"type":"node","id":2094347357,"lat":52.5216599,"lon":13.4144524},{"type":"node","id":2094347359,"lat":52.5218719,"lon":13.4140991},{"type":"node","id":2094347361,"lat":52.5218882,"lon":13.414134},{"type":"node","id":2094347365,"lat":52.5218626,"lon":13.4135864},{"type":"node","id":2094347367,"lat":52.5220416,"lon":13.4138365},{"type":"node","id":2094347368,"lat":52.5220512,"lon":13.4132721},{"type":"node","id":2094347370,"lat":52.5221964,"lon":13.4134971},{"type":"node","id":2094362221,"lat":52.5214605,"lon":13.4131381},{"type":"node","id":2094362222,"lat":52.5215195,"lon":13.4132421},{"type":"node","id":2094362223,"lat":52.5216251,"lon":13.4131366},{"type":"node","id":2094362224,"lat":52.5216249,"lon":13.4132408},{"type":"node","id":2094749187,"lat":52.5207122,"lon":13.412058},{"type":"node","id":2094749190,"lat":52.5220012,"lon":13.4144519},{"type":"node","id":2094800874,"lat":52.521791,"lon":13.4142517},{"type":"node","id":2094800879,"lat":52.521831,"lon":13.4142394},{"type":"node","id":2095738480,"lat":52.5216604,"lon":13.4142267},{"type":"node","id":2095738481,"lat":52.5217633,"lon":13.4140397},{"type":"node","id":2095738482,"lat":52.521857,"lon":13.4141248},{"type":"node","id":2095738484,"lat":52.5218808,"lon":13.4141284},{"type":"node","id":2121378254,"lat":52.5219253,"lon":13.4140905},{"type":"node","id":2121378261,"lat":52.5227516,"lon":13.4136855},{"type":"node","id":2348038034,"lat":52.5223444,"lon":13.4133866},{"type":"node","id":2348038041,"lat":52.5226347,"lon":13.4137396},{"type":"node","id":2777026010,"lat":52.5209659,"lon":13.4129678},{"type":"node","id":2777026034,"lat":52.5210384,"lon":13.4129553},{"type":"node","id":2777026038,"lat":52.5210653,"lon":13.4131242},{"type":"node","id":2777026042,"lat":52.5210755,"lon":13.4128333},{"type":"node","id":2777026046,"lat":52.5210895,"lon":13.4128147},{"type":"node","id":2777026057,"lat":52.5210938,"lon":13.4126937},{"type":"node","id":2777026077,"lat":52.5211082,"lon":13.4126752},{"type":"node","id":2777026081,"lat":52.5211225,"lon":13.4126567},{"type":"node","id":2777026083,"lat":52.5211328,"lon":13.4130371},{"type":"node","id":2777026085,"lat":52.5211652,"lon":13.4127854},{"type":"node","id":2777026092,"lat":52.5211898,"lon":13.4129551},{"type":"node","id":2777026100,"lat":52.5212144,"lon":13.4126543},{"type":"node","id":2777026106,"lat":52.5212548,"lon":13.4128749},{"type":"node","id":2777026115,"lat":52.5214616,"lon":13.4131375},{"type":"node","id":2777026116,"lat":52.5214864,"lon":13.4141092},{"type":"node","id":2777026118,"lat":52.5215281,"lon":13.4131382},{"type":"node","id":2777026119,"lat":52.5215282,"lon":13.4132628},{"type":"node","id":2777026120,"lat":52.5217392,"lon":13.4137631},{"type":"node","id":2777153434,"lat":52.5210672,"lon":13.4135737},{"type":"node","id":2777153437,"lat":52.5210704,"lon":13.413616},{"type":"node","id":2777153441,"lat":52.5210889,"lon":13.4128344},{"type":"node","id":2777153447,"lat":52.5211941,"lon":13.4135594},{"type":"node","id":2777153449,"lat":52.5212356,"lon":13.4144325},{"type":"node","id":2777153451,"lat":52.5212414,"lon":13.4131491},{"type":"node","id":2777153455,"lat":52.5212657,"lon":13.414573},{"type":"node","id":2777153461,"lat":52.521452,"lon":13.4141827},{"type":"node","id":2777153463,"lat":52.5214621,"lon":13.4140012},{"type":"node","id":2777153482,"lat":52.5214665,"lon":13.4143567},{"type":"node","id":2777153497,"lat":52.5214758,"lon":13.4136329},{"type":"node","id":2777153503,"lat":52.5215377,"lon":13.4139034},{"type":"node","id":2777153515,"lat":52.5215285,"lon":13.4131913},{"type":"node","id":2777153521,"lat":52.5215547,"lon":13.4142548},{"type":"node","id":2777153526,"lat":52.521597,"lon":13.413831},{"type":"node","id":2777153528,"lat":52.5216126,"lon":13.4141813},{"type":"node","id":2777153535,"lat":52.5215975,"lon":13.4144792},{"type":"node","id":2777153538,"lat":52.5216307,"lon":13.4137882},{"type":"node","id":2777153553,"lat":52.5216192,"lon":13.4139329},{"type":"node","id":2777153562,"lat":52.5216326,"lon":13.4137924},{"type":"node","id":2777153573,"lat":52.5216302,"lon":13.4139559},{"type":"node","id":2777153591,"lat":52.5216801,"lon":13.4138899},{"type":"node","id":2777153606,"lat":52.5217881,"lon":13.4139588},{"type":"node","id":2777153611,"lat":52.5218038,"lon":13.413726},{"type":"node","id":2777153615,"lat":52.5218838,"lon":13.4137056},{"type":"node","id":2777153617,"lat":52.5218628,"lon":13.4138449},{"type":"node","id":2777153622,"lat":52.5219211,"lon":13.4137597},{"type":"node","id":2777153624,"lat":52.5219472,"lon":13.4140182},{"type":"node","id":2777153626,"lat":52.5219747,"lon":13.4138377},{"type":"node","id":2777153635,"lat":52.5221366,"lon":13.4133504},{"type":"node","id":2777249238,"lat":52.5218802,"lon":13.4144257},{"type":"node","id":2777249239,"lat":52.5219297,"lon":13.4143005},{"type":"node","id":2777249240,"lat":52.5223159,"lon":13.4149734},{"type":"node","id":2777249241,"lat":52.5223701,"lon":13.4148494},{"type":"node","id":2777296559,"lat":52.521689,"lon":13.4143811},{"type":"node","id":2777296563,"lat":52.521717,"lon":13.4143435},{"type":"node","id":2777296567,"lat":52.521786,"lon":13.4145719},{"type":"node","id":2777296570,"lat":52.5218137,"lon":13.4145338},{"type":"node","id":2777296574,"lat":52.5218113,"lon":13.4142211},{"type":"node","id":2777296577,"lat":52.5218256,"lon":13.414203},{"type":"node","id":2777296579,"lat":52.52184,"lon":13.4141848},{"type":"node","id":2777296583,"lat":52.5219085,"lon":13.4144114},{"type":"node","id":2777296590,"lat":52.5220159,"lon":13.4147241},{"type":"node","id":2777296592,"lat":52.5219376,"lon":13.4143722},{"type":"node","id":3527851367,"lat":52.5222594,"lon":13.4132067},{"type":"node","id":3527851371,"lat":52.5212706,"lon":13.4130967},{"type":"node","id":3527851373,"lat":52.5220008,"lon":13.4137646},{"type":"node","id":3527851383,"lat":52.5218196,"lon":13.4140751},{"type":"node","id":3527851384,"lat":52.521462,"lon":13.4128321},{"type":"node","id":3527851387,"lat":52.5222694,"lon":13.4130654},{"type":"node","id":3527851388,"lat":52.5216661,"lon":13.4131914},{"type":"node","id":3527851389,"lat":52.5218376,"lon":13.4135178},{"type":"node","id":3527866821,"lat":52.5210402,"lon":13.4149926},{"type":"node","id":3527866822,"lat":52.5215946,"lon":13.4143859},{"type":"node","id":3527866829,"lat":52.5220092,"lon":13.4151681},{"type":"node","id":3527866833,"lat":52.5211431,"lon":13.4147235},{"type":"node","id":3528562105,"lat":52.5223819,"lon":13.4148225},{"type":"node","id":3810179822,"lat":52.5211031,"lon":13.4147595},{"type":"node","id":3810179824,"lat":52.5212264,"lon":13.4127151},{"type":"node","id":3810179825,"lat":52.5212965,"lon":13.4136927},{"type":"node","id":3810179828,"lat":52.5215531,"lon":13.4140583},{"type":"node","id":3810179831,"lat":52.5216906,"lon":13.4140824},{"type":"node","id":3810179832,"lat":52.5217398,"lon":13.4140201},{"type":"node","id":3810179833,"lat":52.5217498,"lon":13.414038},{"type":"node","id":3810179834,"lat":52.52176,"lon":13.414061},{"type":"node","id":3810179835,"lat":52.5217667,"lon":13.4140178},{"type":"node","id":3810179836,"lat":52.5217763,"lon":13.4140231},{"type":"node","id":3810179837,"lat":52.5217768,"lon":13.4140408},{"type":"node","id":3810179838,"lat":52.5218227,"lon":13.4141178},{"type":"node","id":4217373212,"lat":52.521516,"lon":13.41361},{"type":"node","id":4223494577,"lat":52.521945,"lon":13.4142618},{"type":"node","id":4397315896,"lat":52.5216607,"lon":13.4137478},{"type":"node","id":4565322437,"lat":52.5217435,"lon":13.4141802},{"type":"node","id":4565322438,"lat":52.5217673,"lon":13.4141473},{"type":"node","id":4565322439,"lat":52.5212191,"lon":13.4131547},{"type":"node","id":4565322440,"lat":52.521244,"lon":13.4131229},{"type":"node","id":4565322442,"lat":52.5208457,"lon":13.4115658},{"type":"node","id":4565322445,"lat":52.5212339,"lon":13.4109561},{"type":"node","id":4763685843,"lat":52.5217248,"lon":13.414206},{"type":"node","id":4763685854,"lat":52.5225169,"lon":13.415004},{"type":"node","id":4763685857,"lat":52.5221944,"lon":13.4148207},{"type":"node","id":4763685861,"lat":52.5210856,"lon":13.4124583},{"type":"node","id":4763685864,"lat":52.521147,"lon":13.4128402},{"type":"node","id":4809636662,"lat":52.5210155,"lon":13.4150324},{"type":"node","id":4917707292,"lat":52.5216542,"lon":13.414336},{"type":"node","id":4917707293,"lat":52.521624,"lon":13.4142698},{"type":"node","id":4933911835,"lat":52.521646,"lon":13.413559},{"type":"node","id":4933911836,"lat":52.5216049,"lon":13.4136112},{"type":"node","id":4933911841,"lat":52.5216806,"lon":13.4136327},{"type":"node","id":4933911842,"lat":52.5216398,"lon":13.4136849},{"type":"node","id":4933911844,"lat":52.5214343,"lon":13.4139949},{"type":"node","id":4933911845,"lat":52.5214476,"lon":13.4139787},{"type":"node","id":4933911846,"lat":52.5214817,"lon":13.4140516},{"type":"node","id":4933911847,"lat":52.5216799,"lon":13.4137662},{"type":"node","id":4933911848,"lat":52.5216431,"lon":13.413693},{"type":"node","id":4933911849,"lat":52.5216854,"lon":13.4136444},{"type":"node","id":4933911850,"lat":52.5217785,"lon":13.4142235},{"type":"node","id":4933911851,"lat":52.5217205,"lon":13.4142962},{"type":"node","id":4933911852,"lat":52.5216899,"lon":13.4142259},{"type":"node","id":4933911853,"lat":52.5217453,"lon":13.414155},{"type":"node","id":4933911854,"lat":52.5218996,"lon":13.4140624},{"type":"node","id":4933911855,"lat":52.5218417,"lon":13.4141351},{"type":"node","id":4933911856,"lat":52.521811,"lon":13.4140648},{"type":"node","id":4933911857,"lat":52.5218664,"lon":13.4139939},{"type":"node","id":4933911858,"lat":52.5219256,"lon":13.4137607},{"type":"node","id":4933911859,"lat":52.5219532,"lon":13.4138009},{"type":"node","id":4933911860,"lat":52.5219992,"lon":13.413716},{"type":"node","id":4933911861,"lat":52.5219715,"lon":13.4136758},{"type":"node","id":4934187004,"lat":52.5216354,"lon":13.4142653},{"type":"node","id":4934187005,"lat":52.5214857,"lon":13.4139709},{"type":"node","id":4934187006,"lat":52.5217405,"lon":13.414073},{"type":"node","id":4934187007,"lat":52.5216134,"lon":13.4138102},{"type":"node","id":4934187008,"lat":52.521743,"lon":13.4140636},{"type":"node","id":4934187009,"lat":52.5217286,"lon":13.4140343},{"type":"node","id":4936820443,"lat":52.5213885,"lon":13.4143234},{"type":"node","id":4936820450,"lat":52.5220565,"lon":13.413546},{"type":"node","id":4936820460,"lat":52.5211628,"lon":13.4135873},{"type":"node","id":4947074225,"lat":52.5215102,"lon":13.4132615},{"type":"node","id":4947074226,"lat":52.5215941,"lon":13.4142048},{"type":"node","id":4947074227,"lat":52.5216247,"lon":13.4142649},{"type":"node","id":4947095076,"lat":52.521196,"lon":13.4135043},{"type":"node","id":5130344163,"lat":52.5216393,"lon":13.4140449},{"type":"node","id":5130344164,"lat":52.5217383,"lon":13.4142624},{"type":"node","id":5221164751,"lat":52.5214786,"lon":13.413219},{"type":"node","id":5221164752,"lat":52.521704,"lon":13.4137367},{"type":"node","id":5221164753,"lat":52.5215837,"lon":13.4134497},{"type":"node","id":5221164938,"lat":52.5218635,"lon":13.4147978},{"type":"node","id":5808159689,"lat":52.5223475,"lon":13.4149735},{"type":"node","id":5867575838,"lat":52.5217351,"lon":13.4139364},{"type":"node","id":5867575839,"lat":52.5215679,"lon":13.4141504},{"type":"node","id":5867575840,"lat":52.5219786,"lon":13.4136551},{"type":"node","id":5867575843,"lat":52.5217034,"lon":13.4139562},{"type":"node","id":5867575844,"lat":52.5218444,"lon":13.413744},{"type":"node","id":5867575848,"lat":52.5213876,"lon":13.4145998},{"type":"node","id":5867575849,"lat":52.5212346,"lon":13.4146932},{"type":"node","id":5867575850,"lat":52.5216313,"lon":13.4143854},{"type":"node","id":5867575851,"lat":52.5217978,"lon":13.4141821},{"type":"node","id":5867575852,"lat":52.521933,"lon":13.4139532},{"type":"node","id":6184062256,"lat":52.5220529,"lon":13.4147938},{"type":"node","id":6184062257,"lat":52.5221564,"lon":13.4141373},{"type":"node","id":6184062258,"lat":52.5219855,"lon":13.4138993},{"type":"node","id":6184062895,"lat":52.5221006,"lon":13.4146344},{"type":"node","id":6184062896,"lat":52.5220472,"lon":13.4140752},{"type":"node","id":6184062897,"lat":52.5221194,"lon":13.4141476},{"type":"node","id":6184062898,"lat":52.5220452,"lon":13.4146712},{"type":"node","id":6184062899,"lat":52.5220266,"lon":13.4146931},{"type":"node","id":6184062900,"lat":52.5220978,"lon":13.4148265},{"type":"node","id":6184062901,"lat":52.5221947,"lon":13.4141269},{"type":"node","id":6184062902,"lat":52.5220891,"lon":13.41399},{"type":"node","id":6297518805,"lat":52.5217619,"lon":13.4147526},{"type":"node","id":6297518807,"lat":52.5211025,"lon":13.4149851},{"type":"node","id":6376433888,"lat":52.5213829,"lon":13.4146759},{"type":"node","id":6376433889,"lat":52.521942,"lon":13.4151095},{"type":"node","id":6494918324,"lat":52.5200272,"lon":13.4108477},{"type":"node","id":6714506683,"lat":52.5224965,"lon":13.4149766},{"type":"node","id":6795798242,"lat":52.522351,"lon":13.4148932},{"type":"node","id":6795798243,"lat":52.5219127,"lon":13.4143436},{"type":"node","id":8581758400,"lat":52.5223305,"lon":13.41494},{"type":"node","id":8793912198,"lat":52.5217118,"lon":13.414224},{"type":"node","id":8793912199,"lat":52.5221787,"lon":13.4148514},{"type":"node","id":9122675259,"lat":52.523031,"lon":13.4139251},{"type":"node","id":9122675260,"lat":52.5229058,"lon":13.4137674},{"type":"node","id":9122675263,"lat":52.5225759,"lon":13.4149882},{"type":"node","id":9122675264,"lat":52.5230502,"lon":13.4139518},{"type":"node","id":9122675266,"lat":52.5222762,"lon":13.4133008},{"type":"node","id":9122675268,"lat":52.522128,"lon":13.4133269},{"type":"node","id":9658783923,"lat":52.5219279,"lon":13.4143629},{"type":"node","id":9678606080,"lat":52.5217066,"lon":13.4141215},{"type":"node","id":9856051674,"lat":52.521896,"lon":13.4143857},{"type":"node","id":10247148370,"lat":52.520801,"lon":13.4123004},{"type":"node","id":10800211950,"lat":52.5211021,"lon":13.4149893},{"type":"node","id":10800211951,"lat":52.5219413,"lon":13.4151081},{"type":"node","id":10800211952,"lat":52.5219414,"lon":13.415111},{"type":"node","id":10800211953,"lat":52.5218378,"lon":13.4149029},{"type":"node","id":10800211954,"lat":52.521816,"lon":13.4148599},{"type":"node","id":10800211955,"lat":52.5214695,"lon":13.4146199},{"type":"node","id":10800211956,"lat":52.5215128,"lon":13.4145919},{"type":"node","id":11247145895,"lat":52.5221403,"lon":13.4133428},{"type":"node","id":11247145897,"lat":52.5208705,"lon":13.4124431},{"type":"node","id":11247145898,"lat":52.5209499,"lon":13.4126063},{"type":"node","id":11357387512,"lat":52.5224851,"lon":13.4149613},{"type":"node","id":11357387513,"lat":52.5223994,"lon":13.4151479},{"type":"node","id":11582988108,"lat":52.5214115,"lon":13.4106778},{"type":"node","id":11582988112,"lat":52.5223701,"lon":13.4149893},{"type":"node","id":11582988113,"lat":52.5218751,"lon":13.4142957},{"type":"node","id":11582988114,"lat":52.5218584,"lon":13.4143377},{"type":"node","id":12095104431,"lat":52.5228221,"lon":13.4137708},{"type":"node","id":12095104432,"lat":52.5229617,"lon":13.4138401},{"type":"node","id":12098559989,"lat":52.5220358,"lon":13.4146596},{"type":"node","id":12610371378,"lat":52.5228643,"lon":13.4140194},{"type":"node","id":12610371379,"lat":52.5224864,"lon":13.4148695},{"type":"node","id":12610371380,"lat":52.5220015,"lon":13.4142593},{"type":"node","id":12610371381,"lat":52.5217698,"lon":13.4139768},{"type":"node","id":12610371382,"lat":52.522336,"lon":13.4147391},{"type":"node","id":12610371383,"lat":52.5219682,"lon":13.4142732},{"type":"node","id":12610371384,"lat":52.5219106,"lon":13.4141941},{"type":"node","id":12610371385,"lat":52.5221593,"lon":13.4133674},{"type":"node","id":12610371386,"lat":52.522221,"lon":13.4132346},{"type":"node","id":12610371387,"lat":52.5221675,"lon":13.4130945},{"type":"node","id":12610371388,"lat":52.5222833,"lon":13.4146754},{"type":"node","id":12610371389,"lat":52.5222137,"lon":13.4145893},{"type":"node","id":12610371392,"lat":52.5225583,"lon":13.4147161},{"type":"node","id":12610371393,"lat":52.5228042,"lon":13.4141572},{"type":"node","id":12610371395,"lat":52.5222337,"lon":13.4132498},{"type":"node","id":12610371397,"lat":52.5223026,"lon":13.4133338},{"type":"node","id":12610371398,"lat":52.5225557,"lon":13.4150344},{"type":"node","id":262820031,"lat":52.5217187,"lon":13.4156563},{"type":"node","id":4809636664,"lat":52.5221949,"lon":13.4154894},{"type":"node","id":11357387514,"lat":52.5222227,"lon":13.4155455}]}