{"version":0.6,"generator":"Overpass API 0.7.62.5 1bd436f1","osm3s":{"timestamp_osm_base":"2025-03-12T11:24:02Z","copyright":"The data included in this document is from www.openstreetmap.org. The data is made available under ODbL."},"elements":[{"type":"node","id":315140133,"lat":52.5209762,"lon":13.4138914,"tags":{"brand":"Deutsche Telekom","brand:wikidata":"Q9396","brand:wikipedia":"de:Deutsche Telekom","covered":"yes","disused:amenity":"telephone","operator":"Deutsche Telekom AG","operator:wikidata":"Q9396","operator:wikipedia":"de:Deutsche Telekom","payment:coins":"yes","payment:telephone_cards":"yes"}},{"type":"node","id":315238504,"lat":52.5210667,"lon":13.4141137,"tags":{"access":"yes","amenity":"bicycle_parking","bicycle_parking":"stands","capacity":"10","check_date:capacity":"2022-06-02","covered":"no","fee":"no"}},{"type":"node","id":2777153419,"lat":52.5208879,"lon":13.4146449,"tags":{"level":"-1"}},{"type":"node","id":2777153424,"lat":52.5209728,"lon":13.413626,"tags":{"check_date:wheelchair":"2024-06-07","destination":"Grunerstra\u00dfe;Alexanderstra\u00dfe;Polizeiwache Alexanderplatz;Alexa Shoppingcenter;bcc","entrance":"yes","entrance_marker:subway":"yes","level":"0","name":"Alexanderplatz","public_transport":"entrance","railway":"subway_entrance","ref":"N","wheelchair":"yes"}},{"type":"node","id":2777153435,"lat":52.5210676,"lon":13.4136012,"tags":{"level":"-2"}},{"type":"node","id":2777153482,"lat":52.5214665,"lon":13.4143567,"tags":{"level":"-1"}},{"type":"node","id":2777153505,"lat":52.5215053,"lon":13.4139598,"tags":{"level":"-5"}},{"type":"node","id":3810179828,"lat":52.5215531,"lon":13.4140583,"tags":{"level":"-3"}},{"type":"node","id":4917707282,"lat":52.5210146,"lon":13.4137201,"tags":{"denotation":"urban","leaf_cycle":"deciduous","leaf_type":"broadleaved","natural":"tree"}},{"type":"node","id":4917707283,"lat":52.5210316,"lon":13.4138362,"tags":{"denotation":"urban","leaf_cycle":"deciduous","leaf_type":"broadleaved","natural":"tree"}},{"type":"node","id":4917707284,"lat":52.5210478,"lon":13.4139445,"tags":{"denotation":"urban","leaf_cycle":"deciduous","leaf_type":"broadleaved","natural":"tree"}},{"type":"node","id":4917707285,"lat":52.5210601,"lon":13.4140596,"tags":{"denotation":"urban","leaf_cycle":"deciduous","leaf_type":"broadleaved","natural":"tree"}},{"type":"node","id":4917707286,"lat":52.5210759,"lon":13.4141866,"tags":{"denotation":"urban","leaf_cycle":"deciduous","leaf_type":"broadleaved","natural":"tree"}},{"type":"node","id":4917707287,"lat":52.5211875,"lon":13.4141507,"tags":{"denotation":"urban","leaf_cycle":"deciduous","leaf_type":"broadleaved","natural":"tree"}},{"type":"node","id":4917707288,"lat":52.5211757,"lon":13.4140405,"tags":{"denotation":"urban","leaf_cycle":"deciduous","leaf_type":"broadleaved","natural":"tree"}},{"type":"node","id":4917707289,"lat":52.5211623,"lon":13.4139149,"tags":{"denotation":"urban","leaf_cycle":"deciduous","leaf_type":"broadleaved","natural":"tree"}},{"type":"node","id":4917707290,"lat":52.5211498,"lon":13.413798,"tags":{"denotation":"urban","leaf_cycle":"deciduous","leaf_type":"broadleaved","natural":"tree"}},{"type":"node","id":4917707291,"lat":52.5211384,"lon":13.4136915,"tags":{"denotation":"urban","leaf_cycle":"deciduous","leaf_type":"broadleaved","natural":"tree"}},{"type":"node","id":6273394393,"lat":52.5208954,"lon":13.414242,"tags":{"addr:city":"Berlin","addr:country":"DE","addr:housenumber":"2","addr:place":"Alexanderplatz","addr:postcode":"10178","addr:suburb":"Mitte","disused:amenity":"fast_food","note":"ehemals Pinocchio, sieht so aus als k\u00e4me Curry61 (noch im Umbau)"}},{"type":"node","id":6580029051,"lat":52.521053,"lon":13.4139992,"tags":{"amenity":"bicycle_parking","bicycle_parking":"stands","capacity":"10","check_date:capacity":"2022-06-02","covered":"no","fee":"no"}},{"type":"node","id":7044965211,"lat":52.521313,"lon":13.4140403,"tags":{"lastcheck":"2019-11-29","xmas:feature":"pyramid"}},{"type":"node","id":8091139657,"lat":52.5212063,"lon":13.4145877,"tags":{"highway":"street_lamp"}},{"type":"node","id":9687677711,"lat":52.5213242,"lon":13.414524,"tags":{"highway":"street_lamp"}},{"type":"node","id":9687677712,"lat":52.5214478,"lon":13.4144376,"tags":{"highway":"street_lamp"}},{"type":"node","id":9687677714,"lat":52.5211571,"lon":13.4138664,"tags":{"highway":"street_lamp"}},{"type":"node","id":9687677715,"lat":52.5211444,"lon":13.4137474,"tags":{"highway":"street_lamp"}},{"type":"node","id":9687677716,"lat":52.5211687,"lon":13.4139751,"tags":{"highway":"street_lamp"}},{"type":"node","id":9687727217,"lat":52.5211817,"lon":13.4140963,"tags":{"highway":"street_lamp"}},{"type":"node","id":9761768692,"lat":52.5209465,"lon":13.4145165,"tags":{"emergency":"fire_hydrant","fire_hydrant:diameter":"150","fire_hydrant:position":"sidewalk","fire_hydrant:type":"underground","ref":"3987"}},{"type":"node","id":9761799590,"lat":52.5209123,"lon":13.4137238,"tags":{"emergency":"fire_hydrant","fire_hydrant:diameter":"200","fire_hydrant:position":"sidewalk","fire_hydrant:type":"underground","ref":"4159"}},{"type":"node","id":9761818839,"lat":52.5209898,"lon":13.4143766,"tags":{"emergency":"fire_hydrant","fire_hydrant:diameter":"150","fire_hydrant:position":"sidewalk","fire_hydrant:type":"underground","ref":"4161"}},{"type":"node","id":10800211955,"lat":52.5214695,"lon":13.4146199,"tags":{"camera:direction":"-20","camera:mount":"wall","camera:type":"fixed","check_date":"2023-04-10","man_made":"surveillance","ref":"12","surveillance":"outdoor","surveillance:type":"camera"}},{"type":"node","id":10800211956,"lat":52.5215128,"lon":13.4145919,"tags":{"camera:direction":"150","camera:mount":"wall","camera:type":"fixed","check_date":"2023-04-10","man_made":"surveillance","ref":"11","surveillance":"outdoor","surveillance:type":"camera"}},{"type":"node","id":12078101169,"lat":52.5209193,"lon":13.4142934,"tags":{"addr:housenumber":"2","addr:postcode":"10178","addr:street":"Alexanderplatz","amenity":"fast_food","cuisine":"german","name":"CURRY 61 Alexanderplatz"}}]}