{"version":0.6,"generator":"Overpass API 0.7.62.5 1bd436f1","osm3s":{"timestamp_osm_base":"2025-03-11T16:17:01Z","copyright":"The data included in this document is from www.openstreetmap.org. The data is made available under ODbL."},"elements":[{"type":"node","id":1552568000,"lat":52.5208696,"lon":13.4088916,"tags":{"addr:city":"Berlin","addr:country":"DE","addr:housenumber":"1A","addr:postcode":"10178","addr:street":"Panoramastra\u00dfe","addr:suburb":"Mitte"}},{"type":"node","id":1552568307,"lat":52.5211083,"lon":13.4094708,"tags":{"addr:city":"Berlin","addr:country":"DE","addr:housenumber":"2","addr:postcode":"10178","addr:street":"Panoramastra\u00dfe","addr:suburb":"Mitte"}},{"type":"node","id":2418372191,"lat":52.5207865,"lon":13.4095071,"tags":{"camera:type":"fixed","description":"Webcam mit Ausblick vom Berliner Fernsehturm","description:en":"Webcam with a view from the Berlin TV Tower","man_made":"surveillance","name":"TV-Turm Alexanderplatz","note":"Stream https:\/\/tv-turm.de\/en\/virtual-tour\/ is 404","note:position":"irgendwo da oben wohl","source":"webpage","surveillance":"public","surveillance:type":"camera","website":"https:\/\/www.tv-turm.de\/de\/besuch-planen\/webcam\/"}},{"type":"node","id":2589577521,"lat":52.520709,"lon":13.409429,"tags":{"animal":"bear","artwork:group":"berlin_baer","artwork_type":"sculpture","name":"Alex 35","sponsor":"TV Turm GmbH","tourism":"artwork","wheelchair":"limited"}},{"type":"node","id":2840695256,"lat":52.5207654,"lon":13.4098552,"tags":{"addr:city":"Berlin","addr:country":"DE","addr:housenumber":"9","addr:postcode":"10178","addr:street":"Gontardstra\u00dfe","addr:suburb":"Mitte","source":"Geoportal Berlin \/ Hauskoordinaten"}},{"type":"node","id":3379224620,"lat":52.5206208,"lon":13.4096813,"tags":{"name":"M&M Back","opening_hours":"Mo-Su 06:00-24:00","shop":"bakery","toilets:wheelchair":"no","wheelchair":"yes"}},{"type":"node","id":3676215899,"lat":52.5205791,"lon":13.4089041,"tags":{"addr:city":"Berlin","addr:country":"DE","addr:housenumber":"1A","addr:postcode":"10178","addr:street":"Panoramastra\u00dfe","addr:suburb":"Mitte","brand":"K\u00f6rperwelten","contact:email":"memu@MeMu.berlin","contact:phone":"+49 30 847125526","contact:website":"https:\/\/koerperwelten.de\/ausstellung\/berlin\/","fee":"yes","name":"Menschen Museum","opening_hours":"10:00-19:00","operator":"Institute for Plastination e.K","toilets:wheelchair":"yes","tourism":"museum","wheelchair":"yes"}},{"type":"node","id":4713534381,"lat":52.5208928,"lon":13.4094282,"tags":{"addr:city":"Berlin","addr:country":"DE","addr:housenumber":"1a","addr:postcode":"10178","addr:street":"Panoramastra\u00dfe","addr:suburb":"Mitte","amenity":"restaurant","capacity":"200","cuisine":"regional","delivery":"no","description":"Drehrestaurant auf 207 m H\u00f6he","ele":"207","email":"reservierung@tv-turm.de","name":"Sphere Restaurant im Berliner Fernsehturm","opening_hours":"09:00-24:00","outdoor_seating":"no","smoking":"no","takeaway":"no","website":"https:\/\/tv-turm.de","wheelchair":"no"}},{"type":"node","id":4826062336,"lat":52.5210248,"lon":13.409162,"tags":{"addr:city":"Berlin","addr:country":"DE","addr:housenumber":"1a","addr:postcode":"10178","addr:street":"Panoramastra\u00dfe","addr:suburb":"Mitte","contact:phone":"+49 30 240 479 91","contact:website":"https:\/\/www.fattiretours.com","description":"Rent bikes, e-bikes, segways. Guided tours available.","name":"Fat Tire Tours","opening_hours":"Dec-Feb: Mo,We,Sa 09:30-18:00; Mar-Apr: 09:30-18:00; May-Sep: 09:30-20:00; Oct-Nov: 09:30-18:00","service:bicycle:rental":"yes","shop":"bicycle"}},{"type":"node","id":4945782407,"lat":52.5205179,"lon":13.4098917,"tags":{"denotation":"urban","leaf_cycle":"deciduous","leaf_type":"broadleaved","natural":"tree"}},{"type":"node","id":4945782408,"lat":52.5204697,"lon":13.4098843,"tags":{"denotation":"urban","leaf_cycle":"deciduous","leaf_type":"broadleaved","natural":"tree"}},{"type":"node","id":4948143723,"lat":52.5208599,"lon":13.4093633,"tags":{"addr:city":"Berlin","addr:country":"DE","addr:housenumber":"1a","addr:postcode":"10178","addr:street":"Panoramastra\u00dfe","addr:suburb":"Mitte","amenity":"bar","name":"203 Bar im Fernsehturm","opening_hours":"Mo-Su 10:00-00:00","website":"https:\/\/www.tv-turm.de\/de\/bar-restaurant","wheelchair":"no"}},{"type":"node","id":5367726678,"lat":52.5209514,"lon":13.4094796,"tags":{"camera:type":"fixed","man_made":"surveillance","name":"Webcam am RBB-Fernsehzentrum","surveillance":"public","surveillance:type":"camera"}},{"type":"node","id":6286985922,"lat":52.5211138,"lon":13.4089363,"tags":{"denotation":"urban","leaf_cycle":"deciduous","leaf_type":"broadleaved","natural":"tree"}},{"type":"node","id":10196188863,"lat":52.5206153,"lon":13.4099681,"tags":{"access":"yes","addr:floor":"0","amenity":"bicycle_parking","bicycle_parking":"stands","capacity":"28","covered":"no","fee":"no","indoor":"no","level":"0","operator:type":"public","source":"survey"}}]}