{"version":0.6,"generator":"Overpass API 0.7.62.5 1bd436f1","osm3s":{"timestamp_osm_base":"2025-03-12T11:31:09Z","copyright":"The data included in this document is from www.openstreetmap.org. The data is made available under ODbL."},"elements":[{"type":"node","id":429739920,"lat":52.5242857,"lon":13.4081957,"tags":{"addr:city":"Berlin","addr:country":"DE","addr:housenumber":"11b","addr:postcode":"10178","addr:street":"M\u00fcnzstra\u00dfe","addr:suburb":"Mitte"}},{"type":"node","id":429739921,"lat":52.5242844,"lon":13.4080267,"tags":{"addr:city":"Berlin","addr:country":"DE","addr:housenumber":"11c","addr:postcode":"10178","addr:street":"M\u00fcnzstra\u00dfe","addr:suburb":"Mitte"}},{"type":"node","id":712664283,"lat":52.5246983,"lon":13.4080788,"tags":{"access":"yes","addr:floor":"0","amenity":"post_box","collection_times":"Mo-Fr 15:15,17:00,21:15; Sa 14:00; Su 21:15","colour":"yellow","covered":"no","level":"0","material":"steel","operator":"Deutsche Post","operator:wikidata":"Q157645","operator:wikipedia":"de:Deutsche Post AG","post_box:type":"pillar","ref":"Max-Beer-Str. 2-4, 10119 Berlin","source":"survey","support":"ground"}},{"type":"node","id":736760045,"lat":52.5246605,"lon":13.4081748,"tags":{"addr:city":"Berlin","addr:country":"DE","addr:housenumber":"2","addr:postcode":"10119","addr:street":"Max-Beer-Stra\u00dfe","addr:suburb":"Mitte"}},{"type":"node","id":1552565273,"lat":52.5244868,"lon":13.4083479,"tags":{"addr:city":"Berlin","addr:country":"DE","addr:housenumber":"10","addr:postcode":"10178","addr:street":"M\u00fcnzstra\u00dfe","addr:suburb":"Mitte"}},{"type":"node","id":1552565549,"lat":52.524927,"lon":13.4090435,"tags":{"addr:city":"Berlin","addr:country":"DE","addr:housenumber":"9\/11","addr:postcode":"10119","addr:street":"Almstadtstra\u00dfe","addr:suburb":"Mitte"}},{"type":"node","id":1552575431,"lat":52.5246137,"lon":13.4089278,"tags":{"addr:city":"Berlin","addr:country":"DE","addr:housenumber":"5","addr:postcode":"10119","addr:street":"Almstadtstra\u00dfe","addr:suburb":"Mitte"}},{"type":"node","id":1552579928,"lat":52.5247426,"lon":13.4089735,"tags":{"addr:city":"Berlin","addr:country":"DE","addr:housenumber":"7","addr:postcode":"10119","addr:street":"Almstadtstra\u00dfe","addr:suburb":"Mitte"}},{"type":"node","id":1552582728,"lat":52.5243901,"lon":13.4086391,"tags":{"addr:city":"Berlin","addr:country":"DE","addr:housenumber":"8","addr:postcode":"10178","addr:street":"M\u00fcnzstra\u00dfe","addr:suburb":"Mitte"}},{"type":"node","id":1552584029,"lat":52.5248447,"lon":13.4090106,"tags":{"addr:city":"Berlin","addr:country":"DE","addr:housenumber":"9","addr:postcode":"10119","addr:street":"Almstadtstra\u00dfe","addr:suburb":"Mitte"}},{"type":"node","id":1813163738,"lat":52.5245557,"lon":13.4081376,"tags":{"addr:city":"Berlin","addr:country":"DE","addr:housenumber":"12","addr:postcode":"10178","addr:street":"M\u00fcnzstra\u00dfe","addr:suburb":"Mitte","brand":"Suitsupply","brand:wikidata":"Q17149142","check_date":"2024-07-01","clothes":"suits","name":"Suitsupply","opening_hours":"Mo-Sa 10:00-19:00; Su off","shop":"clothes","wheelchair":"no"}},{"type":"node","id":2558612509,"lat":52.5244745,"lon":13.4088869,"tags":{"addr:city":"Berlin","addr:country":"DE","addr:housenumber":"3","addr:postcode":"10119","addr:street":"Almstadtstra\u00dfe","addr:suburb":"Mitte","clothes":"women","contact:phone":"+49 30 88536791","contact:website":"https:\/\/www.estherperbandt.com","name":"Esther Perbandt","operator":"Esther Perbandt","shop":"clothes","wheelchair":"no"}},{"type":"node","id":2772307662,"lat":52.5249107,"lon":13.4082651,"tags":{"addr:city":"Berlin","addr:country":"DE","addr:housenumber":"4","addr:postcode":"10119","addr:street":"Max-Beer-Stra\u00dfe","addr:suburb":"Mitte"}},{"type":"node","id":3239761059,"lat":52.5243115,"lon":13.408829,"tags":{"addr:city":"Berlin","addr:country":"DE","addr:housenumber":"8","addr:postcode":"10178","addr:street":"M\u00fcnzstra\u00dfe","addr:suburb":"Mitte","amenity":"cafe","contact:instagram":"olivcafe","email":"mail@oliv-cafe.de","indoor_seating":"yes","name":"Oliv","opening_hours":"Mo-Fr 09:00-17:00; Sa 09:30-17:00; Su 09:30-15:00","outdoor_seating":"yes","phone":"+49-30-8206540","website":"http:\/\/oliv-cafe.de\/","wheelchair":"no"}},{"type":"node","id":3278528400,"lat":52.5245158,"lon":13.4081605,"tags":{"addr:city":"Berlin","addr:country":"DE","addr:housenumber":"12","addr:postcode":"10178","addr:street":"M\u00fcnzstra\u00dfe","addr:suburb":"Mitte","source":"Geoportal Berlin \/ Hauskoordinaten"}},{"type":"node","id":3353507332,"lat":52.5243539,"lon":13.4086717,"tags":{"addr:city":"Berlin","addr:country":"DE","addr:housenumber":"8","addr:postcode":"10178","addr:street":"M\u00fcnzstra\u00dfe","addr:suburb":"Mitte","brand":"Red Wing","brand:wikidata":"Q934096","brand:wikipedia":"en:Red Wing Shoes","check_date":"2024-11-26","name":"Red Wing","opening_hours":"Mo-Sa 11:00-20:00","operator":"Red Wing","shop":"shoes","website":"https:\/\/www.redwingberlin.com","wheelchair":"no","wheelchair:description":"Schmaler Eingang mit 3 Stufen"}},{"type":"node","id":3895256385,"lat":52.5243114,"lon":13.4081822,"tags":{"addr:city":"Berlin","addr:country":"DE","addr:housenumber":"11b","addr:postcode":"10178","addr:street":"M\u00fcnzstra\u00dfe","addr:suburb":"Mitte","amenity":"fast_food","check_date":"2024-07-01","cuisine":"pizza","name":"Milano Vice","wheelchair":"no"}},{"type":"node","id":4405527122,"lat":52.5244115,"lon":13.4085401,"tags":{"addr:city":"Berlin","addr:country":"DE","addr:floor":"0","addr:housenumber":"8","addr:postcode":"10178","addr:street":"M\u00fcnzstra\u00dfe","addr:suburb":"Mitte","alt_name":"North Face","brand":"The North Face","brand:wikidata":"Q152784","brand:wikipedia":"en:The North Face","check_date":"2024-07-24","clothes":"outdoor","level":"0","name":"The North Face","opening_hours":"Mo-Sa 11:00-19:00","shop":"clothes","source":"survey","wheelchair":"yes"}},{"type":"node","id":4405527125,"lat":52.5242922,"lon":13.4082396,"tags":{"addr:city":"Berlin","addr:country":"DE","addr:housenumber":"11a","addr:postcode":"10178","addr:street":"M\u00fcnzstra\u00dfe","addr:suburb":"Mitte","level":"0","name":"Motel A Miio","opening_hours":"Mo-Sa 11:00-19:00","payment:maestro":"yes","payment:visa":"yes","shop":"interior_decoration","wheelchair":"no"}},{"type":"node","id":4846263845,"lat":52.5248559,"lon":13.4082467,"tags":{"addr:city":"Berlin","addr:country":"DE","addr:housenumber":"2","addr:postcode":"10119","addr:street":"Max-Beer-Stra\u00dfe","addr:suburb":"Mitte","contact:website":"https:\/\/www.babbel.com\/","name":"Babbel","office":"company","operator":"Lesson Nine GmbH"}},{"type":"node","id":5907961754,"lat":52.5243628,"lon":13.4080133,"tags":{"addr:city":"Berlin","addr:country":"DE","addr:housenumber":"11c","addr:postcode":"10178","addr:street":"M\u00fcnzstra\u00dfe","addr:suburb":"Mitte","check_date":"2024-07-01","name":"odlo","opening_hours":"Mo-Sa 11:00-19:00","shop":"clothes","wheelchair":"no"}},{"type":"node","id":6488002048,"lat":52.5242882,"lon":13.4083713,"tags":{"addr:floor":"0","addr:housenumber":"11a","addr:street":"M\u00fcnzstra\u00dfe","amenity":"vending_machine","check_date":"2024-07-05","covered":"no","currency:EUR":"yes","indoor":"no","level":"0","manufacturer":"Parkeon","opening_hours":"24\/7","operator":"Bezirksamt Mitte","payment:app":"yes","payment:cash":"yes","payment:coins":"yes","payment:credit_cards":"yes","payment:debit_cards":"yes","ref":"29-563","source":"survey","vending":"parking_tickets"}},{"type":"node","id":6488003085,"lat":52.5243742,"lon":13.408549,"tags":{"addr:floor":"0","addr:housenumber":"8","addr:street":"M\u00fcnzstra\u00dfe","amenity":"vending_machine","check_date":"2024-07-24","covered":"no","currency:EUR":"yes","indoor":"no","level":"0","manufacturer":"Parkeon","opening_hours":"24\/7","payment:app":"yes","payment:cash":"yes","payment:coins":"yes","payment:credit_cards":"yes","payment:debit_cards":"yes","ref":"29-564","source":"survey","vending":"parking_tickets"}},{"type":"node","id":6732442771,"lat":52.5244632,"lon":13.4083696,"tags":{"addr:city":"Berlin","addr:country":"DE","addr:floor":"0","addr:housenumber":"10","addr:postcode":"10178","addr:street":"M\u00fcnzstra\u00dfe","addr:suburb":"Mitte","brand":"Patagonia","brand:wikidata":"Q1660552","brand:wikipedia":"en:Patagonia, Inc.","check_date":"2024-07-24","clothes":"outdoor","contact:instagram":"https:\/\/www.instagram.com\/patagoniaberlin","contact:website":"https:\/\/eu.patagonia.com\/","level":"0","name":"Patagonia","opening_hours":"Mo-Sa 11:00-19:00; Su,PH off","phone":"+49 30 28652541","shop":"clothes","source":"survey","wheelchair":"no"}},{"type":"node","id":7340671025,"lat":52.5247362,"lon":13.4080913,"tags":{"access":"yes","addr:floor":"0","amenity":"bicycle_parking","bicycle_parking":"stands","capacity":"6","covered":"no","fee":"no","indoor":"no","level":"0","operator:type":"public","source":"survey"}},{"type":"node","id":9829191562,"lat":52.5244864,"lon":13.4080068,"tags":{"crossing":"unmarked","crossing:island":"no","crossing:markings":"no","highway":"crossing","tactile_paving":"no"}},{"type":"node","id":10760500661,"lat":52.524524,"lon":13.4080783,"tags":{"amenity":"waste_basket","colour":"orange","covered":"no","indoor":"no","material":"steel","operator":"BSR","source":"survey","waste":"cigarettes;dog_excrement;trash"}},{"type":"node","id":10760508350,"lat":52.5247524,"lon":13.4080959,"tags":{"leaf_type":"broadleaved","natural":"tree"}},{"type":"node","id":10760508364,"lat":52.5248472,"lon":13.4081963,"tags":{"barrier":"gate"}},{"type":"node","id":10761261503,"lat":52.5249216,"lon":13.4090771,"tags":{"entrance":"yes"}},{"type":"node","id":10763204005,"lat":52.5249038,"lon":13.4090232,"tags":{"addr:city":"Berlin","addr:country":"DE","addr:housenumber":"9-11","addr:postcode":"10119","addr:street":"Almstadtstra\u00dfe","amenity":"restaurant","check_date":"2024-06-11","contact:phone":"+49 30 23455877","contact:website":"https:\/\/www.theklubkitchen.com","email":"INFO@THEKLUBKITCHEN.COM","indoor_seating":"yes","internet_access":"wlan","level":"0","name":"The Klub Kitchen","opening_hours":"Mo-Sa 12:00-19:00; PH off","outdoor_seating":"yes","payment:cash":"yes","payment:credit_cards":"yes","payment:debit_cards":"yes"}},{"type":"node","id":10935309349,"lat":52.5244913,"lon":13.408274,"tags":{"addr:city":"Berlin","addr:country":"DE","addr:housenumber":"10","addr:postcode":"10178","addr:street":"M\u00fcnzstra\u00dfe","amenity":"fast_food","check_date":"2024-09-02","check_date:opening_hours":"2024-09-02","contact:website":"https:\/\/bavarian-hotdog.com\/","cuisine":"hot_dog","diet:vegetarian":"yes","name":"Bavarian Hotdog","opening_hours:signed":"no"}},{"type":"node","id":12041296434,"lat":52.5248402,"lon":13.4081267,"tags":{"access":"yes","addr:floor":"0","amenity":"bicycle_parking","bicycle_parking":"stands","capacity":"4","covered":"no","fee":"no","indoor":"no","level":"0","operator:type":"public","source":"survey"}},{"type":"node","id":12041299978,"lat":52.5243698,"lon":13.4085195,"tags":{"man_made":"manhole","manhole":"yes"}},{"type":"node","id":12041299979,"lat":52.5247861,"lon":13.4081094,"tags":{"access":"yes","addr:floor":"0","amenity":"bicycle_parking","bicycle_parking":"stands","capacity":"10","covered":"no","fee":"no","indoor":"no","level":"0","operator:type":"public","source":"survey"}},{"type":"node","id":12041299980,"lat":52.524818,"lon":13.4081154,"tags":{"highway":"street_lamp"}},{"type":"node","id":12041299982,"lat":52.5248966,"lon":13.4081516,"tags":{"access":"yes","addr:floor":"0","amenity":"bicycle_parking","bicycle_parking":"stands","capacity":"10","covered":"no","fee":"no","indoor":"no","level":"0","operator:type":"public","source":"survey"}},{"type":"node","id":12041299983,"lat":52.5249246,"lon":13.4081665,"tags":{"natural":"tree"}},{"type":"node","id":12072258429,"lat":52.5246244,"lon":13.4080334,"tags":{"highway":"street_lamp","lamp_mount":"straight_mast","support":"ground"}},{"type":"node","id":12072258432,"lat":52.5242966,"lon":13.4090477,"tags":{"colour":"grey","man_made":"street_cabinet","street_cabinet":"postal_service"}},{"type":"node","id":12072258433,"lat":52.5243075,"lon":13.4090499,"tags":{"colour":"grey","man_made":"street_cabinet"}},{"type":"node","id":12072258434,"lat":52.5243282,"lon":13.4090565,"tags":{"highway":"street_lamp","lamp_mount":"straight_mast","support":"ground"}},{"type":"node","id":12072258436,"lat":52.5244462,"lon":13.4083244,"tags":{"contact:website":"https:\/\/www.stolpersteine-berlin.de\/biografie\/9011","historic":"memorial","memorial":"stolperstein","memorial:addr:housenumber":"10","memorial:addr:street":"M\u00fcnzstra\u00dfe","name":"Wolf Engelberg","source":"survey"}},{"type":"node","id":12072258437,"lat":52.5244462,"lon":13.4083244,"tags":{"contact:website":"https:\/\/www.stolpersteine-berlin.de\/biografie\/9012","historic":"memorial","memorial":"stolperstein","memorial:addr:housenumber":"10","memorial:addr:street":"M\u00fcnzstra\u00dfe","name":"Maleia C\u00e4cilie Engelberg"}},{"type":"node","id":12072258438,"lat":52.5244462,"lon":13.4083244,"tags":{"contact:website":"https:\/\/www.stolpersteine-berlin.de\/biografie\/9013","historic":"memorial","memorial":"stolperstein","memorial:addr:housenumber":"10","memorial:addr:street":"M\u00fcnzstra\u00dfe","name":"Adolf Engelberg"}},{"type":"node","id":12072258439,"lat":52.5244462,"lon":13.4083244,"tags":{"contact:website":"https:\/\/www.stolpersteine-berlin.de\/biografie\/9014","historic":"memorial","memorial":"stolperstein","memorial:addr:housenumber":"10","memorial:addr:street":"M\u00fcnzstra\u00dfe","name":"Feiwel Philip Engelberg"}},{"type":"node","id":12072258440,"lat":52.5244462,"lon":13.4083244,"tags":{"contact:website":"https:\/\/www.stolpersteine-berlin.de\/biografie\/9015","historic":"memorial","memorial":"stolperstein","memorial:addr:housenumber":"10","memorial:addr:street":"M\u00fcnzstra\u00dfe","name":"David Engelberg"}},{"type":"node","id":12072258441,"lat":52.5244985,"lon":13.4081557,"tags":{"addr:floor":"0","emergency":"fire_hydrant","fire_hydrant:diameter":"80","fire_hydrant:position":"sidewalk","fire_hydrant:type":"underground","level":"0","source":"survey","water_source":"main"}},{"type":"node","id":12072258442,"lat":52.5244769,"lon":13.4081707,"tags":{"man_made":"manhole","manhole":"drain"}},{"type":"node","id":12176647741,"lat":52.5244245,"lon":13.4080169,"tags":{"highway":"street_lamp"}}]}