{"version":0.6,"generator":"Overpass API 0.7.62.5 1bd436f1","osm3s":{"timestamp_osm_base":"2025-03-12T11:24:02Z","copyright":"The data included in this document is from www.openstreetmap.org. The data is made available under ODbL."},"elements":[{"type":"node","id":27411231,"lat":52.5214176,"lon":13.4113816,"tags":{"description":"S Alexanderplatz, Gleis 3","light_rail":"yes","name":"Alexanderplatz","name:ja":"\u30a2\u30ec\u30af\u30b5\u30f3\u30c0\u30fc\u5e83\u5834","public_transport":"stop_position","railway":"stop","ref":"3","train":"yes"}},{"type":"node","id":30731508,"lat":52.5208822,"lon":13.4115103,"tags":{"local_ref":"16","name":"S+U Alexanderplatz\/Gontardstra\u00dfe","public_transport":"stop_position","railway":"tram_stop","ref:BVG":"308807","tram":"yes","website":"https:\/\/qr.bvg.de\/h308807"}},{"type":"node","id":318149465,"lat":52.521073,"lon":13.4122205,"tags":{"amenity":"fast_food","brand":"McDonald's","brand:wikidata":"Q38076","brand:wikipedia":"en:McDonald's","cuisine":"burger","diet:vegetarian":"limited","indoor_seating":"yes","level":"0","name":"McDonald's","outdoor_seating":"no","takeaway":"yes","wheelchair":"yes"}},{"type":"node","id":318149466,"lat":52.5211976,"lon":13.4118911,"tags":{"addr:city":"Berlin","addr:country":"DE","addr:housenumber":"2","addr:postcode":"10179","addr:street":"Dircksenstra\u00dfe","addr:suburb":"Mitte","amenity":"fast_food","check_date":"2023-04-26","check_date:opening_hours":"2023-01-11","contact:phone":"+49 30 200738102","delivery":"no","drive_through":"no","indoor_seating":"yes","name":"Currywurst Express","opening_hours":"Mo-We 08:00-23:30, Th-Sa 08:00-24:00+, Su 08:00-22:30","opening_hours:signed":"no","outdoor_seating":"no","smoking":"no","takeaway":"yes","wheelchair":"yes"}},{"type":"node","id":318149467,"lat":52.5212635,"lon":13.4117898,"tags":{"brand":"Kamps","brand:wikidata":"Q1723381","brand:wikipedia":"de:Kamps (Unternehmen)","check_date:opening_hours":"2023-09-07","indoor_seating":"yes","name":"Kamps","opening_hours":"Mo-Su 04:00-20:00","outdoor_seating":"no","shop":"bakery","smoking":"no","wheelchair":"yes"}},{"type":"node","id":1615531689,"lat":52.5213728,"lon":13.4120602,"tags":{"local_ref":"14","name":"S+U Alexanderplatz\/Dircksenstra\u00dfe","public_transport":"stop_position","railway":"tram_stop","ref:BVG":"308817","tram":"yes","website":"https:\/\/qr.bvg.de\/h308817","wheelchair":"yes"}},{"type":"node","id":1615531690,"lat":52.5212295,"lon":13.4122808,"tags":{"noexit":"yes","note":"no buffer stop","railway":"signal","railway:signal:direction":"forward","railway:signal:minor":"DE-BOStrab:sh2","railway:signal:minor:form":"sign","railway:signal:position":"overhead"}},{"type":"node","id":1813690786,"lat":52.5210161,"lon":13.4121267,"tags":{"bicycle":"yes","highway":"elevator","indoor":"yes","level":"0;1","wheelchair":"yes"}},{"type":"node","id":1840339724,"lat":52.5215406,"lon":13.4116674,"tags":{"check_date:wheelchair":"2021-06-20","destination":"Dircksenstra\u00dfe;Gontardstra\u00dfe;Fernsehturm;Bahn;S-Bahn;Tram","level":"0","name":"Alexanderplatz","railway":"subway_entrance","ref":"K","wheelchair":"no"}},{"type":"node","id":2094266775,"lat":52.5212781,"lon":13.412122,"tags":{"description":"U Alexanderplatz, Gleis 1","fixme":"position approx","layer":"-1","name":"Alexanderplatz","name:BVG":"S+U Alexanderplatz [U8]","name:ja":"\u30a2\u30ec\u30af\u30b5\u30f3\u30c0\u30fc\u5e83\u5834","public_transport":"stop_position","railway":"stop","ref:BVG":"283601","subway":"yes","website":"https:\/\/qr.bvg.de\/h283601"}},{"type":"node","id":2094266983,"lat":52.5213277,"lon":13.4124036,"tags":{"description":"U Alexanderplatz, Gleis 2","fixme":"position approx","layer":"-1","name":"Alexanderplatz","name:BVG":"S+U Alexanderplatz [U8]","name:ja":"\u30a2\u30ec\u30af\u30b5\u30f3\u30c0\u30fc\u5e83\u5834","public_transport":"stop_position","railway":"stop","ref:BVG":"283602","subway":"yes","website":"https:\/\/qr.bvg.de\/h283602"}},{"type":"node","id":2094392738,"lat":52.5214883,"lon":13.4117522,"tags":{"level":"-1"}},{"type":"node","id":2182534894,"lat":52.5209952,"lon":13.4117495,"tags":{"amenity":"fast_food","check_date":"2022-11-15","cuisine":"fish_and_chips","indoor_seating":"yes","level":"0","name":"F!sh&Ch!ps","outdoor_seating":"no","wheelchair":"yes"}},{"type":"node","id":2182534895,"lat":52.5209428,"lon":13.4118399,"tags":{"amenity":"fast_food","check_date":"2022-11-15","cuisine":"kebab;pizza","indoor_seating":"yes","level":"0","name":"Pergamon","opening_hours":"Su-Th 10:00-05:00, Fr,Sa 10:00-06:00","outdoor_seating":"no","takeaway":"yes","wheelchair":"yes"}},{"type":"node","id":2776837147,"lat":52.5209551,"lon":13.4120654,"tags":{"entrance":"yes","public_transport":"entrance","wheelchair":"yes"}},{"type":"node","id":2776837148,"lat":52.5209573,"lon":13.4119168,"tags":{"level":"0"}},{"type":"node","id":2776837168,"lat":52.5210457,"lon":13.4118703,"tags":{"level":"-1"}},{"type":"node","id":2776837176,"lat":52.5210574,"lon":13.4118029,"tags":{"level":"0"}},{"type":"node","id":2776837177,"lat":52.5210617,"lon":13.4119208,"tags":{"level":"-1"}},{"type":"node","id":2776837184,"lat":52.5210824,"lon":13.4118616,"tags":{"level":"0"}},{"type":"node","id":2776837186,"lat":52.5210837,"lon":13.4118517,"tags":{"level":"0"}},{"type":"node","id":2776837194,"lat":52.5210857,"lon":13.4118749,"tags":{"level":"0"}},{"type":"node","id":2776837195,"lat":52.5210862,"lon":13.4117759,"tags":{"level":"0"}},{"type":"node","id":2776837200,"lat":52.5210893,"lon":13.4119416,"tags":{"level":"-1"}},{"type":"node","id":2776837201,"lat":52.5210901,"lon":13.4118798,"tags":{"level":"0"}},{"type":"node","id":2776837204,"lat":52.5210931,"lon":13.4118407,"tags":{"level":"0"}},{"type":"node","id":2776837214,"lat":52.521098,"lon":13.4118412,"tags":{"level":"0"}},{"type":"node","id":2776837218,"lat":52.5211006,"lon":13.411879,"tags":{"level":"0"}},{"type":"node","id":2776837221,"lat":52.5211028,"lon":13.4118453,"tags":{"level":"0"}},{"type":"node","id":2776837230,"lat":52.5211065,"lon":13.4118678,"tags":{"level":"0"}},{"type":"node","id":2776837231,"lat":52.5211067,"lon":13.4118551,"tags":{"level":"0"}},{"type":"node","id":2776837233,"lat":52.5211103,"lon":13.4117779,"tags":{"level":"0"}},{"type":"node","id":2776837237,"lat":52.5211228,"lon":13.4119295,"tags":{"level":"-1"}},{"type":"node","id":2776837240,"lat":52.5211337,"lon":13.4118022,"tags":{"level":"0"}},{"type":"node","id":2776837246,"lat":52.5211432,"lon":13.4118893,"tags":{"level":"0"}},{"type":"node","id":2776837248,"lat":52.5211455,"lon":13.4118397,"tags":{"level":"0"}},{"type":"node","id":2776837254,"lat":52.5211682,"lon":13.4115329,"tags":{"level":"-1"}},{"type":"node","id":2776837256,"lat":52.5211772,"lon":13.4115394,"tags":{"level":"0"}},{"type":"node","id":2776837257,"lat":52.5211807,"lon":13.4115552,"tags":{"level":"-1"}},{"type":"node","id":2776837266,"lat":52.5212558,"lon":13.4114179,"tags":{"level":"1"}},{"type":"node","id":2776837273,"lat":52.5212709,"lon":13.4117173,"tags":{"level":"-1"}},{"type":"node","id":2776837274,"lat":52.521279,"lon":13.411364,"tags":{"level":"0"}},{"type":"node","id":2776837278,"lat":52.5212831,"lon":13.4117391,"tags":{"level":"-1"}},{"type":"node","id":2776837280,"lat":52.5212764,"lon":13.4117312,"tags":{"level":"0"}},{"type":"node","id":2776837282,"lat":52.5212914,"lon":13.4113861,"tags":{"level":"0"}},{"type":"node","id":2776837296,"lat":52.521355,"lon":13.4116095,"tags":{"level":"1"}},{"type":"node","id":2776837301,"lat":52.5211008,"lon":13.4114356,"tags":{"entrance":"yes","entrance_marker:s-train":"yes","public_transport":"entrance","wheelchair":"yes"}},{"type":"node","id":2776837303,"lat":52.5213813,"lon":13.4115504,"tags":{"level":"0"}},{"type":"node","id":2776837304,"lat":52.5213934,"lon":13.4115726,"tags":{"level":"0"}},{"type":"node","id":2776837307,"lat":52.5213952,"lon":13.411549,"tags":{"level":"0"}},{"type":"node","id":2776837321,"lat":52.5214501,"lon":13.4114329,"tags":{"level":"0"}},{"type":"node","id":2776837323,"lat":52.5214622,"lon":13.4114551,"tags":{"level":"0"}},{"type":"node","id":2776837334,"lat":52.5215414,"lon":13.4113337,"tags":{"level":"1"}},{"type":"node","id":2777026094,"lat":52.5211971,"lon":13.4123835,"tags":{"level":"-4"}},{"type":"node","id":2777026107,"lat":52.5212626,"lon":13.4122813,"tags":{"level":"-3"}},{"type":"node","id":2777026110,"lat":52.521266,"lon":13.412291,"tags":{"level":"-3"}},{"type":"node","id":2777153465,"lat":52.5213792,"lon":13.4121385,"tags":{"level":"-3"}},{"type":"node","id":2777153479,"lat":52.5214166,"lon":13.4120811,"tags":{"level":"-1"}},{"type":"node","id":3527949188,"lat":52.5211998,"lon":13.4123927,"tags":{"level":"-1"}},{"type":"node","id":3672491302,"lat":52.5209157,"lon":13.4118478,"tags":{"note":"Schild Zugl\u00e4nge \"160 m\", links von Wegrichtung, in Wegrichtung","operator":"DB Netz AG","railway":"signal","railway:signal:direction":"forward","railway:signal:position":"right","source":"estimation; survey"}},{"type":"node","id":3733305310,"lat":52.5213292,"lon":13.41187,"tags":{"entrance":"yes","entrance_marker:s-train":"yes","public_transport":"entrance","wheelchair":"yes"}},{"type":"node","id":3808496676,"lat":52.5211228,"lon":13.4120833,"tags":{"railway":"signal","railway:signal:direction":"backward","railway:signal:position":"right","railway:signal:stop":"DE-ESO:ne5","railway:signal:stop:form":"sign","railway:signal:stop:height":"dwarf"}},{"type":"node","id":3808684875,"lat":52.520918,"lon":13.4119673,"tags":{"bicycle":"yes","highway":"elevator","indoor":"yes","level":"-1;0;1","wheelchair":"yes"}},{"type":"node","id":3808684880,"lat":52.5209351,"lon":13.4119424,"tags":{"level":"1"}},{"type":"node","id":3808684892,"lat":52.5210269,"lon":13.4121112,"tags":{"level":"0"}},{"type":"node","id":3808684895,"lat":52.5210296,"lon":13.4121058,"tags":{"level":"1"}},{"type":"node","id":3808684896,"lat":52.5209811,"lon":13.4120689,"tags":{"description":"Ks-Mehrabschnittssignal mit Richtungsanzeiger (Zs 2) in s\u00fcd\u00f6stlicher Richtung","note":"Zeigt Ks 1 + Zs 2 \"S\" f\u00fcr Fahrstra\u00dfe ins Regelgleis Richtung Ostbahnhof","operator":"DB InfraGO AG","railway":"signal","railway:signal:combined":"DE-ESO:ks","railway:signal:combined:deactivated":"no","railway:signal:combined:form":"light","railway:signal:combined:function":"block","railway:signal:combined:height":"normal","railway:signal:combined:shortened":"no","railway:signal:combined:states":"DE-ESO:hp0;DE-ESO:ks1;DE-ESO:ks2","railway:signal:combined:substitute_signal":"DE-ESO:db:zs12;DE-ESO:db:zs7","railway:signal:departure":"DE-ESO:zp","railway:signal:departure:deactivated":"no","railway:signal:departure:form":"light","railway:signal:departure:states":"DE-ESO:zp10;DE-ESO:zp9","railway:signal:direction":"forward","railway:signal:position":"left","railway:signal:route":"DE-ESO:zs2","railway:signal:route:deactivated":"no","railway:signal:route:form":"light","railway:signal:route:states":"R;S","railway:signal:speed_limit_distant":"DE-ESO:zs3v","railway:signal:speed_limit_distant:deactivated":"no","railway:signal:speed_limit_distant:form":"light","railway:signal:speed_limit_distant:height":"normal","railway:signal:speed_limit_distant:speed":"50;off","railway:signal:traversable":"DE-ESO:mastschild_rot-weiss","railway:signal:traversable:type":"written_default_speed;dictated_default_speed","ref":"56"}},{"type":"node","id":4388936224,"lat":52.5212498,"lon":13.4115986,"tags":{"amenity":"cafe","brand":"Starbucks","brand:wikidata":"Q37158","brand:wikipedia":"en:Starbucks","check_date":"2023-04-26","cuisine":"coffee_shop","internet_access":"wlan","level":"0","name":"Starbucks","official_name":"Starbucks Coffee","opening_hours":"Mo-Fr 06:00-21:00; Sa 07:00-21:00; Su,PH 08:00-21:00","source":"http:\/\/wiki.openstreetmap.org\/wiki\/Key:cuisine","takeaway":"yes","website":"https:\/\/www.starbucks.com\/store-locator\/store\/1018897\/bahnhof-alexanderplatz-dircksenstrasse-2-berlin-be-10179-de","wheelchair":"yes"}},{"type":"node","id":4388936225,"lat":52.5214342,"lon":13.4115335,"tags":{"amenity":"vending_machine","check_date":"2022-08-23","indoor":"yes","opening_hours":"Mo-Fr 06:00-21:30; Sa 07:00-20:00; Su 10:00-19:00","vending":"public_transport_tickets"}},{"type":"node","id":4839547038,"lat":52.520961,"lon":13.4119326,"tags":{"addr:housenumber":"2","addr:postcode":"10179","addr:street":"Dircksenstra\u00dfe","amenity":"fast_food","cuisine":"kebab;pizza","indoor_seating":"yes","name":"Pergamon D\u00f6ner & Pizza","name:de":"Pergamon D\u00f6ner & Pizza","name:en":"Pergamon D\u00f6ner & Pizza","opening_hours":"Mo-Th 10:00-17:00; Fr,Sa 10:00-18:00; Su 10:00-17:00","outdoor_seating":"yes","phone":"+493027572690","website":"https:\/\/www.pergamongrill.de\/"}},{"type":"node","id":4868625061,"lat":52.5210459,"lon":13.4121726,"tags":{"note":"Zeigt Ks 1 + Zs 2 \"S\" f\u00fcr Fahrstra\u00dfe ins Regelgleis Richtung Ostbahnhof","operator":"DB InfraGO AG","railway":"signal","railway:signal:combined":"DE-ESO:ks","railway:signal:combined:deactivated":"no","railway:signal:combined:form":"light","railway:signal:combined:function":"block","railway:signal:combined:height":"normal","railway:signal:combined:shortened":"no","railway:signal:combined:states":"DE-ESO:hp0;DE-ESO:ks1;DE-ESO:ks2","railway:signal:combined:substitute_signal":"DE-ESO:db:zs12;DE-ESO:db:zs7","railway:signal:departure":"DE-ESO:zp","railway:signal:departure:deactivated":"no","railway:signal:departure:form":"light","railway:signal:departure:states":"DE-ESO:zp10;DE-ESO:zp9","railway:signal:direction":"backward","railway:signal:position":"left","railway:signal:route":"DE-ESO:zs2","railway:signal:route:deactivated":"no","railway:signal:route:form":"light","railway:signal:route:states":"R;S","railway:signal:speed_limit_distant":"DE-ESO:zs3v","railway:signal:speed_limit_distant:deactivated":"no","railway:signal:speed_limit_distant:form":"light","railway:signal:speed_limit_distant:height":"normal","railway:signal:speed_limit_distant:speed":"50;off","railway:signal:traversable":"DE-ESO:mastschild_rot-weiss","railway:signal:traversable:type":"written_default_speed;dictated_default_speed","ref":"54"}},{"type":"node","id":5511600373,"lat":52.5215119,"lon":13.4113699,"tags":{"addr:city":"Berlin","addr:country":"DE","addr:housenumber":"120","addr:place":"Stadtbahnbogen","addr:postcode":"10179","addr:suburb":"Mitte","de:strassenschluessel":"11000000000009138","source":"Geoportal Berlin: RBS-Adressen"}},{"type":"node","id":5511600374,"lat":52.5212826,"lon":13.4117717,"tags":{"addr:city":"Berlin","addr:country":"DE","addr:housenumber":"119","addr:place":"Stadtbahnbogen","addr:postcode":"10179","addr:suburb":"Mitte","de:strassenschluessel":"11000000000009138","source":"Geoportal Berlin: RBS-Adressen"}},{"type":"node","id":5511600408,"lat":52.5211429,"lon":13.4120287,"tags":{"addr:city":"Berlin","addr:country":"DE","addr:housenumber":"118","addr:place":"Stadtbahnbogen","addr:postcode":"10179","addr:suburb":"Mitte","de:strassenschluessel":"11000000000009138","source":"Geoportal Berlin: RBS-Adressen"}},{"type":"node","id":6074181222,"lat":52.5214746,"lon":13.411591,"tags":{"amenity":"pub","contact:website":"http:\/\/www.alkopole.de","indoor_seating":"yes","level":"0","name":"Bierbar Alkopole","opening_hours":"Mo-We 10:00-23:00, Th-Sa 09:00-01:00, Su,PH 11:00-22:00","outdoor_seating":"yes"}},{"type":"node","id":6122518789,"lat":52.5209809,"lon":13.4118007,"tags":{"amenity":"luggage_locker","charge":"4\u20ac\/24h","fee":"yes","indoor":"yes","operator":"DB Station&Service AG","payment:coins":"yes"}},{"type":"node","id":6449262006,"lat":52.5213789,"lon":13.4117396,"tags":{"disused:shop":"yes","level":"0"}},{"type":"node","id":7682218085,"lat":52.5211636,"lon":13.411378,"tags":{"level":"0","name":"(hub)convenience","opening_hours":"Mo-Fr 07:00-22:00; Sa,Su 08:00-22:00","shop":"convenience"}},{"type":"node","id":10113353127,"lat":52.5213587,"lon":13.4114134,"tags":{"check_date":"2022-10-19","level":"0","name":"Tabakhaus Durek","opening_hours":"Mo-Fr 06:00-21:00; Sa 08:00-21:00; Su,PH 10:00-18:00","shop":"tobacco"}},{"type":"node","id":10185196711,"lat":52.5211849,"lon":13.4116844,"tags":{"brand":"Ditsch","brand:wikidata":"Q911573","check_date":"2022-11-15","level":"0","name":"Ditsch","opening_hours":"Mo-Fr 04:00-21:00; Sa 05:00-20:00; Su 08:00-19:00","shop":"bakery"}},{"type":"node","id":10185196712,"lat":52.5210664,"lon":13.4116226,"tags":{"amenity":"fast_food","brand":"Burger King","brand:wikidata":"Q177054","check_date":"2025-02-06","check_date:diet:vegan":"2025-02-06","cuisine":"burger","diet:vegan":"no","diet:vegetarian":"yes","indoor_seating":"no","level":"0","name":"Burger King","opening_hours":"Mo-Th,Su 10:00-22:00; Fr-Sa 10:00-23:00","outdoor_seating":"no","takeaway":"only","wheelchair":"yes"}},{"type":"node","id":10800211958,"lat":52.5213276,"lon":13.4118391,"tags":{"camera:mount":"ceiling","camera:type":"dome","man_made":"surveillance","surveillance":"public","surveillance:type":"camera","surveillance:zone":"station"}},{"type":"node","id":10800211959,"lat":52.521263,"lon":13.4117347,"tags":{"camera:mount":"ceiling","camera:type":"dome","man_made":"surveillance","surveillance":"public","surveillance:type":"camera","surveillance:zone":"station"}},{"type":"node","id":10800211960,"lat":52.5210905,"lon":13.4114651,"tags":{"camera:mount":"ceiling","camera:type":"dome","man_made":"surveillance","surveillance":"public","surveillance:type":"camera","surveillance:zone":"station"}},{"type":"node","id":10800211961,"lat":52.5211525,"lon":13.4115986,"tags":{"camera:mount":"ceiling","camera:type":"dome","man_made":"surveillance","surveillance":"public","surveillance:type":"camera","surveillance:zone":"station"}},{"type":"node","id":11427300524,"lat":52.5212462,"lon":13.4119046,"tags":{"railway":"signal","railway:signal:direction":"backward","railway:signal:position":"right","railway:signal:stop":"DE-ESO:ne5","railway:signal:stop:caption":"24 x Kurzzug","railway:signal:stop:form":"sign","railway:signal:stop:height":"dwarf"}},{"type":"node","id":11427300525,"lat":52.5211993,"lon":13.4119785,"tags":{"railway":"signal","railway:signal:direction":"forward","railway:signal:electricity":"DE-ESO:el2","railway:signal:electricity:form":"sign","railway:signal:electricity:height":"dwarf","railway:signal:electricity:type":"power_on","railway:signal:position":"right"}},{"type":"node","id":11427300526,"lat":52.5210594,"lon":13.4121565,"tags":{"operator":"DB InfraGO AG","railway":"signal","railway:signal:combined":"DE-ESO:ks","railway:signal:combined:deactivated":"no","railway:signal:combined:form":"light","railway:signal:combined:function":"block","railway:signal:combined:height":"normal","railway:signal:combined:shortened":"no","railway:signal:combined:states":"DE-ESO:hp0;DE-ESO:ks1;DE-ESO:ks2","railway:signal:combined:substitute_signal":"DE-ESO:db:zs12;DE-ESO:db:zs7;DE-ESO:dr:zs1","railway:signal:direction":"forward","railway:signal:position":"right","railway:signal:speed_limit_distant":"DE-ESO:zs3v","railway:signal:speed_limit_distant:deactivated":"no","railway:signal:speed_limit_distant:form":"light","railway:signal:speed_limit_distant:height":"normal","railway:signal:speed_limit_distant:speed":"50;off","railway:signal:traversable":"DE-ESO:mastschild_rot-weiss","railway:signal:traversable:type":"written_default_speed;dictated_default_speed","ref":"59"}},{"type":"node","id":11427300528,"lat":52.5209106,"lon":13.412083,"tags":{"railway":"signal","railway:signal:direction":"backward","railway:signal:position":"left","railway:signal:stop":"DE-ESO:ne5","railway:signal:stop:caption":"160 m","railway:signal:stop:form":"sign","railway:signal:stop:height":"normal"}},{"type":"node","id":11427300529,"lat":52.5210568,"lon":13.4119501,"tags":{"railway":"signal","railway:signal:direction":"forward","railway:signal:position":"right","railway:signal:stop":"DE-ESO:ne5","railway:signal:stop:form":"sign","railway:signal:stop:height":"dwarf"}},{"type":"node","id":11427300530,"lat":52.5211719,"lon":13.4117691,"tags":{"railway":"signal","railway:signal:direction":"forward","railway:signal:position":"right","railway:signal:stop":"DE-ESO:ne5","railway:signal:stop:caption":"24 x Kurzzug","railway:signal:stop:form":"sign","railway:signal:stop:height":"dwarf"}},{"type":"node","id":11435862529,"lat":52.5210823,"lon":13.411565,"tags":{"note":"Schild Zugl\u00e4nge \"140 m\", links von Wegrichtung, in Wegrichtung","railway":"signal"}},{"type":"node","id":12024314291,"lat":52.5214369,"lon":13.4120849,"tags":{"amenity":"waste_basket","colour":"orange","covered":"no","indoor":"no","material":"steel","operator":"BSR","source":"survey","waste":"cigarettes;dog_excrement;trash"}},{"type":"node","id":12041296453,"lat":52.5210711,"lon":13.4122931,"tags":{"amenity":"waste_basket","colour":"orange","covered":"no","indoor":"no","material":"steel","operator":"BSR","waste":"cigarettes;dog_excrement;trash"}},{"type":"node","id":12041296454,"lat":52.5211787,"lon":13.4122813,"tags":{"amenity":"waste_basket","colour":"orange","covered":"no","indoor":"no","material":"steel","operator":"BSR","waste":"cigarettes;dog_excrement;trash"}},{"type":"node","id":12041296455,"lat":52.521247,"lon":13.4124044,"tags":{"amenity":"waste_basket","colour":"orange","covered":"no","indoor":"no","material":"steel","operator":"BSR","source":"survey","waste":"cigarettes;dog_excrement;trash"}},{"type":"node","id":12041296456,"lat":52.5213899,"lon":13.4119476,"tags":{"amenity":"waste_basket","colour":"orange","covered":"no","indoor":"no","material":"steel","operator":"BSR","waste":"cigarettes;dog_excrement;trash"}},{"type":"node","id":12041296457,"lat":52.5214962,"lon":13.4117779,"tags":{"amenity":"waste_basket","colour":"orange","covered":"no","indoor":"no","material":"steel","operator":"BSR","waste":"cigarettes;dog_excrement;trash"}}]}