{"version":0.6,"generator":"Overpass API 0.7.62.5 1bd436f1","osm3s":{"timestamp_osm_base":"2025-03-12T11:29:07Z","copyright":"The data included in this document is from www.openstreetmap.org. The data is made available under ODbL."},"elements":[{"type":"node","id":1825682816,"lat":52.5237464,"lon":13.4174074,"tags":{"addr:city":"Berlin","addr:housenumber":"2","addr:postcode":"10178","addr:street":"Theanolte-B\u00e4hnisch-Stra\u00dfe","brand":"Premier Inn","brand:wikidata":"Q2108626","brand:wikipedia":"en:Holiday Inn","internet_access":"yes","internet_access:fee":"customers","internet_access:operator":"Virgin Media","internet_access:ssid":"Premier Inn Free Wi-Fi","name":"Premier Inn Berlin Alexanderplatz","phone":"+49 30 740747","tourism":"hotel","website":"https:\/\/www.premierinn.com\/gb\/en\/hotels\/germany\/berlin\/berlin\/berlin-alexanderplatz.html","wheelchair":"yes"}},{"type":"node","id":1825682839,"lat":52.5240218,"lon":13.4173768,"tags":{"addr:city":"Berlin","addr:country":"DE","addr:housenumber":"5","addr:postcode":"10178","addr:street":"Bernhard-Wei\u00df-Stra\u00dfe","addr:suburb":"Mitte","brand":"Hotel Indigo","brand:wikidata":"Q5911596","brand:wikipedia":"en:Hotel Indigo","name":"Hotel Indigo Berlin Alexanderplatz","tourism":"hotel","wheelchair":"limited"}},{"type":"node","id":1827349673,"lat":52.5238133,"lon":13.4178901,"tags":{"addr:city":"Berlin","addr:country":"DE","addr:housenumber":"65","addr:postcode":"10178","addr:street":"Otto-Braun-Stra\u00dfe","addr:suburb":"Mitte","contact:email":"reception.gebap@staygenerator.com","contact:instagram":"staygenerator","contact:phone":"+493016634260","contact:website":"https:\/\/staygenerator.com\/hostels\/berlin\/alexanderplatz","email":"reception.gebap@staygenerator.com","guest_house":"hostel","internet_access":"wlan","name":"Generator Berlin Alexanderplatz","note":"Check-in from 15h; Check-out until 10h","phone":"+493016634260","tourism":"hostel","website":"https:\/\/staygenerator.com\/hostels\/berlin\/alexanderplatz","wheelchair":"yes"}},{"type":"node","id":2813486102,"lat":52.5238024,"lon":13.4174601,"tags":{"addr:city":"Berlin","addr:country":"DE","addr:housenumber":"2","addr:postcode":"10178","addr:street":"Theanolte-B\u00e4hnisch-Stra\u00dfe","addr:suburb":"Mitte"}},{"type":"node","id":2813486103,"lat":52.5241611,"lon":13.417434,"tags":{"addr:city":"Berlin","addr:country":"DE","addr:housenumber":"3","addr:postcode":"10178","addr:street":"Bernhard-Wei\u00df-Stra\u00dfe","addr:suburb":"Mitte"}},{"type":"node","id":2813486104,"lat":52.5240436,"lon":13.4172932,"tags":{"addr:city":"Berlin","addr:country":"DE","addr:housenumber":"5","addr:postcode":"10178","addr:street":"Bernhard-Wei\u00df-Stra\u00dfe","addr:suburb":"Mitte"}},{"type":"node","id":2813486105,"lat":52.5238818,"lon":13.4179296,"tags":{"addr:city":"Berlin","addr:country":"DE","addr:housenumber":"65","addr:postcode":"10178","addr:street":"Otto-Braun-Stra\u00dfe","addr:suburb":"Mitte"}},{"type":"node","id":4431590691,"lat":52.5241688,"lon":13.4173199,"tags":{"amenity":"bicycle_parking","bicycle_parking":"stands","capacity":"14","check_date:capacity":"2024-02-25","covered":"no","fee":"no"}},{"type":"node","id":6580081992,"lat":52.5237969,"lon":13.4170707,"tags":{"natural":"tree"}},{"type":"node","id":6580081993,"lat":52.523739,"lon":13.4172121,"tags":{"natural":"tree"}},{"type":"node","id":6580081994,"lat":52.5236127,"lon":13.4175302,"tags":{"natural":"tree"}},{"type":"node","id":6580081995,"lat":52.5236763,"lon":13.4173704,"tags":{"natural":"tree"}},{"type":"node","id":6580081996,"lat":52.5237058,"lon":13.4169755,"tags":{"leaf_cycle":"deciduous","leaf_type":"broadleaved","natural":"tree"}},{"type":"node","id":6580081997,"lat":52.5236475,"lon":13.4171243,"tags":{"leaf_cycle":"deciduous","leaf_type":"broadleaved","natural":"tree"}},{"type":"node","id":6580081998,"lat":52.5235904,"lon":13.4172701,"tags":{"leaf_cycle":"deciduous","leaf_type":"broadleaved","natural":"tree"}},{"type":"node","id":6580082000,"lat":52.5238175,"lon":13.4170246,"tags":{"amenity":"bicycle_parking","bicycle_parking":"stands","capacity":"4","covered":"no"}},{"type":"node","id":6580082001,"lat":52.5237639,"lon":13.4171441,"tags":{"amenity":"bicycle_parking","bicycle_parking":"stands","capacity":"12","covered":"no","fee":"no"}},{"type":"node","id":6580082002,"lat":52.5237098,"lon":13.4172859,"tags":{"amenity":"bicycle_parking","bicycle_parking":"stands","capacity":"12","covered":"no","fee":"no"}},{"type":"node","id":6580082003,"lat":52.5236471,"lon":13.4174426,"tags":{"amenity":"bicycle_parking","bicycle_parking":"stands","capacity":"6","covered":"no","fee":"no"}},{"type":"node","id":6580082006,"lat":52.5239481,"lon":13.4170448,"tags":{"amenity":"bicycle_parking","bicycle_parking":"stands","capacity":"4","covered":"no","fee":"no"}},{"type":"node","id":6580082007,"lat":52.5240371,"lon":13.4171615,"tags":{"amenity":"bicycle_parking","bicycle_parking":"stands","capacity":"6","check_date:capacity":"2024-02-25","covered":"no","fee":"no"}},{"type":"node","id":6580082008,"lat":52.5240571,"lon":13.4171877,"tags":{"amenity":"vending_machine","check_date":"2024-02-25","payment:app":"yes","payment:coins":"yes","vending":"parking_tickets"}},{"type":"node","id":6580082009,"lat":52.5240798,"lon":13.4172104,"tags":{"amenity":"bicycle_parking","bicycle_parking":"stands","capacity":"6","check_date:capacity":"2024-02-25","covered":"no","fee":"no"}},{"type":"node","id":6580082010,"lat":52.5241089,"lon":13.4172508,"tags":{"genus":"Acer","natural":"tree"}},{"type":"node","id":6580082011,"lat":52.5242308,"lon":13.4174011,"tags":{"amenity":"bicycle_parking","bicycle_parking":"stands","capacity":"12","check_date:capacity":"2024-02-25","covered":"no","fee":"no"}},{"type":"node","id":6580082012,"lat":52.5242023,"lon":13.4173547,"tags":{"genus":"Acer","natural":"tree"}},{"type":"node","id":6580082014,"lat":52.5240214,"lon":13.4171367,"tags":{"genus":"Acer","natural":"tree"}},{"type":"node","id":6580082015,"lat":52.5239907,"lon":13.4171029,"tags":{"amenity":"bicycle_parking","bicycle_parking":"stands","capacity":"6","check_date:capacity":"2024-02-25","covered":"no","fee":"no"}},{"type":"node","id":6964438690,"lat":52.5236824,"lon":13.4173179,"tags":{"emergency":"fire_hydrant","fire_hydrant:diameter":"150","fire_hydrant:position":"sidewalk","fire_hydrant:type":"underground","operator":"Berliner Wasserbetriebe","ref":"154560"}},{"type":"node","id":6964438691,"lat":52.5236113,"lon":13.4172,"tags":{"amenity":"vending_machine","payment:coins":"yes","ref":"14-156","vending":"parking_tickets"}},{"type":"node","id":12246238425,"lat":52.5238514,"lon":13.41794,"tags":{"addr:housenumber":"65","addr:postcode":"10178","addr:street":"Otto-Braun-Stra\u00dfe","amenity":"pub","email":"berlin@shuffleboardbars.com","food":"yes","level":"-1","name":"Shuffleboard Bar","opening_hours":"Su-Th 17:00-00:00; Fr-Sa 17:00-01:00","operator":"Generator Berlin Alexanderplatz","sport":"shuffleboard","website":"https:\/\/shuffleboardbars.com\/berlin\/","website:booking":"https:\/\/shuffleboardbars.com\/berlin\/book-shuffleboard\/","website:menu":"https:\/\/shuffleboardbars.com\/berlin\/food-drink-2\/"}},{"type":"node","id":12437431076,"lat":52.5238093,"lon":13.4168988,"tags":{"crossing":"unmarked","crossing:island":"no","crossing:markings":"no","crossing:signals":"no","highway":"crossing","kerb":"flush","tactile_paving":"no"}},{"type":"node","id":12437431081,"lat":52.5238274,"lon":13.4169206,"tags":{"barrier":"kerb","kerb":"flush","tactile_paving":"no","wheelchair":"yes"}}]}