{"version":0.6,"generator":"Overpass API 0.7.62.5 1bd436f1","osm3s":{"timestamp_osm_base":"2025-03-12T11:27:05Z","copyright":"The data included in this document is from www.openstreetmap.org. The data is made available under ODbL."},"elements":[{"type":"node","id":89274703,"lat":52.5214304,"lon":13.4092065,"tags":{"addr:city":"Berlin","addr:country":"DE","addr:housenumber":"1","addr:postcode":"10178","addr:street":"Panoramastra\u00dfe","addr:suburb":"Mitte","amenity":"restaurant","check_date":"2022-10-28","cuisine":"german","email":"restaurant@der-alte-fritz.de","indoor_seating":"yes","internet_access":"wlan","internet_access:fee":"no","level":"0","name":"Der Alte Fritz","opening_hours":"PH,Mo-Su 12:00-22:00","outdoor_seating":"yes","payment:mastercard":"yes","payment:visa":"yes","phone":"+49 30 96200600","takeaway":"yes","website":"https:\/\/der-alte-fritz.eatbu.com\/"}},{"type":"node","id":284557555,"lat":52.5210802,"lon":13.4101516,"tags":{"entrance":"main"}},{"type":"node","id":308410291,"lat":52.5213767,"lon":13.4096608,"tags":{"air_conditioning":"no","amenity":"cafe","cuisine":"bubble_tea","indoor_seating":"yes","name":"Tudo","opening_hours":"Mo 11:00-21:00; Tu-Su 11:00-22:00","opening_hours:signed":"no","outdoor_seating":"yes","payment:credit_cards":"yes","payment:debit_cards":"yes","phone":"03027592932","smoking":"outside","website":"https:\/\/tudo.berlin\/","wheelchair":"yes"}},{"type":"node","id":1552565101,"lat":52.5215128,"lon":13.4098099,"tags":{"addr:city":"Berlin","addr:country":"DE","addr:housenumber":"1","addr:postcode":"10178","addr:street":"Panoramastra\u00dfe","addr:suburb":"Mitte"}},{"type":"node","id":1552568307,"lat":52.5211083,"lon":13.4094708,"tags":{"addr:city":"Berlin","addr:country":"DE","addr:housenumber":"2","addr:postcode":"10178","addr:street":"Panoramastra\u00dfe","addr:suburb":"Mitte"}},{"type":"node","id":2694711504,"lat":52.5214503,"lon":13.4094523,"tags":{"access":"customers","addr:city":"Berlin","addr:country":"DE","addr:housenumber":"1","addr:postcode":"10178","addr:street":"Panoramastra\u00dfe","addr:suburb":"Mitte","door":"yes\/manual","entrance":"staircase","level":"0","name":"Aufgang B","wheelchair":"yes"}},{"type":"node","id":2840695244,"lat":52.5210906,"lon":13.4099785,"tags":{"addr:city":"Berlin","addr:country":"DE","addr:housenumber":"7","addr:postcode":"10178","addr:street":"Gontardstra\u00dfe","addr:suburb":"Mitte","source":"Geoportal Berlin \/ Hauskoordinaten"}},{"type":"node","id":4713534381,"lat":52.5208928,"lon":13.4094282,"tags":{"addr:city":"Berlin","addr:country":"DE","addr:housenumber":"1a","addr:postcode":"10178","addr:street":"Panoramastra\u00dfe","addr:suburb":"Mitte","amenity":"restaurant","capacity":"200","cuisine":"regional","delivery":"no","description":"Drehrestaurant auf 207 m H\u00f6he","ele":"207","email":"reservierung@tv-turm.de","name":"Sphere Restaurant im Berliner Fernsehturm","opening_hours":"09:00-24:00","outdoor_seating":"no","smoking":"no","takeaway":"no","website":"https:\/\/tv-turm.de","wheelchair":"no"}},{"type":"node","id":4826062336,"lat":52.5210248,"lon":13.409162,"tags":{"addr:city":"Berlin","addr:country":"DE","addr:housenumber":"1a","addr:postcode":"10178","addr:street":"Panoramastra\u00dfe","addr:suburb":"Mitte","contact:phone":"+49 30 240 479 91","contact:website":"https:\/\/www.fattiretours.com","description":"Rent bikes, e-bikes, segways. Guided tours available.","name":"Fat Tire Tours","opening_hours":"Dec-Feb: Mo,We,Sa 09:30-18:00; Mar-Apr: 09:30-18:00; May-Sep: 09:30-20:00; Oct-Nov: 09:30-18:00","service:bicycle:rental":"yes","shop":"bicycle"}},{"type":"node","id":5367726678,"lat":52.5209514,"lon":13.4094796,"tags":{"camera:type":"fixed","man_made":"surveillance","name":"Webcam am RBB-Fernsehzentrum","surveillance":"public","surveillance:type":"camera"}},{"type":"node","id":6142907309,"lat":52.5214566,"lon":13.4101567,"tags":{"highway":"street_lamp"}},{"type":"node","id":6142907310,"lat":52.5214451,"lon":13.4099864,"tags":{"highway":"street_lamp"}},{"type":"node","id":6286985923,"lat":52.5211991,"lon":13.4091366,"tags":{"denotation":"urban","leaf_cycle":"deciduous","leaf_type":"broadleaved","natural":"tree"}},{"type":"node","id":7355140803,"lat":52.5212201,"lon":13.4092465,"tags":{"amenity":"bicycle_parking","bicycle_parking":"stands","capacity":"18","covered":"no"}},{"type":"node","id":10178518317,"lat":52.521498,"lon":13.4094855,"tags":{"amenity":"bicycle_parking","bicycle_parking":"stands","capacity":"22","covered":"no","survey:date":"2022-11-12"}},{"type":"node","id":10308158102,"lat":52.5212261,"lon":13.4096113,"tags":{"addr:city":"Berlin","addr:country":"DE","addr:housenumber":"1a","addr:postcode":"10178","addr:street":"Panoramastra\u00dfe","addr:suburb":"Mitte","amenity":"bar","contact:website":"https:\/\/www.knutschfleckberlin.de\/","email":"info@knutschfleckberlin.de","indoor_seating":"yes","name":"Knutschfleck","opening_hours":"Fr,Sa 19:00-04:00","outdoor_seating":"yes","phone":"+493054083422","wheelchair":"yes"}},{"type":"node","id":10873830441,"lat":52.5215147,"lon":13.4094204,"tags":{"entrance":"shop"}}]}