{"version":0.6,"generator":"Overpass API 0.7.62.5 1bd436f1","osm3s":{"timestamp_osm_base":"2025-03-12T11:32:13Z","copyright":"The data included in this document is from www.openstreetmap.org. The data is made available under ODbL."},"elements":[{"type":"node","id":1492067022,"lat":52.5247134,"lon":13.4137239,"tags":{"entrance":"yes"}},{"type":"node","id":2840691698,"lat":52.5247783,"lon":13.4138776,"tags":{"addr:city":"Berlin","addr:country":"DE","addr:housenumber":"30","addr:postcode":"10178","addr:street":"Karl-Liebknecht-Stra\u00dfe","addr:suburb":"Mitte","source":"Geoportal Berlin \/ Hauskoordinaten"}},{"type":"node","id":4320127897,"lat":52.5243466,"lon":13.4143864,"tags":{"addr:city":"Berlin","addr:housenumber":"7","addr:postcode":"10178","addr:street":"Alex-Wedding-Stra\u00dfe"}},{"type":"node","id":7355135447,"lat":52.5243328,"lon":13.4142697,"tags":{"amenity":"bicycle_parking","bicycle_parking":"stands","capacity":"6","check_date:capacity":"2024-06-19","covered":"no"}},{"type":"node","id":7355140805,"lat":52.5244932,"lon":13.4144403,"tags":{"amenity":"bicycle_parking","bicycle_parking":"stands","capacity":"8","check_date:capacity":"2024-06-19","covered":"no"}},{"type":"node","id":7355140992,"lat":52.5245722,"lon":13.4145287,"tags":{"amenity":"bicycle_parking","bicycle_parking":"stands","capacity":"6","check_date:capacity":"2024-06-19","covered":"no"}},{"type":"node","id":7355145955,"lat":52.5247041,"lon":13.414642,"tags":{"amenity":"bicycle_parking","bicycle_parking":"stands","capacity":"8","check_date:capacity":"2024-06-19","covered":"no"}},{"type":"node","id":7355157309,"lat":52.5244189,"lon":13.4143637,"tags":{"amenity":"bicycle_parking","bicycle_parking":"stands","capacity":"6","check_date:capacity":"2024-06-19","covered":"no"}},{"type":"node","id":8205945307,"lat":52.5244699,"lon":13.4135891,"tags":{"access":"yes","amenity":"bicycle_parking","bicycle_parking":"stands","capacity":"36","covered":"no","fee":"no","indoor":"no","level":"0","operator:type":"public","source":"survey"}},{"type":"node","id":8245649263,"lat":52.5247334,"lon":13.4145116,"tags":{"denotation":"avenue","leaf_cycle":"deciduous","leaf_type":"broadleaved","natural":"tree"}},{"type":"node","id":9447359488,"lat":52.5249173,"lon":13.4135811,"tags":{"operator":"Stromnetz Berlin GmbH","power":"cable_distribution_cabinet","ref":"81444","source":"survey","voltage":"400"}},{"type":"node","id":9878799743,"lat":52.524646,"lon":13.4144837,"tags":{"barrier":"kerb","kerb":"lowered","tactile_paving":"no"}},{"type":"node","id":9878799744,"lat":52.5246607,"lon":13.4145963,"tags":{"barrier":"kerb","kerb":"lowered","tactile_paving":"no"}},{"type":"node","id":10887402444,"lat":52.5244479,"lon":13.4138471,"tags":{"clothes":"traditional","contact:email":"info@trachten-angermaier.de","contact:phone":"+49 30 679665535","contact:website":"https:\/\/www.trachten-angermaier.de\/Filiale-Berlin\/","description":"Eingang via Hofbr\u00e4u Berlin","name":"Angermaier","opening_hours":"Mo-Sa 13:00-21:00","origin":"bavarian","shop":"clothes"}},{"type":"node","id":10976783793,"lat":52.5249284,"lon":13.4142174,"tags":{"addr:city":"Berlin","addr:country":"DE","addr:housenumber":"32","addr:postcode":"10178","addr:street":"Karl-Liebknecht-Stra\u00dfe","company":"it","contact:website":"https:\/\/www.microsoft.com\/","name":"Microsoft","office":"company","toilets:wheelchair":"yes","wheelchair":"yes","wheelchair:description":"Eing\u00e4nge, Durchg\u00e4nge und WCs sind rollstuhlgerecht."}},{"type":"node","id":10976783794,"lat":52.5248861,"lon":13.414307,"tags":{"addr:city":"Berlin","addr:country":"DE","addr:housenumber":"32","addr:postcode":"10178","addr:street":"Karl-Liebknecht-Stra\u00dfe","contact:website":"https:\/\/verve.com\/","name":"Verve","office":"advertising_agency","official_name":"Verve Group","toilets:wheelchair":"yes","wheelchair":"yes","wheelchair:description":"Eing\u00e4nge, Durchg\u00e4nge und WCs sind rollstuhlgerecht."}},{"type":"node","id":10976783795,"lat":52.5248438,"lon":13.4144059,"tags":{"addr:city":"Berlin","addr:country":"DE","addr:housenumber":"32","addr:postcode":"10178","addr:street":"Karl-Liebknecht-Stra\u00dfe","company":"software_development","contact:website":"https:\/\/www.softgames.com\/","name":"Softgames","office":"company","official_name":"SOFTGAMES \u2013 Mobile Entertainment Services GmbH","software_development":"games","toilets:wheelchair":"yes","wheelchair":"yes","wheelchair:description":"Eing\u00e4nge, Durchg\u00e4nge und WCs sind rollstuhlgerecht."}},{"type":"node","id":11199718118,"lat":52.52427,"lon":13.4144023,"tags":{"contact:website":"https:\/\/www.dcmn.com\/","name":"DCMN","office":"advertising_agency"}},{"type":"node","id":11199720439,"lat":52.5247105,"lon":13.4135441,"tags":{"leaf_cycle":"deciduous","leaf_type":"broadleaved","natural":"tree"}},{"type":"node","id":11199720440,"lat":52.5247801,"lon":13.4136271,"tags":{"leaf_cycle":"deciduous","leaf_type":"broadleaved","natural":"tree"}},{"type":"node","id":11199720441,"lat":52.5248557,"lon":13.4137344,"tags":{"leaf_cycle":"deciduous","leaf_type":"broadleaved","natural":"tree"}},{"type":"node","id":11199720442,"lat":52.5249058,"lon":13.4137848,"tags":{"leaf_cycle":"deciduous","leaf_type":"broadleaved","natural":"tree"}},{"type":"node","id":12004824774,"lat":52.5249002,"lon":13.4135734,"tags":{"highway":"street_lamp","lamp_type":"electric","support":"pole"}},{"type":"node","id":12004824775,"lat":52.5249437,"lon":13.4136296,"tags":{"access":"yes","amenity":"bicycle_parking","bicycle_parking":"stands","capacity":"18","covered":"no","fee":"no","indoor":"no","level":"0","operator:type":"public","source":"survey"}},{"type":"node","id":12301240400,"lat":52.5248655,"lon":13.4139448,"tags":{"amenity":"parcel_locker","brand":"Amazon Hub","brand:wikidata":"Q100274430"}},{"type":"node","id":12519370495,"lat":52.5242883,"lon":13.4141237,"tags":{"barrier":"kerb","kerb":"lowered","tactile_paving":"no"}},{"type":"node","id":12519370496,"lat":52.5242756,"lon":13.4141557,"tags":{"crossing":"unmarked","crossing:island":"no","crossing:markings":"no","highway":"crossing","tactile_paving":"no"}},{"type":"node","id":12519375678,"lat":52.524695,"lon":13.4145187,"tags":{"barrier":"kerb","kerb":"lowered","tactile_paving":"no"}},{"type":"node","id":12519375680,"lat":52.5246776,"lon":13.414558,"tags":{"crossing":"unmarked","crossing:island":"no","crossing:markings":"no","highway":"crossing","tactile_paving":"no"}},{"type":"node","id":12519375681,"lat":52.5246885,"lon":13.4144985,"tags":{"barrier":"kerb","kerb":"lowered","tactile_paving":"no"}},{"type":"node","id":12519375682,"lat":52.5246709,"lon":13.4144923,"tags":{"crossing":"unmarked","crossing:island":"no","crossing:markings":"no","highway":"crossing","tactile_paving":"no"}},{"type":"node","id":12522843975,"lat":52.5248246,"lon":13.4146225,"tags":{"denotation":"avenue","leaf_cycle":"deciduous","leaf_type":"broadleaved","natural":"tree"}}]}