{"version":0.6,"generator":"Overpass API 0.7.62.5 1bd436f1","osm3s":{"timestamp_osm_base":"2025-03-12T11:24:02Z","copyright":"The data included in this document is from www.openstreetmap.org. The data is made available under ODbL."},"elements":[{"type":"way","id":4790799,"nodes":[3828165706,2017413886,2017413884,2017413883,2017413881,3196540472],"tags":{"cycleway:both":"no","dual_carriageway":"yes","highway":"primary","lanes":"2","layer":"-1","lit":"24\/7","maxheight":"4","maxspeed":"50","motorroad":"yes","name":"Tunnel Alexanderplatz","oneway":"yes","parking:both":"no","shoulder":"no","sidewalk":"no","smoothness":"good","surface":"asphalt","tunnel":"yes","zone:traffic":"DE:urban"}},{"type":"way","id":4790809,"nodes":[30731526,2017413878,30731484,3828165737],"tags":{"cycleway:both":"no","dual_carriageway":"yes","highway":"primary","lanes":"2","layer":"-1","lit":"24\/7","maxheight":"4","maxspeed":"50","motorroad":"yes","name":"Tunnel Alexanderplatz","oneway":"yes","parking:both":"no","shoulder":"no","sidewalk":"no","smoothness":"good","surface":"asphalt","tunnel":"yes","zone:traffic":"DE:urban"}},{"type":"way","id":19801554,"nodes":[735967926,2938442114],"tags":{"cycleway:left":"no","cycleway:right":"lane","cycleway:right:lane":"advisory","cycleway:right:surface":"asphalt","destination":"Kreuzberg;Sch\u00f6nefeld","destination:colour":";white","destination:ref:to":"A 113","destination:symbol":";airport","destination:symbol:to":"motorway","destination:to":"Dresden","dual_carriageway":"yes","foot":"use_sidepath","highway":"secondary","lanes":"2","lit":"yes","maxspeed":"50","name":"Alexanderstra\u00dfe","name:etymology:wikidata":"Q15193","note":"\u00dcbergeordnete Stra\u00dfe, Stufe I","oneway":"yes","parking:both":"no","postal_code":"10178","sidewalk:left":"no","sidewalk:right":"separate","smoothness":"good","source:maxspeed":"DE:urban","surface":"asphalt","wikidata":"Q17486182"}},{"type":"way","id":23723138,"nodes":[2583507731,256898648,3900252766,3900252767,262817783,262817784,2348053908,262817785,2348053906,3900252762,262817786,256898649,256898644,2348053922,2348053924,256898645,2583507732,2583507731],"tags":{"building:levels":"2","building:material":"glass","building:part":"commercial","name":"Alexanderhaus"}},{"type":"way","id":24540242,"nodes":[21432801,10189375726,735967921,10570139914],"tags":{"bicycle":"optional_sidepath","cycleway:left":"no","cycleway:right":"separate","dual_carriageway":"yes","foot":"use_sidepath","highway":"primary","lanes":"3","lit":"yes","maxspeed":"50","name":"Alexanderstra\u00dfe","name:etymology:wikidata":"Q15193","oneway":"yes","parking:both":"no","postal_code":"10178","ref":"B 1","sidewalk:left":"no","sidewalk:right":"separate","smoothness":"excellent","source:maxspeed":"DE:urban","surface":"asphalt","wikidata":"Q17486182","zone:traffic":"DE:urban"}},{"type":"way","id":30826268,"nodes":[10570142827,3142889370,3142889369,3213513670],"tags":{"cycleway:left":"no","cycleway:right":"lane","cycleway:right:lane":"exclusive","cycleway:right:surface":"asphalt","dual_carriageway":"yes","foot":"use_sidepath","highway":"primary","lanes":"2","lit":"yes","maxspeed":"50","name":"Grunerstra\u00dfe","name:etymology:wikidata":"Q215507","oneway":"yes","parking:both":"no","parking:right:restriction":"no_stopping","postal_code":"10179","ref":"B 1","sidewalk:left":"no","sidewalk:right":"separate","smoothness":"good","source:maxspeed":"DE:urban","surface":"asphalt","wikidata":"Q1550809","wikimedia_commons":"Category:Grunerstra\u00dfe (Berlin-Mitte)","wikipedia":"de:Grunerstra\u00dfe (Berlin)","zone:traffic":"DE:urban"}},{"type":"way","id":53609869,"nodes":[677136784,3730797393,677136779,6690942035,5341149533,677136871,3730797394,5341149218,5341149532,5341149531,5341149530,677136829,3155751071,5341149759,3828179968,3828179992,10969882814,5341149761,10969882813,5341149762,5341149763,3730797396,3828179963,3730797395,5341149764,5341149766,3730797385,3730797383,10969840153,10969840155,10969840154,3730797382,3730797377,11746879166,5341149771,196731867,3431617055,3431617056,3730797389,3730797392,677136784],"tags":{"area":"yes","highway":"footway","lit":"yes","smoothness":"good","surface":"paving_stones"}},{"type":"way","id":59636538,"nodes":[322093125,322093144,322093163,560470210,322093198],"tags":{"highway":"service","lit":"yes","oneway":"yes","sidewalk":"both","smoothness":"excellent","surface":"asphalt"}},{"type":"way","id":66311464,"nodes":[2938442114,961816257,10570143331],"tags":{"cycleway:left":"no","cycleway:right":"track","cycleway:right:surface":"asphalt","dual_carriageway":"yes","highway":"secondary","lanes":"2","lit":"yes","maxspeed":"50","name":"Alexanderstra\u00dfe","name:etymology:wikidata":"Q15193","note":"\u00dcbergeordnete Stra\u00dfe, Stufe I","oneway":"yes","parking:both":"no","postal_code":"10179","priority_road":"designated","sidewalk":"right","sidewalk:right:surface":"paving_stones","smoothness":"good","source:maxspeed":"DE:urban","surface":"asphalt","wikidata":"Q17486182"}},{"type":"way","id":66311467,"nodes":[2938442114,21432801],"tags":{"cycleway:left":"no","cycleway:right":"lane","cycleway:right:lane":"exclusive","cycleway:right:surface":"asphalt","dual_carriageway":"yes","foot":"use_sidepath","highway":"primary","lanes":"3","lit":"yes","maxspeed":"50","oneway":"yes","parking:both":"no","postal_code":"10178","priority_road":"yes_unposted","ref":"B 1","sidewalk:left":"no","sidewalk:right":"separate","smoothness":"intermediate","source:maxspeed":"DE:urban","surface":"asphalt","zone:traffic":"DE:urban"}},{"type":"way","id":76865764,"nodes":[4809636661,3139140896,6342892414],"tags":{"crossing":"traffic_signals","crossing:markings":"dashes","footway":"crossing","highway":"footway","is_sidepath":"yes","is_sidepath:of":"secondary","lit":"yes","postal_code":"10178","smoothness":"intermediate","surface":"asphalt","tactile_paving":"yes"}},{"type":"way","id":82639449,"nodes":[961816244,8091138802],"tags":{"barrier":"bollard"}},{"type":"way","id":82659290,"nodes":[3153666983,3142889368,2942747701,3136121402,3157293895],"tags":{"cycleway:left":"no","cycleway:right":"lane","cycleway:right:lane":"exclusive","cycleway:right:surface":"asphalt","destination:colour:lanes":"yellow;yellow;white;white|yellow;yellow;white;white|white;white","destination:lanes":"Prenzlauer Berg;Friedrichshain;Alexanderplatz;Rathauspassagen|Prenzlauer Berg;Friedrichshain;Alexanderplatz;Rathauspassagen|bcc;Alexa","destination:ref:to:lanes":"A 10|A 10|A 117","destination:symbol:lanes":";;;covered_parking|;;;covered_parking|;;;;covered_parking","destination:symbol:to:lanes":"motorway|motorway|motorway","destination:to:lanes":"Frankfurt (Oder)|Frankfurt (Oder)|Dresden","dual_carriageway":"yes","foot":"use_sidepath","highway":"primary","lanes":"3","lit":"yes","maxspeed":"50","name":"Grunerstra\u00dfe","name:etymology:wikidata":"Q215507","oneway":"yes","parking:both":"no","postal_code":"10179","priority_road":"designated","ref":"B 1","sidewalk:left":"no","sidewalk:right":"separate","smoothness":"good","source:maxspeed":"DE:urban","surface":"asphalt","wikidata":"Q1550809","wikipedia":"de:Grunerstra\u00dfe (Berlin)","zone:traffic":"DE:urban"}},{"type":"way","id":82659291,"nodes":[10969815207,961816249,10189375725,3730797382],"tags":{"crossing":"traffic_signals","footway":"crossing","highway":"footway","is_sidepath":"yes","is_sidepath:of":"primary","lit":"yes","postal_code":"10178","smoothness":"good","surface":"asphalt","tactile_paving":"yes"}},{"type":"way","id":82659292,"nodes":[21432801,735967920],"tags":{"bicycle":"use_sidepath","cycleway:left":"no","cycleway:right":"separate","dual_carriageway":"yes","foot":"use_sidepath","highway":"secondary","lanes":"1","lit":"yes","maxspeed":"50","name":"Alexanderstra\u00dfe","name:etymology:wikidata":"Q15193","note":"\u00dcbergeordnete Stra\u00dfe, Stufe I","oneway":"yes","parking:both":"no","postal_code":"10178","sidewalk:left":"no","sidewalk:right":"separate","smoothness":"good","source:maxspeed":"DE:urban","surface":"asphalt","wikidata":"Q17486182"}},{"type":"way","id":152442787,"nodes":[288787109,3213714884,3213714990,5551958425,3213715108,3213715162,3213715206,1130114788,3213715292,1130114729,2746917785,4934752855,3332929500,1130114752,1130114762,3213715445,3213715428,3338756806,3338756803,3338756800,3351590242,3338756795,3338756793,3338756192,3338756794,3338756797,3338756801,3338756802,3338756804,3338756805,3213715419,3213715407,1130114800,3213715442,3213715464,3213715466,3213715468,3213715470,2746128489,2746128496,2746128506,2746128499,10977158122,2746128509,2746128512,3906023398,3906023397,3906023395,3906023396,5732646752,5732646750,5732646749,5732646748,5732646747,5732646751,5732646746,3213715474,3213715472,2058497181,3213715469,5732646753,2746128493,3213715467,3213715465,2746916402,2787370635,4841123052,3338637324,3338637323,2787370634,5732646754,5732646755,5732646756,5732646757,3213715339,2775525844,2787422401,3213714706,3213714672,2787356477,2787356476,3213714561,1130114784,3213714623,1130114699,3213714516,3213714502,3213714505,1130114768,3213714498,3213714496,5995780998,4873598529,3186325674,3185587834,4873598526,4873598527,4873598528,3213714494,3183946701],"tags":{"boundary":"postal_code","note":"PLZ-Grenze 10178-10179","source":"Import von OSM + VORLAGE PLZ-Grenzen aus Brandenburg Viewer interpoliert - NICHT Deutsche Post Server!"}},{"type":"way","id":177195505,"nodes":[29495031,5130344132,1876479325,1876479326,2094281532,29495029,5130344133,704999501,12035159948,5130344135,3513418922,297094382,2094281548,29495026,2095738471,298352332,5130344147,298352334,5867575830,5130344148,114103482,704999499,297091892,298352335,5130344153,29495025,5130344154,5130344157,196720965,5867575832,940462879,5867575834,2095738477,610527803,2095738478,5130344162,60662272,610527620],"tags":{"electrified":"rail","electrified:rail":"top","frequency":"0","gauge":"1435","layer":"-1","level":"-1","loading_gauge":"Kleinprofil","operator":"Berliner Verkehrsbetriebe","railway":"subway","tunnel":"yes","voltage":"750"}},{"type":"way","id":188047750,"nodes":[28795321,322093198],"tags":{"bicycle":"optional_sidepath","cycleway:left":"no","cycleway:right":"separate","dual_carriageway":"yes","foot":"use_sidepath","highway":"secondary","lanes":"3","lit":"yes","maxspeed":"50","name":"Alexanderstra\u00dfe","name:etymology:wikidata":"Q15193","note":"\u00dcbergeordnete Stra\u00dfe, Stufe I","oneway":"yes","parking:both":"no","parking:right:restriction":"no_stopping","postal_code":"10179","priority_road":"yes_unposted","sidewalk:left":"no","sidewalk:right":"separate","smoothness":"good","source:maxspeed":"DE:urban","surface":"asphalt","turn:lanes":"left|right|right","wikidata":"Q17486182"}},{"type":"way","id":199425817,"nodes":[961816247,2094266935,2094266934,2094266925],"tags":{"barrier":"wall","source":"Bing"}},{"type":"way","id":246051059,"nodes":[2531338707,10969821840,2531338705],"tags":{"footway":"sidewalk","highway":"footway","lit":"opposite","paving_stones:width":"75","postal_code":"10179","smoothness":"excellent","surface":"paving_stones"}},{"type":"way","id":272795486,"nodes":[2777153419,2777153410],"tags":{"highway":"steps","incline":"up","indoor":"yes","layer":"-1","level":"0;-1"}},{"type":"way","id":281029159,"nodes":[2850522046,2850522039,2850520377,2850520370,2850522209,2850520362,2850520358,2850520356,3183806168,2850521743,2850521739,2850520344,2850521341],"tags":{"diameter":">2.5","height":"2.7","layer":"-3","location":"underground","man_made":"pipeline","material":"concrete","operator":"Berliner Wasserbetriebe","operator:short":"BWB","operator:wikidata":"Q821856","substance":"sewage","width":"3.7"}},{"type":"way","id":281029408,"nodes":[2850523208,2850523206,2850522233,2850522901,11238390272,2850522070,2850522046],"tags":{"diameter":"1,5-2,5","layer":"-1","location":"underground","man_made":"pipeline","operator":"Berliner Wasserbetriebe","operator:short":"BWB","operator:wikidata":"Q821856","substance":"sewage"}},{"type":"way","id":289967595,"nodes":[29219452,262467623,320887602,3153666983],"tags":{"cycleway:left":"no","cycleway:right":"lane","cycleway:right:lane":"exclusive","cycleway:right:surface":"asphalt","destination:colour:lanes":"yellow;yellow;white;white|yellow;yellow;white;white;white;white","destination:lanes":"Prenzlauer Berg;Friedrichshain;Alexanderplatz;Rathauspassagen|Prenzlauer Berg;Friedrichshain;Alexanderplatz;Rathauspassagen;bcc;Alexa","destination:ref:to:lanes":"A 10|A 10;A 117","destination:symbol:lanes":";;;covered_parking|;;;covered_parking;;;;;covered_parking","destination:symbol:to:lanes":"motorway|motorway;motorway","destination:to:lanes":"Frankfurt (Oder)|Frankfurt (Oder);Dresden","dual_carriageway":"yes","foot":"use_sidepath","highway":"primary","lanes":"2","lit":"yes","maxspeed":"50","name":"Grunerstra\u00dfe","name:etymology:wikidata":"Q215507","oneway":"yes","parking:both":"no","postal_code":"10179","priority_road":"designated","ref":"B 1","sidewalk:left":"no","sidewalk:right":"separate","smoothness":"excellent","source:maxspeed":"DE:urban","surface":"asphalt","wikidata":"Q1550809","wikimedia_commons":"Category:Grunerstra\u00dfe (Berlin-Mitte)","wikipedia":"de:Grunerstra\u00dfe (Berlin)","zone:traffic":"DE:urban"}},{"type":"way","id":309848027,"nodes":[3151867674,3153670928,3153670927],"tags":{"footway":"sidewalk","highway":"footway","is_sidepath":"yes","is_sidepath:of":"primary","lit":"yes","paving_stones:width":"35","postal_code":"10179","smoothness":"good","surface":"paving_stones"}},{"type":"way","id":310010749,"nodes":[10969821837,3153670928,2938440447],"tags":{"highway":"footway","lit":"yes","postal_code":"10179","smoothness":"good","surface":"paving_stones"}},{"type":"way","id":310184131,"nodes":[3730797382,10969815205,3153666985,3179641633,9530372102,677136769],"tags":{"footway":"sidewalk","highway":"footway","is_sidepath":"yes","is_sidepath:of":"primary","lit":"yes","paving_stones:width":"35","postal_code":"10178","smoothness":"good","surface":"paving_stones"}},{"type":"way","id":310461377,"nodes":[3158863215,3158863216,3158863217,3158863218,3158863215],"tags":{"amenity":"bicycle_parking","bicycle_parking":"stands","capacity":"46","covered":"no","fee":"no"}},{"type":"way","id":310614516,"nodes":[3160546032,3160546033,3160546034,3160546035,3160546032],"tags":{"amenity":"bicycle_rental","bicycle_rental":"docking_station","capacity":"24","description":"registration necessary","name":"S+U Alexanderplatz \/ Alexa","network":"call-a-bike","operator":"Deutsche Bahn Connect GmbH","payment:credit_cards":"yes","ref":"1164","toilets:wheelchair":"no","website":"https:\/\/www.callabike-interaktiv.de","wheelchair":"no"}},{"type":"way","id":312019436,"nodes":[3178298662,3174192371,3174192373,3180211040,3180211045],"tags":{"footway":"sidewalk","highway":"footway","is_sidepath":"yes","is_sidepath:of":"primary","lit":"yes","smoothness":"intermediate","surface":"sett"}},{"type":"way","id":312138362,"nodes":[3174192372,3527851368,3527851370,3178298662],"tags":{"footway":"sidewalk","highway":"footway","is_sidepath":"yes","is_sidepath:of":"primary","lit":"yes","paving_stones:width":"35","postal_code":"10179","smoothness":"good","surface":"paving_stones"}},{"type":"way","id":312176582,"nodes":[3180232130,9122675258,9122675257,3733368797,8091138790,8091138789,3733368795,8091138791,3733368792,2938440449,2642076176,11063878104,2642076177,11252519092,11252519091,3180232130],"tags":{"construction":"residential","contact:website":"https:\/\/www.alexander-tower.com\/","landuse":"construction","name":"Alexander Tower","opening_date":"2023","operator":"Monarch","wikidata":"Q50350945","wikipedia":"de:Alexander Tower"}},{"type":"way","id":312514710,"nodes":[2953920534,10189375730,961816249,21432801],"tags":{"bicycle":"use_sidepath","cycleway:left":"no","cycleway:right":"separate","dual_carriageway":"yes","foot":"use_sidepath","highway":"secondary","lanes":"3","lit":"yes","maxspeed":"50","name":"Alexanderstra\u00dfe","name:etymology:wikidata":"Q15193","note":"\u00dcbergeordnete Stra\u00dfe, Stufe I","oneway":"yes","parking:both":"no","postal_code":"10178","sidewalk:left":"no","sidewalk:right":"separate","smoothness":"good","source:maxspeed":"DE:urban","surface":"asphalt","turn:lanes":"left|right|right","wikidata":"Q17486182"}},{"type":"way","id":313646613,"nodes":[3196540472,30731514,2017413880,2017413879,30731467],"tags":{"dual_carriageway":"yes","highway":"primary","lanes":"2","layer":"-1","lit":"24\/7","maxheight":"4","maxspeed":"50","motorroad":"yes","name":"Tunnel Alexanderplatz","oneway":"yes","shoulder":"no","sidewalk":"no","smoothness":"excellent","surface":"asphalt","tunnel":"yes","zone:traffic":"DE:urban"}},{"type":"way","id":315245295,"nodes":[3153666983,10969821837],"tags":{"bicycle":"yes","crossing":"traffic_signals","cycleway":"crossing","cycleway:surface":"asphalt","cycleway:width":"2.5","footway":"crossing","footway:surface":"asphalt","highway":"footway","lit":"yes","oneway":"no","postal_code":"10179","segregated":"yes","source:cycleway:width":"ARCore","surface":"asphalt"}},{"type":"way","id":315245296,"nodes":[10969821839,2531338705,10969821838],"tags":{"bicycle":"yes","cycleway":"traffic_island","cycleway:surface":"asphalt","cycleway:width":"2.5","footway":"traffic_island","footway:surface":"paving_stones","highway":"footway","lit":"yes","oneway":"no","postal_code":"10179","segregated":"yes"}},{"type":"way","id":346206365,"nodes":[3527851368,2777153410],"tags":{"highway":"footway","lit":"yes","smoothness":"good","surface":"paving_stones"}},{"type":"way","id":346206372,"nodes":[4809636656,3527851370,8091138805,3527851379,3527851375,3527851369],"tags":{"highway":"pedestrian","lit":"yes","noname":"yes","smoothness":"good","surface":"paving_stones"}},{"type":"way","id":376362563,"nodes":[2583507732,256898645,2348053924,2348053922,256898644,256898649,262817786,3900252762,3900252764,3900252763,3900252765,262817783,3900252767,3900252766,256898648,2583507731,2583507732],"tags":{"addr:city":"Berlin","addr:country":"DE","addr:housenumber":"2","addr:place":"Alexanderplatz","addr:postcode":"10178","addr:suburb":"Mitte","building":"commercial","building:levels":"8","image":"https:\/\/photos.app.goo.gl\/tvWERDrBkbYyG7QJA","name":"Alexanderhaus","roof:shape":"flat","source":"Geoportal Berlin \/ Hauskoordinaten","start_date":"1932","wikidata":"Q62469936","wikimedia_commons":"Category:Alexanderhaus"}},{"type":"way","id":380636480,"nodes":[11332310469,7756522730,3937026386,6912802048,6912802049,7769466037,6912802050,6912802051,6912802052,7769466034,6912802053,6912802054,455959183,322093163,11746879166,10969815205],"tags":{"footway":"sidewalk","highway":"footway","is_sidepath":"yes","is_sidepath:of":"secondary","lit":"yes","smoothness":"good","surface":"paving_stones","wheelchair":"yes"}},{"type":"way","id":503356940,"nodes":[2777153419,4936820458,4936820457,4936820455,4936820456,2777153419],"tags":{"level":"-1;0","stairwell":"flight_of_stairs"}},{"type":"way","id":677412315,"nodes":[6342892415,295705005,10969815209],"tags":{"crossing":"traffic_signals","crossing:markings":"dashes","footway":"crossing","highway":"footway","is_sidepath":"yes","is_sidepath:of":"secondary","lit":"yes","postal_code":"10178","smoothness":"intermediate","surface":"asphalt","tactile_paving":"yes"}},{"type":"way","id":677412316,"nodes":[6342892414,2531338707,6342892415],"tags":{"footway":"traffic_island","highway":"footway","is_sidepath":"yes","is_sidepath:of":"secondary","lit":"yes","paving_stones:width":"75","postal_code":"10178","smoothness":"excellent","surface":"paving_stones"}},{"type":"way","id":677412317,"nodes":[5341149727,7163595317,3153666985],"tags":{"footway":"sidewalk","highway":"footway","lit":"yes","paving_stones:width":"35","postal_code":"10178","smoothness":"good","surface":"paving_stones"}},{"type":"way","id":686908628,"nodes":[6438955387,2017413874,30731526],"tags":{"cutting":"yes","cycleway:both":"no","dual_carriageway":"yes","highway":"primary","incline":"down","lanes":"2","lit":"yes","maxheight":"4","maxspeed":"50","motorroad":"yes","name":"Tunnel Alexanderplatz","oneway":"yes","parking:both":"no","shoulder":"no","sidewalk":"no","smoothness":"excellent","surface":"asphalt","zone:traffic":"DE:urban"}},{"type":"way","id":783052052,"nodes":[3733368791,3733305301,10189375738,3733305302,10969840174,4809636656,4809636661,4809636662,4809636660,3828179972,3828180021,3733305312,3828180022,3828179964,3828179970,3828179959,3733305313,3174192368,3828179998,3733305315,3828180010,12098559984,4763685850,4763685852,4763685853,4763685854,196761842,9122675259,3893241482,3893241473,9856051673,3893241475,3893241481,3832550625,3832550656,3832556273,1840326396,3832556306,3832556281,3832550655,3832556280,6714532488,3733305321,3895250058,3895250057,196761829,3733305320,3895249958,3733305318,3733305319,196763707,7312484872,7312484873,3733368796,3180211045,3733368791],"tags":{"loc_name":"Alex","name":"Alexanderplatz","name:be":"\u041f\u043b\u043e\u0448\u0447\u0430 \u0410\u043b\u044f\u043a\u0441\u0430\u043d\u0434\u0440\u0430","name:de":"Alexanderplatz","name:etymology:wikidata":"Q15193","name:ja":"\u30a2\u30ec\u30af\u30b5\u30f3\u30c0\u30fc\u5e83\u5834","name:ko":"\uc54c\ub809\uc0b0\ub354 \uad11\uc7a5","name:ru":"\u0410\u043b\u0435\u043a\u0441\u0430\u043d\u0434\u0435\u0440\u043f\u043b\u0430\u0446","name:zh":"\u4e9a\u5386\u5c71\u5927\u5e7f\u573a","place":"square","wikidata":"Q152783","wikipedia":"de:Alexanderplatz"}},{"type":"way","id":868045147,"nodes":[8091138796,8091138798,8091138797],"tags":{"barrier":"bollard"}},{"type":"way","id":868045148,"nodes":[8091138807,8091138808],"tags":{"barrier":"bollard"}},{"type":"way","id":868045150,"nodes":[8091138816,8091139617,10969840156,10969840157,8091139618,8091139626,8091139624,8091139625,8091139619,8091139620,8091139632,8091139631,8091139633,8091139630,8091139635,8091139634,8091139638,8091139636,8091139637,8091139621,8091139622,8091139629,8091139628,8091139627,8091139623,8091138816],"tags":{"landuse":"grass"}},{"type":"way","id":973969448,"nodes":[3153666985,3730797385],"tags":{"footway":"sidewalk","highway":"footway","is_sidepath":"yes","is_sidepath:of":"secondary","lit":"yes","paving_stones:width":"35","postal_code":"10178","smoothness":"good","surface":"paving_stones"}},{"type":"way","id":1000875898,"nodes":[677136779,3730797393,6952617672,3730700570,3730748525,6952617669,3730747424,21677157,6952617666,3332929496,5341149746,5341149745,5341149744,5341149743,5341149742,5341149741,5341149740,5341149739,5341149738,5341149737,5341149736,5341149735,5341149734,5341149733,5341149732,5341149731,5341149730,5341149729,5341149728,3730797377,3730797382,10969840154,10969840155,10969840153,3730797383,3730797385,5341149766,10969840152,5341149765,3828180013,5341149764,3730797395,3828179963,3730797396,5341149763,5341149762,10969882813,5341149761,10969882814,3828179992,3828179968,5341149759,3155751071,677136779],"tags":{"landuse":"commercial"}},{"type":"way","id":1034552986,"nodes":[21432801,10189375728,9530372098,10969840152,9530372099,9530453367],"tags":{"bicycle":"designated","cycleway:surface":"asphalt","foot":"designated","footway:surface":"paving_stones","highway":"cycleway","lit":"yes","oneway":"yes","segregated":"yes","surface":"paved","traffic_sign":"none","width":"1.4"}},{"type":"way","id":1113758933,"nodes":[10189375729,10189375725,10189375728,10189375726,10189375727],"tags":{"crossing":"traffic_signals","crossing:island":"no","cycleway":"crossing","highway":"cycleway","lit":"yes","oneway":"yes","smoothness":"good","surface":"asphalt","tactile_paving":"no","traffic_sign":"DE:237"}},{"type":"way","id":1133761788,"nodes":[322093198,2953920534],"tags":{"bicycle":"use_sidepath","cycleway:left":"no","cycleway:right":"separate","dual_carriageway":"yes","foot":"use_sidepath","highway":"secondary","lanes":"3","lit":"yes","maxspeed":"50","name":"Alexanderstra\u00dfe","name:etymology:wikidata":"Q15193","note":"\u00dcbergeordnete Stra\u00dfe, Stufe I","oneway":"yes","parking:left":"no","postal_code":"10178","sidewalk:left":"no","sidewalk:right":"separate","smoothness":"good","source:maxspeed":"DE:urban","surface":"asphalt","turn:lanes":"left|right|right","wikidata":"Q17486182"}},{"type":"way","id":1133761789,"nodes":[10570143331,3136157222,262467617],"tags":{"cycleway:left":"no","cycleway:right":"track","cycleway:right:surface":"asphalt","dual_carriageway":"yes","highway":"secondary","lanes":"2","lit":"yes","maxspeed":"50","name":"Alexanderstra\u00dfe","name:etymology:wikidata":"Q15193","note":"\u00dcbergeordnete Stra\u00dfe, Stufe I","oneway":"yes","parking:both":"no","parking:right:restriction":"no_stopping","postal_code":"10179","priority_road":"designated","sidewalk":"right","smoothness":"good","source:maxspeed":"DE:urban","surface":"asphalt","wikidata":"Q17486182"}},{"type":"way","id":1133761790,"nodes":[3157293895,295705005,2938442114],"tags":{"cycleway:left":"no","cycleway:right":"lane","cycleway:right:lane":"exclusive","cycleway:right:surface":"asphalt","destination:colour:lanes":"yellow;yellow;white;white|yellow;yellow;white;white|white;white","destination:lanes":"Prenzlauer Berg;Friedrichshain;Alexanderplatz;Rathauspassagen|Prenzlauer Berg;Friedrichshain;Alexanderplatz;Rathauspassagen|bcc;Alexa","destination:ref:to:lanes":"A 10|A 10|A 117","destination:symbol:lanes":";;;covered_parking|;;;covered_parking|;;;;covered_parking","destination:symbol:to:lanes":"motorway|motorway|motorway","destination:to:lanes":"Frankfurt (Oder)|Frankfurt (Oder)|Dresden","dual_carriageway":"yes","foot":"use_sidepath","highway":"primary","lanes":"3","lit":"yes","maxspeed":"50","name":"Grunerstra\u00dfe","name:etymology:wikidata":"Q215507","oneway":"yes","parking:both":"no","postal_code":"10179","priority_road":"designated","ref":"B 1","sidewalk:left":"no","sidewalk:right":"separate","smoothness":"good","source:maxspeed":"DE:urban","surface":"asphalt","wikidata":"Q1550809","wikipedia":"de:Grunerstra\u00dfe (Berlin)","zone:traffic":"DE:urban"}},{"type":"way","id":1133761791,"nodes":[735967926,3139140896,10570142827],"tags":{"cycleway:left":"no","cycleway:right":"lane","cycleway:right:lane":"exclusive","cycleway:right:surface":"asphalt","dual_carriageway":"yes","foot":"use_sidepath","highway":"primary","lanes":"2","lit":"yes","maxspeed":"50","name":"Grunerstra\u00dfe","name:etymology:wikidata":"Q215507","oneway":"yes","parking:both":"no","parking:right:restriction":"no_stopping","postal_code":"10179","ref":"B 1","sidewalk:left":"no","sidewalk:right":"separate","smoothness":"good","source:maxspeed":"DE:urban","surface":"asphalt","wikidata":"Q1550809","wikipedia":"de:Grunerstra\u00dfe (Berlin)","zone:traffic":"DE:urban"}},{"type":"way","id":1181210772,"nodes":[3730797385,9530372098,735967921,10969814703],"tags":{"crossing":"traffic_signals","crossing:markings":"dashes","footway":"crossing","highway":"footway","is_sidepath":"yes","is_sidepath:of":"secondary","lit":"yes","postal_code":"10178","smoothness":"good","surface":"asphalt","tactile_paving":"yes"}},{"type":"way","id":1181210775,"nodes":[3153670927,10969815206],"tags":{"footway":"sidewalk","highway":"footway","is_sidepath":"yes","is_sidepath:of":"primary","lit":"yes","postal_code":"10178","smoothness":"good","surface":"paving_stones"}},{"type":"way","id":1181210776,"nodes":[10969815206,961816257,10969815208],"tags":{"crossing":"traffic_signals","footway":"crossing","highway":"footway","is_sidepath":"yes","is_sidepath:of":"primary","lit":"yes","postal_code":"10178","smoothness":"good","surface":"asphalt","tactile_paving":"yes"}},{"type":"way","id":1181210777,"nodes":[10969815208,10969815207],"tags":{"footway":"traffic_island","highway":"footway","is_sidepath":"yes","is_sidepath:of":"primary","lit":"yes","postal_code":"10178","smoothness":"good","surface":"paving_stones"}},{"type":"way","id":1181210778,"nodes":[10969815209,3153670927],"tags":{"footway":"sidewalk","highway":"footway","is_sidepath":"yes","is_sidepath:of":"secondary","lit":"yes","postal_code":"10178","smoothness":"good","surface":"paving_stones"}},{"type":"way","id":1181210779,"nodes":[3174192372,4809636661],"tags":{"footway":"sidewalk","highway":"footway","is_sidepath":"yes","is_sidepath:of":"secondary","lit":"yes","postal_code":"10178","surface":"paving_stones"}},{"type":"way","id":1181211803,"nodes":[10969821838,3153666983],"tags":{"bicycle":"yes","crossing":"traffic_signals","cycleway":"crossing","cycleway:surface":"asphalt","cycleway:width":"2.5","footway":"crossing","footway:surface":"asphalt","highway":"footway","lit":"yes","oneway":"no","postal_code":"10179","segregated":"yes","surface":"asphalt"}},{"type":"way","id":1181217743,"nodes":[8091138816,10969815207,10969840158,10969840159,10969815208,8091139617,8091138816],"tags":{"area:highway":"footway"}},{"type":"way","id":1181217744,"nodes":[10969840160,10969840161,6342892415,10969840162,10969840163,6342892414,10969840164,10969840165,10969840160],"tags":{"area:highway":"footway"}},{"type":"way","id":1181217745,"nodes":[10969840160,10969840166,10969840167,10969840168,10969840169,10969840170,10969840171,10969840172,10969840173,10969840161,10969840160],"tags":{"area:highway":"traffic_island"}},{"type":"way","id":1181217746,"nodes":[10969840175,10969840176,10969821838,10969840177,10969840178,10969821839,10969840175],"tags":{"area:highway":"footway"}},{"type":"way","id":1181217747,"nodes":[10969840178,10969840179,10969840180,10969840177,10969840178],"tags":{"area:highway":"cycleway"}},{"type":"way","id":1181217750,"nodes":[10969840158,10969840193,10969840194,10969840195,10969840196,10969840197,10969840198,10969840199,10969840200,10969840201,10969840159,10969840158],"tags":{"area:highway":"traffic_island"}},{"type":"way","id":1181217751,"nodes":[8091138816,10969815207,10969840158],"tags":{"barrier":"kerb","kerb":"lowered"}},{"type":"way","id":1181217752,"nodes":[10969840159,10969815208,8091139617],"tags":{"barrier":"kerb","kerb":"lowered"}},{"type":"way","id":1181217753,"nodes":[10969840158,10969840193,10969840194,10969840195,10969840196,10969840197,10969840198,10969840199,10969840200,10969840201,10969840159,10969840158],"tags":{"barrier":"kerb"}},{"type":"way","id":1181217757,"nodes":[10969840160,10969840165,10969840164,6342892414,10969840163],"tags":{"barrier":"kerb","kerb":"lowered"}},{"type":"way","id":1181217758,"nodes":[10969840160,10969840161,10969840173,10969840172,10969840171,10969840170,10969840169,10969840168,10969840167,10969840166,10969840160],"tags":{"barrier":"kerb"}},{"type":"way","id":1181217759,"nodes":[10969840162,6342892415,10969840161],"tags":{"barrier":"kerb","kerb":"lowered"}},{"type":"way","id":1181217760,"nodes":[10969840163,10969840203,10969840202,10969840179],"tags":{"barrier":"kerb"}},{"type":"way","id":1181217761,"nodes":[10969840180,10969840204,10969867505,10969840162],"tags":{"barrier":"kerb"}},{"type":"way","id":1181217762,"nodes":[10969840179,10969840178],"tags":{"barrier":"kerb","kerb":"lowered"}},{"type":"way","id":1181217763,"nodes":[10969840178,10969821839,10969840175],"tags":{"barrier":"kerb","kerb":"lowered"}},{"type":"way","id":1181217764,"nodes":[10969840176,10969821838,10969840177],"tags":{"barrier":"kerb","kerb":"lowered"}},{"type":"way","id":1181217765,"nodes":[10969840177,10969840180],"tags":{"barrier":"kerb","kerb":"lowered"}},{"type":"way","id":1213049298,"nodes":[11238390310,11238390311,11238390312,11238390313],"tags":{"barrier":"bollard"}},{"type":"way","id":1214494816,"nodes":[2938440449,3733368792,8091138791,3733368795,8091138789,8091138790,3733368797,9122675257,9122675258,3180232130,11252519091,11252519092,2642076177],"tags":{"barrier":"fence"}},{"type":"way","id":1225715040,"nodes":[560470210,10189375729],"tags":{"highway":"cycleway","lit":"yes","oneway":"yes","smoothness":"good","surface":"asphalt","traffic_sign":"DE:237","width":"2.5"}},{"type":"node","id":1130114699,"lat":52.5160935,"lon":13.4085287},{"type":"node","id":1130114768,"lat":52.5147808,"lon":13.4066499},{"type":"node","id":3183946701,"lat":52.5121505,"lon":13.4030778},{"type":"node","id":3185587834,"lat":52.5130961,"lon":13.4055429},{"type":"node","id":3186325674,"lat":52.513364,"lon":13.4061467},{"type":"node","id":3213714494,"lat":52.5134514,"lon":13.4049667},{"type":"node","id":3213714496,"lat":52.5138166,"lon":13.4060633},{"type":"node","id":3213714498,"lat":52.5140518,"lon":13.4057443},{"type":"node","id":3213714502,"lat":52.5152514,"lon":13.4081503},{"type":"node","id":3213714505,"lat":52.5154117,"lon":13.4074041},{"type":"node","id":3213714516,"lat":52.5156801,"lon":13.4086165},{"type":"node","id":4873598526,"lat":52.5129738,"lon":13.4052941},{"type":"node","id":4873598527,"lat":52.5130832,"lon":13.4051653},{"type":"node","id":4873598528,"lat":52.5132113,"lon":13.4053651},{"type":"node","id":4873598529,"lat":52.5135468,"lon":13.4058654},{"type":"node","id":5995780998,"lat":52.5137292,"lon":13.4059001},{"type":"node","id":2058497181,"lat":52.5227567,"lon":13.4084958},{"type":"node","id":2746128509,"lat":52.5234254,"lon":13.4085299},{"type":"node","id":2746128512,"lat":52.5234441,"lon":13.4084675},{"type":"node","id":3213715472,"lat":52.5227872,"lon":13.4085218},{"type":"node","id":3213715474,"lat":52.5229691,"lon":13.4080414},{"type":"node","id":3906023395,"lat":52.5231615,"lon":13.4083335},{"type":"node","id":3906023396,"lat":52.5231931,"lon":13.4082481},{"type":"node","id":3906023397,"lat":52.5232324,"lon":13.408401},{"type":"node","id":3906023398,"lat":52.5232636,"lon":13.4083098},{"type":"node","id":5732646746,"lat":52.5230422,"lon":13.4078139},{"type":"node","id":5732646747,"lat":52.523181,"lon":13.4072077},{"type":"node","id":5732646748,"lat":52.5232454,"lon":13.4072452},{"type":"node","id":5732646749,"lat":52.5232161,"lon":13.4073874},{"type":"node","id":5732646750,"lat":52.5231369,"lon":13.4077441},{"type":"node","id":5732646751,"lat":52.5231198,"lon":13.407496},{"type":"node","id":5732646752,"lat":52.5230406,"lon":13.4081062},{"type":"node","id":29495029,"lat":52.5172066,"lon":13.4125273},{"type":"node","id":29495031,"lat":52.5148619,"lon":13.4121936},{"type":"node","id":1130114784,"lat":52.5160865,"lon":13.4106352},{"type":"node","id":1876479325,"lat":52.5161046,"lon":13.4123509},{"type":"node","id":1876479326,"lat":52.5166369,"lon":13.4124993},{"type":"node","id":2094281532,"lat":52.5170118,"lon":13.4125376},{"type":"node","id":2787356476,"lat":52.516702,"lon":13.4114872},{"type":"node","id":2787356477,"lat":52.5169682,"lon":13.4104835},{"type":"node","id":3213714561,"lat":52.5163734,"lon":13.4114866},{"type":"node","id":3213714623,"lat":52.5164062,"lon":13.4092673},{"type":"node","id":5130344132,"lat":52.5157509,"lon":13.412303},{"type":"node","id":2850520344,"lat":52.5156587,"lon":13.4183727},{"type":"node","id":2850521341,"lat":52.5154279,"lon":13.4187132},{"type":"node","id":2850521739,"lat":52.5164675,"lon":13.4183619},{"type":"node","id":2850521743,"lat":52.5170056,"lon":13.4183642},{"type":"node","id":29219452,"lat":52.5198764,"lon":13.4140394},{"type":"node","id":29495025,"lat":52.519891,"lon":13.413046},{"type":"node","id":29495026,"lat":52.5184563,"lon":13.411604},{"type":"node","id":30731467,"lat":52.5203663,"lon":13.4145456},{"type":"node","id":30731484,"lat":52.5206803,"lon":13.4151372},{"type":"node","id":30731514,"lat":52.520728,"lon":13.4150324},{"type":"node","id":30731526,"lat":52.5203233,"lon":13.4146648},{"type":"node","id":60662272,"lat":52.5208943,"lon":13.4147987},{"type":"node","id":114103482,"lat":52.5190797,"lon":13.4115013},{"type":"node","id":196720965,"lat":52.5202952,"lon":13.4141644},{"type":"node","id":196761829,"lat":52.5225804,"lon":13.4103198},{"type":"node","id":196761842,"lat":52.5225452,"lon":13.4149434},{"type":"node","id":196763707,"lat":52.5222413,"lon":13.4108001},{"type":"node","id":256898644,"lat":52.5209158,"lon":13.4129324},{"type":"node","id":256898645,"lat":52.5210476,"lon":13.4132289},{"type":"node","id":256898648,"lat":52.5207768,"lon":13.4146529},{"type":"node","id":256898649,"lat":52.5203531,"lon":13.4135957},{"type":"node","id":262467623,"lat":52.5201542,"lon":13.4145848},{"type":"node","id":262817783,"lat":52.520671,"lon":13.4142808},{"type":"node","id":262817784,"lat":52.5207451,"lon":13.4141947},{"type":"node","id":262817785,"lat":52.5206632,"lon":13.4137688},{"type":"node","id":262817786,"lat":52.5204714,"lon":13.4138974},{"type":"node","id":295705005,"lat":52.5206008,"lon":13.4151719},{"type":"node","id":297091892,"lat":52.5192542,"lon":13.4116563},{"type":"node","id":297094382,"lat":52.5180065,"lon":13.4120809},{"type":"node","id":298352332,"lat":52.5186336,"lon":13.4114619},{"type":"node","id":298352334,"lat":52.5187953,"lon":13.4114216},{"type":"node","id":298352335,"lat":52.5193856,"lon":13.4118646},{"type":"node","id":320887602,"lat":52.5202596,"lon":13.4147645},{"type":"node","id":610527620,"lat":52.5209782,"lon":13.4147951},{"type":"node","id":610527803,"lat":52.520585,"lon":13.4146459},{"type":"node","id":704999499,"lat":52.5191547,"lon":13.4115539},{"type":"node","id":704999501,"lat":52.5176115,"lon":13.4123946},{"type":"node","id":735967920,"lat":52.5209747,"lon":13.4151328},{"type":"node","id":735967926,"lat":52.5208789,"lon":13.4150294},{"type":"node","id":940462879,"lat":52.5204183,"lon":13.4144438},{"type":"node","id":961816244,"lat":52.5211012,"lon":13.4149883},{"type":"node","id":961816247,"lat":52.5208383,"lon":13.4147349},{"type":"node","id":1130114800,"lat":52.5204268,"lon":13.4133628},{"type":"node","id":1840326396,"lat":52.5238113,"lon":13.4121814},{"type":"node","id":2017413874,"lat":52.5200469,"lon":13.4141918},{"type":"node","id":2017413878,"lat":52.5204945,"lon":13.4149257},{"type":"node","id":2017413879,"lat":52.5205463,"lon":13.4147952},{"type":"node","id":2017413880,"lat":52.5206349,"lon":13.4149194},{"type":"node","id":2017413881,"lat":52.5208077,"lon":13.4151279},{"type":"node","id":2094266925,"lat":52.5208174,"lon":13.4146815},{"type":"node","id":2094266934,"lat":52.5208806,"lon":13.414615},{"type":"node","id":2094266935,"lat":52.5209015,"lon":13.4146684},{"type":"node","id":2094281548,"lat":52.5182277,"lon":13.4118533},{"type":"node","id":2095738471,"lat":52.5185378,"lon":13.4115222},{"type":"node","id":2095738477,"lat":52.5204999,"lon":13.4145615},{"type":"node","id":2095738478,"lat":52.5206896,"lon":13.4147236},{"type":"node","id":2348053906,"lat":52.5206395,"lon":13.4137128},{"type":"node","id":2348053908,"lat":52.520675,"lon":13.4137553},{"type":"node","id":2348053922,"lat":52.520976,"lon":13.4130681},{"type":"node","id":2348053924,"lat":52.5209957,"lon":13.4131148},{"type":"node","id":2531338705,"lat":52.5204058,"lon":13.4146884},{"type":"node","id":2531338707,"lat":52.5207001,"lon":13.4150511},{"type":"node","id":2583507731,"lat":52.5209614,"lon":13.4144533},{"type":"node","id":2583507732,"lat":52.5208485,"lon":13.4134628},{"type":"node","id":2746128489,"lat":52.5227057,"lon":13.4095502},{"type":"node","id":2746128493,"lat":52.5227011,"lon":13.4092912},{"type":"node","id":2746128496,"lat":52.5228239,"lon":13.4096754},{"type":"node","id":2746128499,"lat":52.522913,"lon":13.4088821},{"type":"node","id":2746128506,"lat":52.5229607,"lon":13.4093677},{"type":"node","id":2746916402,"lat":52.5209028,"lon":13.4115218},{"type":"node","id":2775525844,"lat":52.5196218,"lon":13.4119987},{"type":"node","id":2777153410,"lat":52.5208274,"lon":13.414707},{"type":"node","id":2777153419,"lat":52.5208879,"lon":13.4146449},{"type":"node","id":2787370634,"lat":52.520142,"lon":13.4135127},{"type":"node","id":2787370635,"lat":52.5209879,"lon":13.4117763},{"type":"node","id":2787422401,"lat":52.5189557,"lon":13.4105982},{"type":"node","id":2938440447,"lat":52.5200454,"lon":13.4151522},{"type":"node","id":2942747701,"lat":52.520415,"lon":13.4149827},{"type":"node","id":3136121402,"lat":52.5204723,"lon":13.4150418},{"type":"node","id":3139140896,"lat":52.5207946,"lon":13.4149348},{"type":"node","id":3142889368,"lat":52.5203443,"lon":13.4148943},{"type":"node","id":3142889369,"lat":52.5205734,"lon":13.4146664},{"type":"node","id":3142889370,"lat":52.5206818,"lon":13.4148083},{"type":"node","id":3151867674,"lat":52.5201412,"lon":13.4148099},{"type":"node","id":3153666983,"lat":52.5202933,"lon":13.414817},{"type":"node","id":3153670928,"lat":52.52022,"lon":13.4149089},{"type":"node","id":3157293895,"lat":52.5205525,"lon":13.4151249},{"type":"node","id":3158863215,"lat":52.520732,"lon":13.4149476},{"type":"node","id":3158863216,"lat":52.520716,"lon":13.41497},{"type":"node","id":3158863217,"lat":52.5205317,"lon":13.4147608},{"type":"node","id":3158863218,"lat":52.5205484,"lon":13.4147249},{"type":"node","id":3160546032,"lat":52.520606,"lon":13.4150522},{"type":"node","id":3160546033,"lat":52.5204484,"lon":13.4148582},{"type":"node","id":3160546034,"lat":52.5204652,"lon":13.4148214},{"type":"node","id":3160546035,"lat":52.5206228,"lon":13.4150154},{"type":"node","id":3174192371,"lat":52.5205848,"lon":13.4144852},{"type":"node","id":3174192372,"lat":52.5208785,"lon":13.4148147},{"type":"node","id":3174192373,"lat":52.5204439,"lon":13.4142752},{"type":"node","id":3178298662,"lat":52.5207526,"lon":13.4146801},{"type":"node","id":3180211040,"lat":52.520336,"lon":13.4140954},{"type":"node","id":3180211045,"lat":52.5201576,"lon":13.4136942},{"type":"node","id":3196540472,"lat":52.5207529,"lon":13.4150623},{"type":"node","id":3213513670,"lat":52.5205103,"lon":13.4145688},{"type":"node","id":3213714672,"lat":52.51733,"lon":13.4103264},{"type":"node","id":3213714706,"lat":52.5174597,"lon":13.4112169},{"type":"node","id":3213715339,"lat":52.51973,"lon":13.4118598},{"type":"node","id":3213715407,"lat":52.5206221,"lon":13.41392},{"type":"node","id":3213715419,"lat":52.5203373,"lon":13.4144529},{"type":"node","id":3213715428,"lat":52.5204553,"lon":13.414814},{"type":"node","id":3213715442,"lat":52.5207154,"lon":13.4129632},{"type":"node","id":3213715464,"lat":52.5211993,"lon":13.4123705},{"type":"node","id":3213715465,"lat":52.5216824,"lon":13.410285},{"type":"node","id":3213715466,"lat":52.5216175,"lon":13.411698},{"type":"node","id":3213715467,"lat":52.522386,"lon":13.4100129},{"type":"node","id":3213715468,"lat":52.522453,"lon":13.4103484},{"type":"node","id":3213715469,"lat":52.5226429,"lon":13.4087721},{"type":"node","id":3213715470,"lat":52.5226448,"lon":13.409673},{"type":"node","id":3338637323,"lat":52.5206023,"lon":13.4128083},{"type":"node","id":3338637324,"lat":52.5207661,"lon":13.4119666},{"type":"node","id":3338756797,"lat":52.5185084,"lon":13.4151749},{"type":"node","id":3338756801,"lat":52.5189075,"lon":13.414907},{"type":"node","id":3338756802,"lat":52.5191606,"lon":13.4146821},{"type":"node","id":3338756803,"lat":52.5193659,"lon":13.4148208},{"type":"node","id":3338756804,"lat":52.5194343,"lon":13.4143785},{"type":"node","id":3338756805,"lat":52.5199305,"lon":13.4136142},{"type":"node","id":3338756806,"lat":52.5199328,"lon":13.4141239},{"type":"node","id":3513418922,"lat":52.517781,"lon":13.4122869},{"type":"node","id":3527851368,"lat":52.5208084,"lon":13.4147398},{"type":"node","id":3527851369,"lat":52.5209353,"lon":13.4135087},{"type":"node","id":3527851370,"lat":52.5207681,"lon":13.4146967},{"type":"node","id":3527851375,"lat":52.5209506,"lon":13.4136317},{"type":"node","id":3527851379,"lat":52.5210422,"lon":13.4144059},{"type":"node","id":3733305301,"lat":52.5203112,"lon":13.4141152},{"type":"node","id":3733305302,"lat":52.5206313,"lon":13.4145991},{"type":"node","id":3733305318,"lat":52.5224245,"lon":13.4105229},{"type":"node","id":3733305319,"lat":52.5223879,"lon":13.4105782},{"type":"node","id":3733305320,"lat":52.522538,"lon":13.4103564},{"type":"node","id":3733305321,"lat":52.5226549,"lon":13.4103297},{"type":"node","id":3733368791,"lat":52.5201457,"lon":13.4137686},{"type":"node","id":3733368792,"lat":52.5201503,"lon":13.415134},{"type":"node","id":3733368795,"lat":52.5201957,"lon":13.4151314},{"type":"node","id":3733368796,"lat":52.5202085,"lon":13.413624},{"type":"node","id":3733368797,"lat":52.5202949,"lon":13.4150165},{"type":"node","id":3832550625,"lat":52.52379,"lon":13.4122839},{"type":"node","id":3832550655,"lat":52.5237387,"lon":13.4120327},{"type":"node","id":3832550656,"lat":52.523803,"lon":13.4122577},{"type":"node","id":3832556273,"lat":52.52381,"lon":13.4122254},{"type":"node","id":3832556280,"lat":52.5237044,"lon":13.4119778},{"type":"node","id":3832556281,"lat":52.5237828,"lon":13.4121002},{"type":"node","id":3832556306,"lat":52.5238035,"lon":13.4121462},{"type":"node","id":3893241473,"lat":52.5231758,"lon":13.4136798},{"type":"node","id":3893241475,"lat":52.523224,"lon":13.4135775},{"type":"node","id":3893241481,"lat":52.5232209,"lon":13.4135066},{"type":"node","id":3893241482,"lat":52.5231375,"lon":13.413684},{"type":"node","id":3895249958,"lat":52.5224947,"lon":13.4104057},{"type":"node","id":3895250057,"lat":52.5226034,"lon":13.4103102},{"type":"node","id":3895250058,"lat":52.5226278,"lon":13.4103097},{"type":"node","id":3900252762,"lat":52.5205038,"lon":13.4138672},{"type":"node","id":3900252763,"lat":52.5205483,"lon":13.4140077},{"type":"node","id":3900252764,"lat":52.5205565,"lon":13.4139994},{"type":"node","id":3900252765,"lat":52.5206617,"lon":13.4142906},{"type":"node","id":3900252766,"lat":52.5206629,"lon":13.4143641},{"type":"node","id":3900252767,"lat":52.5206921,"lon":13.4143329},{"type":"node","id":4763685850,"lat":52.5224517,"lon":13.4151463},{"type":"node","id":4763685852,"lat":52.5224679,"lon":13.4151111},{"type":"node","id":4763685853,"lat":52.5224889,"lon":13.4150652},{"type":"node","id":4763685854,"lat":52.5225169,"lon":13.415004},{"type":"node","id":4809636656,"lat":52.5207382,"lon":13.4147295},{"type":"node","id":4809636660,"lat":52.5211484,"lon":13.4151745},{"type":"node","id":4809636661,"lat":52.5208571,"lon":13.4148598},{"type":"node","id":4809636662,"lat":52.5210155,"lon":13.4150324},{"type":"node","id":4841123052,"lat":52.5209539,"lon":13.411968},{"type":"node","id":4936820455,"lat":52.5208378,"lon":13.4147286},{"type":"node","id":4936820456,"lat":52.5208968,"lon":13.414668},{"type":"node","id":4936820457,"lat":52.5208204,"lon":13.4146831},{"type":"node","id":4936820458,"lat":52.5208794,"lon":13.4146225},{"type":"node","id":5130344133,"lat":52.5173842,"lon":13.4124884},{"type":"node","id":5130344135,"lat":52.5177663,"lon":13.4123003},{"type":"node","id":5130344147,"lat":52.5186903,"lon":13.4114379},{"type":"node","id":5130344148,"lat":52.5189772,"lon":13.411454},{"type":"node","id":5130344153,"lat":52.5195069,"lon":13.4121131},{"type":"node","id":5130344154,"lat":52.5200505,"lon":13.413444},{"type":"node","id":5130344157,"lat":52.5201682,"lon":13.4137798},{"type":"node","id":5130344162,"lat":52.5207723,"lon":13.4147713},{"type":"node","id":5732646753,"lat":52.522507,"lon":13.4090986},{"type":"node","id":5732646754,"lat":52.520079,"lon":13.413376},{"type":"node","id":5732646755,"lat":52.5205844,"lon":13.4125614},{"type":"node","id":5732646756,"lat":52.5205306,"lon":13.4124943},{"type":"node","id":5732646757,"lat":52.5202319,"lon":13.4129261},{"type":"node","id":5867575830,"lat":52.518881,"lon":13.4114294},{"type":"node","id":5867575832,"lat":52.5203519,"lon":13.4143017},{"type":"node","id":5867575834,"lat":52.5204573,"lon":13.4145043},{"type":"node","id":6342892414,"lat":52.5207653,"lon":13.4149718},{"type":"node","id":6342892415,"lat":52.5206404,"lon":13.4151237},{"type":"node","id":6438955387,"lat":52.5198913,"lon":13.4138428},{"type":"node","id":6714532488,"lat":52.5232601,"lon":13.4112905},{"type":"node","id":7312484872,"lat":52.5208434,"lon":13.4129143},{"type":"node","id":7312484873,"lat":52.5203532,"lon":13.4134607},{"type":"node","id":8091138789,"lat":52.5202228,"lon":13.4151125},{"type":"node","id":8091138790,"lat":52.520243,"lon":13.4150846},{"type":"node","id":8091138791,"lat":52.5201722,"lon":13.4151346},{"type":"node","id":8091138796,"lat":52.5204939,"lon":13.4151718},{"type":"node","id":8091138797,"lat":52.5203154,"lon":13.4149636},{"type":"node","id":8091138798,"lat":52.5204023,"lon":13.4150728},{"type":"node","id":8091138802,"lat":52.5208703,"lon":13.4147349},{"type":"node","id":8091138805,"lat":52.5208014,"lon":13.414662},{"type":"node","id":9122675259,"lat":52.523031,"lon":13.4139251},{"type":"node","id":9856051673,"lat":52.5232003,"lon":13.4136278},{"type":"node","id":10189375727,"lat":52.5210397,"lon":13.4152031},{"type":"node","id":10189375738,"lat":52.5205645,"lon":13.4145068},{"type":"node","id":10570142827,"lat":52.5207695,"lon":13.4149065},{"type":"node","id":10969821837,"lat":52.5202524,"lon":13.4148638},{"type":"node","id":10969821838,"lat":52.5203314,"lon":13.4147734},{"type":"node","id":10969821839,"lat":52.520478,"lon":13.4146057},{"type":"node","id":10969821840,"lat":52.5204833,"lon":13.4147975},{"type":"node","id":10969840160,"lat":52.5207839,"lon":13.4150112},{"type":"node","id":10969840161,"lat":52.5206724,"lon":13.4151508},{"type":"node","id":10969840162,"lat":52.5206076,"lon":13.4150955},{"type":"node","id":10969840163,"lat":52.5207416,"lon":13.4149402},{"type":"node","id":10969840164,"lat":52.5207785,"lon":13.4149915},{"type":"node","id":10969840165,"lat":52.5207821,"lon":13.4150013},{"type":"node","id":10969840166,"lat":52.5207841,"lon":13.4150258},{"type":"node","id":10969840167,"lat":52.5207827,"lon":13.4150395},{"type":"node","id":10969840168,"lat":52.5207802,"lon":13.4150513},{"type":"node","id":10969840169,"lat":52.5207762,"lon":13.4150585},{"type":"node","id":10969840170,"lat":52.5206946,"lon":13.4151541},{"type":"node","id":10969840171,"lat":52.5206895,"lon":13.4151561},{"type":"node","id":10969840172,"lat":52.5206829,"lon":13.4151561},{"type":"node","id":10969840173,"lat":52.5206769,"lon":13.4151541},{"type":"node","id":10969840174,"lat":52.5206856,"lon":13.4146646},{"type":"node","id":10969840175,"lat":52.5204519,"lon":13.414567},{"type":"node","id":10969840176,"lat":52.5203048,"lon":13.4147361},{"type":"node","id":10969840177,"lat":52.5203668,"lon":13.414823},{"type":"node","id":10969840178,"lat":52.5205106,"lon":13.4146538},{"type":"node","id":10969840179,"lat":52.5205297,"lon":13.4146798},{"type":"node","id":10969840180,"lat":52.520387,"lon":13.4148509},{"type":"node","id":10969840202,"lat":52.5206341,"lon":13.4148152},{"type":"node","id":10969840203,"lat":52.5206874,"lon":13.414879},{"type":"node","id":10969840204,"lat":52.5204952,"lon":13.4149792},{"type":"node","id":10969867505,"lat":52.5205514,"lon":13.4150398},{"type":"node","id":10977158122,"lat":52.5232785,"lon":13.4090935},{"type":"node","id":12035159948,"lat":52.5177056,"lon":13.4123373},{"type":"node","id":12098559984,"lat":52.5224305,"lon":13.4151927},{"type":"node","id":21432801,"lat":52.5207921,"lon":13.41536},{"type":"node","id":21677157,"lat":52.5210077,"lon":13.4168655},{"type":"node","id":28795321,"lat":52.5203488,"lon":13.4158862},{"type":"node","id":196731867,"lat":52.5206399,"lon":13.4159287},{"type":"node","id":262467617,"lat":52.5201041,"lon":13.4159802},{"type":"node","id":322093125,"lat":52.5202393,"lon":13.4166},{"type":"node","id":322093144,"lat":52.5204995,"lon":13.4160239},{"type":"node","id":322093163,"lat":52.5205093,"lon":13.4158804},{"type":"node","id":322093198,"lat":52.5204793,"lon":13.4157413},{"type":"node","id":455959183,"lat":52.5200776,"lon":13.4163995},{"type":"node","id":560470210,"lat":52.5205022,"lon":13.4158171},{"type":"node","id":677136769,"lat":52.5217302,"lon":13.4165615},{"type":"node","id":677136779,"lat":52.5212645,"lon":13.4169649},{"type":"node","id":677136784,"lat":52.5214414,"lon":13.4164513},{"type":"node","id":677136829,"lat":52.5215202,"lon":13.4173928},{"type":"node","id":677136871,"lat":52.5211918,"lon":13.4174146},{"type":"node","id":735967921,"lat":52.5208971,"lon":13.415463},{"type":"node","id":961816249,"lat":52.520712,"lon":13.4154605},{"type":"node","id":961816257,"lat":52.5206005,"lon":13.4153613},{"type":"node","id":1130114752,"lat":52.5208498,"lon":13.4173757},{"type":"node","id":1130114762,"lat":52.5199361,"lon":13.4162783},{"type":"node","id":2017413883,"lat":52.5208891,"lon":13.4152199},{"type":"node","id":2017413884,"lat":52.5211382,"lon":13.4154699},{"type":"node","id":2017413886,"lat":52.5215586,"lon":13.4158728},{"type":"node","id":2642076176,"lat":52.5198247,"lon":13.4155163},{"type":"node","id":2642076177,"lat":52.519986,"lon":13.4158654},{"type":"node","id":2746917785,"lat":52.5199113,"lon":13.4204796},{"type":"node","id":2850520356,"lat":52.5175767,"lon":13.4181361},{"type":"node","id":2850520358,"lat":52.5178953,"lon":13.4179781},{"type":"node","id":2850520362,"lat":52.5182955,"lon":13.4177924},{"type":"node","id":2850520370,"lat":52.5191666,"lon":13.4171037},{"type":"node","id":2850520377,"lat":52.5195433,"lon":13.416771},{"type":"node","id":2850522039,"lat":52.520113,"lon":13.4160823},{"type":"node","id":2850522046,"lat":52.5206874,"lon":13.4154169},{"type":"node","id":2850522070,"lat":52.5220403,"lon":13.4168702},{"type":"node","id":2850522209,"lat":52.5187617,"lon":13.4174597},{"type":"node","id":2938440449,"lat":52.5200736,"lon":13.4152211},{"type":"node","id":2938442114,"lat":52.5206879,"lon":13.4152577},{"type":"node","id":2953920534,"lat":52.5206811,"lon":13.4154993},{"type":"node","id":3136157222,"lat":52.5202359,"lon":13.4157924},{"type":"node","id":3153666985,"lat":52.5208178,"lon":13.4155654},{"type":"node","id":3153670927,"lat":52.5205345,"lon":13.4152696},{"type":"node","id":3155751071,"lat":52.5216827,"lon":13.4168235},{"type":"node","id":3174192368,"lat":52.5220339,"lon":13.4160503},{"type":"node","id":3179641633,"lat":52.5215655,"lon":13.4163819},{"type":"node","id":3180232130,"lat":52.5204821,"lon":13.4153032},{"type":"node","id":3183806168,"lat":52.5173746,"lon":13.4182168},{"type":"node","id":3213715445,"lat":52.520824,"lon":13.4152401},{"type":"node","id":3332929496,"lat":52.5208761,"lon":13.4171494},{"type":"node","id":3332929500,"lat":52.5206065,"lon":13.4182235},{"type":"node","id":3338756192,"lat":52.5173866,"lon":13.4157017},{"type":"node","id":3338756793,"lat":52.5174605,"lon":13.4159695},{"type":"node","id":3338756794,"lat":52.5177501,"lon":13.4154429},{"type":"node","id":3338756795,"lat":52.518253,"lon":13.4155478},{"type":"node","id":3338756800,"lat":52.5188834,"lon":13.4152483},{"type":"node","id":3351590242,"lat":52.5186531,"lon":13.4154131},{"type":"node","id":3431617055,"lat":52.5207343,"lon":13.4160435},{"type":"node","id":3431617056,"lat":52.5208934,"lon":13.416237},{"type":"node","id":3730700570,"lat":52.5211908,"lon":13.416876},{"type":"node","id":3730747424,"lat":52.5210538,"lon":13.4168496},{"type":"node","id":3730748525,"lat":52.5211493,"lon":13.4169673},{"type":"node","id":3730797377,"lat":52.5205456,"lon":13.4157915},{"type":"node","id":3730797382,"lat":52.520777,"lon":13.4155183},{"type":"node","id":3730797383,"lat":52.52082,"lon":13.4154975},{"type":"node","id":3730797385,"lat":52.5208428,"lon":13.4155255},{"type":"node","id":3730797389,"lat":52.5209817,"lon":13.4163444},{"type":"node","id":3730797392,"lat":52.5211159,"lon":13.4160468},{"type":"node","id":3730797393,"lat":52.5212492,"lon":13.4169488},{"type":"node","id":3730797394,"lat":52.521326,"lon":13.417523},{"type":"node","id":3730797395,"lat":52.5217501,"lon":13.4165134},{"type":"node","id":3730797396,"lat":52.5217766,"lon":13.4165434},{"type":"node","id":3733305312,"lat":52.5219611,"lon":13.4160657},{"type":"node","id":3733305313,"lat":52.5220233,"lon":13.4160663},{"type":"node","id":3733305315,"lat":52.5220497,"lon":13.416025},{"type":"node","id":3828165706,"lat":52.5226042,"lon":13.4169613},{"type":"node","id":3828165737,"lat":52.5225696,"lon":13.4170718},{"type":"node","id":3828179959,"lat":52.5220149,"lon":13.4160737},{"type":"node","id":3828179963,"lat":52.5217697,"lon":13.4165341},{"type":"node","id":3828179964,"lat":52.5219888,"lon":13.4160801},{"type":"node","id":3828179968,"lat":52.5217606,"lon":13.4166902},{"type":"node","id":3828179970,"lat":52.522006,"lon":13.4160792},{"type":"node","id":3828179972,"lat":52.5219217,"lon":13.416022},{"type":"node","id":3828179992,"lat":52.521771,"lon":13.4166577},{"type":"node","id":3828179998,"lat":52.5220403,"lon":13.4160437},{"type":"node","id":3828180010,"lat":52.52206,"lon":13.4160025},{"type":"node","id":3828180013,"lat":52.5217291,"lon":13.4164449},{"type":"node","id":3828180021,"lat":52.5219407,"lon":13.4160428},{"type":"node","id":3828180022,"lat":52.521974,"lon":13.4160766},{"type":"node","id":3937026386,"lat":52.5184306,"lon":13.4179224},{"type":"node","id":4934752855,"lat":52.520328,"lon":13.4191464},{"type":"node","id":5341149218,"lat":52.5213638,"lon":13.417554},{"type":"node","id":5341149530,"lat":52.5214673,"lon":13.4175588},{"type":"node","id":5341149531,"lat":52.5213911,"lon":13.417496},{"type":"node","id":5341149532,"lat":52.5213723,"lon":13.4175615},{"type":"node","id":5341149533,"lat":52.5211684,"lon":13.4173898},{"type":"node","id":5341149727,"lat":52.5202774,"lon":13.4166465},{"type":"node","id":5341149728,"lat":52.5205483,"lon":13.415917},{"type":"node","id":5341149729,"lat":52.5205483,"lon":13.4159495},{"type":"node","id":5341149730,"lat":52.5205462,"lon":13.4159726},{"type":"node","id":5341149731,"lat":52.5205413,"lon":13.4159998},{"type":"node","id":5341149732,"lat":52.5205352,"lon":13.4160286},{"type":"node","id":5341149733,"lat":52.5205252,"lon":13.4160601},{"type":"node","id":5341149734,"lat":52.520311,"lon":13.4165272},{"type":"node","id":5341149735,"lat":52.5203047,"lon":13.4165466},{"type":"node","id":5341149736,"lat":52.5203016,"lon":13.4165681},{"type":"node","id":5341149737,"lat":52.5203047,"lon":13.4165879},{"type":"node","id":5341149738,"lat":52.52031,"lon":13.416609},{"type":"node","id":5341149739,"lat":52.5203169,"lon":13.4166234},{"type":"node","id":5341149740,"lat":52.5207537,"lon":13.4171676},{"type":"node","id":5341149741,"lat":52.5207692,"lon":13.4171863},{"type":"node","id":5341149742,"lat":52.5207802,"lon":13.4171927},{"type":"node","id":5341149743,"lat":52.5207923,"lon":13.4171937},{"type":"node","id":5341149744,"lat":52.5208027,"lon":13.4171883},{"type":"node","id":5341149745,"lat":52.5208145,"lon":13.4171793},{"type":"node","id":5341149746,"lat":52.5208444,"lon":13.417108},{"type":"node","id":5341149759,"lat":52.5217064,"lon":13.4168445},{"type":"node","id":5341149761,"lat":52.5217849,"lon":13.4166056},{"type":"node","id":5341149762,"lat":52.5217841,"lon":13.4165724},{"type":"node","id":5341149763,"lat":52.5217817,"lon":13.4165575},{"type":"node","id":5341149764,"lat":52.521717,"lon":13.4164746},{"type":"node","id":5341149765,"lat":52.5208769,"lon":13.4155145},{"type":"node","id":5341149766,"lat":52.5208623,"lon":13.4155481},{"type":"node","id":5341149771,"lat":52.5205742,"lon":13.415838},{"type":"node","id":6690942035,"lat":52.521233,"lon":13.4171828},{"type":"node","id":6912802048,"lat":52.5186805,"lon":13.417753},{"type":"node","id":6912802049,"lat":52.5189766,"lon":13.4175137},{"type":"node","id":6912802050,"lat":52.5192085,"lon":13.4173114},{"type":"node","id":6912802051,"lat":52.5194259,"lon":13.4171068},{"type":"node","id":6912802052,"lat":52.5195344,"lon":13.4170064},{"type":"node","id":6912802053,"lat":52.5198198,"lon":13.4166865},{"type":"node","id":6912802054,"lat":52.519971,"lon":13.4165089},{"type":"node","id":6952617666,"lat":52.5209572,"lon":13.4169699},{"type":"node","id":6952617669,"lat":52.521094,"lon":13.4168998},{"type":"node","id":6952617672,"lat":52.5212266,"lon":13.4169248},{"type":"node","id":7163595317,"lat":52.5206186,"lon":13.4158877},{"type":"node","id":7756522730,"lat":52.5182226,"lon":13.4180411},{"type":"node","id":7769466034,"lat":52.5196154,"lon":13.4169164},{"type":"node","id":7769466037,"lat":52.5191829,"lon":13.4173337},{"type":"node","id":8091138807,"lat":52.5206894,"lon":13.415633},{"type":"node","id":8091138808,"lat":52.5205702,"lon":13.4157741},{"type":"node","id":8091138816,"lat":52.5206391,"lon":13.4154285},{"type":"node","id":8091139617,"lat":52.5206153,"lon":13.4154062},{"type":"node","id":8091139618,"lat":52.5202929,"lon":13.4157961},{"type":"node","id":8091139619,"lat":52.5201735,"lon":13.4159908},{"type":"node","id":8091139620,"lat":52.5196854,"lon":13.4165576},{"type":"node","id":8091139621,"lat":52.5196986,"lon":13.4165931},{"type":"node","id":8091139622,"lat":52.5201866,"lon":13.4160235},{"type":"node","id":8091139623,"lat":52.5203042,"lon":13.4158296},{"type":"node","id":8091139624,"lat":52.5202481,"lon":13.4158593},{"type":"node","id":8091139625,"lat":52.5202095,"lon":13.4159265},{"type":"node","id":8091139626,"lat":52.52027,"lon":13.4158262},{"type":"node","id":8091139627,"lat":52.5202825,"lon":13.4158579},{"type":"node","id":8091139628,"lat":52.5202598,"lon":13.4158956},{"type":"node","id":8091139629,"lat":52.520224,"lon":13.4159612},{"type":"node","id":8091139630,"lat":52.5196812,"lon":13.4165859},{"type":"node","id":8091139631,"lat":52.5196787,"lon":13.4165699},{"type":"node","id":8091139632,"lat":52.5196816,"lon":13.4165634},{"type":"node","id":8091139633,"lat":52.519679,"lon":13.4165791},{"type":"node","id":8091139634,"lat":52.5196867,"lon":13.4165947},{"type":"node","id":8091139635,"lat":52.5196834,"lon":13.4165908},{"type":"node","id":8091139636,"lat":52.5196921,"lon":13.416595},{"type":"node","id":8091139637,"lat":52.5196954,"lon":13.4165943},{"type":"node","id":8091139638,"lat":52.5196893,"lon":13.4165955},{"type":"node","id":9122675257,"lat":52.5204636,"lon":13.4152307},{"type":"node","id":9122675258,"lat":52.5204555,"lon":13.4152427},{"type":"node","id":9530372098,"lat":52.5208525,"lon":13.4155144},{"type":"node","id":9530372099,"lat":52.5216734,"lon":13.4164169},{"type":"node","id":9530372102,"lat":52.5217036,"lon":13.4165324},{"type":"node","id":9530453367,"lat":52.521735,"lon":13.4164791},{"type":"node","id":10189375725,"lat":52.520761,"lon":13.415504},{"type":"node","id":10189375726,"lat":52.5208456,"lon":13.4154128},{"type":"node","id":10189375728,"lat":52.5208223,"lon":13.415438},{"type":"node","id":10189375729,"lat":52.5207415,"lon":13.4155254},{"type":"node","id":10189375730,"lat":52.5206911,"lon":13.4154867},{"type":"node","id":10570139914,"lat":52.5209197,"lon":13.4154852},{"type":"node","id":10570143331,"lat":52.5205726,"lon":13.4153952},{"type":"node","id":10969814703,"lat":52.5209378,"lon":13.4154165},{"type":"node","id":10969815205,"lat":52.5207943,"lon":13.4155412},{"type":"node","id":10969815206,"lat":52.5205556,"lon":13.4153213},{"type":"node","id":10969815207,"lat":52.5206555,"lon":13.4154102},{"type":"node","id":10969815208,"lat":52.5206304,"lon":13.4153878},{"type":"node","id":10969815209,"lat":52.520554,"lon":13.4152288},{"type":"node","id":10969840152,"lat":52.5208688,"lon":13.415533},{"type":"node","id":10969840153,"lat":52.5208136,"lon":13.4154931},{"type":"node","id":10969840154,"lat":52.5207963,"lon":13.4154954},{"type":"node","id":10969840155,"lat":52.5208056,"lon":13.4154912},{"type":"node","id":10969840156,"lat":52.5206,"lon":13.4154367},{"type":"node","id":10969840157,"lat":52.5205785,"lon":13.4154768},{"type":"node","id":10969840158,"lat":52.5206778,"lon":13.4153849},{"type":"node","id":10969840159,"lat":52.5206504,"lon":13.4153633},{"type":"node","id":10969840193,"lat":52.5206825,"lon":13.4153781},{"type":"node","id":10969840194,"lat":52.5206843,"lon":13.4153714},{"type":"node","id":10969840195,"lat":52.5206846,"lon":13.4153636},{"type":"node","id":10969840196,"lat":52.520683,"lon":13.4153571},{"type":"node","id":10969840197,"lat":52.5206804,"lon":13.4153519},{"type":"node","id":10969840198,"lat":52.5206762,"lon":13.4153478},{"type":"node","id":10969840199,"lat":52.5206712,"lon":13.4153464},{"type":"node","id":10969840200,"lat":52.5206672,"lon":13.4153466},{"type":"node","id":10969840201,"lat":52.5206624,"lon":13.41535},{"type":"node","id":10969882813,"lat":52.5217857,"lon":13.4165885},{"type":"node","id":10969882814,"lat":52.5217825,"lon":13.4166178},{"type":"node","id":11063878104,"lat":52.5199423,"lon":13.4157709},{"type":"node","id":11238390272,"lat":52.5221139,"lon":13.4169493},{"type":"node","id":11238390310,"lat":52.5205584,"lon":13.4158606},{"type":"node","id":11238390311,"lat":52.5207872,"lon":13.4155979},{"type":"node","id":11238390312,"lat":52.5211127,"lon":13.4159543},{"type":"node","id":11238390313,"lat":52.521089,"lon":13.4160093},{"type":"node","id":11252519091,"lat":52.5204226,"lon":13.4155925},{"type":"node","id":11252519092,"lat":52.5200434,"lon":13.4160419},{"type":"node","id":11332310469,"lat":52.5181547,"lon":13.4180798},{"type":"node","id":11746879166,"lat":52.5205618,"lon":13.4158179},{"type":"node","id":2850522901,"lat":52.525031,"lon":13.420083},{"type":"node","id":288787109,"lat":52.5183762,"lon":13.4259489},{"type":"node","id":1130114729,"lat":52.5194902,"lon":13.4218949},{"type":"node","id":1130114788,"lat":52.5191725,"lon":13.4227763},{"type":"node","id":3213714884,"lat":52.5183587,"lon":13.4257721},{"type":"node","id":3213714990,"lat":52.5185971,"lon":13.4249343},{"type":"node","id":3213715108,"lat":52.5188822,"lon":13.4239303},{"type":"node","id":3213715162,"lat":52.5189579,"lon":13.423659},{"type":"node","id":3213715206,"lat":52.5191142,"lon":13.4229695},{"type":"node","id":3213715292,"lat":52.5194466,"lon":13.4218591},{"type":"node","id":5551958425,"lat":52.5187482,"lon":13.4244021},{"type":"node","id":2850522233,"lat":52.5280721,"lon":13.4240138},{"type":"node","id":2850523206,"lat":52.5359655,"lon":13.4335426},{"type":"node","id":2850523208,"lat":52.5366483,"lon":13.434367}]}