{"version":0.6,"generator":"Overpass API 0.7.62.5 1bd436f1","osm3s":{"timestamp_osm_base":"2025-03-12T11:28:07Z","copyright":"The data included in this document is from www.openstreetmap.org. The data is made available under ODbL."},"elements":[{"type":"node","id":340847739,"lat":52.5238546,"lon":13.4142762,"tags":{"addr:country":"DE","addr:housenumber":"3","addr:postcode":"10178","addr:street":"Alexanderstra\u00dfe","addr:suburb":"Mitte","amenity":"warehouse","check_date":"2022-05-14","name":"MAYD"}},{"type":"node","id":545222022,"lat":52.5236897,"lon":13.4145757,"tags":{"access":"permissive","addr:city":"Berlin","addr:country":"DE","addr:housenumber":"3","addr:postcode":"10178","addr:street":"Alexanderstra\u00dfe","addr:suburb":"Mitte","door":"revolving","entrance":"main","wheelchair":"yes"}},{"type":"node","id":1581227800,"lat":52.5240362,"lon":13.4137742,"tags":{"addr:city":"Berlin","addr:country":"DE","addr:housenumber":"1","addr:postcode":"10178","addr:street":"Alexanderstra\u00dfe","addr:suburb":"Mitte","entrance":"main","wheelchair":"yes"}},{"type":"node","id":2244961687,"lat":52.5239597,"lon":13.4140415,"tags":{"check_date:opening_hours":"2024-10-29","email":"berlin-mitte@kmcomputer.de","fax":"+49 30 240839 34","name":"K&M Computer","opening_hours":"Mo-Fr 10:00-18:30; Sa 10:00-16:00","phone":"+49 30 240839 27","repair":"yes","shop":"computer","website":"https:\/\/www.kmcomputer.de\/Filiale\/info\/storeId\/4","wheelchair":"yes"}},{"type":"node","id":3514725598,"lat":52.523919,"lon":13.4141486,"tags":{"check_date":"2024-10-29","disused:amenity":"cafe","name":"Cantino","wheelchair":"yes"}},{"type":"node","id":4389211797,"lat":52.523865,"lon":13.4142614,"tags":{"bicycle_rental":"shop","check_date":"2024-10-29","check_date:opening_hours":"2024-10-29","contact:phone":"hello.de@ridezoomo.com","contact:website":"https:\/\/www.ridezoomo.com\/","description":"Elektrofahrradvermietung f\u00fcr Lieferdienste und deren Fahrer","name":"Zoomo","opening_hours":"Mo-Fr 10:00-18:00; Sa,Su off","opening_hours:signed":"no","rental":"ebike","shop":"rental","source":"survey","wheelchair":"yes"}},{"type":"node","id":7355082955,"lat":52.5236598,"lon":13.4143733,"tags":{"amenity":"bicycle_parking","bicycle_parking":"stands","capacity":"6","covered":"no"}},{"type":"node","id":7355137997,"lat":52.524044,"lon":13.4144995,"tags":{"amenity":"bicycle_parking","bicycle_parking":"stands","capacity":"8","check_date:capacity":"2024-06-19","covered":"no"}},{"type":"node","id":7355142349,"lat":52.5236576,"lon":13.4135586,"tags":{"amenity":"bicycle_parking","bicycle_parking":"stands","capacity":"10","covered":"no"}},{"type":"node","id":7355144778,"lat":52.5240029,"lon":13.4146013,"tags":{"amenity":"bicycle_parking","bicycle_parking":"stands","capacity":"8","check_date:capacity":"2024-06-19","covered":"no"}},{"type":"node","id":7355152931,"lat":52.5240872,"lon":13.4143934,"tags":{"amenity":"bicycle_parking","bicycle_parking":"stands","capacity":"8","check_date:capacity":"2024-06-19","covered":"no"}},{"type":"node","id":7355157308,"lat":52.5241461,"lon":13.4142841,"tags":{"amenity":"bicycle_parking","bicycle_parking":"stands","capacity":"8","check_date:capacity":"2024-06-19","covered":"no"}},{"type":"node","id":7749865514,"lat":52.5241364,"lon":13.4136063,"tags":{"addr:city":"Berlin","addr:country":"DE","addr:housenumber":"1","addr:postcode":"10178","addr:street":"Alexanderstra\u00dfe","addr:suburb":"Mitte","disused:office":"insurance"}},{"type":"node","id":7749865515,"lat":52.5240803,"lon":13.4137336,"tags":{"addr:city":"Berlin","addr:country":"DE","addr:housenumber":"1","addr:postcode":"10178","addr:street":"Alexanderstra\u00dfe","addr:suburb":"Mitte","atm":"yes","check_date":"2024-08-05","check_date:opening_hours":"2023-10-02","name":"Berlinshop","opening_hours:signed":"no","shop":"convenience","wheelchair":"yes"}},{"type":"node","id":7945557726,"lat":52.5236163,"lon":13.4136653,"tags":{"highway":"street_lamp","lamp_mount":"straight_mast","light:count":"2","support":"pole"}},{"type":"node","id":10892289367,"lat":52.5236936,"lon":13.4138191,"tags":{"denotation":"urban","leaf_cycle":"deciduous","leaf_type":"broadleaved","natural":"tree"}},{"type":"node","id":10892289368,"lat":52.5236726,"lon":13.4139468,"tags":{"denotation":"urban","leaf_cycle":"deciduous","leaf_type":"broadleaved","natural":"tree"}},{"type":"node","id":11199718119,"lat":52.5238096,"lon":13.4146207,"tags":{"branch":"Repr\u00e4sentanz Berlin","contact:website":"https:\/\/taures.de\/","name":"Taures","office":"financial_advisor"}},{"type":"node","id":11224862569,"lat":52.5237984,"lon":13.4144245,"tags":{"contact:website":"https:\/\/www.bim-berlin.de\/","name":"Berliner Immobilienmanagement","office":"property_management","official_name":"BIM Berliner Immobilienmanagement GmbH","operator":"Land Berlin","operator:type":"government","short_name":"BIM","start_date":"2003","wikidata":"Q821561","wikipedia":"de:BIM Berliner Immobilienmanagement"}},{"type":"node","id":11842368146,"lat":52.5240565,"lon":13.4138401,"tags":{"addr:city":"Berlin","addr:country":"DE","addr:housenumber":"1","addr:postcode":"10178","addr:street":"Alexanderstra\u00dfe","branch":"Bezirk Berlin-Brandburg","brand":"DGB","brand:wikidata":"Q586581","check_date":"2024-04-23","contact:website":"https:\/\/berlin-brandenburg.dgb.de\/","name":"DGB Bezirk Berlin-Brandburg","office":"union","official_name":"Deutscher Gewerkschaftsbund","source":"survey","wheelchair":"yes"}},{"type":"node","id":11908888464,"lat":52.523634,"lon":13.4136146,"tags":{"leaf_type":"broadleaved","natural":"tree"}},{"type":"node","id":12057880687,"lat":52.5236612,"lon":13.4137383,"tags":{"access":"yes","addr:floor":"0","amenity":"bench","backrest":"yes","direction":"217","level":"0","material":"wood","seats":"3","source":"survey"}},{"type":"node","id":12311574607,"lat":52.5237209,"lon":13.4137447,"tags":{"denotation":"urban","leaf_cycle":"deciduous","leaf_type":"broadleaved","natural":"tree"}},{"type":"node","id":12311574608,"lat":52.5237546,"lon":13.4136573,"tags":{"denotation":"urban","leaf_cycle":"deciduous","leaf_type":"broadleaved","natural":"tree"}},{"type":"node","id":12519370491,"lat":52.5241745,"lon":13.4141263,"tags":{"barrier":"kerb","kerb":"lowered","tactile_paving":"no"}},{"type":"node","id":12519370494,"lat":52.5242634,"lon":13.4141863,"tags":{"barrier":"kerb","kerb":"lowered","tactile_paving":"no"}},{"type":"node","id":12519375687,"lat":52.5242272,"lon":13.4140391,"tags":{"barrier":"bollard","bollard":"fixed"}},{"type":"node","id":12519375690,"lat":52.5242256,"lon":13.4141843,"tags":{"barrier":"kerb","kerb":"lowered","tactile_paving":"no"}},{"type":"node","id":12519375691,"lat":52.5241862,"lon":13.4141386,"tags":{"crossing":"unmarked","crossing:island":"no","crossing:markings":"no","highway":"crossing","tactile_paving":"no"}}]}