{"version":0.6,"generator":"Overpass API 0.7.62.5 1bd436f1","osm3s":{"timestamp_osm_base":"2025-03-12T11:39:07Z","timestamp_areas_base":"2025-02-06T02:17:44Z","copyright":"The data included in this document is from www.openstreetmap.org. The data is made available under ODbL."},"elements":[{"type":"way","id":374543868,"nodes":[3779390327,3779390328,3779390348,5519280792,6053458441,3779390347,5294771490,3779390349,3779390350,3779390351,3779390352,3779390355,3779390356,5159897230,3779390661,3779390662,3779390659,4785294769,3779390660,3779390345,3779390346,3779390327],"tags":{"comment":"MapBox\/DigitalGlobe coverage"}},{"type":"way","id":1107764819,"nodes":[10135697660,10135697661,10135697662,10135697663,10135697664,10135697665,10135697666,10135697667,10135697668,10135697669,10135697670,10135697671,10135697672,10135697673,10135697674,10135697675,10135697676,10135697677,10135697678,10135697679,10135697680,10135697681,10135697660],"tags":{"building":"yes","source":"microsoft\/BuildingFootprints"}},{"type":"area","id":3600120027,"tags":{"ISO3166-1":"CO","ISO3166-1:alpha2":"CO","ISO3166-1:alpha3":"COL","ISO3166-1:numeric":"170","admin_level":"2","boundary":"administrative","default_language":"es","flag":"https:\/\/upload.wikimedia.org\/wikipedia\/commons\/2\/21\/Flag_of_Colombia.svg","int_name":"Colombia","name":"Colombia","name:ace":"Kolombia","name:af":"Colombia","name:als":"Kolumbien","name:am":"\u12ae\u120e\u121d\u1262\u12eb","name:an":"Colombia","name:ang":"Colombia","name:ar":"\u0643\u0648\u0644\u0648\u0645\u0628\u064a\u0627","name:arc":"\u0729\u0718\u0720\u0718\u0721\u0712\u071d\u0710","name:arz":"\u0643\u0648\u0644\u0648\u0645\u0628\u064a\u0627","name:ast":"Colombia","name:ay":"Kuluwya","name:az":"Kolumbiya","name:ba":"\u041a\u043e\u043b\u0443\u043c\u0431\u0438\u044f","name:bar":"Kolumbien","name:bat-smg":"Kuolomb\u0117j\u0117","name:bcl":"Kolombya","name:be":"\u041a\u0430\u043b\u0443\u043c\u0431\u0456\u044f","name:be-tarask":"\u041a\u0430\u043b\u044e\u043c\u0431\u0456\u044f","name:bg":"\u041a\u043e\u043b\u0443\u043c\u0431\u0438\u044f","name:bi":"Colombia","name:bn":"\u0995\u09b2\u09ae\u09cd\u09ac\u09bf\u09af\u09bc\u09be","name:bo":"\u0f41\u0f7c\u0f0b\u0f63\u0f7c\u0f58\u0f0b\u0f56\u0f72\u0f0b\u0f61\u0f0d","name:bpy":"\u0995\u09b2\u09ae\u09cd\u09ac\u09bf\u09af\u09bc\u09be","name:br":"Kolombia","name:bs":"Kolumbija","name:bxr":"\u041a\u043e\u043b\u0443\u043c\u0431\u0438","name:ca":"Col\u00f2mbia","name:cbk-zam":"Colombia","name:ce":"\u041a\u043e\u043b\u0443\u043c\u0431\u0438","name:ceb":"Colombia","name:ckb":"\u06a9\u06c6\u0644\u06c6\u0645\u0628\u06cc\u0627","name:co":"Colombia","name:crh":"Kolombiya","name:cs":"Kolumbie","name:cv":"\u041a\u043e\u043b\u0443\u043c\u0431\u0438","name:cy":"Colombia","name:da":"Colombia","name:de":"Kolumbien","name:diq":"Kolombiya","name:dsb":"Kolumbiska","name:dv":"\u0786\u07ae\u078d\u07a6\u0782\u07b0\u0784\u07a8\u0787\u07a7","name:dz":"\u0f40\u0f7c\u0f0b\u0f63\u0f7c\u0f58\u0f0b\u0f56\u0f72\u0f0b\u0f61","name:ee":"Colombia","name:el":"\u039a\u03bf\u03bb\u03bf\u03bc\u03b2\u03af\u03b1","name:en":"Colombia","name:eo":"Kolombio","name:es":"Colombia","name:et":"Colombia","name:eu":"Kolonbia","name:ext":"Col\u00f3mbia","name:fa":"\u06a9\u0644\u0645\u0628\u06cc\u0627","name:fi":"Kolumbia","name:fo":"Kolumbia","name:fr":"Colombie","name:frp":"Colombie","name:frr":"Kolumbien","name:fy":"Kolombia","name:ga":"An Chol\u00f3im","name:gag":"Kolumbiya","name:gan":"\u54e5\u502b\u6bd4\u4e9e","name:gd":"Coloimbia","name:gl":"Colombia","name:gn":"Kol\u00f3mbia","name:gu":"\u0a95\u0acb\u0ab2\u0aae\u0acd\u0aac\u0abf\u0aaf\u0abe","name:gv":"Yn Cholombey","name:hak":"K\u00f4-l\u00f9n-p\u00ed-\u00e2","name:he":"\u05e7\u05d5\u05dc\u05d5\u05de\u05d1\u05d9\u05d4","name:hi":"\u0915\u094b\u0932\u092e\u094d\u092c\u093f\u092f\u093e","name:hif":"Colombia","name:hr":"Kolumbija","name:hsb":"Kolumbiska","name:ht":"Kolonbi","name:hu":"Kolumbia","name:hy":"\u053f\u0578\u056c\u0578\u0582\u0574\u0562\u056b\u0561","name:ia":"Colombia","name:id":"Kolombia","name:ie":"Columbia","name:ilo":"Colombia","name:io":"Kolumbia","name:is":"K\u00f3lumb\u00eda","name:it":"Colombia","name:ja":"\u30b3\u30ed\u30f3\u30d3\u30a2","name:jbo":"kolombias","name:jv":"Kolombia","name:ka":"\u10d9\u10dd\u10da\u10e3\u10db\u10d1\u10d8\u10d0","name:kk":"\u041a\u043e\u043b\u0443\u043c\u0431\u0438\u044f \u0420\u0435\u0441\u043f\u0443\u0431\u043b\u0438\u043a\u0430\u0441\u044b","name:kl":"Colombia","name:km":"\u1780\u17bc\u17a1\u17bb\u17c6\u1794\u17ca\u17b8","name:kn":"\u0c95\u0cca\u0cb2\u0cca\u0c82\u0cac\u0cbf\u0caf","name:ko":"\ucf5c\ub86c\ube44\uc544","name:ku":"Kolombiya","name:kw":"Kolombi","name:la":"Columbia","name:lad":"Kolombia","name:lb":"Kolumbien","name:li":"Colombia","name:lij":"Colombia","name:lmo":"Culumbia","name:ln":"Kolombi","name:lt":"Kolumbija","name:ltg":"Kolumbeja","name:lv":"Kolumbija","name:lzh":"\u54e5\u502b\u6bd4\u4e9e","name:mg":"Kolombia","name:mhr":"\u041a\u043e\u043b\u0443\u043c\u0431\u0438\u0439","name:mi":"Korom\u014dpia","name:mk":"\u041a\u043e\u043b\u0443\u043c\u0431\u0438\u0458\u0430","name:ml":"\u0d15\u0d4a\u0d33\u0d02\u0d2c\u0d3f\u0d2f","name:mn":"\u041a\u043e\u043b\u0443\u043c\u0431","name:mr":"\u0915\u094b\u0932\u0902\u092c\u093f\u092f\u093e","name:mrj":"\u041a\u043e\u043b\u0443\u043c\u0431\u0438","name:ms":"Colombia","name:mt":"Kolombja","name:my":"\u1000\u102d\u102f\u101c\u1036\u1018\u102e\u101a\u102c\u1014\u102d\u102f\u1004\u103a\u1004\u1036","name:na":"Korombiya","name:nah":"Colombia","name:nan":"Colombia","name:nds":"Kolumbien","name:ne":"\u0915\u094b\u0932\u092e\u094d\u092c\u093f\u092f\u093e","name:new":"\u0915\u094b\u0932\u092e\u094d\u092c\u093f\u092f\u093e","name:nl":"Colombia","name:nn":"Colombia","name:no":"Colombia","name:nov":"Kolombia","name:nso":"Kolombia","name:nv":"Kol\u00e1mbiya","name:oc":"Col\u00f3mbia","name:om":"Colombia","name:or":"\u0b15\u0b32\u0b4b\u0b2e\u0b4d\u0b2c\u0b3f\u0b06","name:os":"\u041a\u043e\u043b\u0443\u043c\u0431\u0438","name:pa":"\u0a15\u0a4b\u0a32\u0a70\u0a2c\u0a40\u0a06","name:pag":"Colombia","name:pam":"Colombia","name:pap":"Colombia","name:pl":"Kolumbia","name:pms":"Colombia","name:pnb":"\u06a9\u0648\u0644\u0645\u0628\u06cc\u0627","name:pt":"Col\u00f4mbia","name:qu":"Kulumbya","name:rm":"Columbia","name:rmy":"Kolombiya","name:ro":"Columbia","name:ru":"\u041a\u043e\u043b\u0443\u043c\u0431\u0438\u044f","name:rw":"Kolombiya","name:sa":"\u0915\u094b\u0932\u094b\u092e\u094d\u092c\u093f\u092f\u093e","name:sah":"\u041a\u043e\u043b\u0443\u043c\u0431\u0438\u044f","name:scn":"Colombia","name:sco":"Colombie","name:se":"Colombia","name:sh":"Kolumbija","name:sk":"Kolumbia","name:sl":"Kolumbija","name:smn":"Kolumbia","name:sms":"Kolumbia","name:so":"Kolombiya","name:sq":"Kolumbia","name:sr":"\u041a\u043e\u043b\u0443\u043c\u0431\u0438\u0458\u0430","name:srn":"Kolombikondre","name:stq":"Kolumbien","name:su":"Kolombia","name:sv":"Colombia","name:sw":"Kolombia","name:szl":"Kol\u014dmbij\u014f","name:ta":"\u0b95\u0bca\u0bb2\u0bca\u0bae\u0bcd\u0baa\u0bbf\u0baf\u0bbe","name:te":"\u0c15\u0c4a\u0c32\u0c02\u0c2c\u0c3f\u0c2f\u0c3e","name:tet":"Kol\u00f3mbia","name:tg":"\u041a\u0443\u043b\u0443\u043c\u0431\u0438\u044f","name:th":"\u0e1b\u0e23\u0e30\u0e40\u0e17\u0e28\u0e42\u0e04\u0e25\u0e2d\u0e21\u0e40\u0e1a\u0e35\u0e22","name:tl":"Colombia","name:tr":"Kolombiya","name:ts":"Colombia","name:tt":"\u041a\u043e\u043b\u0443\u043c\u0431\u0438\u044f","name:tzl":"Colombia","name:udm":"\u041a\u043e\u043b\u0443\u043c\u0431\u0438\u044f","name:ug":"\u0643\u0648\u0644\u0648\u0645\u0628\u0649\u064a\u06d5","name:uk":"\u041a\u043e\u043b\u0443\u043c\u0431\u0456\u044f","name:ur":"\u06a9\u0648\u0644\u0645\u0628\u06cc\u0627","name:uz":"Kolumbiya","name:vec":"Co\u0142onbia","name:vi":"Colombia","name:vo":"Kolumb\u00e4n","name:vro":"Colombia","name:war":"Colombia","name:wo":"Koloombi","name:wuu":"\u54e5\u4f26\u6bd4\u4e9a","name:xal":"\u041a\u043e\u043b\u0430\u043c\u0431\u0443\u0434\u0438\u043d \u041e\u0440\u043d","name:xh":"IsiColombia","name:xmf":"\u10d9\u10dd\u10da\u10e3\u10db\u10d1\u10d8\u10d0","name:yi":"\u05e7\u05d0\u05dc\u05d0\u05de\u05d1\u05d9\u05e2","name:yo":"K\u00f2l\u00f3mb\u00ec\u00e0","name:yue":"\u54e5\u502b\u6bd4\u4e9e","name:zea":"Colombia","name:zh":"\u54e5\u4f26\u6bd4\u4e9a \/ \u54e5\u502b\u6bd4\u4e9e","name:zh-Hans":"\u54e5\u4f26\u6bd4\u4e9a","name:zh-Hant":"\u54e5\u502b\u6bd4\u4e9e","name:zu":"IKolombiya","official_name":"Rep\u00fablica de Colombia","official_name:ca":"Rep\u00fablica de Col\u00f2mbia","official_name:ckb":"\u06a9\u06c6\u0645\u0627\u0631\u06cc \u06a9\u06c6\u06b5\u06c6\u0645\u0628\u06cc\u0627","official_name:cs":"Kolumbijsk\u00e1 republika","official_name:en":"Republic of Colombia","official_name:eo":"Kolombia Respubliko","official_name:es":"Rep\u00fablica de Colombia","official_name:fr":"R\u00e9publique de Colombie","official_name:ku":"Komara Kolombiya","official_name:ru":"\u0420\u0435\u0441\u043f\u0443\u0431\u043b\u0438\u043a\u0430 \u041a\u043e\u043b\u0443\u043c\u0431\u0438\u044f","timezone":"America\/Bogota","type":"boundary","wikidata":"Q739","wikipedia":"es:Colombia"}},{"type":"area","id":3601315120,"tags":{"DANE:departamento":"5","ISO3166-2":"CO-ANT","admin_level":"4","boundary":"administrative","clcfile":"MunicipiosDepartamentos\/ADM_Departamentos.shp","is_in:country":"Colombia","name":"Antioquia","name:ar":"\u0623\u0646\u062a\u064a\u0648\u0643\u064a\u0627","name:fa":"\u0627\u0646\u062a\u06cc\u0648\u06a9\u06cc\u0627","name:ja":"\u30a2\u30f3\u30c6\u30a3\u30aa\u30ad\u30a2\u770c","name:pnb":"\u0627\u0646\u0679\u06cc\u0648\u06a9\u0648\u0626\u06cc\u0627","name:ur":"\u0627\u0646\u062a\u06cc\u0648\u06a9\u06cc\u0627","place":"state","ref":"ANT","source":"OCHA - SIGOT","state_code":"ANT","type":"boundary","wikidata":"Q123304","wikipedia":"es:Antioquia"}},{"type":"area","id":3601343264,"tags":{"DANE:area":"387.00","_ID":"-273217","admin_level":"6","boundary":"administrative","divipola":"05001","entidad_te":"Cabecera Municipal","is_in:country":"Colombia","is_in:state":"Antioquia","name":"Medell\u00edn","name:ar":"\u0645\u064a\u062f\u064a\u0644\u064a\u0646","name:arz":"\u0645\u064a\u062f\u064a\u0644\u0644\u064a\u0646","name:fa":"\u0645\u062f\u0626\u06cc\u0646","name:pnb":"\u0645\u06cc\u0688\u06cc\u0644\u0646","name:ur":"\u0645\u06cc\u0688\u06cc\u0626\u0646","objectid":"3512","place":"city","population":"2486723","postal_code":"0500","type":"boundary","wikidata":"Q48278"}},{"type":"area","id":3603541280,"tags":{"admin_level":"7","boundary":"administrative","name":"Per\u00edmetro Urbano Medell\u00edn","type":"boundary"}},{"type":"area","id":3607154369,"tags":{"admin_level":"5","boundary":"administrative","is_in:country":"Colombia","is_in:country_code":"CO","is_in:state":"Antioquia","name":"Valle de Aburr\u00e1","type":"boundary","wikidata":"Q2361270","wikipedia":"es:Valle de Aburr\u00e1"}},{"type":"area","id":3607673972,"tags":{"admin_level":"8","boundary":"administrative","is_in:city":"Medell\u00edn","name":"Comuna 10 - La Candelaria","place":"suburb","ref":"10","type":"boundary","wikipedia":"es:La Candelaria (Medell\u00edn)"}},{"type":"area","id":3611913223,"tags":{"boundary":"natural","is_in:country":"Colombia","name":"Regi\u00f3n natural Andina","type":"boundary","wikidata":"Q130359","wikipedia":"es:Regi\u00f3n Andina (Colombia)"}},{"type":"area","id":3613420762,"tags":{"admin_level":"3","boundary":"administrative","name":"RAP del Agua y la Monta\u00f1a","type":"boundary"}},{"type":"area","id":3613514841,"tags":{"boundary":"timezone","name":"UTC-05:00 standard time","type":"boundary","wikidata":"Q5390","wikipedia":"en:UTC\u221205:00"}},{"type":"node","id":3779390345,"lat":6.0382303,"lon":-75.7221082},{"type":"node","id":3779390327,"lat":5.9065133,"lon":-75.6893663},{"type":"node","id":3779390328,"lat":5.9065181,"lon":-75.5325874},{"type":"node","id":3779390346,"lat":6.0392235,"lon":-75.6889505},{"type":"node","id":3779390348,"lat":6.0571005,"lon":-75.533349},{"type":"node","id":5519280792,"lat":6.0568473,"lon":-75.5241849},{"type":"node","id":6053458441,"lat":6.0563771,"lon":-75.5074821},{"type":"node","id":10135697660,"lat":6.2453919,"lon":-75.5712979},{"type":"node","id":10135697661,"lat":6.2453764,"lon":-75.5712492},{"type":"node","id":10135697662,"lat":6.2452154,"lon":-75.5713008},{"type":"node","id":10135697663,"lat":6.2450692,"lon":-75.5708393},{"type":"node","id":10135697664,"lat":6.2451394,"lon":-75.5708168},{"type":"node","id":10135697665,"lat":6.2451128,"lon":-75.5707329},{"type":"node","id":10135697666,"lat":6.2456055,"lon":-75.570575},{"type":"node","id":10135697667,"lat":6.2456048,"lon":-75.5705726},{"type":"node","id":10135697668,"lat":6.2456338,"lon":-75.5705632},{"type":"node","id":10135697669,"lat":6.2456184,"lon":-75.5705145},{"type":"node","id":10135697670,"lat":6.245691,"lon":-75.5704913},{"type":"node","id":10135697671,"lat":6.2456991,"lon":-75.5705168},{"type":"node","id":10135697672,"lat":6.2457898,"lon":-75.5704877},{"type":"node","id":10135697673,"lat":6.2457944,"lon":-75.5705023},{"type":"node","id":10135697674,"lat":6.2458307,"lon":-75.5704907},{"type":"node","id":10135697675,"lat":6.2458346,"lon":-75.5705028},{"type":"node","id":10135697676,"lat":6.2458649,"lon":-75.5704931},{"type":"node","id":10135697677,"lat":6.2459081,"lon":-75.5706295},{"type":"node","id":10135697678,"lat":6.2458729,"lon":-75.5706408},{"type":"node","id":10135697679,"lat":6.2458895,"lon":-75.5706932},{"type":"node","id":10135697680,"lat":6.2459344,"lon":-75.5706788},{"type":"node","id":10135697681,"lat":6.2460624,"lon":-75.5710831},{"type":"node","id":3779390347,"lat":6.0561073,"lon":-75.4973949},{"type":"node","id":3779390349,"lat":6.083319,"lon":-75.4973949},{"type":"node","id":5294771490,"lat":6.0813414,"lon":-75.4973949},{"type":"node","id":3779390350,"lat":6.0845107,"lon":-75.4250871},{"type":"node","id":3779390351,"lat":6.094243,"lon":-75.4254866},{"type":"node","id":3779390352,"lat":6.0954347,"lon":-75.3815427},{"type":"node","id":3779390660,"lat":6.4309887,"lon":-75.7225077},{"type":"node","id":4785294769,"lat":6.4309629,"lon":-75.7212474},{"type":"node","id":3779390659,"lat":6.4284083,"lon":-75.5964685},{"type":"node","id":3779390662,"lat":6.4579824,"lon":-75.596069},{"type":"node","id":3779390356,"lat":6.4024056,"lon":-75.4240884},{"type":"node","id":3779390355,"lat":6.4022071,"lon":-75.3809435},{"type":"node","id":3779390661,"lat":6.4571885,"lon":-75.4238887},{"type":"node","id":5159897230,"lat":6.4520502,"lon":-75.4239074}]}