{"version":0.6,"generator":"Overpass API 0.7.62.5 1bd436f1","osm3s":{"timestamp_osm_base":"2025-03-12T11:39:07Z","copyright":"The data included in this document is from www.openstreetmap.org. The data is made available under ODbL."},"elements":[{"type":"node","id":339056983,"lat":6.2452788,"lon":-75.5728173,"tags":{"highway":"traffic_signals"}},{"type":"node","id":339057036,"lat":6.2455891,"lon":-75.5726992,"tags":{"highway":"traffic_signals"}},{"type":"node","id":1388181885,"lat":6.2456497,"lon":-75.5725702,"tags":{"natural":"tree"}},{"type":"node","id":1388181886,"lat":6.2456808,"lon":-75.5726527,"tags":{"natural":"tree"}},{"type":"node","id":3302672451,"lat":6.2454935,"lon":-75.5727356,"tags":{"highway":"traffic_signals"}},{"type":"node","id":3302672452,"lat":6.2453856,"lon":-75.5727766,"tags":{"highway":"traffic_signals"}},{"type":"node","id":3302672453,"lat":6.2451878,"lon":-75.572852,"tags":{"highway":"traffic_signals"}},{"type":"node","id":4666563754,"lat":6.2455194,"lon":-75.5726388,"tags":{"description":"Direccion: Calle 44 x Carrera 53 - Municipio: Medellin","highway":"speed_camera","maxspeed":"60","name":"Fotodetecci\u00f3n"}},{"type":"node","id":5322187045,"lat":6.2451838,"lon":-75.5730345,"tags":{"natural":"tree"}},{"type":"node","id":5322187046,"lat":6.2451291,"lon":-75.5728763,"tags":{"natural":"tree"}},{"type":"node","id":5322187047,"lat":6.2450949,"lon":-75.5727491,"tags":{"natural":"tree"}},{"type":"node","id":5322259478,"lat":6.2450573,"lon":-75.5725999,"tags":{"description":"palmera","natural":"tree"}},{"type":"node","id":7235805069,"lat":6.2455717,"lon":-75.5726499,"tags":{"crossing":"traffic_signals","highway":"crossing"}},{"type":"node","id":7235805070,"lat":6.2454764,"lon":-75.5726864,"tags":{"crossing":"traffic_signals","highway":"crossing"}},{"type":"node","id":7235805071,"lat":6.2453681,"lon":-75.5727285,"tags":{"crossing":"traffic_signals","highway":"crossing"}},{"type":"node","id":7235805072,"lat":6.2452619,"lon":-75.5727694,"tags":{"crossing":"traffic_signals","highway":"crossing"}},{"type":"node","id":7235805073,"lat":6.2451694,"lon":-75.5728057,"tags":{"crossing":"traffic_signals","highway":"crossing"}},{"type":"node","id":10554749087,"lat":6.2451304,"lon":-75.5727492,"tags":{"crossing":"uncontrolled","highway":"crossing"}}]}