{"version":0.6,"generator":"Overpass API 0.7.62.5 1bd436f1","osm3s":{"timestamp_osm_base":"2025-03-12T12:17:00Z","copyright":"The data included in this document is from www.openstreetmap.org. The data is made available under ODbL."},"elements":[{"type":"way","id":19894543,"nodes":[208721408,12109876945,208721410,12109876944,208721411,1017158363,1017158392,12109877023,12109877024,12109877025,12109877026,1017158364,1017158423,12109876942,208721412,208721413,208721414,1017158407,12109877022,12109877021,12109877020,12109877019,1017158485,208721415,208721416,12109877016,12109877017,12109876988,12109877018,12109877015,1017158430,208721419,12109877013,12109877014,12109876987,12109877012,12109877011,1017158424,1017158478,1017158446,12109876917,1017158501,208721408],"tags":{"addr:city":"Helsinki","addr:housenumber":"2","addr:postcode":"00510","addr:street":"Porvoonkatu","building":"school","building:levels":"5","source:addr":"operator","start_date":"before 1961","wheelchair":"limited"}},{"type":"way","id":23480786,"nodes":[254286111,254286112,254286113,2460248327,254286114,254286111],"tags":{"addr:city":"Helsinki","addr:housenumber":"1","addr:postcode":"00510","addr:street":"Porvoonkatu","building":"retail","building:levels":"1"}},{"type":"way","id":23480799,"nodes":[254286139,878449173,7884421668,7884421666,7884421662,7884421660,254286153,254286154,7884421658,7884421659,7884421661,9732966618,7884421665,7884421667,7884421671,254286140,254286139],"tags":{"addr:city":"Helsinki","addr:country":"FI","addr:housenumber":"1","addr:street":"Porvoonkatu","building":"apartments","building:levels":"9","building:maintenance:operator":"Kiinteist\u00f6huolto Varonen Oy","last_fire":"2012-03-10"}},{"type":"way","id":23783973,"nodes":[176196101,1525434527,257701003,878716691,6051965109,2460247558,5496109146,878716698,5496109142,34506585],"tags":{"highway":"residential","lanes":"2","lit":"yes","maxspeed":"30","name":"Porvoonkatu","name:fi":"Porvoonkatu","name:sv":"Borg\u00e5gatan","parking:both:placement":"dedicated","parking:condition:both":"ticket","parking:condition:both:residents":"J","parking:condition:both:time_interval":"Mo-Fr 09:00-21:00","parking:lane:left":"parallel","parking:lane:left:parallel":"on_street","parking:lane:right":"diagonal","parking:lane:right:diagonal":"painted_area_only","sidewalk:both":"separate","snowplowing":"yes","start_date":"before 1961","surface":"asphalt"}},{"type":"way","id":34861411,"nodes":[254286288,408616261,408616260,408616259,408616258,408616257,254286154,254286290,254286275,254286282,1525434525,2460245864,670255660,1525434542,1525434544,254286283,7884483626,6051965130,6051965125,670264136,670264137,1525434607,3198988095,670262268,257725023,257725024,670262269,678167679,11591899991,408616015,670262272,670262270,408616014,1525434600,254286285,408616016,254286288],"tags":{"landuse":"residential"}},{"type":"way","id":37296672,"nodes":[257702003,2460237394,8434504345,434619399,1525434517,6783344004,4552700790,2460247556,878716690,434619400,434619401],"tags":{"bicycle":"no","footway":"sidewalk","highway":"footway","lit":"yes","snowplowing":"yes","surface":"paved"}},{"type":"way","id":37296704,"nodes":[434619568,434619569,431474692,208721418,12109877030,12109877031,1420854541,434619573,12109876916,10749431945,11712658656,434619574,176195941,12109876921,3198988087,2460247555,3198988086,434619577,12109876941,208721412,434619578,434619568],"tags":{"addr:city":"Helsinki","addr:housenumber":"2","addr:postcode":"00510","addr:street":"Porvoonkatu","amenity":"school","name":"Aleksis Kiven peruskoulu","name:fi":"Aleksis Kiven peruskoulu","website":"https:\/\/www.hel.fi\/www\/peruskoulut\/fi\/koulut\/aleksis-kiven-peruskoulu\/"}},{"type":"way","id":74332918,"nodes":[34506585,878716716],"tags":{"highway":"residential","lanes":"2","lit":"yes","maxspeed":"30","name":"Porvoonkatu","name:fi":"Porvoonkatu","name:sv":"Borg\u00e5gatan","parking:both":"lane","parking:both:orientation":"parallel","parking:both:placement":"dedicated","parking:condition:left":"ticket","parking:condition:left:residents":"J","parking:condition:left:time_interval":"Mo-Fr 09:00-21:00","parking:condition:right":"no_parking","parking:condition:right:default":"free","parking:condition:right:time_interval":"Mo-Fr 08:00-17:00","snowplowing":"yes","surface":"asphalt"}},{"type":"way","id":74332920,"nodes":[878716712,878716698,878716690],"tags":{"highway":"footway","lit":"yes","surface":"asphalt"}},{"type":"way","id":74332922,"nodes":[878716716,314301375,6461232597,34500693],"tags":{"highway":"residential","lanes":"2","lit":"yes","maxspeed":"30","name":"Porvoonkatu","name:fi":"Porvoonkatu","name:sv":"Borg\u00e5gatan","parking:both":"no","surface":"asphalt"}},{"type":"way","id":74332930,"nodes":[878716688,11741753832,2460256922],"tags":{"bicycle":"yes","embedded_rails":"tram","fi:hkr:kunnossapitoluokka":"II","highway":"tertiary","lanes":"2","lit":"yes","loc_name":"Flemari","maxspeed":"30","motor_vehicle":"destination","name":"Fleminginkatu","name:fi":"Fleminginkatu","name:sv":"Flemingsgatan","parking:condition:both":"ticket","parking:condition:both:residents":"J","parking:condition:both:time_interval":"Mo-Fr 09:00-21:00","parking:lane:both":"parallel","parking:lane:both:parallel":"lay_by","parking:ticket:zone":"3","paved:date":"2008","sidewalk":"separate","smoothness":"good","surface":"asphalt","tram:lanes:backward":"yes","tram:lanes:forward":"yes"}},{"type":"way","id":126904035,"nodes":[1405896254,2460253171,2460253173],"tags":{"bicycle":"yes","embedded_rails":"tram","fi:hkr:kunnossapitoluokka":"II","highway":"tertiary","lanes":"2","lit":"yes","loc_name":"Flemari","maxspeed":"30","motor_vehicle":"destination","name":"Fleminginkatu","name:fi":"Fleminginkatu","name:sv":"Flemingsgatan","parking:condition:left:default":"free","parking:condition:left:residents":"J","parking:condition:left:time_interval":"Mo-Fr 09:00-21:00","parking:lane:left":"parallel","parking:lane:left:parallel":"lay_by","parking:ticket:zone":"3","paved:date":"2008","sidewalk":"separate","surface":"asphalt","tram:lanes:backward":"yes","tram:lanes:forward":"yes"}},{"type":"way","id":130231247,"nodes":[1435258082,354872583,6461232595,878716693,6461232596,878716702,11741753864,3339910282],"tags":{"electrified":"contact_line","frequency":"0","gauge":"1000","oneway":"yes","operator":"HKL-Raitioliikenne","railway":"tram","start_date":"2008-07","tram:segregation:physical":"in_lane","voltage":"600"}},{"type":"way","id":130269071,"nodes":[1435317977,12108640176,408616264],"tags":{"bicycle":"no","footway":"sidewalk","highway":"footway","lit":"yes","paved:date":"2008","surface":"asphalt"}},{"type":"way","id":130269073,"nodes":[434619401,431474690,314299735,354872577,2411513965,313945944],"tags":{"bicycle":"no","footway":"sidewalk","highway":"footway","lit":"yes","surface":"asphalt"}},{"type":"way","id":139189574,"nodes":[34500693,6461232596,314301381,878639566],"tags":{"highway":"residential","lanes":"2","lit":"yes","maxspeed":"30","name":"Vaasankatu","name:fi":"Vaasankatu","name:sv":"Vasagatan","parking:lane:both":"no_stopping","sidewalk":"separate","smoothness":"intermediate","surface":"asphalt"}},{"type":"way","id":238170839,"nodes":[2460248324,2460248321,2460248320,2460248323,2460248324],"tags":{"access":"destination","amenity":"parking","parking":"surface","parking:condition:area":"customers"}},{"type":"way","id":238171203,"nodes":[2460253173,646465355,34500693,646465356,878716688],"tags":{"bicycle":"yes","embedded_rails":"tram","fi:hkr:kunnossapitoluokka":"II","highway":"tertiary","lanes":"2","lit":"yes","loc_name":"Flemari","maxspeed":"30","motor_vehicle":"destination","name":"Fleminginkatu","name:fi":"Fleminginkatu","name:sv":"Flemingsgatan","parking:both":"no","paved:date":"2008","surface":"asphalt","tram:lanes:backward":"yes","tram:lanes:forward":"yes"}},{"type":"way","id":313857930,"nodes":[3198988076,3198988077,3198988081],"tags":{"kerb":"regular"}},{"type":"way","id":313857933,"nodes":[3198988070,3198988071,3198988072,3198988076],"tags":{"barrier":"kerb","kerb":"lowered","tactile_paving":"no","wheelchair":"yes"}},{"type":"way","id":313857935,"nodes":[3198988066,3198988067,3198988068,3198988069,3198988070],"tags":{"kerb":"regular"}},{"type":"way","id":313857936,"nodes":[3198988081,12108640180,3198988079,3198988078],"tags":{"kerb":"lowered"}},{"type":"way","id":327265043,"nodes":[1876917790,672968098,672967997,878716714,6461232597,878716703,6461232594,354872582,1876917789,6321049062,1011920928,1876917783],"tags":{"electrified":"contact_line","frequency":"0","gauge":"1000","oneway":"yes","operator":"HKL-Raitioliikenne","railway":"tram","start_date":"2008-07","tram:segregation:physical":"in_lane","voltage":"600"}},{"type":"way","id":338979080,"nodes":[11741860008,12109876962,12109876963,12109877005,1420854549],"tags":{"highway":"footway","surface":"asphalt"}},{"type":"way","id":339726294,"nodes":[646464811,878716702,646465356,878716714,408616264],"tags":{"footway":"crossing","highway":"footway","lit":"yes","snowplowing":"yes","surface":"asphalt"}},{"type":"way","id":339726298,"nodes":[408616264,3469321802,314301375,3198988079,434619401],"tags":{"footway":"crossing","highway":"footway","lit":"yes","snowplowing":"yes","surface":"asphalt"}},{"type":"way","id":339726299,"nodes":[434619401,3198988071,878716703,646465355,878716693,646464813],"tags":{"footway":"crossing","highway":"footway","lit":"yes","snowplowing":"yes","surface":"asphalt"}},{"type":"way","id":339726300,"nodes":[408616264,7884421679,408616263,7884421656,5496109154,878716712,7884446087,5496109141,7884439705,6051965108,7884439718,408616262,7884483623,7884483624,1525434537,1525434540,445358632],"tags":{"bicycle":"no","footway":"sidewalk","highway":"footway","lit":"yes","snowplowing":"yes","surface":"asphalt"}},{"type":"way","id":614475598,"nodes":[2460248326,7884421672,5496109154,5496109142],"tags":{"highway":"service","service":"driveway","surface":"asphalt"}},{"type":"way","id":688852300,"nodes":[3198988078,12108640179,3198988075,3198988074,3198988073,3198988082],"tags":{"kerb":"regular"}},{"type":"way","id":845106907,"nodes":[7884421656,7884421657],"tags":{"handrail":"no","highway":"steps","incline":"down","lit":"yes","ramp":"no","step_count":"5","surface":"asphalt"}},{"type":"way","id":845106908,"nodes":[7884421657,7884421676,7884421673,7884421674,7884421675,5496109148],"tags":{"highway":"footway","lit":"yes","surface":"asphalt"}},{"type":"way","id":845106909,"nodes":[7884421659,7884421663,7884421660],"tags":{"highway":"footway","lit":"yes","surface":"asphalt","tunnel":"yes"}},{"type":"way","id":845106913,"nodes":[7884421672,7884483622,7884421673],"tags":{"highway":"footway","lit":"yes","surface":"asphalt"}},{"type":"way","id":845106914,"nodes":[7884421674,7884421659],"tags":{"highway":"footway","lit":"yes","surface":"asphalt"}},{"type":"way","id":845106916,"nodes":[7884421676,7884421658],"tags":{"highway":"footway","lit":"yes","surface":"asphalt"}},{"type":"way","id":845106920,"nodes":[7884421679,7884421684,7884421683,7884421682,7884421681,7884421680],"tags":{"highway":"footway","lit":"yes","surface":"asphalt"}},{"type":"way","id":845116613,"nodes":[7884483622,2460248327],"tags":{"highway":"footway","lit":"yes","surface":"asphalt"}},{"type":"way","id":1263806809,"nodes":[11741753832,11741753864,11741753834,11741753833],"tags":{"access":"destination","highway":"service","service":"driveway"}},{"type":"way","id":1307669562,"nodes":[12109876930,12109876933,12109876934,12109876935,12109876936,12109876937,12109876938,12109876939,12109876940,434619577,12109876941,12109876942,1017158423,1017158364,12109877026,12109877025,12109877024,12109877023,1017158392,12109876943,12109876944,208721410,12109876945,12109876922,12109876923,12109876924,12109876925,12109876926,12109876927,12109876928,12109876929,12109876930],"tags":{"landuse":"grass"}},{"type":"way","id":1307669566,"nodes":[12109876954,12109876955,12109876956,12109876957,12109876954],"tags":{"natural":"scrub"}},{"type":"way","id":1307669567,"nodes":[12109876958,12109876959,12109876960,12109876961,12109876967,12109876958],"tags":{"natural":"scrub"}},{"type":"way","id":1307669568,"nodes":[434619400,3461615490],"tags":{"highway":"footway","surface":"asphalt"}},{"type":"way","id":1307669569,"nodes":[3461615490,11741860008],"tags":{"highway":"steps","incline":"up","surface":"asphalt"}},{"type":"way","id":1307669570,"nodes":[12109876964,12109876965,12109876966,12109876960,12109876959,12109877008,12109876956,12109876955,12109876964],"tags":{"leisure":"playground"}},{"type":"way","id":1307669571,"nodes":[12109876967,12109876968,12109876973,12109876970,12109876969,12109876949,12109876946,12109877007,12109876950,12109876953,12109876954,12109876957,12109877009,12109876958,12109876967],"tags":{"building":"roof","layer":"1"}},{"type":"way","id":1307669572,"nodes":[12109876970,12109876971,12109876972,12109876973,12109876970],"tags":{"leisure":"playground"}},{"type":"way","id":1307669573,"nodes":[12109876968,12109876974,1017158407,12109876975,12109876961,12109876967,12109876968],"tags":{"leisure":"playground"}},{"type":"way","id":1307669574,"nodes":[1017158407,12109876975,12109876961],"tags":{"barrier":"fence"}},{"type":"way","id":1307669583,"nodes":[12109876992,12109876993,12109876994,12109876995,1420854553,1420854554,12109876996,12109876997,12109876998,12109876999,12109877000,12109877001,12109877002,12109877003,12109877004,12109876992],"tags":{"building":"yes"}},{"type":"way","id":1307669587,"nodes":[12109877008,12109877009],"tags":{"highway":"steps"}},{"type":"way","id":1307669588,"nodes":[12109877009,12109877010,12109876989],"tags":{"highway":"footway"}},{"type":"node","id":176196101,"lat":60.1892663,"lon":24.949412},{"type":"node","id":257702003,"lat":60.1891442,"lon":24.9483855},{"type":"node","id":257725023,"lat":60.1902072,"lon":24.9494811},{"type":"node","id":445358632,"lat":60.189418,"lon":24.9495439},{"type":"node","id":670262268,"lat":60.1901759,"lon":24.9494838},{"type":"node","id":670264136,"lat":60.1896701,"lon":24.9495397},{"type":"node","id":670264137,"lat":60.1899001,"lon":24.9495118},{"type":"node","id":1525434607,"lat":60.1899432,"lon":24.9495065},{"type":"node","id":2460237394,"lat":60.1891621,"lon":24.9485719},{"type":"node","id":3198988095,"lat":60.190143,"lon":24.9494871},{"type":"node","id":6051965125,"lat":60.189651,"lon":24.949542},{"type":"node","id":6051965130,"lat":60.189638,"lon":24.9495436},{"type":"node","id":7884483626,"lat":60.1895785,"lon":24.9495504},{"type":"node","id":8434504345,"lat":60.189186,"lon":24.9494041},{"type":"node","id":34500693,"lat":60.1883404,"lon":24.9530204},{"type":"node","id":34506585,"lat":60.1883433,"lon":24.9524091},{"type":"node","id":176195941,"lat":60.1887485,"lon":24.9508506},{"type":"node","id":208721408,"lat":60.1883979,"lon":24.9510642},{"type":"node","id":208721410,"lat":60.1884063,"lon":24.9513915},{"type":"node","id":208721411,"lat":60.1883397,"lon":24.9513985},{"type":"node","id":208721412,"lat":60.188361,"lon":24.9520626},{"type":"node","id":208721413,"lat":60.1882451,"lon":24.9520747},{"type":"node","id":208721414,"lat":60.1882328,"lon":24.9516016},{"type":"node","id":208721415,"lat":60.1882359,"lon":24.9515275},{"type":"node","id":208721416,"lat":60.1882322,"lon":24.9513863},{"type":"node","id":208721418,"lat":60.1876467,"lon":24.951451},{"type":"node","id":208721419,"lat":60.1877332,"lon":24.9510819},{"type":"node","id":254286111,"lat":60.1888144,"lon":24.9521021},{"type":"node","id":254286112,"lat":60.1888169,"lon":24.9523215},{"type":"node","id":254286113,"lat":60.1886732,"lon":24.952328},{"type":"node","id":254286114,"lat":60.1886707,"lon":24.9521086},{"type":"node","id":254286139,"lat":60.1894202,"lon":24.9523248},{"type":"node","id":254286140,"lat":60.189371,"lon":24.9523298},{"type":"node","id":254286153,"lat":60.1884549,"lon":24.9526884},{"type":"node","id":254286154,"lat":60.1884483,"lon":24.9524231},{"type":"node","id":254286275,"lat":60.1889569,"lon":24.9509012},{"type":"node","id":254286282,"lat":60.189197,"lon":24.9502033},{"type":"node","id":254286283,"lat":60.1894295,"lon":24.9495673},{"type":"node","id":254286285,"lat":60.1898006,"lon":24.9510883},{"type":"node","id":254286288,"lat":60.1895929,"lon":24.9518274},{"type":"node","id":254286290,"lat":60.1887051,"lon":24.9516721},{"type":"node","id":257701003,"lat":60.1892318,"lon":24.9497623},{"type":"node","id":257725024,"lat":60.1903252,"lon":24.9496767},{"type":"node","id":313945944,"lat":60.1871131,"lon":24.9530025},{"type":"node","id":314299735,"lat":60.1876399,"lon":24.9529504},{"type":"node","id":314301375,"lat":60.18834,"lon":24.9528644},{"type":"node","id":314301381,"lat":60.1883448,"lon":24.953261},{"type":"node","id":354872577,"lat":60.1875979,"lon":24.9529564},{"type":"node","id":354872582,"lat":60.1875999,"lon":24.9530764},{"type":"node","id":354872583,"lat":60.1876007,"lon":24.9531268},{"type":"node","id":408616014,"lat":60.1898878,"lon":24.9508189},{"type":"node","id":408616015,"lat":60.1900703,"lon":24.9502919},{"type":"node","id":408616016,"lat":60.1897248,"lon":24.9513411},{"type":"node","id":408616257,"lat":60.1884338,"lon":24.9524652},{"type":"node","id":408616258,"lat":60.1884352,"lon":24.9528237},{"type":"node","id":408616259,"lat":60.1894179,"lon":24.9527088},{"type":"node","id":408616260,"lat":60.1894785,"lon":24.9523966},{"type":"node","id":408616261,"lat":60.1895331,"lon":24.9520613},{"type":"node","id":408616262,"lat":60.1892852,"lon":24.949846},{"type":"node","id":408616263,"lat":60.1884195,"lon":24.9524528},{"type":"node","id":408616264,"lat":60.1884202,"lon":24.9528586},{"type":"node","id":431474690,"lat":60.1876753,"lon":24.9529454},{"type":"node","id":431474692,"lat":60.1876543,"lon":24.9519559},{"type":"node","id":434619399,"lat":60.1891912,"lon":24.9496371},{"type":"node","id":434619400,"lat":60.1882712,"lon":24.9523675},{"type":"node","id":434619401,"lat":60.1882729,"lon":24.9528922},{"type":"node","id":434619568,"lat":60.1882592,"lon":24.9528482},{"type":"node","id":434619569,"lat":60.187682,"lon":24.9529059},{"type":"node","id":434619573,"lat":60.1876315,"lon":24.9505721},{"type":"node","id":434619574,"lat":60.1884169,"lon":24.9504925},{"type":"node","id":434619577,"lat":60.1887266,"lon":24.9509215},{"type":"node","id":434619578,"lat":60.1882542,"lon":24.9523893},{"type":"node","id":646464811,"lat":60.1884183,"lon":24.9531596},{"type":"node","id":646464813,"lat":60.1882758,"lon":24.953174},{"type":"node","id":646465355,"lat":60.188273,"lon":24.953027},{"type":"node","id":646465356,"lat":60.1884193,"lon":24.9530124},{"type":"node","id":670255660,"lat":60.1893792,"lon":24.949666},{"type":"node","id":670262269,"lat":60.1902446,"lon":24.9498736},{"type":"node","id":670262270,"lat":60.1899384,"lon":24.9506741},{"type":"node","id":670262272,"lat":60.1900196,"lon":24.950442},{"type":"node","id":672967997,"lat":60.189151,"lon":24.9529056},{"type":"node","id":672968098,"lat":60.189338,"lon":24.9528869},{"type":"node","id":678167679,"lat":60.1901639,"lon":24.9500561},{"type":"node","id":878449173,"lat":60.1894268,"lon":24.95259},{"type":"node","id":878639566,"lat":60.1883456,"lon":24.9533155},{"type":"node","id":878716688,"lat":60.1884568,"lon":24.9530101},{"type":"node","id":878716690,"lat":60.1885121,"lon":24.9516453},{"type":"node","id":878716691,"lat":60.1891993,"lon":24.9498642},{"type":"node","id":878716693,"lat":60.1882731,"lon":24.9530506},{"type":"node","id":878716698,"lat":60.1885737,"lon":24.9517292},{"type":"node","id":878716702,"lat":60.1884195,"lon":24.9530409},{"type":"node","id":878716703,"lat":60.1882728,"lon":24.952999},{"type":"node","id":878716712,"lat":60.1886353,"lon":24.951813},{"type":"node","id":878716714,"lat":60.188419,"lon":24.952989},{"type":"node","id":878716716,"lat":60.1883402,"lon":24.9528269},{"type":"node","id":1011920928,"lat":60.1871721,"lon":24.953098},{"type":"node","id":1017158363,"lat":60.1883429,"lon":24.9515209},{"type":"node","id":1017158364,"lat":60.1883708,"lon":24.9515869},{"type":"node","id":1017158392,"lat":60.188369,"lon":24.9515181},{"type":"node","id":1017158407,"lat":60.1882073,"lon":24.9516039},{"type":"node","id":1017158423,"lat":60.1883487,"lon":24.9515892},{"type":"node","id":1017158424,"lat":60.1882265,"lon":24.9510249},{"type":"node","id":1017158430,"lat":60.1877424,"lon":24.9514338},{"type":"node","id":1017158446,"lat":60.188478,"lon":24.9506901},{"type":"node","id":1017158478,"lat":60.1882186,"lon":24.9507173},{"type":"node","id":1017158485,"lat":60.1882018,"lon":24.9515311},{"type":"node","id":1017158501,"lat":60.1884874,"lon":24.9510548},{"type":"node","id":1405896254,"lat":60.1877768,"lon":24.9530856},{"type":"node","id":1420854541,"lat":60.1876351,"lon":24.9507781},{"type":"node","id":1420854549,"lat":60.1877732,"lon":24.9520049},{"type":"node","id":1420854553,"lat":60.1877954,"lon":24.9521294},{"type":"node","id":1420854554,"lat":60.1878083,"lon":24.9527376},{"type":"node","id":1435258082,"lat":60.1874705,"lon":24.9531413},{"type":"node","id":1435317977,"lat":60.1891946,"lon":24.9527638},{"type":"node","id":1525434517,"lat":60.1891783,"lon":24.9496786},{"type":"node","id":1525434525,"lat":60.1892611,"lon":24.950013},{"type":"node","id":1525434527,"lat":60.1892654,"lon":24.9496349},{"type":"node","id":1525434537,"lat":60.1893805,"lon":24.9495874},{"type":"node","id":1525434540,"lat":60.1893994,"lon":24.9495568},{"type":"node","id":1525434542,"lat":60.1894007,"lon":24.9496045},{"type":"node","id":1525434544,"lat":60.1894102,"lon":24.9495733},{"type":"node","id":1525434600,"lat":60.1898614,"lon":24.9509007},{"type":"node","id":1876917783,"lat":60.187146,"lon":24.953084},{"type":"node","id":1876917789,"lat":60.1872308,"lon":24.9531059},{"type":"node","id":1876917790,"lat":60.1893758,"lon":24.9528759},{"type":"node","id":2411513965,"lat":60.1873666,"lon":24.9529797},{"type":"node","id":2460245864,"lat":60.1893246,"lon":24.9498268},{"type":"node","id":2460247555,"lat":60.1887357,"lon":24.9508938},{"type":"node","id":2460247556,"lat":60.1887603,"lon":24.9509125},{"type":"node","id":2460247558,"lat":60.1888354,"lon":24.9509489},{"type":"node","id":2460248320,"lat":60.188583,"lon":24.9520752},{"type":"node","id":2460248321,"lat":60.1885843,"lon":24.9521673},{"type":"node","id":2460248323,"lat":60.1886397,"lon":24.9520721},{"type":"node","id":2460248324,"lat":60.1886409,"lon":24.9521641},{"type":"node","id":2460248326,"lat":60.1887126,"lon":24.9520162},{"type":"node","id":2460248327,"lat":60.1886719,"lon":24.9522125},{"type":"node","id":2460253171,"lat":60.1880917,"lon":24.9530477},{"type":"node","id":2460253173,"lat":60.1882347,"lon":24.953033},{"type":"node","id":2460256922,"lat":60.1887401,"lon":24.952989},{"type":"node","id":3198988066,"lat":60.1876717,"lon":24.9529837},{"type":"node","id":3198988067,"lat":60.1876767,"lon":24.9529837},{"type":"node","id":3198988068,"lat":60.1882272,"lon":24.9529241},{"type":"node","id":3198988069,"lat":60.188242,"lon":24.9529539},{"type":"node","id":3198988070,"lat":60.1882472,"lon":24.9529604},{"type":"node","id":3198988071,"lat":60.1882728,"lon":24.9529514},{"type":"node","id":3198988072,"lat":60.1882792,"lon":24.9529462},{"type":"node","id":3198988073,"lat":60.1882966,"lon":24.9523501},{"type":"node","id":3198988074,"lat":60.1882966,"lon":24.9523593},{"type":"node","id":3198988075,"lat":60.1882929,"lon":24.9527532},{"type":"node","id":3198988076,"lat":60.1882845,"lon":24.9529404},{"type":"node","id":3198988077,"lat":60.1882938,"lon":24.952924},{"type":"node","id":3198988078,"lat":60.1883106,"lon":24.9528339},{"type":"node","id":3198988079,"lat":60.1883105,"lon":24.9528652},{"type":"node","id":3198988081,"lat":60.1883017,"lon":24.9529047},{"type":"node","id":3198988082,"lat":60.1885087,"lon":24.9517257},{"type":"node","id":3198988086,"lat":60.1887313,"lon":24.9509054},{"type":"node","id":3198988087,"lat":60.1887406,"lon":24.9508769},{"type":"node","id":3339910282,"lat":60.1893546,"lon":24.952942},{"type":"node","id":3461615490,"lat":60.1882656,"lon":24.9521024},{"type":"node","id":3469321802,"lat":60.1883844,"lon":24.9528623},{"type":"node","id":4552700790,"lat":60.1888331,"lon":24.9506977},{"type":"node","id":5496109141,"lat":60.188819,"lon":24.9512629},{"type":"node","id":5496109142,"lat":60.1885152,"lon":24.951902},{"type":"node","id":5496109146,"lat":60.188754,"lon":24.9511917},{"type":"node","id":5496109148,"lat":60.1889103,"lon":24.9523351},{"type":"node","id":5496109154,"lat":60.1885792,"lon":24.9519792},{"type":"node","id":6051965108,"lat":60.1890526,"lon":24.9505529},{"type":"node","id":6051965109,"lat":60.1889934,"lon":24.9504779},{"type":"node","id":6321049062,"lat":60.1871978,"lon":24.9531047},{"type":"node","id":6461232594,"lat":60.1876441,"lon":24.9530713},{"type":"node","id":6461232595,"lat":60.1877003,"lon":24.9531155},{"type":"node","id":6461232596,"lat":60.1883409,"lon":24.9530461},{"type":"node","id":6461232597,"lat":60.1883403,"lon":24.9529944},{"type":"node","id":6783344004,"lat":60.1888683,"lon":24.9505937},{"type":"node","id":7884421656,"lat":60.1884442,"lon":24.9523796},{"type":"node","id":7884421657,"lat":60.1884776,"lon":24.9523764},{"type":"node","id":7884421658,"lat":60.1885406,"lon":24.9524138},{"type":"node","id":7884421659,"lat":60.1886841,"lon":24.9523993},{"type":"node","id":7884421660,"lat":60.1886906,"lon":24.9526645},{"type":"node","id":7884421661,"lat":60.1887187,"lon":24.9523958},{"type":"node","id":7884421662,"lat":60.1887255,"lon":24.952661},{"type":"node","id":7884421663,"lat":60.1886875,"lon":24.9525391},{"type":"node","id":7884421665,"lat":60.189154,"lon":24.9523517},{"type":"node","id":7884421666,"lat":60.18916,"lon":24.952617},{"type":"node","id":7884421667,"lat":60.1891928,"lon":24.9523478},{"type":"node","id":7884421668,"lat":60.1891987,"lon":24.9526131},{"type":"node","id":7884421671,"lat":60.1892867,"lon":24.9523383},{"type":"node","id":7884421672,"lat":60.188658,"lon":24.952001},{"type":"node","id":7884421673,"lat":60.188665,"lon":24.9523585},{"type":"node","id":7884421674,"lat":60.1886842,"lon":24.9523567},{"type":"node","id":7884421675,"lat":60.1887173,"lon":24.9523535},{"type":"node","id":7884421676,"lat":60.1885404,"lon":24.9523704},{"type":"node","id":7884421679,"lat":60.18842,"lon":24.9527643},{"type":"node","id":7884421680,"lat":60.189382,"lon":24.952654},{"type":"node","id":7884421681,"lat":60.189201,"lon":24.9526748},{"type":"node","id":7884421682,"lat":60.1891613,"lon":24.9526793},{"type":"node","id":7884421683,"lat":60.1887268,"lon":24.9527292},{"type":"node","id":7884421684,"lat":60.1886916,"lon":24.9527332},{"type":"node","id":7884439705,"lat":60.1889479,"lon":24.950871},{"type":"node","id":7884439718,"lat":60.1891598,"lon":24.9502272},{"type":"node","id":7884446087,"lat":60.1886999,"lon":24.9516196},{"type":"node","id":7884483622,"lat":60.1886622,"lon":24.9522141},{"type":"node","id":7884483623,"lat":60.1893039,"lon":24.9497952},{"type":"node","id":7884483624,"lat":60.1893613,"lon":24.9496395},{"type":"node","id":9732966618,"lat":60.1889237,"lon":24.952375},{"type":"node","id":10749431945,"lat":60.1883101,"lon":24.9505051},{"type":"node","id":11591899991,"lat":60.1901432,"lon":24.9501083},{"type":"node","id":11712658656,"lat":60.1883621,"lon":24.950498},{"type":"node","id":11741753832,"lat":60.1885821,"lon":24.9530008},{"type":"node","id":11741753833,"lat":60.1885849,"lon":24.9531747},{"type":"node","id":11741753834,"lat":60.1885839,"lon":24.953142},{"type":"node","id":11741753864,"lat":60.1885824,"lon":24.9530237},{"type":"node","id":11741860008,"lat":60.1882065,"lon":24.9521065},{"type":"node","id":12108640176,"lat":60.1888267,"lon":24.9528088},{"type":"node","id":12108640179,"lat":60.1883105,"lon":24.9527841},{"type":"node","id":12108640180,"lat":60.1883071,"lon":24.9528856},{"type":"node","id":12109876916,"lat":60.1882143,"lon":24.9505146},{"type":"node","id":12109876917,"lat":60.1884792,"lon":24.9507372},{"type":"node","id":12109876921,"lat":60.1887436,"lon":24.9508668},{"type":"node","id":12109876922,"lat":60.1884321,"lon":24.9512369},{"type":"node","id":12109876923,"lat":60.1884313,"lon":24.9513287},{"type":"node","id":12109876924,"lat":60.1884709,"lon":24.9513542},{"type":"node","id":12109876925,"lat":60.1884879,"lon":24.9513696},{"type":"node","id":12109876926,"lat":60.1885153,"lon":24.9513542},{"type":"node","id":12109876927,"lat":60.1885319,"lon":24.9513112},{"type":"node","id":12109876928,"lat":60.1885416,"lon":24.9512683},{"type":"node","id":12109876929,"lat":60.1885349,"lon":24.9512368},{"type":"node","id":12109876930,"lat":60.1885296,"lon":24.9512153},{"type":"node","id":12109876933,"lat":60.1885503,"lon":24.9511463},{"type":"node","id":12109876934,"lat":60.1885676,"lon":24.9510759},{"type":"node","id":12109876935,"lat":60.1885856,"lon":24.9509807},{"type":"node","id":12109876936,"lat":60.188601,"lon":24.9509056},{"type":"node","id":12109876937,"lat":60.1886086,"lon":24.9508774},{"type":"node","id":12109876938,"lat":60.1886236,"lon":24.9508593},{"type":"node","id":12109876939,"lat":60.1886373,"lon":24.95086},{"type":"node","id":12109876940,"lat":60.1886643,"lon":24.9508787},{"type":"node","id":12109876941,"lat":60.1883656,"lon":24.952043},{"type":"node","id":12109876942,"lat":60.1883605,"lon":24.9520453},{"type":"node","id":12109876943,"lat":60.1884407,"lon":24.9514477},{"type":"node","id":12109876944,"lat":60.1883633,"lon":24.951396},{"type":"node","id":12109876945,"lat":60.1884024,"lon":24.9512382},{"type":"node","id":12109876946,"lat":60.1878391,"lon":24.9518514},{"type":"node","id":12109876949,"lat":60.1877228,"lon":24.9518639},{"type":"node","id":12109876950,"lat":60.1878938,"lon":24.9518455},{"type":"node","id":12109876953,"lat":60.1879417,"lon":24.9518404},{"type":"node","id":12109876954,"lat":60.1880568,"lon":24.951828},{"type":"node","id":12109876955,"lat":60.1880592,"lon":24.9519243},{"type":"node","id":12109876956,"lat":60.1881071,"lon":24.9519209},{"type":"node","id":12109876957,"lat":60.1881046,"lon":24.9518229},{"type":"node","id":12109876958,"lat":60.1881574,"lon":24.9518208},{"type":"node","id":12109876959,"lat":60.18816,"lon":24.9519172},{"type":"node","id":12109876960,"lat":60.1882054,"lon":24.951914},{"type":"node","id":12109876961,"lat":60.1882054,"lon":24.9518157},{"type":"node","id":12109876962,"lat":60.1879386,"lon":24.9521145},{"type":"node","id":12109876963,"lat":60.1879378,"lon":24.9520001},{"type":"node","id":12109876964,"lat":60.1879669,"lon":24.9519308},{"type":"node","id":12109876965,"lat":60.1879692,"lon":24.952059},{"type":"node","id":12109876966,"lat":60.1882076,"lon":24.9520422},{"type":"node","id":12109876967,"lat":60.1881655,"lon":24.9518206},{"type":"node","id":12109876968,"lat":60.1881621,"lon":24.9517088},{"type":"node","id":12109876969,"lat":60.18772,"lon":24.9517564},{"type":"node","id":12109876970,"lat":60.187934,"lon":24.9517338},{"type":"node","id":12109876971,"lat":60.1879305,"lon":24.9516137},{"type":"node","id":12109876972,"lat":60.188103,"lon":24.9515938},{"type":"node","id":12109876973,"lat":60.1881065,"lon":24.9517139},{"type":"node","id":12109876974,"lat":60.1881591,"lon":24.9516098},{"type":"node","id":12109876975,"lat":60.1882136,"lon":24.9518147},{"type":"node","id":12109876987,"lat":60.1880646,"lon":24.9509988},{"type":"node","id":12109876988,"lat":60.1878612,"lon":24.9515047},{"type":"node","id":12109876989,"lat":60.1878622,"lon":24.9515473},{"type":"node","id":12109876992,"lat":60.1878844,"lon":24.9521104},{"type":"node","id":12109876993,"lat":60.1878563,"lon":24.9521128},{"type":"node","id":12109876994,"lat":60.1878553,"lon":24.9520645},{"type":"node","id":12109876995,"lat":60.1877941,"lon":24.9520698},{"type":"node","id":12109876996,"lat":60.1882171,"lon":24.9527025},{"type":"node","id":12109876997,"lat":60.1882049,"lon":24.9521284},{"type":"node","id":12109876998,"lat":60.1881227,"lon":24.9521354},{"type":"node","id":12109876999,"lat":60.1881311,"lon":24.9525316},{"type":"node","id":12109877000,"lat":60.1878987,"lon":24.9525516},{"type":"node","id":12109877001,"lat":60.1878965,"lon":24.9524482},{"type":"node","id":12109877002,"lat":60.1879214,"lon":24.952446},{"type":"node","id":12109877003,"lat":60.187919,"lon":24.9523338},{"type":"node","id":12109877004,"lat":60.1878892,"lon":24.9523364},{"type":"node","id":12109877005,"lat":60.1878683,"lon":24.9520021},{"type":"node","id":12109877007,"lat":60.1878641,"lon":24.9518487},{"type":"node","id":12109877008,"lat":60.1881336,"lon":24.9519199},{"type":"node","id":12109877009,"lat":60.1881306,"lon":24.9518214},{"type":"node","id":12109877010,"lat":60.1881237,"lon":24.9515228},{"type":"node","id":12109877011,"lat":60.1881057,"lon":24.9510375},{"type":"node","id":12109877012,"lat":60.1881046,"lon":24.9509946},{"type":"node","id":12109877013,"lat":60.188016,"lon":24.951052},{"type":"node","id":12109877014,"lat":60.1880148,"lon":24.9510041},{"type":"node","id":12109877015,"lat":60.1878288,"lon":24.9514247},{"type":"node","id":12109877016,"lat":60.1878913,"lon":24.9514222},{"type":"node","id":12109877017,"lat":60.1878934,"lon":24.9515013},{"type":"node","id":12109877018,"lat":60.1878309,"lon":24.9515078},{"type":"node","id":12109877019,"lat":60.1881917,"lon":24.9515389},{"type":"node","id":12109877020,"lat":60.1881881,"lon":24.9515575},{"type":"node","id":12109877021,"lat":60.1881891,"lon":24.9515841},{"type":"node","id":12109877022,"lat":60.1881946,"lon":24.9515979},{"type":"node","id":12109877023,"lat":60.1883762,"lon":24.9515246},{"type":"node","id":12109877024,"lat":60.1883808,"lon":24.951543},{"type":"node","id":12109877025,"lat":60.1883806,"lon":24.9515619},{"type":"node","id":12109877026,"lat":60.1883757,"lon":24.951579},{"type":"node","id":12109877030,"lat":60.1876395,"lon":24.9510364},{"type":"node","id":12109877031,"lat":60.1876368,"lon":24.9508808}]}