{"version":0.6,"generator":"Overpass API 0.7.62.5 1bd436f1","osm3s":{"timestamp_osm_base":"2025-03-12T12:19:00Z","copyright":"The data included in this document is from www.openstreetmap.org. The data is made available under ODbL."},"elements":[{"type":"node","id":189405254,"lat":60.1865196,"lon":24.9512629,"tags":{"button_operated":"no","crossing":"traffic_signals","highway":"crossing","traffic_signals:sound":"yes","traffic_signals:vibration":"no"}},{"type":"node","id":257714577,"lat":60.1865392,"lon":24.9508998,"tags":{"button_operated":"yes","crossing":"traffic_signals","highway":"crossing","py\u00f6r\u00e4_v\u00e4ist\u00e4\u00e4_aina_autoa":"t\u00e4m\u00e4_jos_valoton","traffic_signals:sound":"no","traffic_signals:vibration":"no"}},{"type":"node","id":257714578,"lat":60.1866345,"lon":24.9508849,"tags":{"button_operated":"yes","crossing":"traffic_signals","highway":"crossing","traffic_signals:sound":"no","traffic_signals:vibration":"no"}},{"type":"node","id":257714579,"lat":60.1866402,"lon":24.9508851,"tags":{"button_operated":"yes","crossing":"traffic_signals","highway":"crossing","traffic_signals:sound":"no","traffic_signals:vibration":"no"}},{"type":"node","id":257714584,"lat":60.1865128,"lon":24.9512423,"tags":{"button_operated":"no","crossing":"traffic_signals","highway":"crossing","traffic_signals:sound":"yes","traffic_signals:vibration":"no"}},{"type":"node","id":257714585,"lat":60.1865557,"lon":24.9513954,"tags":{"button_operated":"no","crossing":"traffic_signals","highway":"crossing","traffic_signals:sound":"yes","traffic_signals:vibration":"no"}},{"type":"node","id":313769662,"lat":60.1866127,"lon":24.9508863,"tags":{"button_operated":"yes","crossing":"traffic_signals","highway":"crossing","traffic_signals:sound":"no","traffic_signals:vibration":"no"}},{"type":"node","id":313769681,"lat":60.1865279,"lon":24.9512891,"tags":{"button_operated":"no","crossing":"traffic_signals","highway":"crossing","traffic_signals:sound":"yes","traffic_signals:vibration":"no"}},{"type":"node","id":313769685,"lat":60.1866037,"lon":24.9508876,"tags":{"button_operated":"yes","crossing":"traffic_signals","highway":"crossing","traffic_signals:sound":"no","traffic_signals:vibration":"no"}},{"type":"node","id":316249022,"lat":60.1860127,"lon":24.9516876,"tags":{"addr:city":"Helsinki","addr:country":"FI","addr:housenumber":"11","addr:postcode":"00530","addr:street":"Kaarlenkatu","name":"Sulake Oy","office":"company","opening_hours":"Mo-Fr 07:45-16:15","phone":"+358106567000"}},{"type":"node","id":316249403,"lat":60.1863806,"lon":24.9503615,"tags":{"addr:city":"Helsinki","addr:country":"FI","addr:housenumber":"24","addr:street":"Helsinginkatu"}},{"type":"node","id":316249404,"lat":60.186396,"lon":24.9509583,"tags":{"addr:city":"Helsinki","addr:country":"FI","addr:housenumber":"22","addr:street":"Helsinginkatu"}},{"type":"node","id":475530643,"lat":60.1862711,"lon":24.9511428,"tags":{"addr:city":"Helsinki","addr:country":"FI","addr:housenumber":"12","addr:street":"Kaarlenkatu"}},{"type":"node","id":475530644,"lat":60.1859879,"lon":24.9511402,"tags":{"addr:city":"Helsinki","addr:country":"FI","addr:housenumber":"10","addr:street":"Kaarlenkatu"}},{"type":"node","id":611033673,"lat":60.1861223,"lon":24.9512452,"tags":{"addr:city":"Helsinki","addr:country":"FI","addr:housenumber":"10","addr:street":"Kaarlenkatu","amenity":"pub","check_date":"2024-09-17","name":"Virkavapaa","opening_hours":"16:00-04:30"}},{"type":"node","id":656745690,"lat":60.1860301,"lon":24.9515124,"tags":{"bench":"yes","bin":"yes","departures_board":"realtime","lit":"yes","name":"Kaarlenkatu","name:fi":"Kaarlenkatu","name:sv":"Karlsgatan","public_transport":"platform","railway":"tram_stop","ref":"H0257","shelter":"yes","wheelchair":"yes","zone:HSL":"A"}},{"type":"node","id":828456015,"lat":60.1864292,"lon":24.951661,"tags":{"addr:housenumber":"13","addr:street":"Kaarlenkatu","level":"0","name":"Kanniston leipomo","opening_hours":"Mo-Fr 08:00-15:00; Sa 10:00-15:00","shop":"bakery","website":"https:\/\/www.kannistonleipomo.fi\/Myymalat"}},{"type":"node","id":1503141128,"lat":60.1864347,"lon":24.9514112,"tags":{"highway:give_way":"yes"}},{"type":"node","id":1525474195,"lat":60.1865229,"lon":24.9507879,"tags":{"highway":"traffic_signals"}},{"type":"node","id":1787619942,"lat":60.1865016,"lon":24.9512052,"tags":{"kerb":"lowered"}},{"type":"node","id":1787619943,"lat":60.1865647,"lon":24.9514496,"tags":{"kerb":"lowered"}},{"type":"node","id":1926813134,"lat":60.1864187,"lon":24.9511474,"tags":{"addr:city":"Helsinki","addr:housenumber":"22","addr:postcode":"00510","addr:street":"Helsinginkatu","check_date":"2024-09-17","name":"UFF","opening_hours":"Mo-Fr 10:00-20:00; Sa 10:00-18:00; Su 12:00-18:00","second_hand":"only","shop":"clothes","website":"https:\/\/www.uff.fi\/","wheelchair":"limited"}},{"type":"node","id":1990843500,"lat":60.1863805,"lon":24.9512832,"tags":{"traffic_sign":"FI:363[30]","traffic_sign:2":"FI:372","traffic_sign:3":"FI:855a[9-21]","traffic_sign:4":"FI:871"}},{"type":"node","id":2008288026,"lat":60.1865026,"lon":24.9514581,"tags":{"note":"Possibly relocated","traffic_sign":"FI:363[40]","traffic_sign:2":"FI:231","traffic_signals":"signal","traffic_signals:motor_vehicle":"yes","traffic_signals:tram":"yes"}},{"type":"node","id":2050452621,"lat":60.1864766,"lon":24.9508353,"tags":{"traffic_sign":"FI:425","traffic_signals":"signal","traffic_signals:foot":"yes","traffic_signals:motor_vehicle":"yes"}},{"type":"node","id":2060105598,"lat":60.1865321,"lon":24.9505159,"tags":{"man_made":"utility_pole","material":"steel","traffic_sign":"FI:417"}},{"type":"node","id":2060109760,"lat":60.1865701,"lon":24.9508506,"tags":{"traffic_signals":"signal","traffic_signals:foot":"yes","traffic_signals:motor_vehicle":"yes"}},{"type":"node","id":2060109761,"lat":60.1865733,"lon":24.9509678,"tags":{"traffic_signals":"signal","traffic_signals:motor_vehicle":"yes","traffic_signals:tram":"yes"}},{"type":"node","id":2126137000,"lat":60.1864793,"lon":24.9505202,"tags":{"layer":"1","location":"overhead","traffic_sign":"FI:413[right]"}},{"type":"node","id":2126137004,"lat":60.1865008,"lon":24.9505185,"tags":{"layer":"1","location":"overhead","traffic_sign":"FI:412"}},{"type":"node","id":2281112735,"lat":60.1864276,"lon":24.9506618,"tags":{"advertising":"window"}},{"type":"node","id":2281112736,"lat":60.1864294,"lon":24.9507348,"tags":{"advertising":"sign"}},{"type":"node","id":2281112737,"lat":60.1864337,"lon":24.9508711,"tags":{"entrance":"staircase","ref":"C"}},{"type":"node","id":2281112738,"lat":60.1864373,"lon":24.951059,"tags":{"advertising":"window"}},{"type":"node","id":2281112739,"lat":60.1864401,"lon":24.9515636,"tags":{"traffic_signals":"controller"}},{"type":"node","id":2281112740,"lat":60.1864434,"lon":24.9512116,"tags":{"traffic_signals:foot":"yes"}},{"type":"node","id":2411513911,"lat":60.1866524,"lon":24.9505695,"tags":{"note":"9-19 viel\u00e4 2014-08","traffic_sign":"FI:521","traffic_sign:2":"FI:855b[9-19]","traffic_sign:3":"FI:871[Vy\u00f6hyke 3 Kertamaksu enint. 4 h]","traffic_sign:4":"FI:814[60 m]","traffic_sign:5":"FI:871[\u2190 Lippuautomaatti]"}},{"type":"node","id":2434572846,"lat":60.186112,"lon":24.9515872,"tags":{"traffic_sign":"FI:372","traffic_sign:2":"FI:855a[9-21]","traffic_sign:3":"FI:871[Vy\u00f6hyke 3 Ei koske P-tunnuksella I]"}},{"type":"node","id":3017232389,"lat":60.186495,"lon":24.9513634,"tags":{"traffic_sign":"FI:417","traffic_signals":"signal","traffic_signals:motor_vehicle":"yes"}},{"type":"node","id":3017242882,"lat":60.1865631,"lon":24.9504745,"tags":{"traffic_sign":"FI:543a"}},{"type":"node","id":3036582627,"lat":60.1860075,"lon":24.9515314,"tags":{"traffic_sign":"FI:533;FI:531"}},{"type":"node","id":3100989512,"lat":60.1864295,"lon":24.9512303,"tags":{"traffic_sign":"round"}},{"type":"node","id":3325087361,"lat":60.1863896,"lon":24.9504773,"tags":{"addr:city":"Helsinki","addr:housenumber":"24","addr:postcode":"00510","addr:street":"Helsinginkatu","check_date":"2024-09-17","name":"Kumiluoti","opening_hours":"Mo-Fr 10:00-18:00","shop":"bicycle","website":"https:\/\/www.kumiluoti.fi\/","wheelchair":"yes"}},{"type":"node","id":6953570323,"lat":60.1861954,"lon":24.9506979,"tags":{"addr:city":"Helsinki","addr:housenumber":"12","addr:postcode":"00530","addr:street":"Kaarlenkatu","addr:unit":"D2","brand":"www.veneidenkuomut.fi","level":"2","name":"Ompelimo H.J\u00e4rvenp\u00e4\u00e4","payment:cards":"yes","payment:cash":"yes","shop":"craft"}},{"type":"node","id":8852722322,"lat":60.1861389,"lon":24.9515936,"tags":{"access":"private","barrier":"gate"}},{"type":"node","id":8852722326,"lat":60.1861737,"lon":24.9515902,"tags":{"access":"private","barrier":"gate"}},{"type":"node","id":8852722330,"lat":60.1862094,"lon":24.9515867,"tags":{"access":"private","addr:housenumber":"13","addr:street":"Kaarlenkatu","addr:unit":"A","description":"With keycode","entrance":"staircase","wheelchair":"no"}},{"type":"node","id":8852722332,"lat":60.186327,"lon":24.9515751,"tags":{"access":"private","addr:housenumber":"13","addr:street":"Kaarlenkatu","addr:unit":"B","description":"With keycode","entrance":"staircase","wheelchair":"no"}},{"type":"node","id":8852722334,"lat":60.1863717,"lon":24.9515707,"tags":{"access":"yes","addr:housenumber":"13","addr:street":"Kaarlenkatu","entrance":"yes","wheelchair":"no"}},{"type":"node","id":8852722336,"lat":60.1863692,"lon":24.9516419,"tags":{"addr:housenumber":"13","addr:street":"Kaarlenkatu","level":"1","name":"Kallion klipoteekki","opening_hours":"Mo-Fr 10:00-17:00; Sa 10:00-14:00","shop":"hairdresser"}},{"type":"node","id":8852722337,"lat":60.1864519,"lon":24.951644,"tags":{"access":"yes","addr:housenumber":"13","addr:street":"Kaarlenkatu","entrance":"shop","wheelchair":"no"}},{"type":"node","id":8852722343,"lat":60.1865643,"lon":24.9517132,"tags":{"access":"yes","addr:housenumber":"15","addr:street":"Kaarlenkatu","entrance":"shop","wheelchair":"no"}},{"type":"node","id":8852722346,"lat":60.1866239,"lon":24.9517078,"tags":{"access":"private","barrier":"gate"}},{"type":"node","id":10870309937,"lat":60.1865779,"lon":24.9515369,"tags":{"access":"yes","amenity":"bicycle_parking","bicycle_parking":"stands","capacity":"14","covered":"no","fee":"no","loc_name":"Outlands"}},{"type":"node","id":11059279954,"lat":60.1866523,"lon":24.9515005,"tags":{"denotation":"urban","diameter":"4m","height":"8","leaf_cycle":"deciduous","leaf_type":"broadleaved","natural":"tree","source":"survey"}},{"type":"node","id":11059279957,"lat":60.186598,"lon":24.9515018,"tags":{"denotation":"urban","diameter":"4m","height":"8","leaf_cycle":"deciduous","leaf_type":"broadleaved","natural":"tree","source":"survey"}},{"type":"node","id":11059279958,"lat":60.1865552,"lon":24.9515057,"tags":{"denotation":"urban","diameter":"4m","height":"8","leaf_cycle":"deciduous","leaf_type":"broadleaved","natural":"tree"}},{"type":"node","id":11061441072,"lat":60.1864501,"lon":24.951563,"tags":{"man_made":"flagpole"}},{"type":"node","id":11063428813,"lat":60.1865764,"lon":24.9515041,"tags":{"height":"4","highway":"street_lamp","lamp_mount":"straight_mast","source":"survey","support":"pole"}},{"type":"node","id":11766489083,"lat":60.1861335,"lon":24.9514411,"tags":{"railway":"tram_level_crossing"}},{"type":"node","id":11766489084,"lat":60.1861688,"lon":24.9514379,"tags":{"railway":"tram_level_crossing"}},{"type":"node","id":12177319366,"lat":60.18605,"lon":24.9512239,"tags":{"addr:housenumber":"10","addr:street":"Kaarlenkatu","check_date":"2024-09-17","email":"teemu.keisteri@kalleria.fi","name":"Kalleria","opening_hours":"Mo off; Tu-Fr 13:00-18:00; Sa-Su 12:00-16:00","phone":"+358 50 3216611","tourism":"gallery","website":"https:\/\/kalleria.fi"}},{"type":"node","id":12177366187,"lat":60.1862449,"lon":24.9511967,"tags":{"addr:housenumber":"12","addr:street":"Kaarlenkatu","check_date":"2024-09-17","email":"tiina.tainio@kartiina.fi","name":"Kamiter-Ars","opening_hours":"Mo,Su off; Tu 10:00-18:00; We-Fr 10:00-17:00; Sa 10:00-14:00","phone":"+358 50 3574766","shop":"art","website":"https:\/\/www.kamiter.fi\/","wheelchair":"no"}},{"type":"node","id":12182166538,"lat":60.1861543,"lon":24.951224,"tags":{"addr:housenumber":"12","addr:street":"Kaarlenkatu","amenity":"arts_centre","check_date":"2024-09-17","name":"redukt_studio","website":"https:\/\/www.redukt.fi\/reduktstudio"}},{"type":"node","id":12182181278,"lat":60.1863899,"lon":24.9506794,"tags":{"addr:housenumber":"22","addr:street":"Helsinginkatu","check_date":"2024-09-17","name":"Galleria Plaz","phone":"+358 40 0833910","shop":"art","website":"https:\/\/www.galleriaplaz.com\/"}}]}