{"version":0.6,"generator":"Overpass API 0.7.62.5 1bd436f1","osm3s":{"timestamp_osm_base":"2025-03-12T12:19:00Z","copyright":"The data included in this document is from www.openstreetmap.org. The data is made available under ODbL."},"elements":[{"type":"way","id":8082542,"nodes":[176192318,313769660,314669355,313769649,289554767,314669351,257714579,25506229],"tags":{"electrified":"contact_line","frequency":"0","gauge":"1000","oneway":"yes","operator":"HKL-Raitioliikenne","railway":"tram","tram:segregation:physical":"junction","voltage":"600"}},{"type":"way","id":16995846,"nodes":[1525997705,6461232589,1503141128,257714585,1667017587,289554775,257714592,317918481],"tags":{"embedded_rails":"tram","highway":"residential","lanes":"1","lit":"yes","maxspeed":"40","name":"Kaarlenkatu","name:fi":"Kaarlenkatu","name:sv":"Karlsgatan","oneway":"yes","surface":"asphalt","tram:lanes:forward":"yes"}},{"type":"way","id":16995962,"nodes":[176192318,289554764,313769656,6321049026,313769647,313769654,6321049025,257714590,289554765,314669349,6321049024,176192086],"tags":{"electrified":"contact_line","frequency":"0","gauge":"1000","oneway":"yes","operator":"HKL-Raitioliikenne","railway":"tram","tram:segregation:physical":"junction","voltage":"600"}},{"type":"way","id":23785405,"nodes":[257714581,257714580,257714579,257714578,313769662,313769685,6321049021,257714577,257714576,257714575],"tags":{"footway":"crossing","highway":"footway","lit":"yes","surface":"asphalt"}},{"type":"way","id":28543642,"nodes":[25506229,1011920782,1011920962,1011920998,1011921035,1011921077,313766372],"tags":{"electrified":"contact_line","frequency":"0","gauge":"1000","oneway":"yes","operator":"HKL-Raitioliikenne","railway":"tram","tram:segregation:physical":"marking","voltage":"600"}},{"type":"way","id":28562609,"nodes":[313769641,313769662,314669350,313769664,313769666,6461232592,6321049026,313769668,313769669,313769671,313769673,313769674,5938774059,313769658,313769676,6321049032,6321049031,1420854509,6321049030],"tags":{"electrified":"contact_line","frequency":"0","gauge":"1000","oneway":"yes","operator":"HKL-Raitioliikenne","railway":"tram","tram:segregation:physical":"junction","voltage":"600"}},{"type":"way","id":28562611,"nodes":[313769652,1503141128,257714585,176191392,1011921129,257714591,1667017586,314669338,270991051,289554761,270991054,6321049034,6321049033,6321049029,6321049028,6321049030],"tags":{"electrified":"contact_line","frequency":"0","gauge":"1000","oneway":"yes","operator":"HKL-Raitioliikenne","railway":"tram","tram:segregation:physical":"junction","voltage":"600"}},{"type":"way","id":28562612,"nodes":[313769652,6461232589,313769683,319945787,6321049018,313769681,314669341,313769723,314669343,289554765,6461223457,176192088,6321049019,314669350,289554766,6321049020,257714578,25506229],"tags":{"electrified":"contact_line","frequency":"0","gauge":"1000","oneway":"yes","operator":"HKL-Raitioliikenne","railway":"tram","tram:segregation:physical":"junction","voltage":"600"}},{"type":"way","id":28562613,"nodes":[313769641,6321049022,313769685,313769686,314669344,313769721,314669345,6321049023,313769688,176192086],"tags":{"electrified":"contact_line","frequency":"0","gauge":"1000","oneway":"yes","operator":"HKL-Raitioliikenne","railway":"tram","tram:segregation:physical":"junction","voltage":"600"}},{"type":"way","id":30240570,"nodes":[5938388640,316249938,316249937,257715594,316250659,316250663,463250523,12651679830,316250672],"tags":{"bicycle":"no","footway":"sidewalk","highway":"footway","lit":"yes","surface":"asphalt"}},{"type":"way","id":30288608,"nodes":[317918481,313769647,6461232592,313769649,6461232590,313769695],"tags":{"highway":"residential","lanes":"1","lit":"yes","maxspeed":"40","name":"Kaarlenkatu","name:fi":"Kaarlenkatu","name:sv":"Karlsgatan","oneway":"yes","parking:condition:reason":"junction","parking:lane:both":"no_stopping","snowplowing":"yes","surface":"asphalt"}},{"type":"way","id":30288609,"nodes":[317918478,6321049024,189405253,189405254,6321049016,289554769,1525997705],"tags":{"embedded_rails":"tram","highway":"residential","lanes":"1","lit":"yes","maxspeed":"40","name":"Kaarlenkatu","name:fi":"Kaarlenkatu","name:sv":"Karlsgatan","oneway":"yes","surface":"asphalt","tram:lanes:forward":"yes"}},{"type":"way","id":34678900,"nodes":[317918481,6461223459,1667017586,257717250,289555116,1526055782,431474700,289555117],"tags":{"cycleway:right":"lane","highway":"secondary","lanes":"1","lit":"yes","loc_name":"Hesari","maxspeed":"40","name":"Helsinginkatu","name:fi":"Helsinginkatu","name:sv":"Helsingegatan","oneway":"yes","parking:lane:both":"no_stopping","snowplowing":"yes","source":"survey","surface":"asphalt"}},{"type":"way","id":37101055,"nodes":[1525997641,1525997642,1525997649,1525997659,1525997683,1525997719,1525997721,3100989511,1525997663,1525997618,3036844360,1525997592,1525997559,1525997572,1525997577,1017104612,1525997584,1525997600,1884959040,1884959043,1525997641],"tags":{"landuse":"residential"}},{"type":"way","id":37932872,"nodes":[445362977,1525474195],"tags":{"bicycle":"yes","highway":"secondary","lanes":"1","lit":"yes","loc_name":"Hesari","maxspeed":"40","name":"Helsinginkatu","name:fi":"Helsinginkatu","name:sv":"Helsingegatan","oneway":"yes","parking:condition:reason":"turning lane","parking:lane:both":"no_stopping","source":"survey","surface":"asphalt"}},{"type":"way","id":37932874,"nodes":[27038952,1011921158,2411513892,445362978],"tags":{"bicycle":"use_sidepath","highway":"secondary","lanes":"1","loc_name":"Hesari","maxspeed":"40","name":"Helsinginkatu","name:fi":"Helsinginkatu","name:sv":"Helsingegatan","oneway":"yes","parking:condition:right:time_interval":"Mo-Fr 09:00-21:00","parking:lane:right":"parallel","parking:lane:right:parallel":"lay_by","parking:right:placement":"dedicated","snowplowing":"yes","surface":"asphalt"}},{"type":"way","id":38341706,"nodes":[452815157,431459566,250545650,9661546641,452815158,257728958,11082770655,11082770615,9661546639,11082770620,11082770640,9661546638,9661546637,9661546636,9661546635,9661546634,9661546633,9661546632,9661546631,11766508747,9661546630,9661546629,9661546628,390399523,1011920768,431459521,1525997716,11766508182,1525997719,1525997721,11063428819,11063428807,236596755],"tags":{"admin_level":"10","boundary":"administrative"}},{"type":"way","id":38341710,"nodes":[236596755,11061441071,11061441070,11061441069,11061441068,1854588224,1526055792,210526659,210524460,1016635252,1016635159,210524462,210522985,1016635144,1016635230,1016635215,11766458357,1016635066,210522986,210475258,8831720842,8831720840,8831720836,8836005055,10933921839,10933921840,452815162,452815163],"tags":{"admin_level":"10","boundary":"administrative"}},{"type":"way","id":38341711,"nodes":[8852722322,8852722318,1526016556,236596764,262981818,1526016529,1526016523,3100964803,262981821,452815175,434566507,434566505,445368136,434566504,10925840736,445368150,10925840735,445371631,10925840743,434566503,210506264,8860330156,8860330158,8860330160,8860330165,9626087917,9679145052,9626106717,9679145047,9663599917,9663591517,210507422,9663588163,210507429,3118202593,210507428,210503677,8874886508,8874886506,8874886503,1530480636,8874886498,8874886495,8874886491,8874886485,210503675,449728837],"tags":{"admin_level":"11","boundary":"administrative"}},{"type":"way","id":53185108,"nodes":[672967859,672968198],"tags":{"highway":"footway","lit":"yes","surface":"asphalt"}},{"type":"way","id":53185121,"nodes":[672967814,656745690,672967859],"tags":{"bench":"yes","bin":"yes","highway":"platform","lit":"yes","public_transport":"platform","shelter":"yes","surface":"paving_stones"}},{"type":"way","id":87464389,"nodes":[1017104706,236599327,236599328,236599330,6324968562,11063428817,8852722347,1017104665,236599331,236599332,236596757,8852722339,8852722341,8852722343,11063428816,8852722346,11063428810,8852722348,11063428812,2281113488,8852722350,11766489085,236596758,2281113560,8852722352,1859006128,8852722356,8852722359,8852722361,1017104706],"tags":{"building":"apartments","building:levels":"7","building:maintenance:operator":"Repo Kiinteist\u00f6hoito Oy","start_date":"1929","wikidata":"Q98411623","wikimedia_commons":"Category:Helsinginkatu 20, Helsinki"}},{"type":"way","id":87464392,"nodes":[1017104595,1017104773,8852722326,8852722330,8852722332,8852722334,11061441072,8852722337,236596757,236599332,236599333,6324968560,6324968559,6324968561,236599334,236599336,6324968556,6324968557,6324968558,236599338,8852722329,1017104634,1017104595],"tags":{"addr:city":"Helsinki","addr:country":"FI","addr:housenumber":"13","addr:street":"Kaarlenkatu","building":"apartments","building:levels":"6","building:maintenance:operator":"Kanta-Helsingin Kiinteist\u00f6huolto Oy"}},{"type":"way","id":87464410,"nodes":[1017052055,1526016556,8852722318,8852722322,1017104773,1017104595,8852722325,6324968555,6324968548,6324968549,6324968550,6324968551,6324968552,6324968553,236599339,6324968554,1017104700,1017104648,1017104624,236599341,236599342,1017052159,1017052301,236599344,1017052065,1017052193,1017052055],"tags":{"building":"office","wikidata":"Q98413307"}},{"type":"way","id":122869894,"nodes":[176192086,257714584,319945788,6321049017,176192085,313769690],"tags":{"electrified":"contact_line","frequency":"0","gauge":"1000","oneway":"yes","operator":"HKL-Raitioliikenne","railway":"tram","tram:segregation:physical":"junction","voltage":"600"}},{"type":"way","id":128615013,"nodes":[257714586,11804761971,11063428818,6461223460,6461223461,289555122,11804761977,289555123,6461223462,11063428820,262982613],"tags":{"bicycle":"no","footway":"sidewalk","highway":"footway","lit":"yes","snowplowing":"yes","surface":"asphalt"}},{"type":"way","id":128615015,"nodes":[5938388642,257714575,5938388640,1787619942,257714584,189405254,313769681,257714585,1787619943,11804761971],"tags":{"highway":"footway","lit":"yes","snowplowing":"yes","surface":"asphalt","traffic:hourly:10:Thu:fall:backward":"95\/12:00","traffic:hourly:10:Thu:fall:forward":"60\/12:00"}},{"type":"way","id":139191490,"nodes":[1525474195,257714577,289554785,314669345,317918478,289554765,6461223458,317918481],"tags":{"cycleway:right":"lane","highway":"secondary","lanes":"1","lit":"yes","loc_name":"Hesari","maxspeed":"40","name":"Helsinginkatu","name:fi":"Helsinginkatu","name:sv":"Helsingegatan","oneway":"yes","parking:lane:both":"no_stopping","source":"survey","surface":"asphalt"}},{"type":"way","id":139217748,"nodes":[1525997641,1525997716,11766508182,1525997719,1525997683,1525997659,1525997649,1525997642,1525997641],"tags":{"landuse":"civil"}},{"type":"way","id":139217754,"nodes":[1525997719,1525997683,1017104591,1017104512,1017104728,1017104553,1017104524,1017104741,1525997674,1525997648,1525997649,1525997642,1525997641,1525997716,11766508182,1525997719],"tags":{"building":"apartments"}},{"type":"way","id":139217762,"nodes":[1525997643,1017104502,1017104691,1525997663,1525997618,3036844360,1525997592,1017104582,1017104627,1525997643],"tags":{"building":"apartments","building:levels":"7"}},{"type":"way","id":139217766,"nodes":[1525997719,2281112737,1525997721,3100989511,1525997663,1017104691,1525997688,1525997686,1525997660,1525997659,1525997683,1525997719],"tags":{"building":"apartments","building:levels":"7","building:maintenance:operator":"Kanta-Helsingin Kiinteist\u00f6huolto Oy","name":"Kaarlonlinna","omistusasuntoja":"yes"}},{"type":"way","id":194543828,"nodes":[2050451835,445362977],"tags":{"bicycle":"yes","highway":"secondary","lanes":"1","lit":"yes","loc_name":"Hesari","maxspeed":"40","name":"Helsinginkatu","name:fi":"Helsinginkatu","name:sv":"Helsingegatan","oneway":"yes","parking:condition:right":"no_parking","parking:condition:right:default":"free","parking:condition:right:time_interval":"Mo-Fr 08:00-17:00","parking:lane:left":"no_stopping","parking:lane:right":"parallel","parking:right:placement":"dedicated","source":"survey","surface":"asphalt"}},{"type":"way","id":195550962,"nodes":[2059748306,257715596,2059749311],"tags":{"embedded_rails":"tram","highway":"residential","lit":"yes","maxspeed":"30","name":"Kaarlenkatu","name:fi":"Kaarlenkatu","name:sv":"Karlsgatan","snowplowing":"yes","surface":"asphalt","tram:lanes:backward":"yes","tram:lanes:forward":"yes"}},{"type":"way","id":195551077,"nodes":[2059749311,8852722323,8852722327,1525997705],"tags":{"embedded_rails":"tram","highway":"residential","lit":"yes","maxspeed":"30","name":"Kaarlenkatu","name:fi":"Kaarlenkatu","name:sv":"Karlsgatan","parking:condition:right":"ticket","parking:condition:right:default":"free","parking:condition:right:residents":"I","parking:condition:right:time_interval":"Mo-Fr 09:00-21:00","parking:lane:right":"parallel","parking:lane:right:parallel":"lay_by","snowplowing":"yes","surface":"asphalt","tram:lanes:backward":"yes","tram:lanes:forward":"yes"}},{"type":"way","id":202647093,"nodes":[2060105598,2126137004,2126137000],"tags":{"layer":"1","location":"overhead","man_made":"beam"}},{"type":"way","id":235391367,"nodes":[316249941,316249934,316258303,8852722319,672968198,8852722324,8852722328,8852722331,8852722333,8852722335,1393575491,11063428807,11063428808,257714586],"tags":{"bicycle":"no","footway":"sidewalk","highway":"footway","lit":"yes","surface":"asphalt"}},{"type":"way","id":305472494,"nodes":[3100989511,3100989512],"tags":{"man_made":"beam"}},{"type":"way","id":327275819,"nodes":[313769690,316258304,6461232593,316250689,316250694,6461232599,313783650,313783651,1017052157,313783652,1017052384,1017052051,313783653],"tags":{"electrified":"contact_line","frequency":"0","gauge":"1000","oneway":"yes","operator":"HKL-Raitioliikenne","railway":"tram","tram:segregation:physical":"in_lane","voltage":"600"}},{"type":"way","id":327275857,"nodes":[1011920812,1011920864,1011921128],"tags":{"electrified":"contact_line","frequency":"0","gauge":"1000","oneway":"yes","operator":"HKL-Raitioliikenne","railway":"tram","tram:segregation:physical":"marking","voltage":"600"}},{"type":"way","id":327275902,"nodes":[1011921128,1011920752,1011921086,313769641],"tags":{"electrified":"contact_line","frequency":"0","gauge":"1000","oneway":"yes","operator":"HKL-Raitioliikenne","railway":"tram","tram:segregation:physical":"divider","voltage":"600"}},{"type":"way","id":327275981,"nodes":[313783647,6461232598,316250696,6461232601,316250691,316258305,11766489083,11766489084,313769652],"tags":{"electrified":"contact_line","frequency":"0","gauge":"1000","oneway":"yes","operator":"HKL-Raitioliikenne","railway":"tram","tram:segregation:physical":"in_lane","voltage":"600"}},{"type":"way","id":423117387,"nodes":[9949405571,257710461,11801913748,257710316,257712539,257710216,9949405572,1503687131,257709938,1011921073,12479900930,1503687138,257712642,12573567802,5938388642],"tags":{"bicycle":"designated","cycleway:surface":"asphalt","foot":"designated","footway:surface":"asphalt","highway":"cycleway","lit":"yes","oneway":"yes","segregated":"yes","snowplowing":"yes","surface":"asphalt"}},{"type":"way","id":629015777,"nodes":[257714580,289554780,27038952],"tags":{"bicycle":"use_sidepath","highway":"secondary","lanes":"1","lit":"yes","loc_name":"Hesari","maxspeed":"40","name":"Helsinginkatu","name:fi":"Helsinginkatu","name:sv":"Helsingegatan","oneway":"yes","source":"survey","surface":"asphalt"}},{"type":"way","id":629015778,"nodes":[5938388642,5938774062,1525474195],"tags":{"foot":"no","highway":"cycleway","lit":"yes","oneway":"yes","surface":"asphalt"}},{"type":"way","id":688852295,"nodes":[5938774057,6461232591,6461232590,289554767,313769664,176192088,317918478],"tags":{"highway":"residential","lanes":"1","lit":"yes","maxspeed":"40","name":"Kaarlenkatu","name:fi":"Kaarlenkatu","name:sv":"Karlsgatan","oneway":"yes","parking:condition:reason":"junction","parking:lane:both":"no_stopping","snowplowing":"yes","surface":"asphalt"}},{"type":"way","id":784737294,"nodes":[7331241932,7331241931,7331241929,6409194131,7331241928,9947246439,6321049021],"tags":{"bench":"yes","bin":"yes","highway":"platform","lit":"yes","public_transport":"platform","shelter":"yes"}},{"type":"way","id":913548946,"nodes":[8852722351,11063428809,11804761979,8852722349,11063428811,8602394401,8852722344,8852722342,8852722340,8486250987,8852722338,11063428808],"tags":{"highway":"footway","lit":"yes","surface":"paved"}},{"type":"way","id":927142659,"nodes":[11063428818,8602394400,11063428811,8852722346],"tags":{"highway":"footway","lit":"yes","surface":"paved"}},{"type":"way","id":956554006,"nodes":[8852722322,8852722325],"tags":{"highway":"service","service":"driveway","tunnel":"building_passage"}},{"type":"way","id":956554007,"nodes":[236596755,8852722334,8852722332,8852722330,8852722326],"tags":{"admin_level":"11","boundary":"administrative"}},{"type":"way","id":956554009,"nodes":[8852722323,11766489083,8852722324,8852722322],"tags":{"highway":"service","service":"driveway","surface":"asphalt"}},{"type":"way","id":956554010,"nodes":[8852722326,8852722329],"tags":{"highway":"service","service":"driveway","tunnel":"building_passage"}},{"type":"way","id":956554012,"nodes":[8852722326,1017104773,8852722322],"tags":{"admin_level":"11","boundary":"administrative"}},{"type":"way","id":956554013,"nodes":[8852722327,11766489084,8852722328,8852722326],"tags":{"highway":"service","service":"driveway","surface":"asphalt"}},{"type":"way","id":956554014,"nodes":[8852722331,8852722330],"tags":{"handrail":"no","highway":"steps","incline":"up","step_count":"1"}},{"type":"way","id":956554015,"nodes":[8852722333,8852722332],"tags":{"handrail":"no","highway":"steps","incline":"up","ramp":"no","step_count":"2"}},{"type":"way","id":956554016,"nodes":[8852722335,8852722334],"tags":{"handrail":"no","highway":"steps","incline":"up","ramp":"no","step_count":"2"}},{"type":"way","id":956554017,"nodes":[8852722338,8852722337],"tags":{"handrail":"no","highway":"steps","incline":"up","ramp":"no","step_count":"2"}},{"type":"way","id":956554018,"nodes":[8852722340,8852722339],"tags":{"handrail":"no","highway":"steps","incline":"up","ramp":"no","step_count":"2"}},{"type":"way","id":956554019,"nodes":[8852722342,8852722341],"tags":{"handrail":"no","highway":"steps","incline":"up","ramp":"no","step_count":"2"}},{"type":"way","id":956554020,"nodes":[8852722344,8852722343],"tags":{"handrail":"no","highway":"steps","incline":"up","ramp":"no","step_count":"2"}},{"type":"way","id":956554021,"nodes":[8852722346,11063428814,11063428815,11063428817],"tags":{"highway":"footway","tunnel":"building_passage"}},{"type":"way","id":1191613551,"nodes":[236596757,8852722337,236596755,11063428807,11804753068,1787619943,11804761969,11804761970,11804761972,11804761973,11804761974,11804761976,11804761975,11063428820,236596758,11766489085,8852722350,2281113488,11063428812,8852722348,11063428810,8852722346,11063428816,8852722343,8852722341,8852722339,236596757],"tags":{"area":"yes","highway":"pedestrian","noname":"yes","surface":"asphalt"}},{"type":"way","id":1359269415,"nodes":[1017104502,1525997660],"tags":{"barrier":"fence"}},{"type":"way","id":1359269416,"nodes":[1525997659,1525997649],"tags":{"barrier":"fence"}},{"type":"node","id":250545650,"lat":60.186004,"lon":24.9420313},{"type":"node","id":431459566,"lat":60.1859134,"lon":24.9414085},{"type":"node","id":452815157,"lat":60.1857184,"lon":24.940068},{"type":"node","id":9661546641,"lat":60.1860946,"lon":24.9426541},{"type":"node","id":210503675,"lat":60.1823236,"lon":24.956074},{"type":"node","id":210503677,"lat":60.1827847,"lon":24.9549115},{"type":"node","id":210506264,"lat":60.1832485,"lon":24.9537278},{"type":"node","id":210507422,"lat":60.1829862,"lon":24.9543925},{"type":"node","id":210507428,"lat":60.1828804,"lon":24.9546639},{"type":"node","id":210507429,"lat":60.1829388,"lon":24.9545159},{"type":"node","id":262981821,"lat":60.1843084,"lon":24.9517747},{"type":"node","id":313783647,"lat":60.1841332,"lon":24.9516475},{"type":"node","id":313783650,"lat":60.1841317,"lon":24.9515925},{"type":"node","id":313783651,"lat":60.1840788,"lon":24.9515992},{"type":"node","id":313783652,"lat":60.1839788,"lon":24.951661},{"type":"node","id":313783653,"lat":60.1838908,"lon":24.9518051},{"type":"node","id":316250672,"lat":60.1842691,"lon":24.9514598},{"type":"node","id":316250694,"lat":60.1842718,"lon":24.951578},{"type":"node","id":316250696,"lat":60.184273,"lon":24.9516297},{"type":"node","id":434566503,"lat":60.1835649,"lon":24.9529015},{"type":"node","id":434566504,"lat":60.1839427,"lon":24.9519528},{"type":"node","id":434566505,"lat":60.184025,"lon":24.9518265},{"type":"node","id":434566507,"lat":60.1841212,"lon":24.9518214},{"type":"node","id":445368136,"lat":60.1839675,"lon":24.9519109},{"type":"node","id":445368150,"lat":60.1837711,"lon":24.9523681},{"type":"node","id":445371631,"lat":60.183738,"lon":24.9524511},{"type":"node","id":452815175,"lat":60.1841148,"lon":24.9517796},{"type":"node","id":1017052051,"lat":60.1839213,"lon":24.9517404},{"type":"node","id":1017052157,"lat":60.1840282,"lon":24.9516184},{"type":"node","id":1017052384,"lat":60.1839454,"lon":24.9517005},{"type":"node","id":1526016523,"lat":60.1845661,"lon":24.9517475},{"type":"node","id":1530480636,"lat":60.182531,"lon":24.955554},{"type":"node","id":3100964803,"lat":60.1843113,"lon":24.9517744},{"type":"node","id":3118202593,"lat":60.1829082,"lon":24.9545934},{"type":"node","id":6461232598,"lat":60.1842025,"lon":24.9516387},{"type":"node","id":6461232599,"lat":60.1842008,"lon":24.9515853},{"type":"node","id":8860330156,"lat":60.1832188,"lon":24.9538031},{"type":"node","id":8860330158,"lat":60.1831543,"lon":24.9539665},{"type":"node","id":8860330160,"lat":60.1831227,"lon":24.9540464},{"type":"node","id":8860330165,"lat":60.1831057,"lon":24.9540896},{"type":"node","id":8874886485,"lat":60.1823634,"lon":24.9559743},{"type":"node","id":8874886491,"lat":60.1824818,"lon":24.9556775},{"type":"node","id":8874886495,"lat":60.1825029,"lon":24.9556244},{"type":"node","id":8874886498,"lat":60.1825163,"lon":24.9555908},{"type":"node","id":8874886503,"lat":60.1825925,"lon":24.9553982},{"type":"node","id":8874886506,"lat":60.1826452,"lon":24.9552647},{"type":"node","id":8874886508,"lat":60.182693,"lon":24.9551437},{"type":"node","id":9626087917,"lat":60.1830775,"lon":24.9541609},{"type":"node","id":9626106717,"lat":60.1830517,"lon":24.9542299},{"type":"node","id":9663588163,"lat":60.1829804,"lon":24.9544077},{"type":"node","id":9663591517,"lat":60.1829959,"lon":24.9543691},{"type":"node","id":9663599917,"lat":60.1830183,"lon":24.954311},{"type":"node","id":9679145047,"lat":60.18303,"lon":24.9542814},{"type":"node","id":9679145052,"lat":60.1830608,"lon":24.9542034},{"type":"node","id":10925840735,"lat":60.1837549,"lon":24.9524087},{"type":"node","id":10925840736,"lat":60.1839168,"lon":24.9520154},{"type":"node","id":10925840743,"lat":60.18361,"lon":24.9527842},{"type":"node","id":12651679830,"lat":60.1844157,"lon":24.9514452},{"type":"node","id":257709938,"lat":60.1864018,"lon":24.9488899},{"type":"node","id":257710216,"lat":60.1863862,"lon":24.9483187},{"type":"node","id":257710316,"lat":60.1863957,"lon":24.948138},{"type":"node","id":257710461,"lat":60.1863734,"lon":24.9475135},{"type":"node","id":257712539,"lat":60.186386,"lon":24.9482619},{"type":"node","id":257728958,"lat":60.186221,"lon":24.9437175},{"type":"node","id":313766372,"lat":60.1865376,"lon":24.9490352},{"type":"node","id":390399523,"lat":60.1863689,"lon":24.9484285},{"type":"node","id":452815158,"lat":60.1862011,"lon":24.9433863},{"type":"node","id":1011920768,"lat":60.1863878,"lon":24.9491301},{"type":"node","id":1011920812,"lat":60.1865104,"lon":24.9491288},{"type":"node","id":1011920864,"lat":60.1865177,"lon":24.9492965},{"type":"node","id":1011921035,"lat":60.1865451,"lon":24.9492816},{"type":"node","id":1011921073,"lat":60.1864072,"lon":24.9491292},{"type":"node","id":1011921077,"lat":60.186541,"lon":24.949162},{"type":"node","id":1503687131,"lat":60.1863958,"lon":24.9486667},{"type":"node","id":1503687138,"lat":60.1864191,"lon":24.9495472},{"type":"node","id":7331241931,"lat":60.1864847,"lon":24.9490128},{"type":"node","id":7331241932,"lat":60.1864818,"lon":24.9488809},{"type":"node","id":9661546628,"lat":60.1863647,"lon":24.9482465},{"type":"node","id":9661546629,"lat":60.1863587,"lon":24.9480406},{"type":"node","id":9661546630,"lat":60.1863522,"lon":24.9478148},{"type":"node","id":9661546631,"lat":60.1863375,"lon":24.9473092},{"type":"node","id":9661546632,"lat":60.1863302,"lon":24.947058},{"type":"node","id":9661546633,"lat":60.1863279,"lon":24.9469746},{"type":"node","id":9661546634,"lat":60.1863206,"lon":24.9466494},{"type":"node","id":9661546635,"lat":60.1863104,"lon":24.9462462},{"type":"node","id":9661546636,"lat":60.1863073,"lon":24.9461097},{"type":"node","id":9661546637,"lat":60.1863004,"lon":24.9458186},{"type":"node","id":9661546638,"lat":60.1862892,"lon":24.9454361},{"type":"node","id":9661546639,"lat":60.1862609,"lon":24.9443833},{"type":"node","id":9949405571,"lat":60.1863685,"lon":24.9471722},{"type":"node","id":9949405572,"lat":60.1863898,"lon":24.9484542},{"type":"node","id":11082770615,"lat":60.1862362,"lon":24.9439711},{"type":"node","id":11082770620,"lat":60.1862849,"lon":24.9452774},{"type":"node","id":11082770640,"lat":60.1862869,"lon":24.9453512},{"type":"node","id":11082770655,"lat":60.1862319,"lon":24.9439003},{"type":"node","id":11766508747,"lat":60.186347,"lon":24.9476376},{"type":"node","id":11801913748,"lat":60.186383,"lon":24.9478456},{"type":"node","id":12479900930,"lat":60.1864117,"lon":24.9492913},{"type":"node","id":25506229,"lat":60.1866258,"lon":24.9507843},{"type":"node","id":27038952,"lat":60.1866268,"lon":24.9505818},{"type":"node","id":176191392,"lat":60.1866972,"lon":24.951387},{"type":"node","id":176192085,"lat":60.1863997,"lon":24.9513495},{"type":"node","id":176192086,"lat":60.1865191,"lon":24.9512339},{"type":"node","id":176192088,"lat":60.1866235,"lon":24.9510852},{"type":"node","id":176192318,"lat":60.1867823,"lon":24.9512615},{"type":"node","id":189405253,"lat":60.1865425,"lon":24.9512262},{"type":"node","id":189405254,"lat":60.1865196,"lon":24.9512629},{"type":"node","id":210524460,"lat":60.1870788,"lon":24.9556002},{"type":"node","id":210526659,"lat":60.1870438,"lon":24.9552106},{"type":"node","id":236596755,"lat":60.1864515,"lon":24.9515594},{"type":"node","id":236596757,"lat":60.1864537,"lon":24.9517238},{"type":"node","id":236596758,"lat":60.1867969,"lon":24.9516897},{"type":"node","id":236596764,"lat":60.1855774,"lon":24.9516534},{"type":"node","id":236599327,"lat":60.1867302,"lon":24.9522702},{"type":"node","id":236599328,"lat":60.1866748,"lon":24.9522757},{"type":"node","id":236599330,"lat":60.1866651,"lon":24.9520095},{"type":"node","id":236599331,"lat":60.1864609,"lon":24.9520089},{"type":"node","id":236599332,"lat":60.1864586,"lon":24.9518487},{"type":"node","id":236599333,"lat":60.1863786,"lon":24.9518578},{"type":"node","id":236599334,"lat":60.1863814,"lon":24.952043},{"type":"node","id":236599336,"lat":60.1862742,"lon":24.9520582},{"type":"node","id":236599338,"lat":60.1862684,"lon":24.9518475},{"type":"node","id":236599339,"lat":60.1861012,"lon":24.9518414},{"type":"node","id":236599341,"lat":60.1860905,"lon":24.9522169},{"type":"node","id":236599342,"lat":60.1859591,"lon":24.9522309},{"type":"node","id":236599344,"lat":60.1859495,"lon":24.951803},{"type":"node","id":257712642,"lat":60.1864341,"lon":24.9498928},{"type":"node","id":257714575,"lat":60.186461,"lon":24.9509533},{"type":"node","id":257714576,"lat":60.1865085,"lon":24.9509193},{"type":"node","id":257714577,"lat":60.1865392,"lon":24.9508998},{"type":"node","id":257714578,"lat":60.1866345,"lon":24.9508849},{"type":"node","id":257714579,"lat":60.1866402,"lon":24.9508851},{"type":"node","id":257714580,"lat":60.1866822,"lon":24.9508802},{"type":"node","id":257714581,"lat":60.1867471,"lon":24.9508794},{"type":"node","id":257714584,"lat":60.1865128,"lon":24.9512423},{"type":"node","id":257714585,"lat":60.1865557,"lon":24.9513954},{"type":"node","id":257714586,"lat":60.1865056,"lon":24.9514785},{"type":"node","id":257714590,"lat":60.1866204,"lon":24.9511555},{"type":"node","id":257714591,"lat":60.186755,"lon":24.9514029},{"type":"node","id":257714592,"lat":60.1866293,"lon":24.9513098},{"type":"node","id":257715594,"lat":60.1857107,"lon":24.9513163},{"type":"node","id":257715596,"lat":60.1857992,"lon":24.9514484},{"type":"node","id":257717250,"lat":60.1868183,"lon":24.9514934},{"type":"node","id":262981818,"lat":60.1854095,"lon":24.9516584},{"type":"node","id":262982613,"lat":60.1868196,"lon":24.951712},{"type":"node","id":270991051,"lat":60.1868382,"lon":24.9515016},{"type":"node","id":270991054,"lat":60.1868757,"lon":24.9515877},{"type":"node","id":289554761,"lat":60.1868598,"lon":24.9515438},{"type":"node","id":289554764,"lat":60.1867407,"lon":24.9512048},{"type":"node","id":289554765,"lat":60.186603,"lon":24.9511637},{"type":"node","id":289554766,"lat":60.1866377,"lon":24.950977},{"type":"node","id":289554767,"lat":60.1866781,"lon":24.9510384},{"type":"node","id":289554769,"lat":60.1864303,"lon":24.9513532},{"type":"node","id":289554775,"lat":60.1866094,"lon":24.9513488},{"type":"node","id":289554780,"lat":60.186649,"lon":24.9507229},{"type":"node","id":289554785,"lat":60.1865612,"lon":24.9510024},{"type":"node","id":289555116,"lat":60.1868393,"lon":24.951546},{"type":"node","id":289555117,"lat":60.1868765,"lon":24.9517054},{"type":"node","id":289555122,"lat":60.186759,"lon":24.9515335},{"type":"node","id":289555123,"lat":60.1867849,"lon":24.9515833},{"type":"node","id":313769641,"lat":60.1865862,"lon":24.9507325},{"type":"node","id":313769647,"lat":60.1866789,"lon":24.9511615},{"type":"node","id":313769649,"lat":60.1866933,"lon":24.9510907},{"type":"node","id":313769652,"lat":60.1863588,"lon":24.9514211},{"type":"node","id":313769654,"lat":60.1866662,"lon":24.9511564},{"type":"node","id":313769656,"lat":60.1867165,"lon":24.9511799},{"type":"node","id":313769658,"lat":60.1869075,"lon":24.9516631},{"type":"node","id":313769660,"lat":60.1867405,"lon":24.9511862},{"type":"node","id":313769662,"lat":60.1866127,"lon":24.9508863},{"type":"node","id":313769664,"lat":60.1866499,"lon":24.9510587},{"type":"node","id":313769666,"lat":60.1866641,"lon":24.9510989},{"type":"node","id":313769668,"lat":60.1867482,"lon":24.9512778},{"type":"node","id":313769669,"lat":60.1868147,"lon":24.9514001},{"type":"node","id":313769671,"lat":60.1868573,"lon":24.9514833},{"type":"node","id":313769673,"lat":60.1868747,"lon":24.9515275},{"type":"node","id":313769674,"lat":60.186891,"lon":24.9515806},{"type":"node","id":313769676,"lat":60.1869135,"lon":24.9517012},{"type":"node","id":313769681,"lat":60.1865279,"lon":24.9512891},{"type":"node","id":313769683,"lat":60.1864259,"lon":24.951388},{"type":"node","id":313769685,"lat":60.1866037,"lon":24.9508876},{"type":"node","id":313769686,"lat":60.1866047,"lon":24.9509432},{"type":"node","id":313769688,"lat":60.186554,"lon":24.9511762},{"type":"node","id":313769690,"lat":60.1863559,"lon":24.951362},{"type":"node","id":313769695,"lat":60.1866931,"lon":24.9509254},{"type":"node","id":313769721,"lat":60.186595,"lon":24.9510501},{"type":"node","id":313769723,"lat":60.1865647,"lon":24.951238},{"type":"node","id":314669338,"lat":60.1868093,"lon":24.9514557},{"type":"node","id":314669341,"lat":60.1865505,"lon":24.9512593},{"type":"node","id":314669343,"lat":60.186587,"lon":24.9512},{"type":"node","id":314669344,"lat":60.186602,"lon":24.9509974},{"type":"node","id":314669345,"lat":60.1865838,"lon":24.9510988},{"type":"node","id":314669349,"lat":60.1865842,"lon":24.9511733},{"type":"node","id":314669350,"lat":60.1866355,"lon":24.9510046},{"type":"node","id":314669351,"lat":60.1866576,"lon":24.9509648},{"type":"node","id":314669355,"lat":60.1867127,"lon":24.9511384},{"type":"node","id":316249934,"lat":60.1855753,"lon":24.9516209},{"type":"node","id":316249937,"lat":60.185797,"lon":24.9513064},{"type":"node","id":316249938,"lat":60.1864342,"lon":24.9512495},{"type":"node","id":316249941,"lat":60.1855605,"lon":24.9516246},{"type":"node","id":316250659,"lat":60.1856268,"lon":24.95132},{"type":"node","id":316250663,"lat":60.1855735,"lon":24.951331},{"type":"node","id":316250689,"lat":60.1855741,"lon":24.9514367},{"type":"node","id":316250691,"lat":60.1855745,"lon":24.9514881},{"type":"node","id":316258303,"lat":60.1858015,"lon":24.9516028},{"type":"node","id":316258304,"lat":60.1857988,"lon":24.9514248},{"type":"node","id":316258305,"lat":60.1857995,"lon":24.9514707},{"type":"node","id":317918478,"lat":60.1865935,"lon":24.9511326},{"type":"node","id":317918481,"lat":60.1866525,"lon":24.9512473},{"type":"node","id":319945787,"lat":60.1864468,"lon":24.951372},{"type":"node","id":319945788,"lat":60.186451,"lon":24.951309},{"type":"node","id":431459521,"lat":60.1864062,"lon":24.9498149},{"type":"node","id":431474700,"lat":60.1868732,"lon":24.9516686},{"type":"node","id":445362977,"lat":60.1864996,"lon":24.9505563},{"type":"node","id":445362978,"lat":60.186587,"lon":24.9496745},{"type":"node","id":463250523,"lat":60.1852673,"lon":24.9513575},{"type":"node","id":656745690,"lat":60.1860301,"lon":24.9515124},{"type":"node","id":672967814,"lat":60.1858005,"lon":24.9515364},{"type":"node","id":672967859,"lat":60.186074,"lon":24.9515078},{"type":"node","id":672968198,"lat":60.1860758,"lon":24.9515745},{"type":"node","id":1011920752,"lat":60.1865555,"lon":24.9505014},{"type":"node","id":1011920782,"lat":60.1865947,"lon":24.9505981},{"type":"node","id":1011920962,"lat":60.1865818,"lon":24.9504929},{"type":"node","id":1011920998,"lat":60.1865785,"lon":24.9503838},{"type":"node","id":1011921086,"lat":60.1865657,"lon":24.9505845},{"type":"node","id":1011921128,"lat":60.1865496,"lon":24.9503845},{"type":"node","id":1011921129,"lat":60.1867281,"lon":24.9513924},{"type":"node","id":1011921158,"lat":60.186611,"lon":24.9504061},{"type":"node","id":1017052055,"lat":60.1858641,"lon":24.9518389},{"type":"node","id":1017052065,"lat":60.1858995,"lon":24.9518054},{"type":"node","id":1017052159,"lat":60.1859569,"lon":24.9521455},{"type":"node","id":1017052193,"lat":60.1858998,"lon":24.9518359},{"type":"node","id":1017052301,"lat":60.1859537,"lon":24.952016},{"type":"node","id":1017104502,"lat":60.1861278,"lon":24.9509337},{"type":"node","id":1017104512,"lat":60.1861984,"lon":24.950564},{"type":"node","id":1017104524,"lat":60.1861483,"lon":24.9504041},{"type":"node","id":1017104553,"lat":60.1861511,"lon":24.9505212},{"type":"node","id":1017104582,"lat":60.1858462,"lon":24.9507935},{"type":"node","id":1017104591,"lat":60.1862719,"lon":24.9505568},{"type":"node","id":1017104595,"lat":60.1861645,"lon":24.9518072},{"type":"node","id":1017104612,"lat":60.1856535,"lon":24.9502063},{"type":"node","id":1017104624,"lat":60.1860867,"lon":24.9520702},{"type":"node","id":1017104627,"lat":60.185861,"lon":24.9507706},{"type":"node","id":1017104634,"lat":60.1861658,"lon":24.9518604},{"type":"node","id":1017104648,"lat":60.1860825,"lon":24.9518761},{"type":"node","id":1017104665,"lat":60.1865064,"lon":24.9520035},{"type":"node","id":1017104691,"lat":60.1861297,"lon":24.9509686},{"type":"node","id":1017104700,"lat":60.1860915,"lon":24.9518718},{"type":"node","id":1017104706,"lat":60.1868217,"lon":24.9522629},{"type":"node","id":1017104728,"lat":60.1861972,"lon":24.9505167},{"type":"node","id":1017104741,"lat":60.1861818,"lon":24.9504008},{"type":"node","id":1017104773,"lat":60.1861591,"lon":24.9515916},{"type":"node","id":1393575491,"lat":60.1864126,"lon":24.9515368},{"type":"node","id":1420854509,"lat":60.1869279,"lon":24.9518984},{"type":"node","id":1503141128,"lat":60.1864347,"lon":24.9514112},{"type":"node","id":1525474195,"lat":60.1865229,"lon":24.9507879},{"type":"node","id":1525997559,"lat":60.1855175,"lon":24.9504235},{"type":"node","id":1525997572,"lat":60.1855921,"lon":24.950306},{"type":"node","id":1525997577,"lat":60.1856163,"lon":24.9502682},{"type":"node","id":1525997584,"lat":60.185683,"lon":24.9501637},{"type":"node","id":1525997592,"lat":60.1857294,"lon":24.9509751},{"type":"node","id":1525997600,"lat":60.1857423,"lon":24.9500708},{"type":"node","id":1525997618,"lat":60.185849,"lon":24.9512793},{"type":"node","id":1525997641,"lat":60.1859277,"lon":24.9500438},{"type":"node","id":1525997642,"lat":60.1859421,"lon":24.9506437},{"type":"node","id":1525997643,"lat":60.1859281,"lon":24.9509527},{"type":"node","id":1525997648,"lat":60.1860138,"lon":24.9502898},{"type":"node","id":1525997649,"lat":60.1860221,"lon":24.9506359},{"type":"node","id":1525997659,"lat":60.1861209,"lon":24.9506228},{"type":"node","id":1525997660,"lat":60.1861241,"lon":24.9507745},{"type":"node","id":1525997663,"lat":60.1861356,"lon":24.9512458},{"type":"node","id":1525997674,"lat":60.1861788,"lon":24.9502737},{"type":"node","id":1525997683,"lat":60.1862733,"lon":24.9506131},{"type":"node","id":1525997686,"lat":60.1862796,"lon":24.9507611},{"type":"node","id":1525997688,"lat":60.1862837,"lon":24.9509552},{"type":"node","id":1525997705,"lat":60.1863664,"lon":24.9513895},{"type":"node","id":1525997716,"lat":60.1864144,"lon":24.9499965},{"type":"node","id":1525997719,"lat":60.1864288,"lon":24.950598},{"type":"node","id":1525997721,"lat":60.1864412,"lon":24.9512193},{"type":"node","id":1526016529,"lat":60.1851684,"lon":24.9516839},{"type":"node","id":1526016556,"lat":60.185859,"lon":24.9516221},{"type":"node","id":1526055782,"lat":60.1868611,"lon":24.951611},{"type":"node","id":1526055792,"lat":60.1869898,"lon":24.9545823},{"type":"node","id":1667017586,"lat":60.1867832,"lon":24.9514248},{"type":"node","id":1667017587,"lat":60.1865832,"lon":24.9513798},{"type":"node","id":1787619942,"lat":60.1865016,"lon":24.9512052},{"type":"node","id":1787619943,"lat":60.1865647,"lon":24.9514496},{"type":"node","id":1854588224,"lat":60.1869803,"lon":24.9544794},{"type":"node","id":1859006128,"lat":60.1868108,"lon":24.9520014},{"type":"node","id":1884959040,"lat":60.185821,"lon":24.9500589},{"type":"node","id":1884959043,"lat":60.1859107,"lon":24.9500453},{"type":"node","id":2050451835,"lat":60.1864866,"lon":24.950196},{"type":"node","id":2059748306,"lat":60.1857717,"lon":24.9514505},{"type":"node","id":2059749311,"lat":60.186097,"lon":24.9514178},{"type":"node","id":2060105598,"lat":60.1865321,"lon":24.9505159},{"type":"node","id":2126137000,"lat":60.1864793,"lon":24.9505202},{"type":"node","id":2126137004,"lat":60.1865008,"lon":24.9505185},{"type":"node","id":2281112737,"lat":60.1864337,"lon":24.9508711},{"type":"node","id":2281113488,"lat":60.1867036,"lon":24.9517},{"type":"node","id":2281113560,"lat":60.1868034,"lon":24.9518396},{"type":"node","id":2411513892,"lat":60.1866076,"lon":24.9503511},{"type":"node","id":3036844360,"lat":60.1857344,"lon":24.9509907},{"type":"node","id":3100989511,"lat":60.1864295,"lon":24.9512203},{"type":"node","id":3100989512,"lat":60.1864295,"lon":24.9512303},{"type":"node","id":5938388640,"lat":60.1864688,"lon":24.9511769},{"type":"node","id":5938388642,"lat":60.1864587,"lon":24.9506194},{"type":"node","id":5938774057,"lat":60.1867476,"lon":24.9510716},{"type":"node","id":5938774059,"lat":60.1869002,"lon":24.9516223},{"type":"node","id":5938774062,"lat":60.1864868,"lon":24.9507113},{"type":"node","id":6321049016,"lat":60.1864827,"lon":24.9513053},{"type":"node","id":6321049017,"lat":60.1864253,"lon":24.9513303},{"type":"node","id":6321049018,"lat":60.1864799,"lon":24.9513397},{"type":"node","id":6321049019,"lat":60.1866305,"lon":24.9510475},{"type":"node","id":6321049020,"lat":60.1866382,"lon":24.9509335},{"type":"node","id":6321049021,"lat":60.1865709,"lon":24.9508847},{"type":"node","id":6321049022,"lat":60.1866024,"lon":24.9508631},{"type":"node","id":6321049023,"lat":60.1865714,"lon":24.9511354},{"type":"node","id":6321049024,"lat":60.1865635,"lon":24.9511896},{"type":"node","id":6321049025,"lat":60.1866461,"lon":24.9511531},{"type":"node","id":6321049026,"lat":60.1866943,"lon":24.9511676},{"type":"node","id":6321049028,"lat":60.1869201,"lon":24.9518831},{"type":"node","id":6321049029,"lat":60.1869078,"lon":24.95176},{"type":"node","id":6321049030,"lat":60.1869338,"lon":24.9520293},{"type":"node","id":6321049031,"lat":60.1869245,"lon":24.9518229},{"type":"node","id":6321049032,"lat":60.1869199,"lon":24.9517581},{"type":"node","id":6321049033,"lat":60.1868999,"lon":24.9517027},{"type":"node","id":6321049034,"lat":60.1868887,"lon":24.9516401},{"type":"node","id":6324968548,"lat":60.1861164,"lon":24.9517859},{"type":"node","id":6324968549,"lat":60.1860928,"lon":24.9517853},{"type":"node","id":6324968550,"lat":60.1860891,"lon":24.9517969},{"type":"node","id":6324968551,"lat":60.186094,"lon":24.9518024},{"type":"node","id":6324968552,"lat":60.1860973,"lon":24.9518121},{"type":"node","id":6324968553,"lat":60.1860997,"lon":24.9518286},{"type":"node","id":6324968554,"lat":60.1860976,"lon":24.9518584},{"type":"node","id":6324968555,"lat":60.1861173,"lon":24.9518109},{"type":"node","id":6324968556,"lat":60.1862693,"lon":24.9518846},{"type":"node","id":6324968557,"lat":60.1862745,"lon":24.9518743},{"type":"node","id":6324968558,"lat":60.1862796,"lon":24.9518706},{"type":"node","id":6324968559,"lat":60.1863635,"lon":24.9518688},{"type":"node","id":6324968560,"lat":60.1863708,"lon":24.9518468},{"type":"node","id":6324968561,"lat":60.1863789,"lon":24.9518907},{"type":"node","id":6324968562,"lat":60.1866545,"lon":24.9519888},{"type":"node","id":6409194131,"lat":60.1865111,"lon":24.9499585},{"type":"node","id":6461223457,"lat":60.1866108,"lon":24.9511373},{"type":"node","id":6461223458,"lat":60.1866275,"lon":24.9512101},{"type":"node","id":6461223459,"lat":60.186739,"lon":24.9513598},{"type":"node","id":6461223460,"lat":60.1866963,"lon":24.951469},{"type":"node","id":6461223461,"lat":60.1867323,"lon":24.9514922},{"type":"node","id":6461223462,"lat":60.1868148,"lon":24.951664},{"type":"node","id":6461232589,"lat":60.1863998,"lon":24.9514014},{"type":"node","id":6461232590,"lat":60.1866948,"lon":24.951034},{"type":"node","id":6461232591,"lat":60.1867224,"lon":24.9510436},{"type":"node","id":6461232592,"lat":60.1866835,"lon":24.9511432},{"type":"node","id":6461232593,"lat":60.1857137,"lon":24.9514293},{"type":"node","id":6461232601,"lat":60.1854893,"lon":24.9514974},{"type":"node","id":7331241928,"lat":60.1865311,"lon":24.9504327},{"type":"node","id":7331241929,"lat":60.1865008,"lon":24.9495845},{"type":"node","id":8486250987,"lat":60.1864791,"lon":24.951688},{"type":"node","id":8602394400,"lat":60.1866216,"lon":24.951605},{"type":"node","id":8602394401,"lat":60.1865937,"lon":24.9516798},{"type":"node","id":8852722318,"lat":60.1858848,"lon":24.9516195},{"type":"node","id":8852722319,"lat":60.1858844,"lon":24.9515942},{"type":"node","id":8852722322,"lat":60.1861389,"lon":24.9515936},{"type":"node","id":8852722323,"lat":60.1861326,"lon":24.9514141},{"type":"node","id":8852722324,"lat":60.1861376,"lon":24.9515674},{"type":"node","id":8852722325,"lat":60.1861474,"lon":24.9518085},{"type":"node","id":8852722326,"lat":60.1861737,"lon":24.9515902},{"type":"node","id":8852722327,"lat":60.1861679,"lon":24.9514104},{"type":"node","id":8852722328,"lat":60.1861729,"lon":24.9515633},{"type":"node","id":8852722329,"lat":60.1861812,"lon":24.9518585},{"type":"node","id":8852722330,"lat":60.1862094,"lon":24.9515867},{"type":"node","id":8852722331,"lat":60.1862085,"lon":24.9515595},{"type":"node","id":8852722332,"lat":60.186327,"lon":24.9515751},{"type":"node","id":8852722333,"lat":60.1863268,"lon":24.9515457},{"type":"node","id":8852722334,"lat":60.1863717,"lon":24.9515707},{"type":"node","id":8852722335,"lat":60.1863721,"lon":24.9515405},{"type":"node","id":8852722337,"lat":60.1864519,"lon":24.951644},{"type":"node","id":8852722338,"lat":60.1864783,"lon":24.9516401},{"type":"node","id":8852722339,"lat":60.1865011,"lon":24.9517193},{"type":"node","id":8852722340,"lat":60.1865009,"lon":24.9516864},{"type":"node","id":8852722341,"lat":60.1865346,"lon":24.951716},{"type":"node","id":8852722342,"lat":60.1865343,"lon":24.951684},{"type":"node","id":8852722343,"lat":60.1865643,"lon":24.9517132},{"type":"node","id":8852722344,"lat":60.1865645,"lon":24.9516819},{"type":"node","id":8852722346,"lat":60.1866239,"lon":24.9517078},{"type":"node","id":8852722347,"lat":60.1865979,"lon":24.9519944},{"type":"node","id":8852722348,"lat":60.1866784,"lon":24.9517023},{"type":"node","id":8852722349,"lat":60.1866778,"lon":24.9516736},{"type":"node","id":8852722350,"lat":60.1867243,"lon":24.9516981},{"type":"node","id":8852722351,"lat":60.1867244,"lon":24.9516703},{"type":"node","id":8852722352,"lat":60.1868066,"lon":24.9519187},{"type":"node","id":8852722356,"lat":60.1868141,"lon":24.9520784},{"type":"node","id":8852722359,"lat":60.1868165,"lon":24.9521332},{"type":"node","id":8852722361,"lat":60.1868191,"lon":24.9521849},{"type":"node","id":9947246439,"lat":60.1865458,"lon":24.9506589},{"type":"node","id":11061441068,"lat":60.1869343,"lon":24.9539474},{"type":"node","id":11061441069,"lat":60.1868551,"lon":24.9529917},{"type":"node","id":11061441070,"lat":60.1867985,"lon":24.951687},{"type":"node","id":11061441071,"lat":60.186455,"lon":24.951721},{"type":"node","id":11061441072,"lat":60.1864501,"lon":24.951563},{"type":"node","id":11063428807,"lat":60.186449,"lon":24.9515325},{"type":"node","id":11063428808,"lat":60.1864764,"lon":24.9515293},{"type":"node","id":11063428809,"lat":60.1867032,"lon":24.9516718},{"type":"node","id":11063428810,"lat":60.1866261,"lon":24.9517076},{"type":"node","id":11063428811,"lat":60.1866232,"lon":24.9516776},{"type":"node","id":11063428812,"lat":60.1866821,"lon":24.9517019},{"type":"node","id":11063428814,"lat":60.1866268,"lon":24.9518364},{"type":"node","id":11063428815,"lat":60.1866185,"lon":24.9518868},{"type":"node","id":11063428816,"lat":60.1865942,"lon":24.9517105},{"type":"node","id":11063428817,"lat":60.1866206,"lon":24.9519922},{"type":"node","id":11063428818,"lat":60.1866188,"lon":24.9514722},{"type":"node","id":11063428819,"lat":60.1864476,"lon":24.9514895},{"type":"node","id":11063428820,"lat":60.1868172,"lon":24.9516878},{"type":"node","id":11766489083,"lat":60.1861335,"lon":24.9514411},{"type":"node","id":11766489084,"lat":60.1861688,"lon":24.9514379},{"type":"node","id":11766489085,"lat":60.1867505,"lon":24.9516958},{"type":"node","id":11766508182,"lat":60.1864213,"lon":24.9502874},{"type":"node","id":11804753068,"lat":60.1864492,"lon":24.9514612},{"type":"node","id":11804761969,"lat":60.1866971,"lon":24.9514379},{"type":"node","id":11804761970,"lat":60.186723,"lon":24.9514515},{"type":"node","id":11804761971,"lat":60.1865684,"lon":24.951475},{"type":"node","id":11804761972,"lat":60.1867476,"lon":24.9514855},{"type":"node","id":11804761973,"lat":60.1867717,"lon":24.9515295},{"type":"node","id":11804761974,"lat":60.1868002,"lon":24.951582},{"type":"node","id":11804761975,"lat":60.186829,"lon":24.9516872},{"type":"node","id":11804761976,"lat":60.186819,"lon":24.951635},{"type":"node","id":11804761977,"lat":60.1867663,"lon":24.9515476},{"type":"node","id":11804761979,"lat":60.1866917,"lon":24.9516726},{"type":"node","id":12573567802,"lat":60.1864504,"lon":24.9504031},{"type":"node","id":449728837,"lat":60.1821407,"lon":24.9564887},{"type":"node","id":210475258,"lat":60.1874633,"lon":24.9602788},{"type":"node","id":210522985,"lat":60.1873754,"lon":24.9590267},{"type":"node","id":210522986,"lat":60.1874345,"lon":24.9597812},{"type":"node","id":210524462,"lat":60.1872187,"lon":24.9572168},{"type":"node","id":452815162,"lat":60.1875019,"lon":24.9615343},{"type":"node","id":452815163,"lat":60.1874047,"lon":24.9619875},{"type":"node","id":1016635066,"lat":60.1874302,"lon":24.9597289},{"type":"node","id":1016635144,"lat":60.1873893,"lon":24.9591974},{"type":"node","id":1016635159,"lat":60.1871748,"lon":24.9567027},{"type":"node","id":1016635215,"lat":60.1874153,"lon":24.9595428},{"type":"node","id":1016635230,"lat":60.1874045,"lon":24.9594094},{"type":"node","id":1016635252,"lat":60.1871248,"lon":24.9561363},{"type":"node","id":8831720836,"lat":60.1874753,"lon":24.9605321},{"type":"node","id":8831720840,"lat":60.1874703,"lon":24.9604252},{"type":"node","id":8831720842,"lat":60.1874642,"lon":24.9602979},{"type":"node","id":8836005055,"lat":60.1874785,"lon":24.9605993},{"type":"node","id":10933921839,"lat":60.1874817,"lon":24.9606691},{"type":"node","id":10933921840,"lat":60.1875073,"lon":24.9613048},{"type":"node","id":11766458357,"lat":60.1874228,"lon":24.9596359}]}