{"version":0.6,"generator":"Overpass API 0.7.62.5 1bd436f1","osm3s":{"timestamp_osm_base":"2025-03-12T12:21:00Z","copyright":"The data included in this document is from www.openstreetmap.org. The data is made available under ODbL."},"elements":[{"type":"node","id":269162970,"lat":60.1859962,"lon":24.9610713,"tags":{"button_operated":"yes","crossing":"traffic_signals","highway":"crossing","traffic_signals:sound":"yes","traffic_signals:vibration":"no"}},{"type":"node","id":269162971,"lat":60.186161,"lon":24.9611127,"tags":{"highway":"traffic_signals"}},{"type":"node","id":269167197,"lat":60.1860932,"lon":24.9610958,"tags":{"source":"survey"}},{"type":"node","id":269167198,"lat":60.1860107,"lon":24.9612015,"tags":{"button_operated":"yes","crossing":"traffic_signals","crossing:island":"yes","highway":"crossing","traffic_signals:sound":"yes","traffic_signals:vibration":"no"}},{"type":"node","id":269182778,"lat":60.1860816,"lon":24.9609535,"tags":{"button_operated":"no","crossing":"traffic_signals","crossing:island":"no","highway":"crossing","traffic_signals:sound":"no","traffic_signals:vibration":"yes"}},{"type":"node","id":316422961,"lat":60.1860783,"lon":24.9608987,"tags":{"highway":"traffic_signals","highway:give_way":"yes"}},{"type":"node","id":673529778,"lat":60.185986,"lon":24.960724,"tags":{"amenity":"vending_machine","check_date":"2023-04-13","currency:EUR":"yes","opening_hours":"Mo-Fr 09:00-19:00","operator":"HKR","parking:ticket:zone":"3","payment:coins":"yes","ref":"359","vending":"parking_tickets"}},{"type":"node","id":685429240,"lat":60.1863886,"lon":24.9609689,"tags":{"addr:city":"Helsinki","addr:country":"FI","addr:housenumber":"46","addr:street":"H\u00e4meentie"}},{"type":"node","id":700867987,"lat":60.186188,"lon":24.960731,"tags":{"addr:city":"Helsinki","addr:country":"FI","addr:housenumber":"1","addr:street":"Torkkelinkatu"}},{"type":"node","id":700867997,"lat":60.1861608,"lon":24.9600635,"tags":{"addr:city":"Helsinki","addr:country":"FI","addr:housenumber":"3","addr:street":"Torkkelinkatu"}},{"type":"node","id":948464658,"lat":60.1862007,"lon":24.9611182,"tags":{"FIXME:pipeline":"tarkempi sijainti","diameter":"300","hole:diameter":"20 cm","man_made":"manhole","manhole":"water","marker:shape":"vertical oval on a rectangle"}},{"type":"node","id":948464688,"lat":60.186105,"lon":24.9610338,"tags":{"FIXME:pipeline":"tarkempi sijainti","diameter":"200","hole:diameter":"20 cm","man_made":"manhole","manhole":"water","marker:shape":"vertical oval on a rectangle"}},{"type":"node","id":1526055743,"lat":60.1861814,"lon":24.9611147,"tags":{"diameter":"300","emergency":"fire_hydrant","last_open_pit":"2010-10-14","location":"underground"}},{"type":"node","id":2112292864,"lat":60.1861639,"lon":24.9610659,"tags":{"traffic_sign":"FI:364[30]","traffic_signals:motor_vehicle":"yes"}},{"type":"node","id":2132012238,"lat":60.1860099,"lon":24.9611648,"tags":{"traffic_signals:foot":"yes","traffic_signals:motor_vehicle":"yes","traffic_signals:tram":"yes"}},{"type":"node","id":2132012239,"lat":60.1860223,"lon":24.9609338,"tags":{"traffic_sign":"FI:231","traffic_signals:foot":"yes","traffic_signals:motor_vehicle":"yes"}},{"type":"node","id":3055036768,"lat":60.1861353,"lon":24.9609561,"tags":{"traffic_sign":"FI:372","traffic_sign:2":"FI:855a[9-21]","traffic_sign:3":"FI:871[Vy\u00f6hyke 3 Ei koske P-tunnuksella I]"}},{"type":"node","id":3119079646,"lat":60.1860997,"lon":24.9605607,"tags":{"was:traffic_sign":"FI:363[30];FI:364[30]"}},{"type":"node","id":3801973896,"lat":60.1863996,"lon":24.9604134,"tags":{"natural":"tree"}},{"type":"node","id":6331356081,"lat":60.1860087,"lon":24.9611833,"tags":{"railway":"tram_crossing"}},{"type":"node","id":6331356096,"lat":60.1862043,"lon":24.9611226,"tags":{"button_operated":"yes","crossing":"traffic_signals","highway":"crossing","traffic_signals:sound":"yes","traffic_signals:vibration":"no"}},{"type":"node","id":9679415817,"lat":60.1860992,"lon":24.9599004,"tags":{"access":"yes","entrance":"yes"}},{"type":"node","id":9679416417,"lat":60.1861099,"lon":24.9598988,"tags":{"addr:housenumber":"3","addr:street":"Torkkelinkatu","amenity":"studio","name":"Making movies, mamo"}},{"type":"node","id":9679421917,"lat":60.186102,"lon":24.9599487,"tags":{"access":"private","entrance":"garage"}},{"type":"node","id":9679424417,"lat":60.1861055,"lon":24.9600103,"tags":{"access":"yes","entrance":"yes"}},{"type":"node","id":9679424617,"lat":60.1861147,"lon":24.9600098,"tags":{"addr:housenumber":"3","addr:street":"Torkkelinkatu","amenity":"bank","level":"1","name":"Express-Tilit oy"}},{"type":"node","id":10690315431,"lat":60.1861167,"lon":24.9602042,"tags":{"access":"yes","entrance":"yes"}},{"type":"node","id":10690315432,"lat":60.1861132,"lon":24.9601442,"tags":{"access":"yes","entrance":"yes"}},{"type":"node","id":10690315434,"lat":60.1861097,"lon":24.9600833,"tags":{"access":"private","addr:unit":"C","description":"With buzzer","entrance":"staircase","wheelchair":"no"}},{"type":"node","id":10716691086,"lat":60.1862719,"lon":24.9611382,"tags":{"highway":"traffic_signals"}}]}