{"version":0.6,"generator":"Overpass API 0.7.61.5 4133829e","osm3s":{"timestamp_osm_base":"2023-08-13T09:20:22Z","copyright":"The data included in this document is from www.openstreetmap.org. The data is made available under ODbL."},"elements":[{"type":"node","id":247321777,"lat":60.1641203,"lon":24.9459758,"tags":{"access":"yes","addr:housenumber":"10","addr:street":"Pieni Roobertinkatu","entrance":"main","wheelchair":"no"}},{"type":"node","id":247321778,"lat":60.1638335,"lon":24.9460132,"tags":{"access":"yes","addr:housenumber":"1a","addr:street":"Ratakatu","entrance":"main","wheelchair":"no"}},{"type":"node","id":299980083,"lat":60.1638205,"lon":24.9457852,"tags":{"addr:city":"Helsinki","addr:country":"FI","addr:housenumber":"1a","addr:postcode":"00120","addr:street":"Ratakatu"}},{"type":"node","id":310987501,"lat":60.1636658,"lon":24.9461594,"tags":{"crossing":"uncontrolled","crossing:island":"yes","highway":"crossing"}},{"type":"node","id":310987504,"lat":60.1637497,"lon":24.9460335,"tags":{"check_date:crossing":"2020-11-21","crossing":"uncontrolled","crossing:island":"no","highway":"crossing"}},{"type":"node","id":314934629,"lat":60.1638282,"lon":24.9461382,"tags":{"crossing":"uncontrolled","crossing:island":"yes","ele:msl":"16","highway":"crossing"}},{"type":"node","id":314934972,"lat":60.1642,"lon":24.9462092,"tags":{"crossing":"uncontrolled","highway":"crossing"}},{"type":"node","id":314934974,"lat":60.1642582,"lon":24.9460852,"tags":{"crossing":"uncontrolled","crossing:island":"no","highway":"crossing"}},{"type":"node","id":314934976,"lat":60.1641932,"lon":24.9459796,"tags":{"crossing":"uncontrolled","crossing:island":"no","ele":"14","highway":"crossing","source:ele":"barometric*1"}},{"type":"node","id":314934977,"lat":60.164141,"lon":24.9460986,"tags":{"crossing":"uncontrolled","highway":"crossing"}},{"type":"node","id":324162964,"lat":60.1637353,"lon":24.9456106,"tags":{"addr:city":"Helsinki","addr:country":"FI","addr:housenumber":"1a","addr:postcode":"00120","addr:street":"Ratakatu","amenity":"restaurant","cuisine":"nepalese","diet:halal":"no","diet:kosher":"no","name":"Himalaya","opening_hours":"Mo-Fr 11:00-23:00; Sa-Su 12:00-23:00","payment:credit_cards":"yes","payment:debit_cards":"yes","website":"https:\/\/himalaya.fi","wheelchair":"no"}},{"type":"node","id":438623937,"lat":60.164152,"lon":24.946716,"tags":{"amenity":"vending_machine","currency:EUR":"yes","opening_hours":"Mo-Fr 09:00-19:00; Sa 09:00-18:00","operator":"HKR","parking:ticket:zone":"1","payment:coins":"yes","ref":"234","vending":"parking_tickets"}},{"type":"node","id":528475732,"lat":60.1638299,"lon":24.9459116,"tags":{"addr:city":"Helsinki","addr:country":"FI","addr:housenumber":"1a","addr:postcode":"00120","addr:street":"Ratakatu","name":"Katjamariateam","opening_hours":"Mo 09:00-17:00; Tu 08:00-20:00; We 09:00-17:00; Th 08:00-20:00; Fr 08:00-17:00; Sa 08:00-15:00","payment:credit_cards":"yes","payment:debit_cards":"yes","shop":"hairdresser","website":"http:\/\/katjamariateam.fi","wheelchair":"no"}},{"type":"node","id":528475733,"lat":60.1638475,"lon":24.945966,"tags":{"addr:city":"Helsinki","addr:country":"FI","addr:housenumber":"1a","addr:postcode":"00120","addr:street":"Ratakatu","email":"helsinki@menita.fi","name":"Menita","name:en":"Menita","opening_hours":"Mo-Fr 10:00-18:00; Sa 10:00-15:00","payment:credit_cards":"yes","payment:debit_cards":"yes","phone":"(09)632844","shop":"yarn","website":"http:\/\/menita.fi"}},{"type":"node","id":607014800,"lat":60.1639482,"lon":24.9462882,"tags":{"addr:city":"Helsinki","addr:country":"FI","addr:housenumber":"27","addr:postcode":"00130","addr:street":"Korkeavuorenkatu","amenity":"restaurant","cuisine":"nordic","diet:halal":"no","diet:kosher":"no","email":"info@ego-ravintola.fi","lunch":"yes","name":"Ego Ravintola","opening_hours":"Tu-Fr 11:30-14:00,17:00-24:00; Sa 14:00-24:00","payment:credit_cards":"yes","payment:debit_cards":"yes","phone":"+358105050909","url":"https:\/\/ego-ravintola.fi\/","website":"https:\/\/ego-ravintola.fi\/","wheelchair":"yes"}},{"type":"node","id":688751302,"lat":60.163915,"lon":24.9463114,"tags":{"addr:city":"Helsinki","addr:country":"FI","addr:housenumber":"27","addr:street":"Korkeavuorenkatu"}},{"type":"node","id":690126165,"lat":60.1637972,"lon":24.94617,"tags":{"diameter":"200","hole:diameter":"20cm","man_made":"manhole","manhole":"water","marker:shape":"vertical oval on a rectangle"}},{"type":"node","id":690126170,"lat":60.1638086,"lon":24.9461872,"tags":{"diameter":"200","hole:diameter":"20cm","man_made":"manhole","manhole":"water","marker:shape":"vertical oval on a rectangle"}},{"type":"node","id":690126173,"lat":60.1638228,"lon":24.9461267,"tags":{"hole:diameter":"40cm","label":"GAS","man_made":"manhole","manhole":"gas"}},{"type":"node","id":690126175,"lat":60.1638228,"lon":24.9461153,"tags":{"hole:diameter":"40cm","label":"GAS","man_made":"manhole","manhole":"gas"}},{"type":"node","id":690126181,"lat":60.1636726,"lon":24.9462394,"tags":{"hole:shape":"square*2","label":"*","man_made":"manhole","manhole":"telecom","operator":"Elisa"}},{"type":"node","id":690126184,"lat":60.1637924,"lon":24.9461862,"tags":{"diameter":"200","hole:diameter":"20cm","man_made":"manhole","manhole":"water","marker:shape":"vertical oval on a rectangle"}},{"type":"node","id":690137077,"lat":60.16399,"lon":24.9459185,"tags":{"addr:city":"Helsinki","addr:country":"FI","addr:housenumber":"20","addr:street":"Korkeavuorenkatu"}},{"type":"node","id":988162365,"lat":60.1640903,"lon":24.9457706,"tags":{"addr:city":"Helsinki","addr:country":"FI","addr:housenumber":"10","addr:street":"Pieni Roobertinkatu"}},{"type":"node","id":988162376,"lat":60.1641142,"lon":24.9465765,"tags":{"addr:city":"Helsinki","addr:country":"FI","addr:housenumber":"8","addr:street":"Pieni Roobertinkatu"}},{"type":"node","id":988162391,"lat":60.1643201,"lon":24.9467019,"tags":{"addr:city":"Helsinki","addr:country":"FI","addr:housenumber":"5","addr:street":"Pieni Roobertinkatu"}},{"type":"node","id":988280336,"lat":60.1642131,"lon":24.9460381,"tags":{"diameter":"150","dir_ref":"AK","hole:diameter":"20 cm","man_made":"manhole","manhole":"water","marker:shape":"vertical oval on a rectangle"}},{"type":"node","id":988280341,"lat":60.1642259,"lon":24.9460614,"tags":{"diameter":"200","dir_ref":"AK","hole:diameter":"20 cm","man_made":"manhole","manhole":"water","marker:shape":"vertical oval on a rectangle"}},{"type":"node","id":988280343,"lat":60.1641807,"lon":24.9460684,"tags":{"diameter":"200","dir_ref":"AK","hole:diameter":"20 cm","man_made":"manhole","manhole":"water","marker:shape":"vertical oval on a rectangle"}},{"type":"node","id":988280345,"lat":60.1642143,"lon":24.9461289,"tags":{"diameter":"200","dir_ref":"AK","hole:diameter":"20 cm","man_made":"manhole","manhole":"water","marker:shape":"vertical oval on a rectangle"}},{"type":"node","id":988573308,"lat":60.1636959,"lon":24.9460697,"tags":{"amenity":"waste_basket","check_date":"2022-10-26"}},{"type":"node","id":1380323475,"lat":60.1637968,"lon":24.946159,"tags":{"diameter":"200","emergency":"fire_hydrant","fire_hydrant:position":"lane","fire_hydrant:type":"underground"}},{"type":"node","id":2069174806,"lat":60.1642812,"lon":24.9462048,"tags":{"traffic_sign":"FI:372","traffic_sign:2":"FI:855a[9-21 (9-18)]","traffic_sign:3":"FI:871[Vy\u00f6hyke 1 Kertamaksu enint. 60 min]","traffic_sign:4":"FI:871[Ei koske P-tunnuksella C]"}},{"type":"node","id":2422351944,"lat":60.1642624,"lon":24.9462453,"tags":{"fixme":"Raksan sis\u00e4ll\u00e4 2014-09","traffic_sign":"FI:511"}},{"type":"node","id":2422352015,"lat":60.1642653,"lon":24.9459332,"tags":{"traffic_sign":"FI:372","traffic_sign:2":"FI:855a[9-21 (9-18)]","traffic_sign:3":"FI:871[Vy\u00f6hyke 1 Kertamaksu enint. 60 min]","traffic_sign:4":"FI:871[Ei koske P-tunnuksella B\/C]"}},{"type":"node","id":2422352016,"lat":60.1642834,"lon":24.9459492,"tags":{"traffic_sign":"FI:511"}},{"type":"node","id":2689093178,"lat":60.1641502,"lon":24.9459275,"tags":{"traffic_sign":"FI:511"}},{"type":"node","id":3083581579,"lat":60.1636557,"lon":24.9462704,"tags":{"fixme":"Joko t\u00e4ss\u00e4 tai pohjoisempanako on viel\u00e4 yksi FI:511 lis\u00e4\u00e4?"}},{"type":"node","id":3083581580,"lat":60.1636806,"lon":24.9461516,"tags":{"traffic_sign":"FI:417"}},{"type":"node","id":3083581581,"lat":60.1636809,"lon":24.9460034,"tags":{"traffic_sign":"FI:511","traffic_sign:2":"FI:726;FI:726","traffic_sign:3":"FI:813[right][50 m];FI:813[left][50 m]"}},{"type":"node","id":3083581582,"lat":60.1637533,"lon":24.9457978,"tags":{"fixme":"Onko viel\u00e4 maastossa?","traffic_sign":"FI:372","traffic_sign:2":"FI:851[8-17]"}},{"type":"node","id":3083581584,"lat":60.1638111,"lon":24.9459627,"tags":{"traffic_sign":"FI:521","traffic_sign:2":"FI:855b[9-21 (9-18)]","traffic_sign:3":"FI:871[Vy\u00f6hyke 1 Kertamaksu enint. 4 h]"}},{"type":"node","id":3083581587,"lat":60.16384,"lon":24.9460201,"tags":{"traffic_sign":"FI:511"}},{"type":"node","id":3083581588,"lat":60.163849,"lon":24.9462127,"tags":{"traffic_sign":"FI:372","traffic_sign:2":"FI:855a[9-21 (9-18)]","traffic_sign:3":"FI:871[Vy\u00f6hyke 1 Kertamaksu enint. 60 min]","traffic_sign:4":"FI:871[Ei koske P-tunnuksella B\/C]"}},{"type":"node","id":3083581589,"lat":60.1641148,"lon":24.9459846,"tags":{"traffic_sign":"FI:372","traffic_sign:2":"FI:855a[9-21 (9-18)]","traffic_sign:3":"FI:871[Vy\u00f6hyke 1 Kertamaksu enint. 60 min]","traffic_sign:4":"FI:871[Ei koske P-tunnuksella B\/C]"}},{"type":"node","id":3083581591,"lat":60.1641203,"lon":24.9461856,"tags":{"traffic_sign":"FI:511"}},{"type":"node","id":3083581592,"lat":60.1641495,"lon":24.9462437,"tags":{"traffic_sign":"FI:372","traffic_sign:2":"FI:855a[9-21 (9-18)]","traffic_sign:3":"FI:871[Vy\u00f6hyke 1 Kertamaksu enint. 60 min]","traffic_sign:4":"FI:871[Ei koske P-tunnuksella C]","traffic_sign:5":"FI:871[\u2190 Lippuautomaatti]"}},{"type":"node","id":3330871445,"lat":60.1637255,"lon":24.9456959,"tags":{"access":"private","barrier":"gate"}},{"type":"node","id":3330871446,"lat":60.1637997,"lon":24.9459138,"tags":{"addr:unit":"A","entrance":"staircase"}},{"type":"node","id":3330871447,"lat":60.1641166,"lon":24.94579,"tags":{"addr:unit":"C","entrance":"staircase","fixme":"Tarkka sijainti"}},{"type":"node","id":3456358752,"lat":60.1638807,"lon":24.9462965,"tags":{"addr:city":"Helsinki","addr:housenumber":"27","addr:postcode":"00130","addr:street":"Korkeavuorenkatu","amenity":"restaurant","diet:halal":"no","diet:kosher":"no","diet:vegan":"only","diet:vegetarian":"only","name":"Magu","opening_hours":"Tu-Fr 11:00-14:30, We-Th 17:00-22:00, Fr-Sa 17:00-24:00","outdoor_seating":"no","payment:credit_cards":"yes","payment:debit_cards":"yes","phone":"+358 44 7373355","smoking":"no","website":"https:\/\/www.maguhelsinki.fi","wheelchair":"no","wheelchair:description":"4 porrasta \/ 4 steps up!"}},{"type":"node","id":3901289274,"lat":60.1638011,"lon":24.9458344,"tags":{"addr:city":"Helsinki","addr:country":"FI","addr:housenumber":"1a","addr:postcode":"00120","addr:street":"Ratakatu","name":"Acateem","opening_hours":"Mo-We 9:00-17:00; Tu-Th 8:00-20:00; Fr 8:00-17:00; Sa 8:00-15:00","payment:credit_cards":"yes","payment:debit_cards":"yes","phone":"+3589642460","shop":"clothes","website":"http:\/\/katjamariateam.fi\/","wheelchair":"no"}},{"type":"node","id":4687195613,"lat":60.1637907,"lon":24.9463054,"tags":{"addr:city":"Helsinki","addr:country":"FI","addr:housenumber":"27","addr:postcode":"00130","addr:street":"Korkeavuorenkatu","amenity":"cafe","diet:halal":"no","diet:kosher":"no","name":"Cafe Rustica","payment:credit_cards":"yes","payment:debit_cards":"yes"}},{"type":"node","id":4687453716,"lat":60.1641077,"lon":24.9462728,"tags":{"addr:city":"Helsinki","addr:country":"FI","addr:housenumber":"8","addr:street":"Pieni Roobertinkatu","amenity":"restaurant","cuisine":"finedining","diet:halal":"no","diet:kosher":"no","name":"Vinkkeli","opening_hours":"Mo 11:30-14:00;Tu-Fr 11:30-14:00,17:00-24:00;Sa 17:00-24:00","payment:credit_cards":"yes","payment:debit_cards":"yes","website":"http:\/\/www.ravintolavinkkeli.fi\/"}},{"type":"node","id":4741957912,"lat":60.1642954,"lon":24.9464042,"tags":{"addr:housenumber":"5","addr:street":"Pieni Roobertinkatu","level":"0","name":"Dessein","opening_hours":"Mo-Fr 11:00-18:00; Sa 11:00-16:00","payment:credit_cards":"yes","payment:debit_cards":"yes","shop":"jewelry"}},{"type":"node","id":4741957915,"lat":60.1643015,"lon":24.9465285,"tags":{"addr:city":"Helsinki","addr:country":"FI","addr:housenumber":"5","addr:postcode":"00130","addr:street":"Pieni Roobertinkatu","level":"1","name":"Anki","payment:credit_cards":"yes","payment:debit_cards":"yes","phone":"(09) 653 575","shop":"carpet","website":"https:\/\/ankirugs.com\/"}},{"type":"node","id":4741957918,"lat":60.1641214,"lon":24.9465417,"tags":{"addr:city":"Helsinki","addr:country":"FI","addr:housenumber":"8","addr:postcode":"00130","addr:street":"Pieni Roobertinkatu","craft":"jeweller","name":"Laakso And Sundman","payment:credit_cards":"yes","payment:debit_cards":"yes","shop":"jewelry","website":"http:\/\/designlaaksosundman.blogspot.fi"}},{"type":"node","id":4741957920,"lat":60.164134,"lon":24.9467754,"tags":{"addr:city":"Helsinki","addr:country":"FI","addr:housenumber":"6","addr:postcode":"00130","addr:street":"Pieni Roobertinkatu","name":"TS-Salonki","opening_hours":"\"By appointment\"","payment:credit_cards":"yes","payment:debit_cards":"yes","shop":"hairdresser","website":"https:\/\/ts-salonki.fi\/salongit\/pikkuroba-6\/","wheelchair":"limited"}},{"type":"node","id":4741957922,"lat":60.1641307,"lon":24.9469263,"tags":{"addr:city":"Helsinki","addr:country":"FI","addr:housenumber":"4","addr:postcode":"00130","addr:street":"Pieni Roobertinkatu","name":"My Garden","payment:credit_cards":"yes","payment:debit_cards":"yes","shop":"florist"}},{"type":"node","id":4741957930,"lat":60.164085,"lon":24.9459099,"tags":{"addr:city":"Helsinki","addr:country":"FI","addr:housenumber":"10","addr:postcode":"00120","addr:street":"Pieni Roobertinkatu","name":"Galleria G","opening_hours":"Tu-Fr 11:00-17:00;Sa-Su 12:00-16:00","payment:credit_cards":"yes","payment:debit_cards":"yes","shop":"art","website":"https:\/\/www.taidegraafikot.fi\/nayttelyt\/"}},{"type":"node","id":4741957933,"lat":60.1642911,"lon":24.9462805,"tags":{"addr:housenumber":"5","addr:street":"Pieni Roobertinkatu","name":"Ritva Blomquist","payment:credit_cards":"yes","payment:debit_cards":"yes","phone":"040 8238085","shop":"antiques"}},{"type":"node","id":4745464000,"lat":60.1638502,"lon":24.9463065,"tags":{"addr:city":"Helsinki","addr:country":"FI","addr:housenumber":"27","addr:street":"Korkeavuorenkatu","name":"Antiikkiliike J. Lammi","payment:credit_cards":"yes","payment:debit_cards":"yes","phone":"+358407064469","shop":"antiques","website":"http:\/\/antiikkilammi.fi"}},{"type":"node","id":4950716923,"lat":60.1637644,"lon":24.945728,"tags":{"addr:city":"Helsinki","addr:country":"FI","addr:housenumber":"1a","addr:postcode":"00120","addr:street":"Ratakatu","email":"info@groom.fi","male":"yes","name":"Groom","opening_hours":"Mo-Fr 9:00-20:00; Sa 10:00-17:00","payment:credit_cards":"yes","payment:debit_cards":"yes","phone":"+358405343400","shop":"hairdresser","website":"https:\/\/www.groom.fi\/liike\/rooperi\/"}},{"type":"node","id":4950716924,"lat":60.1638805,"lon":24.94583,"tags":{"addr:city":"Helsinki","addr:country":"FI","addr:housenumber":"1a","addr:postcode":"00120","addr:street":"Ratakatu","name":"Explorius Education","office":"company"}},{"type":"node","id":4950716925,"lat":60.1638858,"lon":24.9458192,"tags":{"addr:city":"Helsinki","addr:country":"FI","addr:housenumber":"1a","addr:postcode":"00120","addr:street":"Ratakatu","name":"Qvidja Kraft AB","office":"company"}},{"type":"node","id":4950716926,"lat":60.1638905,"lon":24.9458072,"tags":{"addr:city":"Helsinki","addr:country":"FI","addr:housenumber":"1a","addr:postcode":"00120","addr:street":"Ratakatu","name":"Sailfood oy","office":"company"}},{"type":"node","id":4950716927,"lat":60.1638952,"lon":24.9457937,"tags":{"addr:city":"Helsinki","addr:country":"FI","addr:housenumber":"1a","addr:postcode":"00120","addr:street":"Ratakatu","name":"Medifon oy","office":"company"}},{"type":"node","id":4950716928,"lat":60.1638538,"lon":24.9458326,"tags":{"addr:city":"Helsinki","addr:country":"FI","addr:housenumber":"1a","addr:postcode":"00120","addr:street":"Ratakatu","name":"Brand agency Punda oy","office":"company"}},{"type":"node","id":4950716929,"lat":60.1638618,"lon":24.9458273,"tags":{"addr:city":"Helsinki","addr:country":"FI","addr:housenumber":"1a","addr:postcode":"00120","addr:street":"Ratakatu","name":"Rian oy","office":"company"}},{"type":"node","id":4950716930,"lat":60.1638711,"lon":24.9458165,"tags":{"addr:city":"Helsinki","addr:country":"FI","addr:housenumber":"1a","addr:postcode":"00120","addr:street":"Ratakatu","name":"Apteekkien tilipalvelu Lars Bj\u00f6rkl\u00f6f oy","office":"company"}},{"type":"node","id":4950716931,"lat":60.1638778,"lon":24.9458031,"tags":{"addr:city":"Helsinki","addr:country":"FI","addr:housenumber":"1a","addr:postcode":"00120","addr:street":"Ratakatu","name":"AJD holding oy","office":"company"}},{"type":"node","id":4950716932,"lat":60.1638845,"lon":24.9457803,"tags":{"addr:city":"Helsinki","addr:country":"FI","addr:housenumber":"1a","addr:postcode":"00120","addr:street":"Ratakatu","name":"Farmasian oppimiskeskus","office":"ngo"}},{"type":"node","id":4950716933,"lat":60.1638878,"lon":24.9457616,"tags":{"addr:city":"Helsinki","addr:country":"FI","addr:housenumber":"1a","addr:postcode":"00120","addr:street":"Ratakatu","name":"Eiran musiikkikoulu","office":"company"}},{"type":"node","id":4950716934,"lat":60.1638738,"lon":24.9457401,"tags":{"addr:city":"Helsinki","addr:country":"FI","addr:housenumber":"1a","addr:postcode":"00120","addr:street":"Ratakatu","name":"Helsingin seudun is\u00e4nn\u00f6itsij\u00e4t","office":"company"}},{"type":"node","id":4950716935,"lat":60.1638591,"lon":24.9457106,"tags":{"addr:city":"Helsinki","addr:country":"FI","addr:housenumber":"1a","addr:postcode":"00120","addr:street":"Ratakatu","name":"Fellow Finance","office":"company"}},{"type":"node","id":4950716936,"lat":60.1638411,"lon":24.9456918,"tags":{"addr:city":"Helsinki","addr:country":"FI","addr:housenumber":"1a","addr:postcode":"00120","addr:street":"Ratakatu","name":"Arkkitehtitoimisto R. Schnitzler","name:de":"Archiekturb\u00fcro R. Schnitzler","office":"company"}},{"type":"node","id":4950716937,"lat":60.1638278,"lon":24.9456757,"tags":{"addr:city":"Helsinki","addr:country":"FI","addr:housenumber":"1a","addr:postcode":"00120","addr:street":"Ratakatu","name":"Arkkitehtuuri- ja muotoilutoimisto talli oy","office":"company"}},{"type":"node","id":4950716938,"lat":60.1638505,"lon":24.9457897,"tags":{"addr:city":"Helsinki","addr:country":"FI","addr:housenumber":"1a","addr:postcode":"00120","addr:street":"Ratakatu","name":"A.I.O.S.","office":"company"}},{"type":"node","id":4950716939,"lat":60.1638384,"lon":24.9457656,"tags":{"addr:city":"Helsinki","addr:country":"FI","addr:housenumber":"1a","addr:postcode":"00120","addr:street":"Ratakatu","name":"Frame visual art Finland","office":"company"}},{"type":"node","id":4950716940,"lat":60.1638298,"lon":24.9457481,"tags":{"addr:city":"Helsinki","addr:country":"FI","addr:housenumber":"1a","addr:postcode":"00120","addr:street":"Ratakatu","name":"Managam oy","office":"company"}},{"type":"node","id":4950716941,"lat":60.1638171,"lon":24.9457388,"tags":{"addr:city":"Helsinki","addr:country":"FI","addr:housenumber":"1a","addr:postcode":"00120","addr:street":"Ratakatu","name":"Tili- ja konsultointipalvelu ALT tilit oy","office":"company"}},{"type":"node","id":4950716942,"lat":60.1638224,"lon":24.94572,"tags":{"addr:city":"Helsinki","addr:country":"FI","addr:housenumber":"1a","addr:postcode":"00120","addr:street":"Ratakatu","name":"Arkkitehdit SAFA","office":"company"}},{"type":"node","id":4950716943,"lat":60.1638378,"lon":24.9457321,"tags":{"addr:city":"Helsinki","addr:country":"FI","addr:housenumber":"1a","addr:postcode":"00120","addr:street":"Ratakatu","name":"Making Movies oy","office":"company"}},{"type":"node","id":4950716944,"lat":60.1638498,"lon":24.9457535,"tags":{"addr:city":"Helsinki","addr:country":"FI","addr:housenumber":"1a","addr:postcode":"00120","addr:street":"Ratakatu","name":"CV Group","office":"company"}},{"type":"node","id":4950716945,"lat":60.1638611,"lon":24.945779,"tags":{"addr:city":"Helsinki","addr:country":"FI","addr:housenumber":"1a","addr:postcode":"00120","addr:street":"Ratakatu","name":"PI+Europe","office":"company"}},{"type":"node","id":4950716946,"lat":60.1638678,"lon":24.9457589,"tags":{"addr:city":"Helsinki","addr:country":"FI","addr:housenumber":"1a","addr:postcode":"00120","addr:street":"Ratakatu","name":"S\u00f6dra Finlands krigsveteraner rf","office":"ngo"}},{"type":"node","id":4950716947,"lat":60.1638565,"lon":24.9457294,"tags":{"addr:city":"Helsinki","addr:country":"FI","addr:housenumber":"1a","addr:postcode":"00120","addr:street":"Ratakatu","name":"Pharmadata oy","office":"company"}},{"type":"node","id":4950716948,"lat":60.1638378,"lon":24.9457106,"tags":{"addr:city":"Helsinki","addr:country":"FI","addr:housenumber":"1a","addr:postcode":"00120","addr:street":"Ratakatu","name":"Explorius","office":"company"}},{"type":"node","id":4950716949,"lat":60.1638251,"lon":24.9456945,"tags":{"addr:city":"Helsinki","addr:country":"FI","addr:housenumber":"1a","addr:postcode":"00120","addr:street":"Ratakatu","name":"APTI oy","office":"company"}},{"type":"node","id":5868404365,"lat":60.1641177,"lon":24.9459691,"tags":{"artist_name":"Viktor Jansson","artwork_type":"relief","name":"Leijona","start_date":"1920","tourism":"artwork"}},{"type":"node","id":7615674311,"lat":60.1642702,"lon":24.9463652,"tags":{"access":"private","addr:housenumber":"5","addr:street":"Pieni Roobertinkatu","addr:unit":"B","description":"With keycode","entrance":"main","wheelchair":"no"}},{"type":"node","id":7615674312,"lat":60.1642679,"lon":24.9462849,"tags":{"access":"yes","addr:housenumber":"5","addr:street":"Pieni Roobertinkatu","entrance":"secondary","wheelchair":"no"}},{"type":"node","id":7615674315,"lat":60.1641363,"lon":24.9463377,"tags":{"access":"yes","addr:housenumber":"8","addr:street":"Pieni Roobertinkatu","entrance":"secondary","wheelchair":"no"}},{"type":"node","id":7615674316,"lat":60.1641385,"lon":24.9464182,"tags":{"access":"private","addr:housenumber":"8","addr:street":"Pieni Roobertinkatu","addr:unit":"B","description":"With buzzer","entrance":"main","wheelchair":"no"}},{"type":"node","id":7615674344,"lat":60.1641489,"lon":24.9467909,"tags":{"access":"yes","addr:housenumber":"6","addr:street":"Pieni Roobertinkatu","description":"With buzzer","entrance":"secondary","wheelchair":"no"}},{"type":"node","id":7615674345,"lat":60.1641463,"lon":24.9466996,"tags":{"access":"private","barrier":"gate","description":"With keycode"}},{"type":"node","id":7625078477,"lat":60.1638259,"lon":24.9462585,"tags":{"access":"yes","addr:housenumber":"27","addr:street":"Korkeavuorenkatu","entrance":"secondary","wheelchair":"no"}},{"type":"node","id":7625078482,"lat":60.1640034,"lon":24.94639,"tags":{"addr:housenumber":"27","addr:street":"Korkeavuorenkatu","addr:unit":"C","entrance":"secondary","wheelchair":"no"}},{"type":"node","id":7625139886,"lat":60.1640532,"lon":24.9462329,"tags":{"access":"private","addr:housenumber":"27","addr:street":"Korkeavuorenkatu","entrance":"secondary","wheelchair":"no"}},{"type":"node","id":7625139888,"lat":60.1639473,"lon":24.9462449,"tags":{"access":"yes","addr:housenumber":"27","addr:street":"Korkeavuorenkatu","entrance":"secondary","wheelchair":"no"}},{"type":"node","id":7625139890,"lat":60.1640117,"lon":24.9465703,"tags":{"access":"private","addr:housenumber":"27","addr:street":"Korkeavuorenkatu","addr:unit":"B","entrance":"staircase"}},{"type":"node","id":7632144867,"lat":60.1638109,"lon":24.9466179,"tags":{"access":"private","addr:housenumber":"27","addr:street":"Korkeavuorenkatu","addr:unit":"M","entrance":"service","wheelchair":"no"}},{"type":"node","id":7632144868,"lat":60.1640273,"lon":24.9468073,"tags":{"access":"private","addr:housenumber":"6","addr:street":"Pieni Roobertinkatu","addr:unit":"E","entrance":"staircase"}},{"type":"node","id":7632144869,"lat":60.1640258,"lon":24.9467003,"tags":{"access":"private","addr:housenumber":"6","addr:street":"Pieni Roobertinkatu","addr:unit":"F","entrance":"staircase"}},{"type":"node","id":7632144870,"lat":60.1640113,"lon":24.9465558,"tags":{"access":"private","addr:housenumber":"27","addr:street":"Korkeavuorenkatu","addr:unit":"B","entrance":"staircase"}},{"type":"node","id":7668830437,"lat":60.1637044,"lon":24.9456338,"tags":{"access":"yes","addr:housenumber":"1","addr:street":"Ratakatu","entrance":"yes","wheelchair":"no"}},{"type":"node","id":7668830443,"lat":60.1637539,"lon":24.9457794,"tags":{"access":"private","barrier":"gate","description":"With keycode"}},{"type":"node","id":7668830445,"lat":60.1638184,"lon":24.9459688,"tags":{"access":"yes","addr:housenumber":"1a","addr:street":"Ratakatu","entrance":"yes"}},{"type":"node","id":7668875275,"lat":60.1638689,"lon":24.9457039,"tags":{"access":"private","addr:housenumber":"1","addr:street":"Ratakatu","addr:unit":"B","entrance":"secondary","wheelchair":"no"}},{"type":"node","id":7668875276,"lat":60.1638651,"lon":24.9455773,"tags":{"access":"private","addr:housenumber":"1","addr:street":"Ratakatu","addr:unit":"A","entrance":"secondary","wheelchair":"no"}},{"type":"node","id":7668875278,"lat":60.1637838,"lon":24.9458672,"tags":{"access":"yes","addr:housenumber":"1a","addr:street":"Ratakatu","description":"With buzzer","entrance":"yes","wheelchair":"no"}},{"type":"node","id":7669477269,"lat":60.1637437,"lon":24.9457494,"tags":{"access":"yes","addr:housenumber":"1a","addr:street":"Ratakatu","entrance":"secondary"}},{"type":"node","id":7669477270,"lat":60.1637767,"lon":24.9458463,"tags":{"access":"yes","addr:housenumber":"1a","addr:street":"Ratakatu","entrance":"secondary"}},{"type":"node","id":7669477271,"lat":60.1637952,"lon":24.9458088,"tags":{"addr:city":"Helsinki","addr:country":"FI","addr:housenumber":"1a","addr:postcode":"00120","addr:street":"Ratakatu","craft":"goldsmith","name":"Kultasepp\u00e4mestari Harri Syrj\u00e4nen","opening_hours":"Mo-Fr 10:00-17:00; Sa 10:00-14:00","payment:credit_cards":"yes","payment:debit_cards":"yes","shop":"jewelry","wheelchair":"no"}},{"type":"node","id":7669477277,"lat":60.1638212,"lon":24.9459303,"tags":{"addr:housenumber":"1a","addr:street":"Ratakatu","level":"1","name":"Studio 1a","opening_hours":"\"By appointment\"","payment:credit_cards":"yes","payment:debit_cards":"yes","shop":"hairdresser","wheelchair":"no"}},{"type":"node","id":7669477278,"lat":60.1639974,"lon":24.945767,"tags":{"access":"private","addr:unit":"C","entrance":"yes"}},{"type":"node","id":7669477279,"lat":60.1639089,"lon":24.9457868,"tags":{"access":"private","addr:unit":"D","entrance":"service"}},{"type":"node","id":7669573329,"lat":60.1642752,"lon":24.9465331,"tags":{"access":"yes","addr:housenumber":"5","addr:street":"Pieni Roobertinkatu","entrance":"yes"}},{"type":"node","id":9183007916,"lat":60.1642588,"lon":24.9456263,"tags":{"barrier":"gate","description":"With keycode","height":"2.5","width":"2.4"}},{"type":"node","id":9570261217,"lat":60.1642717,"lon":24.9464157,"tags":{"access":"yes","addr:housenumber":"5","addr:street":"Pieni Roobertinkatu","entrance":"secondary","opening_hours":"ma-pe 11-18 la 11-16","wheelchair":"no"}}]}