{"version":0.6,"generator":"Overpass API 0.7.62.5 1bd436f1","osm3s":{"timestamp_osm_base":"2025-03-12T12:17:00Z","copyright":"The data included in this document is from www.openstreetmap.org. The data is made available under ODbL."},"elements":[{"type":"way","id":23480786,"nodes":[254286111,254286112,254286113,2460248327,254286114,254286111],"tags":{"addr:city":"Helsinki","addr:housenumber":"1","addr:postcode":"00510","addr:street":"Porvoonkatu","building":"retail","building:levels":"1"}},{"type":"way","id":23480796,"nodes":[254286138,254286139,254286140,1416497498,1416497493,254286141,254286138],"tags":{"building":"yes","building:levels":"1"}},{"type":"way","id":23480799,"nodes":[254286139,878449173,7884421668,7884421666,7884421662,7884421660,254286153,254286154,7884421658,7884421659,7884421661,9732966618,7884421665,7884421667,7884421671,254286140,254286139],"tags":{"addr:city":"Helsinki","addr:country":"FI","addr:housenumber":"1","addr:street":"Porvoonkatu","building":"apartments","building:levels":"9","building:maintenance:operator":"Kiinteist\u00f6huolto Varonen Oy","last_fire":"2012-03-10"}},{"type":"way","id":23480819,"nodes":[878449135,254286288,7884446105,7884446101,7884446097,7884446093,254286289,254286290,7884446089,7884446092,7884446096,7884446100,7884446104,7884446111,12124822001,878449135],"tags":{"addr:city":"Helsinki","addr:country":"FI","addr:housenumber":"3","addr:street":"Porvoonkatu","building":"apartments","building:levels":"10","building:maintenance:operator":"Kiinteist\u00f6huolto Varonen Oy"}},{"type":"way","id":23786022,"nodes":[257725161,257725162],"tags":{"access":"destination","handrail":"yes","highway":"steps","incline":"up","lit":"yes","ramp":"no","surface":"concrete"}},{"type":"way","id":28582674,"nodes":[314301379,1435317977],"tags":{"bicycle":"no","footway":"sidewalk","highway":"footway","lit":"yes","surface":"asphalt"}},{"type":"way","id":34861411,"nodes":[254286288,408616261,408616260,408616259,408616258,408616257,254286154,254286290,254286275,254286282,1525434525,2460245864,670255660,1525434542,1525434544,254286283,7884483626,6051965130,6051965125,670264136,670264137,1525434607,3198988095,670262268,257725023,257725024,670262269,678167679,11591899991,408616015,670262272,670262270,408616014,1525434600,254286285,408616016,254286288],"tags":{"landuse":"residential"}},{"type":"way","id":74332924,"nodes":[878716699,2460259437],"tags":{"bicycle":"yes","cycleway:both":"no","embedded_rails":"tram","fi:hkr:kunnossapitoluokka":"II","highway":"tertiary","lanes":"2","lit":"yes","loc_name":"Flemari","maxspeed":"40","motor_vehicle":"destination","name":"Fleminginkatu","name:fi":"Fleminginkatu","name:sv":"Flemingsgatan","parking:condition:both":"ticket","parking:condition:both:residents":"J","parking:condition:both:time_interval":"Mo-Fr 09:00-21:00","parking:lane:both":"parallel","parking:lane:both:parallel":"lay_by","parking:ticket:zone":"3","paved:date":"2008","sidewalk":"separate","smoothness":"good","surface":"asphalt","tram:lanes:backward":"yes","tram:lanes:forward":"yes"}},{"type":"way","id":74332930,"nodes":[878716688,11741753832,2460256922],"tags":{"bicycle":"yes","embedded_rails":"tram","fi:hkr:kunnossapitoluokka":"II","highway":"tertiary","lanes":"2","lit":"yes","loc_name":"Flemari","maxspeed":"30","motor_vehicle":"destination","name":"Fleminginkatu","name:fi":"Fleminginkatu","name:sv":"Flemingsgatan","parking:condition:both":"ticket","parking:condition:both:residents":"J","parking:condition:both:time_interval":"Mo-Fr 09:00-21:00","parking:lane:both":"parallel","parking:lane:both:parallel":"lay_by","parking:ticket:zone":"3","paved:date":"2008","sidewalk":"separate","smoothness":"good","surface":"asphalt","tram:lanes:backward":"yes","tram:lanes:forward":"yes"}},{"type":"way","id":128116963,"nodes":[646464811,11741753834,314301385],"tags":{"bicycle":"no","footway":"sidewalk","highway":"footway","lit":"yes","surface":"asphalt"}},{"type":"way","id":130231247,"nodes":[1435258082,354872583,6461232595,878716693,6461232596,878716702,11741753864,3339910282],"tags":{"electrified":"contact_line","frequency":"0","gauge":"1000","oneway":"yes","operator":"HKL-Raitioliikenne","railway":"tram","start_date":"2008-07","tram:segregation:physical":"in_lane","voltage":"600"}},{"type":"way","id":130269071,"nodes":[1435317977,12108640176,408616264],"tags":{"bicycle":"no","footway":"sidewalk","highway":"footway","lit":"yes","paved:date":"2008","surface":"asphalt"}},{"type":"way","id":238171621,"nodes":[2460256922,878716699],"tags":{"bicycle":"yes","embedded_rails":"tram","fi:hkr:kunnossapitoluokka":"II","highway":"tertiary","lanes":"2","lit":"yes","loc_name":"Flemari","maxspeed":"30","motor_vehicle":"destination","name":"Fleminginkatu","name:fi":"Fleminginkatu","name:sv":"Flemingsgatan","parking:condition:left:reason":"tram","parking:condition:right":"ticket","parking:condition:right:residents":"J","parking:condition:right:time_interval":"Mo-Fr 09:00-21:00","parking:lane:left":"no_stopping","parking:lane:right":"parallel","parking:lane:right:parallel":"lay_by","parking:ticket:zone":"3","paved:date":"2008","sidewalk":"separate","smoothness":"good","surface":"asphalt","tram:lanes:backward":"yes","tram:lanes:forward":"yes"}},{"type":"way","id":238171965,"nodes":[2460259437,878716706],"tags":{"bicycle":"yes","cycleway:both":"no","divider":"solid_line","embedded_rails":"tram","fi:hkr:kunnossapitoluokka":"II","highway":"tertiary","lanes":"2","lit":"yes","loc_name":"Flemari","maxspeed":"40","motor_vehicle":"destination","name":"Fleminginkatu","name:fi":"Fleminginkatu","name:sv":"Flemingsgatan","parking:condition:left":"ticket","parking:condition:left:residents":"J","parking:condition:left:time_interval":"Mo-Fr 09:00-21:00","parking:lane:left":"parallel","parking:lane:left:parallel":"lay_by","parking:ticket:zone":"3","paved:date":"2008","sidewalk":"separate","smoothness":"good","surface":"asphalt","tram:lanes:backward":"yes","tram:lanes:forward":"yes"}},{"type":"way","id":327265043,"nodes":[1876917790,672968098,672967997,878716714,6461232597,878716703,6461232594,354872582,1876917789,6321049062,1011920928,1876917783],"tags":{"electrified":"contact_line","frequency":"0","gauge":"1000","oneway":"yes","operator":"HKL-Raitioliikenne","railway":"tram","start_date":"2008-07","tram:segregation:physical":"in_lane","voltage":"600"}},{"type":"way","id":327265264,"nodes":[3339910282,354874144,313788828,313788829,313788830,313788833,1876917793,6889402735,12108640191,313788834],"tags":{"electrified":"contact_line","frequency":"0","gauge":"1000","oneway":"yes","operator":"HKL-Raitioliikenne","railway":"tram","start_date":"2008-07","tram:segregation:physical":"junction","voltage":"600"}},{"type":"way","id":572007485,"nodes":[5496109149,5496109148,9732984817,5496109145,7884421677,7884421678,5496109140,5496109150,7884446106,7884446102,5496109144,7884446098,7884446094,5496109149],"tags":{"access":"destination","highway":"service","service":"parking_aisle","surface":"asphalt"}},{"type":"way","id":572007493,"nodes":[5496109149,7884446094,7884446098,5496109144,5496109145,5496109148,5496109149],"tags":{"access":"private","amenity":"parking","parking":"surface"}},{"type":"way","id":572007496,"nodes":[5496109150,257725162],"tags":{"access":"destination","highway":"footway","lit":"yes","surface":"asphalt"}},{"type":"way","id":614475598,"nodes":[2460248326,7884421672,5496109154,5496109142],"tags":{"highway":"service","service":"driveway","surface":"asphalt"}},{"type":"way","id":845106908,"nodes":[7884421657,7884421676,7884421673,7884421674,7884421675,5496109148],"tags":{"highway":"footway","lit":"yes","surface":"asphalt"}},{"type":"way","id":845106909,"nodes":[7884421659,7884421663,7884421660],"tags":{"highway":"footway","lit":"yes","surface":"asphalt","tunnel":"yes"}},{"type":"way","id":845106910,"nodes":[7884421661,7884421664,7884421662],"tags":{"highway":"footway","lit":"yes","surface":"asphalt","tunnel":"yes"}},{"type":"way","id":845106911,"nodes":[7884421665,7884421669,7884421666],"tags":{"highway":"footway","lit":"yes","surface":"asphalt","tunnel":"yes"}},{"type":"way","id":845106912,"nodes":[7884421667,7884421670,7884421668],"tags":{"highway":"footway","lit":"yes","surface":"asphalt","tunnel":"yes"}},{"type":"way","id":845106915,"nodes":[7884421675,7884421661],"tags":{"highway":"footway","lit":"yes","surface":"asphalt"}},{"type":"way","id":845106917,"nodes":[5496109145,7884421665],"tags":{"highway":"footway","lit":"yes","surface":"asphalt"}},{"type":"way","id":845106918,"nodes":[7884421677,7884421667],"tags":{"highway":"footway","lit":"yes","surface":"asphalt"}},{"type":"way","id":845106919,"nodes":[7884421678,7884421671],"tags":{"highway":"footway","lit":"yes","surface":"asphalt"}},{"type":"way","id":845106920,"nodes":[7884421679,7884421684,7884421683,7884421682,7884421681,7884421680],"tags":{"highway":"footway","lit":"yes","surface":"asphalt"}},{"type":"way","id":845106921,"nodes":[7884421681,7884421668],"tags":{"highway":"footway","lit":"yes","surface":"asphalt"}},{"type":"way","id":845106922,"nodes":[7884421682,7884421666],"tags":{"highway":"footway","lit":"yes","surface":"asphalt"}},{"type":"way","id":845106923,"nodes":[7884421683,7884421662],"tags":{"highway":"footway","lit":"yes","surface":"asphalt"}},{"type":"way","id":845106924,"nodes":[7884421684,7884421660],"tags":{"highway":"footway","lit":"yes","surface":"asphalt"}},{"type":"way","id":845110216,"nodes":[7884446096,7884446108,7884446097,7884446093,7884446107,7884446092,7884446096],"tags":{"access":"destination","area":"yes","highway":"pedestrian","lit":"yes","surface":"asphalt","tunnel":"building_passage"}},{"type":"way","id":845110217,"nodes":[7884446097,7884446098,7884446094,7884446093,7884446097],"tags":{"access":"destination","area":"yes","highway":"pedestrian","lit":"yes","surface":"asphalt"}},{"type":"way","id":845110219,"nodes":[7884446100,7884446109,7884446101],"tags":{"access":"destination","highway":"footway","lit":"yes","surface":"asphalt","tunnel":"yes"}},{"type":"way","id":845110220,"nodes":[7884446101,7884446102],"tags":{"access":"destination","highway":"footway","lit":"yes","surface":"asphalt"}},{"type":"way","id":845110222,"nodes":[7884446104,7884446110,7884446105],"tags":{"access":"destination","highway":"footway","lit":"yes","surface":"asphalt","tunnel":"yes"}},{"type":"way","id":845110223,"nodes":[7884446105,7884446106],"tags":{"access":"destination","highway":"footway","lit":"yes","surface":"asphalt"}},{"type":"way","id":845114167,"nodes":[5496109149,2460248326],"tags":{"access":"destination","highway":"service","service":"driveway"}},{"type":"way","id":1059323997,"nodes":[9732984817,9732966618],"tags":{"access":"private","highway":"footway"}},{"type":"way","id":1307542546,"nodes":[1435317977,12108640177],"tags":{"highway":"footway","surface":"paved"}},{"type":"way","id":1307542547,"nodes":[12108640176,12108640178],"tags":{"highway":"footway","surface":"paved"}},{"type":"way","id":1307542548,"nodes":[12108640177,3198902403,12108640178],"tags":{"bench":"yes","bin":"yes","highway":"platform","lit":"yes","public_transport":"platform","shelter":"yes","surface":"paving_stones"}},{"type":"node","id":257725023,"lat":60.1902072,"lon":24.9494811},{"type":"node","id":670262268,"lat":60.1901759,"lon":24.9494838},{"type":"node","id":670264136,"lat":60.1896701,"lon":24.9495397},{"type":"node","id":670264137,"lat":60.1899001,"lon":24.9495118},{"type":"node","id":1525434607,"lat":60.1899432,"lon":24.9495065},{"type":"node","id":3198988095,"lat":60.190143,"lon":24.9494871},{"type":"node","id":6051965125,"lat":60.189651,"lon":24.949542},{"type":"node","id":6051965130,"lat":60.189638,"lon":24.9495436},{"type":"node","id":7884483626,"lat":60.1895785,"lon":24.9495504},{"type":"node","id":254286111,"lat":60.1888144,"lon":24.9521021},{"type":"node","id":254286112,"lat":60.1888169,"lon":24.9523215},{"type":"node","id":254286113,"lat":60.1886732,"lon":24.952328},{"type":"node","id":254286114,"lat":60.1886707,"lon":24.9521086},{"type":"node","id":254286138,"lat":60.1894157,"lon":24.9519897},{"type":"node","id":254286139,"lat":60.1894202,"lon":24.9523248},{"type":"node","id":254286140,"lat":60.189371,"lon":24.9523298},{"type":"node","id":254286141,"lat":60.1893405,"lon":24.9519958},{"type":"node","id":254286153,"lat":60.1884549,"lon":24.9526884},{"type":"node","id":254286154,"lat":60.1884483,"lon":24.9524231},{"type":"node","id":254286275,"lat":60.1889569,"lon":24.9509012},{"type":"node","id":254286282,"lat":60.189197,"lon":24.9502033},{"type":"node","id":254286283,"lat":60.1894295,"lon":24.9495673},{"type":"node","id":254286285,"lat":60.1898006,"lon":24.9510883},{"type":"node","id":254286288,"lat":60.1895929,"lon":24.9518274},{"type":"node","id":254286289,"lat":60.1887114,"lon":24.9519186},{"type":"node","id":254286290,"lat":60.1887051,"lon":24.9516721},{"type":"node","id":257725024,"lat":60.1903252,"lon":24.9496767},{"type":"node","id":257725161,"lat":60.1894311,"lon":24.9518953},{"type":"node","id":257725162,"lat":60.1893305,"lon":24.9519009},{"type":"node","id":313788828,"lat":60.1894451,"lon":24.952925},{"type":"node","id":313788829,"lat":60.1894929,"lon":24.9529051},{"type":"node","id":313788830,"lat":60.1895482,"lon":24.9528646},{"type":"node","id":313788833,"lat":60.1895967,"lon":24.9527959},{"type":"node","id":313788834,"lat":60.1896778,"lon":24.9525921},{"type":"node","id":314301379,"lat":60.1894276,"lon":24.9527345},{"type":"node","id":314301385,"lat":60.1893684,"lon":24.953067},{"type":"node","id":354872582,"lat":60.1875999,"lon":24.9530764},{"type":"node","id":354872583,"lat":60.1876007,"lon":24.9531268},{"type":"node","id":354874144,"lat":60.189393,"lon":24.9529385},{"type":"node","id":408616014,"lat":60.1898878,"lon":24.9508189},{"type":"node","id":408616015,"lat":60.1900703,"lon":24.9502919},{"type":"node","id":408616016,"lat":60.1897248,"lon":24.9513411},{"type":"node","id":408616257,"lat":60.1884338,"lon":24.9524652},{"type":"node","id":408616258,"lat":60.1884352,"lon":24.9528237},{"type":"node","id":408616259,"lat":60.1894179,"lon":24.9527088},{"type":"node","id":408616260,"lat":60.1894785,"lon":24.9523966},{"type":"node","id":408616261,"lat":60.1895331,"lon":24.9520613},{"type":"node","id":408616264,"lat":60.1884202,"lon":24.9528586},{"type":"node","id":646464811,"lat":60.1884183,"lon":24.9531596},{"type":"node","id":670255660,"lat":60.1893792,"lon":24.949666},{"type":"node","id":670262269,"lat":60.1902446,"lon":24.9498736},{"type":"node","id":670262270,"lat":60.1899384,"lon":24.9506741},{"type":"node","id":670262272,"lat":60.1900196,"lon":24.950442},{"type":"node","id":672967997,"lat":60.189151,"lon":24.9529056},{"type":"node","id":672968098,"lat":60.189338,"lon":24.9528869},{"type":"node","id":678167679,"lat":60.1901639,"lon":24.9500561},{"type":"node","id":878449135,"lat":60.1895866,"lon":24.9515809},{"type":"node","id":878449173,"lat":60.1894268,"lon":24.95259},{"type":"node","id":878716688,"lat":60.1884568,"lon":24.9530101},{"type":"node","id":878716693,"lat":60.1882731,"lon":24.9530506},{"type":"node","id":878716699,"lat":60.189204,"lon":24.9529397},{"type":"node","id":878716702,"lat":60.1884195,"lon":24.9530409},{"type":"node","id":878716703,"lat":60.1882728,"lon":24.952999},{"type":"node","id":878716706,"lat":60.1893837,"lon":24.9529177},{"type":"node","id":878716714,"lat":60.188419,"lon":24.952989},{"type":"node","id":1011920928,"lat":60.1871721,"lon":24.953098},{"type":"node","id":1416497493,"lat":60.1893442,"lon":24.9521805},{"type":"node","id":1416497498,"lat":60.189368,"lon":24.9521786},{"type":"node","id":1435258082,"lat":60.1874705,"lon":24.9531413},{"type":"node","id":1435317977,"lat":60.1891946,"lon":24.9527638},{"type":"node","id":1525434525,"lat":60.1892611,"lon":24.950013},{"type":"node","id":1525434542,"lat":60.1894007,"lon":24.9496045},{"type":"node","id":1525434544,"lat":60.1894102,"lon":24.9495733},{"type":"node","id":1525434600,"lat":60.1898614,"lon":24.9509007},{"type":"node","id":1876917783,"lat":60.187146,"lon":24.953084},{"type":"node","id":1876917789,"lat":60.1872308,"lon":24.9531059},{"type":"node","id":1876917790,"lat":60.1893758,"lon":24.9528759},{"type":"node","id":1876917793,"lat":60.1896257,"lon":24.952742},{"type":"node","id":2460245864,"lat":60.1893246,"lon":24.9498268},{"type":"node","id":2460248326,"lat":60.1887126,"lon":24.9520162},{"type":"node","id":2460248327,"lat":60.1886719,"lon":24.9522125},{"type":"node","id":2460256922,"lat":60.1887401,"lon":24.952989},{"type":"node","id":2460259437,"lat":60.1892967,"lon":24.9529273},{"type":"node","id":3198902403,"lat":60.1889432,"lon":24.9528715},{"type":"node","id":3339910282,"lat":60.1893546,"lon":24.952942},{"type":"node","id":5496109140,"lat":60.189292,"lon":24.9523046},{"type":"node","id":5496109142,"lat":60.1885152,"lon":24.951902},{"type":"node","id":5496109144,"lat":60.1891492,"lon":24.9519844},{"type":"node","id":5496109145,"lat":60.1891526,"lon":24.9523149},{"type":"node","id":5496109148,"lat":60.1889103,"lon":24.9523351},{"type":"node","id":5496109149,"lat":60.1889047,"lon":24.9520005},{"type":"node","id":5496109150,"lat":60.189286,"lon":24.9519762},{"type":"node","id":5496109154,"lat":60.1885792,"lon":24.9519792},{"type":"node","id":6321049062,"lat":60.1871978,"lon":24.9531047},{"type":"node","id":6461232594,"lat":60.1876441,"lon":24.9530713},{"type":"node","id":6461232595,"lat":60.1877003,"lon":24.9531155},{"type":"node","id":6461232596,"lat":60.1883409,"lon":24.9530461},{"type":"node","id":6461232597,"lat":60.1883403,"lon":24.9529944},{"type":"node","id":6889402735,"lat":60.1896464,"lon":24.952693},{"type":"node","id":7884421657,"lat":60.1884776,"lon":24.9523764},{"type":"node","id":7884421658,"lat":60.1885406,"lon":24.9524138},{"type":"node","id":7884421659,"lat":60.1886841,"lon":24.9523993},{"type":"node","id":7884421660,"lat":60.1886906,"lon":24.9526645},{"type":"node","id":7884421661,"lat":60.1887187,"lon":24.9523958},{"type":"node","id":7884421662,"lat":60.1887255,"lon":24.952661},{"type":"node","id":7884421663,"lat":60.1886875,"lon":24.9525391},{"type":"node","id":7884421664,"lat":60.1887223,"lon":24.952535},{"type":"node","id":7884421665,"lat":60.189154,"lon":24.9523517},{"type":"node","id":7884421666,"lat":60.18916,"lon":24.952617},{"type":"node","id":7884421667,"lat":60.1891928,"lon":24.9523478},{"type":"node","id":7884421668,"lat":60.1891987,"lon":24.9526131},{"type":"node","id":7884421669,"lat":60.1891571,"lon":24.9524883},{"type":"node","id":7884421670,"lat":60.1891958,"lon":24.9524832},{"type":"node","id":7884421671,"lat":60.1892867,"lon":24.9523383},{"type":"node","id":7884421672,"lat":60.188658,"lon":24.952001},{"type":"node","id":7884421673,"lat":60.188665,"lon":24.9523585},{"type":"node","id":7884421674,"lat":60.1886842,"lon":24.9523567},{"type":"node","id":7884421675,"lat":60.1887173,"lon":24.9523535},{"type":"node","id":7884421676,"lat":60.1885404,"lon":24.9523704},{"type":"node","id":7884421677,"lat":60.1891923,"lon":24.952312},{"type":"node","id":7884421678,"lat":60.1892867,"lon":24.952305},{"type":"node","id":7884421679,"lat":60.18842,"lon":24.9527643},{"type":"node","id":7884421680,"lat":60.189382,"lon":24.952654},{"type":"node","id":7884421681,"lat":60.189201,"lon":24.9526748},{"type":"node","id":7884421682,"lat":60.1891613,"lon":24.9526793},{"type":"node","id":7884421683,"lat":60.1887268,"lon":24.9527292},{"type":"node","id":7884421684,"lat":60.1886916,"lon":24.9527332},{"type":"node","id":7884446089,"lat":60.1887995,"lon":24.9516623},{"type":"node","id":7884446092,"lat":60.1889477,"lon":24.951647},{"type":"node","id":7884446093,"lat":60.1889525,"lon":24.9518937},{"type":"node","id":7884446094,"lat":60.1889545,"lon":24.9519972},{"type":"node","id":7884446096,"lat":60.1889776,"lon":24.9516439},{"type":"node","id":7884446097,"lat":60.1889819,"lon":24.9518906},{"type":"node","id":7884446098,"lat":60.1889836,"lon":24.9519953},{"type":"node","id":7884446100,"lat":60.1892386,"lon":24.9516169},{"type":"node","id":7884446101,"lat":60.189245,"lon":24.9518634},{"type":"node","id":7884446102,"lat":60.189248,"lon":24.9519785},{"type":"node","id":7884446104,"lat":60.1892711,"lon":24.9516135},{"type":"node","id":7884446105,"lat":60.189276,"lon":24.9518601},{"type":"node","id":7884446106,"lat":60.1892783,"lon":24.9519767},{"type":"node","id":7884446107,"lat":60.1889501,"lon":24.9517723},{"type":"node","id":7884446108,"lat":60.1889798,"lon":24.95177},{"type":"node","id":7884446109,"lat":60.1892417,"lon":24.9517371},{"type":"node","id":7884446110,"lat":60.1892735,"lon":24.9517323},{"type":"node","id":7884446111,"lat":60.1894463,"lon":24.9515954},{"type":"node","id":9732966618,"lat":60.1889237,"lon":24.952375},{"type":"node","id":9732984817,"lat":60.1889229,"lon":24.9523341},{"type":"node","id":11591899991,"lat":60.1901432,"lon":24.9501083},{"type":"node","id":11741753832,"lat":60.1885821,"lon":24.9530008},{"type":"node","id":11741753834,"lat":60.1885839,"lon":24.953142},{"type":"node","id":11741753864,"lat":60.1885824,"lon":24.9530237},{"type":"node","id":12108640176,"lat":60.1888267,"lon":24.9528088},{"type":"node","id":12108640177,"lat":60.1891714,"lon":24.9528445},{"type":"node","id":12108640178,"lat":60.1888406,"lon":24.9528836},{"type":"node","id":12108640191,"lat":60.1896645,"lon":24.9526422},{"type":"node","id":12124822001,"lat":60.1894791,"lon":24.951592}]}