{"version":0.6,"generator":"Overpass API 0.7.62.5 1bd436f1","osm3s":{"timestamp_osm_base":"2025-03-12T12:18:00Z","copyright":"The data included in this document is from www.openstreetmap.org. The data is made available under ODbL."},"elements":[{"type":"node","id":354871712,"lat":60.1864424,"lon":24.9534562,"tags":{"addr:city":"Helsinki","addr:country":"FI","addr:housenumber":"15","addr:street":"Fleminginkatu"}},{"type":"node","id":354871715,"lat":60.1861933,"lon":24.9534644,"tags":{"addr:city":"Helsinki","addr:country":"FI","addr:housenumber":"13","addr:postcode":"00500","addr:street":"Fleminginkatu"}},{"type":"node","id":431474646,"lat":60.186032,"lon":24.9543303,"tags":{"crossing":"informal"}},{"type":"node","id":1016540417,"lat":60.1861878,"lon":24.9536728,"tags":{"addr:city":"Helsinki","addr:country":"FI","addr:housenumber":"17","addr:street":"Aadolfinkatu"}},{"type":"node","id":1016540582,"lat":60.1864492,"lon":24.9537234,"tags":{"addr:city":"Helsinki","addr:country":"FI","addr:housenumber":"15","addr:street":"Aadolfinkatu"}},{"type":"node","id":1016635224,"lat":60.186362,"lon":24.9536993,"tags":{"entrance":"staircase","ref":"A;B"}},{"type":"node","id":1056678094,"lat":60.186508,"lon":24.9534752,"tags":{"addr:city":"Helsinki","addr:country":"FI","addr:housenumber":"15","addr:postcode":"00500","addr:street":"Fleminginkatu","amenity":"restaurant","diet:halal":"no","diet:kosher":"no","email":"info@ravintolacella.fi","name":"Cella","opening_hours":"Mo-Fr 15:00-02:00; Sa-Su 12:00-02:00","payment:credit_cards":"yes","payment:debit_cards":"yes","phone":"+358 504771057","website":"https:\/\/www.kantri.fi\/cella\/"}},{"type":"node","id":1056678095,"lat":60.1862837,"lon":24.9534519,"tags":{"addr:city":"Helsinki","addr:country":"FI","addr:housenumber":"13","addr:postcode":"00500","addr:street":"Fleminginkatu","amenity":"pub","email":"hello@strutsbar.fi","lgbtq":"primary","name":"Struts","opening_hours":"Tu-Th 18:00-00:00; Fr-Sa 17:00-02:00","payment:credit_cards":"yes","payment:debit_cards":"yes","website":"https:\/\/www.strutsbar.fi\/"}},{"type":"node","id":1056678097,"lat":60.1862149,"lon":24.9534638,"tags":{"addr:city":"Helsinki","addr:country":"FI","addr:housenumber":"13","addr:postcode":"00500","addr:street":"Fleminginkatu","amenity":"fast_food","name":"Kallion Express","phone":"+358404429383","website":"https:\/\/kallionexpress.fi\/"}},{"type":"node","id":1056678100,"lat":60.1860976,"lon":24.9534724,"tags":{"addr:city":"Helsinki","addr:country":"FI","addr:housenumber":"13","addr:street":"Fleminginkatu","amenity":"pub","name":"Brooke","website":"https:\/\/www.brooke.fi\/"}},{"type":"node","id":1397601318,"lat":60.1863568,"lon":24.9543266,"tags":{"barrier":"gate"}},{"type":"node","id":1854588213,"lat":60.1866406,"lon":24.9533773,"tags":{"entrance":"staircase","ref":"A"}},{"type":"node","id":2442555587,"lat":60.1861194,"lon":24.9541167,"tags":{"traffic_sign":"FI:372","traffic_sign:2":"FI:871[Yksityisalue]","traffic_sign:3":"FI:871[Pelastustie]"}},{"type":"node","id":2442555588,"lat":60.1865846,"lon":24.9541215,"tags":{"traffic_sign":"FI:871[Yksityisalue]","traffic_sign:2":"FI:372"}},{"type":"node","id":3048084626,"lat":60.1860041,"lon":24.9534325,"tags":{"traffic_sign":"FI:372","traffic_sign:2":"FI:851[8-17]"}},{"type":"node","id":3121982734,"lat":60.1861037,"lon":24.9534234,"tags":{"traffic_sign":"FI:372","traffic_sign:2":"FI:855a[9-21]","traffic_sign:3":"FI:871[Vy\u00f6hyke 3 Ei koske P-tunnuksella I]"}},{"type":"node","id":3121982737,"lat":60.1866096,"lon":24.9533137,"tags":{"traffic_sign":"FI:371"}},{"type":"node","id":3121994783,"lat":60.1860204,"lon":24.9542544,"tags":{"highway":"street_lamp","traffic_sign":"FI:372"}},{"type":"node","id":3121994784,"lat":60.1860675,"lon":24.9543587,"tags":{"traffic_sign":"FI:372","traffic_sign:2":"FI:855a[9-21]","traffic_sign:3":"FI:871[Vy\u00f6hyke 3 Ei koske P-tunnuksella I]","traffic_sign:4":"FI:871[Lippuautomaatti \u2192]"}},{"type":"node","id":3121994785,"lat":60.1860721,"lon":24.95433,"tags":{"traffic_sign":"FI:372","traffic_sign:2":"FI:855a[9-21]","traffic_sign:3":"FI:871[Vy\u00f6hyke 3 Ei koske P-tunnuksella I]","traffic_sign:4":"FI:551[left]"}},{"type":"node","id":5527479019,"lat":60.1860112,"lon":24.9534889,"tags":{"addr:city":"Helsinki","addr:housenumber":"11","addr:postcode":"00530","addr:street":"Fleminginkatu","amenity":"restaurant","contact:phone":"+35845 2227745","cuisine":"tapas","diet:halal":"no","diet:kosher":"no","drink:wine":"yes","name":"Wino","opening_hours":"Mo-Th 17:00-24:00; Fr,Sa 17:00-02:00","payment:credit_cards":"yes","payment:debit_cards":"yes","website":"https:\/\/www.wino.fi\/"}},{"type":"node","id":8852655375,"lat":60.1860766,"lon":24.9530743,"tags":{"access":"private","barrier":"gate"}},{"type":"node","id":8852655379,"lat":60.1860405,"lon":24.9530781,"tags":{"access":"yes","addr:housenumber":"12a","addr:street":"Fleminginkatu","entrance":"yes","wheelchair":"no"}},{"type":"node","id":8852655381,"lat":60.1860145,"lon":24.9530808,"tags":{"access":"yes","addr:housenumber":"12a","addr:street":"Fleminginkatu","entrance":"yes","wheelchair":"no"}},{"type":"node","id":12484253082,"lat":60.186166,"lon":24.9534692,"tags":{"addr:city":"Helsinki","addr:housenumber":"13","addr:postcode":"00500","addr:street":"Fleminginkatu","shop":"massage"}},{"type":"node","id":12547679397,"lat":60.1861286,"lon":24.953429,"tags":{"addr:unit":"A","entrance":"staircase","ref":"A"}},{"type":"node","id":12547679398,"lat":60.1862532,"lon":24.9534174,"tags":{"addr:unit":"B","entrance":"staircase","ref":"B"}}]}