{"version":0.6,"generator":"Overpass API 0.7.61.5 4133829e","osm3s":{"timestamp_osm_base":"2023-08-13T09:21:25Z","copyright":"The data included in this document is from www.openstreetmap.org. The data is made available under ODbL."},"elements":[{"type":"node","id":241576676,"lat":60.1651821,"lon":24.9462409,"tags":{"access":"private","addr:housenumber":"35","addr:street":"Korkeavuorenkatu","entrance":"secondary","wheelchair":"no"}},{"type":"node","id":241577428,"lat":60.165522,"lon":24.9466638,"tags":{"access":"private","addr:housenumber":"37","addr:street":"Korkeavuorenkatu","entrance":"service","highway":"elevator","wheelchair":"yes"}},{"type":"node","id":348212621,"lat":60.1650177,"lon":24.9459738,"tags":{"ele":"21.5","source:ele":"barometric*2"}},{"type":"node","id":348213074,"lat":60.1650983,"lon":24.9461658,"tags":{"addr:city":"Helsinki","addr:country":"FI","addr:housenumber":"35","addr:street":"Korkeavuorenkatu"}},{"type":"node","id":348213075,"lat":60.1654398,"lon":24.9461238,"tags":{"addr:city":"Helsinki","addr:country":"FI","addr:housenumber":"37","addr:street":"Korkeavuorenkatu"}},{"type":"node","id":348213124,"lat":60.1656072,"lon":24.9461032,"tags":{"addr:city":"Helsinki","addr:country":"FI","addr:housenumber":"39","addr:street":"Korkeavuorenkatu"}},{"type":"node","id":760306254,"lat":60.1655895,"lon":24.9457122,"tags":{"addr:city":"Helsinki","addr:country":"FI","addr:housenumber":"28","addr:street":"Korkeavuorenkatu"}},{"type":"node","id":1682211174,"lat":60.1650731,"lon":24.9468685,"tags":{"communication":"mobile_phone","communication:5G":"yes","communication:mobile_phone":"yes","man_made":"mast","telecom":"antenna"}},{"type":"node","id":3083522788,"lat":60.1650167,"lon":24.9458542,"tags":{"access":"private","barrier":"lift_gate","description":"With keycode"}},{"type":"node","id":3083522789,"lat":60.1650416,"lon":24.9458466,"tags":{"traffic_sign":"FI:331","traffic_sign:2":"FI:871[AJO SALLITTU PALOLAITOKSEN LUVALLA]"}},{"type":"node","id":3083522790,"lat":60.1650543,"lon":24.9458561,"tags":{"fixme":"Notet sanoivat FI:372 mutta taitaa olla typo","man_made":"utility_pole","material":"steel","traffic_sign":"FI:371"}},{"type":"node","id":6684931020,"lat":60.1650785,"lon":24.9461713,"tags":{"name":"Karhu Helsinki","office":"company"}},{"type":"node","id":6684931021,"lat":60.165115,"lon":24.9461555,"tags":{"name":"Illustrian me","office":"company"}},{"type":"node","id":6687955299,"lat":60.1656349,"lon":24.9456253,"tags":{"name":"Naturvention","office":"company"}},{"type":"node","id":6687955300,"lat":60.1656438,"lon":24.9456634,"tags":{"name":"Asianajotoimisto Justitum","office":"lawyer"}},{"type":"node","id":6687955301,"lat":60.1656399,"lon":24.9457014,"tags":{"name":"Contedent International","office":"company"}},{"type":"node","id":6687955302,"lat":60.1656059,"lon":24.945632,"tags":{"name":"Vertigo Production oy","office":"company"}},{"type":"node","id":6687955303,"lat":60.1656243,"lon":24.9456555,"tags":{"name":"Berling Capital oy","office":"company"}},{"type":"node","id":6687955304,"lat":60.1655669,"lon":24.9456488,"tags":{"name":"Sanasto","office":"company"}},{"type":"node","id":6687955305,"lat":60.165558,"lon":24.9456869,"tags":{"name":"Blic","office":"company"}},{"type":"node","id":6687955306,"lat":60.1655814,"lon":24.9456589,"tags":{"name":"P\u00e4iv\u00e4lehden arkisto","office":"company","wikidata":"Q18680160"}},{"type":"node","id":6687955307,"lat":60.1656243,"lon":24.9456992,"tags":{"name":"Helsingin sanomain s\u00e4\u00e4ti\u00f6","office":"ngo"}},{"type":"node","id":6687955308,"lat":60.1656048,"lon":24.9456701,"tags":{"name":"Lindex oy","office":"company"}},{"type":"node","id":6687955309,"lat":60.1655664,"lon":24.9457294,"tags":{"name":"Folk","office":"company"}},{"type":"node","id":7624963133,"lat":60.1651434,"lon":24.9456089,"tags":{"access":"private","addr:housenumber":"26","addr:street":"Korkeavuorenkatu","addr:unit":"A","description":"With keycode","entrance":"main","wheelchair":"no"}},{"type":"node","id":7625084886,"lat":60.1652669,"lon":24.9465151,"tags":{"access":"private","addr:unit":"C","entrance":"secondary","wheelchair":"no"}},{"type":"node","id":7625084887,"lat":60.1651959,"lon":24.9468159,"tags":{"access":"private","entrance":"secondary","wheelchair":"no"}},{"type":"node","id":7625084888,"lat":60.1650912,"lon":24.9469007,"tags":{"access":"private","entrance":"secondary","wheelchair":"no"}},{"type":"node","id":7625084889,"lat":60.1656232,"lon":24.9460493,"tags":{"access":"private","barrier":"gate","description":"With keycode"}},{"type":"node","id":7632144854,"lat":60.1650641,"lon":24.9464662,"tags":{"access":"private","addr:housenumber":"35","addr:street":"Korkeavuorenkatu","entrance":"service","wheelchair":"no"}},{"type":"node","id":7632144855,"lat":60.1652178,"lon":24.9466366,"tags":{"access":"private","addr:housenumber":"35","addr:street":"Korkeavuorenkatu","entrance":"service"}},{"type":"node","id":7632144856,"lat":60.1652112,"lon":24.9469241,"tags":{"access":"private","addr:housenumber":"36","addr:street":"Kasarmikatu","entrance":"service","wheelchair":"no"}},{"type":"node","id":7632144857,"lat":60.1652432,"lon":24.9460949,"tags":{"access":"private","barrier":"gate"}},{"type":"node","id":7632144858,"lat":60.1654231,"lon":24.9460732,"tags":{"addr:housenumber":"37","addr:street":"Korkeavuorenkatu","entrance":"main","wheelchair":"yes"}},{"type":"node","id":7632144873,"lat":60.1653126,"lon":24.9468596,"tags":{"access":"private","addr:housenumber":"37","addr:street":"Korkeavuorenkatu","entrance":"garage","wheelchair":"no"}},{"type":"node","id":9697767817,"lat":60.165521,"lon":24.9457924,"tags":{"access":"no","description":"With buzzer","entrance":"main","wheelchair":"no"}}]}