{"version":0.6,"generator":"Overpass API 0.7.62.5 1bd436f1","osm3s":{"timestamp_osm_base":"2025-03-12T12:15:59Z","copyright":"The data included in this document is from www.openstreetmap.org. The data is made available under ODbL."},"elements":[{"type":"way","id":23229485,"nodes":[313769677,313945948,6461223466,6461223467,1876917778,1876917781,313769707,1011921117,313769710,313769717,270993941,1876917787],"tags":{"electrified":"contact_line","frequency":"0","gauge":"1000","oneway":"yes","operator":"HKL-Raitioliikenne","railway":"tram","start_date":"2008-07-10","tram:segregation:physical":"junction","voltage":"600"}},{"type":"way","id":24768451,"nodes":[289555129,11775372973,11804063355,11775372972,11775370464,1017158429,313945944,313769715,270993941,313945955,354872573,354872572,11804712108,11775370457,11775370459,11775370452,11775370447,1011921136,313945973],"tags":{"bicycle":"no","footway":"sidewalk","highway":"footway","lit":"yes","snowplowing":"yes","surface":"asphalt"}},{"type":"way","id":24937052,"nodes":[34500692,270993941,374308235],"tags":{"bicycle":"yes","bus":"yes","embedded_rails":"tram","fi:hkr:kunnossapitoluokka":"II","highway":"tertiary","huoltoajo":"yes","lanes":"2","lit":"yes","loc_name":"Flemari","maxspeed":"40","name":"Fleminginkatu","name:fi":"Fleminginkatu","name:sv":"Flemingsgatan","parking:condition:reason":"tram","parking:lane:right":"no_stopping","paved:date":"2008","surface":"asphalt","taxi":"yes","tram:lanes:backward":"yes","tram:lanes:forward":"yes"}},{"type":"way","id":26428186,"nodes":[262982613,8852722355,8852722353,11063552300,8852722357,8852722360,8852722362,11096552113,8852722366,8852722368,262982614,1017104737,262982615,354862334,262982635,1011921115,1526061460,262985887,313945968,317913564,435207160,262982616,1018118962,1011920871],"tags":{"bicycle":"no","footway":"sidewalk","highway":"footway","lit":"yes","smoothness":"good","snowplowing":"yes","surface":"asphalt"}},{"type":"way","id":28582675,"nodes":[262982635,313945952,313945965,313769719,25506224,313945953,354872572],"tags":{"highway":"footway","lit":"yes","smoothness":"intermediate","surface":"asphalt"}},{"type":"way","id":28582676,"nodes":[313945965,313945967,313945966],"tags":{"bench":"yes","highway":"platform","lit":"yes","public_transport":"platform","shelter":"yes","surface":"paving_stones"}},{"type":"way","id":30242137,"nodes":[34500691,262982615,374308255,1405905917],"tags":{"fi:hkr:kunnossapitoluokka":"II","highway":"tertiary","lanes":"3","lanes:backward":"2","loc_name":"Flemari","maxspeed":"30","name":"Fleminginkatu","name:fi":"Fleminginkatu","name:sv":"Flemingsgatan","parking:lane:both":"no_stopping","surface":"asphalt"}},{"type":"way","id":30690516,"nodes":[34500692,313769710,1011921151,313945946,11775370463,289555118,289555120,34506686],"tags":{"cycleway:right":"lane","highway":"secondary","lanes":"1","lit":"yes","loc_name":"Hesari","maxspeed":"40","name":"Helsinginkatu","name:fi":"Helsinginkatu","name:sv":"Helsingegatan","oneway":"yes","parking:lane:both":"no_stopping","snowplowing":"yes","surface":"asphalt"}},{"type":"way","id":31717197,"nodes":[354872576,660540663,6321049063,354872574,313945955],"tags":{"highway":"platform","lit":"yes","public_transport":"platform","shelter":"yes"}},{"type":"way","id":31717199,"nodes":[354872573,11741860006,3198988062,11804712109,354872579,314299730,646464813],"tags":{"bicycle":"no","footway":"sidewalk","highway":"footway","lit":"yes","surface":"asphalt"}},{"type":"way","id":37102268,"nodes":[354862333,354862336,354862338,354862342,354862334],"tags":{"bicycle":"no","footway":"sidewalk","highway":"footway","lit":"yes","surface":"asphalt"}},{"type":"way","id":37296699,"nodes":[266220723,266220724,1548499922,434619559,434619561,6324968526,11741753851,434619563,266221495,11766458365,6783371247,266220706,11775370448,1017158502,1857439529,1857439527,1017158461,11775370453,11775370460,11775370458,266220707,266220708,266220727,266220728,11804712105,1525464073,266220730,1859006155,266220723],"tags":{"landuse":"residential"}},{"type":"way","id":37336530,"nodes":[435207149,435207150,11278815053,1405382207,435207151,1016540341,1016540255,1016540531,11278815054,1016540518,1016540422,1017158409,435207152,435207153,1011921107,1016540084,435207154,1016540562,6321049036,1011920844,6321049035,1011920999,435207156,1526055786,1016540584,1016540515,435207157,6323267646,6323267645,435207158,1016540230,1016540545,6323267644,435207159,435207172,435207171,8454073098,6681317453,435207168,6323267682,5025854696,6323271690,435207169,435207170],"tags":{"bicycle":"no","footway":"sidewalk","highway":"footway","lit":"yes","surface":"asphalt"}},{"type":"way","id":38082555,"nodes":[210526659,6502483267,210526660,6323267640,447906138,6323267639,12303047713,447906137,1017158463,447906136,1017158439,1016540349,1017158400,3071471376,1016540528,1017158426,6324968627,447906135,12124797499,210525244,210525246,210525239,4674523987,210526670,210526657,3121982733,1526055723,3121982735,12547679397,12547679398,1017104521,1526055768,1854588213,210526658,1526055790,1854588224,1526055792,210526659],"tags":{"landuse":"residential"}},{"type":"way","id":38341710,"nodes":[236596755,11061441071,11061441070,11061441069,11061441068,1854588224,1526055792,210526659,210524460,1016635252,1016635159,210524462,210522985,1016635144,1016635230,1016635215,11766458357,1016635066,210522986,210475258,8831720842,8831720840,8831720836,8836005055,10933921839,10933921840,452815162,452815163],"tags":{"admin_level":"10","boundary":"administrative"}},{"type":"way","id":44660473,"nodes":[566833617,374308281,313945953,34500692],"tags":{"cycleway:right":"lane","hazard":"children","highway":"secondary","lanes":"2","lit":"yes","loc_name":"Hesari","maxspeed":"40","name":"Helsinginkatu","name:fi":"Helsinginkatu","name:sv":"Helsingegatan","oneway":"yes","parking:lane:both":"no_stopping","snowplowing":"yes","source":"survey","source:hazard":"traffic_sign","surface":"asphalt"}},{"type":"way","id":50722424,"nodes":[646466567,646466568,646466569],"tags":{"barrier":"fence"}},{"type":"way","id":74327989,"nodes":[878639601,11775370446,11775370451,566833617],"tags":{"cycleway:right":"lane","highway":"secondary","lanes":"1","lit":"yes","loc_name":"Hesari","maxspeed":"40","name":"Helsinginkatu","name:fi":"Helsinginkatu","name:sv":"Helsingegatan","oneway":"yes","parking:lane:left":"no_stopping","parking:lane:right":"no_parking","snowplowing":"yes","source":"survey","surface":"asphalt"}},{"type":"way","id":75731537,"nodes":[34500691,313945952,894103939,6321049058,6321049057,989319672],"tags":{"cycleway:right":"lane","highway":"secondary","lanes":"1","lit":"yes","loc_name":"Hesari","maxspeed":"40","name":"Helsinginkatu","name:fi":"Helsinginkatu","name:sv":"Helsingegatan","oneway":"yes","parking:lane:both":"no_stopping","snowplowing":"yes","source":"survey","surface":"asphalt"}},{"type":"way","id":87464402,"nodes":[210526663,1526055790,11766489088,1854588222,11766489087,1854588223,1854588224,1526055792,1526055778,6324968602,210526662,210526663],"tags":{"addr:city":"Helsinki","addr:country":"FI","addr:housenumber":"14","addr:street":"Helsinginkatu","building":"apartments","building:levels":"7","wikidata":"Q98411621","wikimedia_commons":"Category:Helsinginkatu 14, Helsinki"}},{"type":"way","id":87468231,"nodes":[1017158405,1017158461,11775370453,11775370460,11775370458,266220707,266220708,11775370454,1017158405],"tags":{"addr:housenumber":"17","addr:street":"Helsinginkatu","building":"apartments","building:levels":"7","building:maintenance:operator":"Stadin Gosarit Oy","roof:levels":"0","roof:shape":"gabled"}},{"type":"way","id":126904280,"nodes":[1405905917,354873302,1420862206],"tags":{"fi:hkr:kunnossapitoluokka":"II","highway":"tertiary","lanes":"3","lanes:backward":"2","loc_name":"Flemari","maxspeed":"30","name":"Fleminginkatu","name:fi":"Fleminginkatu","name:sv":"Flemingsgatan","parking:condition:right":"ticket","parking:condition:right:default":"free","parking:condition:right:residents":"I","parking:condition:right:time_interval":"Mo-Fr 09:00-19:00","parking:lane:left":"no_stopping","parking:lane:right":"parallel","parking:ticket:zone":"3","surface":"asphalt"}},{"type":"way","id":139190902,"nodes":[266220724,266220725,266220726,11804712104,11804712103,266220708,266220727,266220728,11804712105,1525464073,266220730,1859006155,266220723,266220724],"tags":{"addr:street":"Helsinginkatu","building":"apartments","building:levels":"8","building:maintenance:operator":"Kallion Talohuolto"}},{"type":"way","id":139225421,"nodes":[1526055715,431474646,1016540363,1526055726,1405382204,1526055760,1017158368,1017158487,1016540451,1016540566,1016540105,1017158351,1526055773,6324968686,1526055775,6324968687,6324968688,1526055777,1011920815,6324968689,1011920771,1526055784,6324968690,1011921144,1526055779,1016540420,1016540314,3121982740,6323267643,6323267642,1526055781,1016540502,1016540119,1437334925,1526055774],"tags":{"highway":"residential","lanes":"1","maxspeed":"30","name":"Aadolfinkatu","name:fi":"Aadolfinkatu","name:sv":"Adolfsgatan","oneway":"yes","oneway:bicycle":"no","surface":"asphalt"}},{"type":"way","id":139225424,"nodes":[34500692,6461223465,6461223464,34500691],"tags":{"bicycle":"yes","cycleway:both":"no","embedded_rails":"tram","fi:hkr:kunnossapitoluokka":"II","highway":"tertiary","lanes":"2","lit":"yes","loc_name":"Flemari","maxspeed":"30","name":"Fleminginkatu","name:fi":"Fleminginkatu","name:sv":"Flemingsgatan","parking:condition:reason":"junction","parking:lane:both":"no_stopping","smoothness":"good","surface":"asphalt"}},{"type":"way","id":139225513,"nodes":[1016540547,1526055768,1854588213,210526658,1854588216,1854588217,11766489089,1526055790,210526663,210526664,1016540547],"tags":{"building":"apartments","building:levels":"7","building:maintenance:operator":"Tark-Huolto","roof:levels":"0","wikidata":"Q98411622"}},{"type":"way","id":203101710,"nodes":[2130693894,2130693890,2130693885],"tags":{"layer":"1","location":"overhead","man_made":"beam"}},{"type":"way","id":218908483,"nodes":[2281115225,374308268,313945950,34500691],"tags":{"cycleway:right":"lane","highway":"secondary","lanes":"2","lit":"yes","loc_name":"Hesari","maxspeed":"40","name":"Helsinginkatu","name:fi":"Helsinginkatu","name:sv":"Helsingegatan","oneway":"yes","parking:condition:reason":"junction","parking:lane:both":"no_stopping","placement":"middle_of:2","snowplowing":"yes","source":"survey","surface":"asphalt","tram:lanes:forward":"yes|"}},{"type":"way","id":218909001,"nodes":[1990847875,2281122059,2281122053],"tags":{"layer":"1","location":"overhead","man_made":"beam"}},{"type":"way","id":232836788,"nodes":[2411513957,2411513960,2411513959,2411513955,2411513957],"tags":{"addr:city":"Helsinki","addr:housenumber":"19","addr:postcode":"00500","addr:street":"Helsinginkatu","building":"yes","building:levels":"1","diet:halal":"no","diet:kosher":"no","name":"Kiosk","payment:credit_cards":"yes","payment:debit_cards":"yes","shop":"convenience","website":"https:\/\/nyt.fi\/a1305849419900"}},{"type":"way","id":232836796,"nodes":[2411513954,2411513958,2411513961,2143280221,2411513966],"tags":{"barrier":"fence"}},{"type":"way","id":309199867,"nodes":[374308235,2143280220],"tags":{"bicycle":"yes","bus":"yes","cycleway:both":"no","divider":"solid_line","embedded_rails":"tram","fi:hkr:kunnossapitoluokka":"II","highway":"tertiary","huoltoajo":"yes","lanes":"2","lit":"yes","loc_name":"Flemari","maxspeed":"40","name":"Fleminginkatu","name:fi":"Fleminginkatu","name:sv":"Flemingsgatan","parking:condition:reason":"tram","parking:lane:right":"no_stopping","paved:date":"2008","surface":"asphalt","taxi":"yes","tram:lanes:backward":"yes","tram:lanes:forward":"yes"}},{"type":"way","id":327265043,"nodes":[1876917790,672968098,672967997,878716714,6461232597,878716703,6461232594,354872582,1876917789,6321049062,1011920928,1876917783],"tags":{"electrified":"contact_line","frequency":"0","gauge":"1000","oneway":"yes","operator":"HKL-Raitioliikenne","railway":"tram","start_date":"2008-07","tram:segregation:physical":"in_lane","voltage":"600"}},{"type":"way","id":327275858,"nodes":[313769677,313945949,6461223463,6461223464,3340044954,313769719,6461223471],"tags":{"electrified":"contact_line","frequency":"0","gauge":"1000","oneway":"yes","operator":"HKL-Raitioliikenne","railway":"tram","tram:segregation:physical":"junction","voltage":"600"}},{"type":"way","id":327275900,"nodes":[1876917787,6461223469,1011920951,6461223468,1435258082],"tags":{"electrified":"contact_line","frequency":"0","gauge":"1000","oneway":"yes","operator":"HKL-Raitioliikenne","railway":"tram","start_date":"2008-07-10","tram:segregation:physical":"in_lane","voltage":"600"}},{"type":"way","id":327276024,"nodes":[3340044955,3340044957],"tags":{"electrified":"contact_line","frequency":"0","gauge":"1000","last_renovation":"2015","oneway":"yes","operator":"HKL-Raitioliikenne","railway":"tram","tram:segregation:physical":"curb_low","voltage":"600"}},{"type":"way","id":327276044,"nodes":[3340044958,6461223472],"tags":{"electrified":"contact_line","frequency":"0","gauge":"1000","last_renovation":"2015","oneway":"yes","operator":"HKL-Raitioliikenne","railway":"tram","tram:segregation:physical":"curb_low","voltage":"600"}},{"type":"way","id":688852262,"nodes":[1876917783,313769715,313769713,270993939,1011921151,289555209,1876917782,313945943,270993937,270993936],"tags":{"electrified":"contact_line","frequency":"0","gauge":"1000","oneway":"yes","operator":"HKL-Raitioliikenne","railway":"tram","start_date":"2008-07","tram:segregation:physical":"junction","voltage":"600"}},{"type":"way","id":688852266,"nodes":[6461223471,3340044955],"tags":{"electrified":"contact_line","frequency":"0","gauge":"1000","oneway":"yes","operator":"HKL-Raitioliikenne","railway":"tram","tram:segregation:physical":"divider","voltage":"600"}},{"type":"way","id":688852270,"nodes":[6461223470,25506224,6461223465,313769707,313945947,270993936],"tags":{"electrified":"contact_line","frequency":"0","gauge":"1000","oneway":"yes","operator":"HKL-Raitioliikenne","railway":"tram","tram:segregation:physical":"junction","voltage":"600"}},{"type":"way","id":688852274,"nodes":[6461223472,6461223470],"tags":{"electrified":"contact_line","frequency":"0","gauge":"1000","last_renovation":"2015","oneway":"yes","operator":"HKL-Raitioliikenne","railway":"tram","tram:segregation:physical":"in_lane","voltage":"600"}},{"type":"way","id":1267897872,"nodes":[11775370457,11775370458],"tags":{"highway":"footway","surface":"paving_stones"}},{"type":"way","id":1271159040,"nodes":[11804712105,11804712106,266220725,266220726,11804712104,266220727,11804712105],"tags":{"building:levels":"8","building:part":"yes"}},{"type":"way","id":1271159042,"nodes":[266220730,11804712106,11804712105,1525464073,266220730],"tags":{"building:levels":"1","building:part":"yes"}},{"type":"way","id":1271159043,"nodes":[11804712104,11804712103,266220708,266220727,11804712104],"tags":{"building:levels":"1","building:part":"yes"}},{"type":"way","id":1271159044,"nodes":[266220728,11804712107],"tags":{"highway":"pedestrian"}},{"type":"way","id":1271159045,"nodes":[11804712107,11804712108],"tags":{"highway":"footway"}},{"type":"node","id":25506224,"lat":60.1870524,"lon":24.9534143},{"type":"node","id":34500691,"lat":60.1869541,"lon":24.953167},{"type":"node","id":34500692,"lat":60.1870716,"lon":24.9531591},{"type":"node","id":34506686,"lat":60.1869765,"lon":24.9515601},{"type":"node","id":210524460,"lat":60.1870788,"lon":24.9556002},{"type":"node","id":210525239,"lat":60.1857745,"lon":24.9538594},{"type":"node","id":210525244,"lat":60.1860467,"lon":24.9541719},{"type":"node","id":210525246,"lat":60.1860131,"lon":24.9542556},{"type":"node","id":210526657,"lat":60.1856872,"lon":24.9534756},{"type":"node","id":210526658,"lat":60.1868829,"lon":24.9533526},{"type":"node","id":210526659,"lat":60.1870438,"lon":24.9552106},{"type":"node","id":210526660,"lat":60.1868893,"lon":24.9552455},{"type":"node","id":210526662,"lat":60.1867872,"lon":24.9539848},{"type":"node","id":210526663,"lat":60.1868065,"lon":24.9539788},{"type":"node","id":210526664,"lat":60.1867744,"lon":24.9536206},{"type":"node","id":210526670,"lat":60.1856915,"lon":24.9537272},{"type":"node","id":236596755,"lat":60.1864515,"lon":24.9515594},{"type":"node","id":262982613,"lat":60.1868196,"lon":24.951712},{"type":"node","id":262982614,"lat":60.1868703,"lon":24.9528027},{"type":"node","id":262982615,"lat":60.1868912,"lon":24.9531751},{"type":"node","id":262982635,"lat":60.1869088,"lon":24.9534585},{"type":"node","id":262985887,"lat":60.1871046,"lon":24.9555194},{"type":"node","id":266220706,"lat":60.1873815,"lon":24.9559289},{"type":"node","id":266220707,"lat":60.1872073,"lon":24.9540093},{"type":"node","id":266220708,"lat":60.1873399,"lon":24.9539739},{"type":"node","id":266220723,"lat":60.1876635,"lon":24.9532734},{"type":"node","id":266220724,"lat":60.1876727,"lon":24.9535882},{"type":"node","id":266220725,"lat":60.1875073,"lon":24.9536076},{"type":"node","id":266220726,"lat":60.187511,"lon":24.9537626},{"type":"node","id":266220727,"lat":60.1873262,"lon":24.9537884},{"type":"node","id":266220728,"lat":60.1873131,"lon":24.9536234},{"type":"node","id":266220730,"lat":60.1874979,"lon":24.953293},{"type":"node","id":266221495,"lat":60.1876731,"lon":24.9559341},{"type":"node","id":270993936,"lat":60.1869944,"lon":24.9526812},{"type":"node","id":270993937,"lat":60.1870024,"lon":24.9527526},{"type":"node","id":270993939,"lat":60.1870813,"lon":24.9530163},{"type":"node","id":270993941,"lat":60.18712,"lon":24.953154},{"type":"node","id":289555118,"lat":60.1869969,"lon":24.9517867},{"type":"node","id":289555120,"lat":60.1869936,"lon":24.9516919},{"type":"node","id":289555129,"lat":60.1870456,"lon":24.9516859},{"type":"node","id":289555209,"lat":60.1870355,"lon":24.9529116},{"type":"node","id":313769677,"lat":60.1869686,"lon":24.9526765},{"type":"node","id":313769707,"lat":60.1870187,"lon":24.9530028},{"type":"node","id":313769710,"lat":60.1870675,"lon":24.9531008},{"type":"node","id":313769713,"lat":60.1870993,"lon":24.9530433},{"type":"node","id":313769715,"lat":60.1871156,"lon":24.9530623},{"type":"node","id":313769717,"lat":60.1870949,"lon":24.9531339},{"type":"node","id":313769719,"lat":60.1870255,"lon":24.9534226},{"type":"node","id":313945943,"lat":60.1870081,"lon":24.9527917},{"type":"node","id":313945944,"lat":60.1871131,"lon":24.9530025},{"type":"node","id":313945946,"lat":60.1870488,"lon":24.9527885},{"type":"node","id":313945947,"lat":60.1870014,"lon":24.9527922},{"type":"node","id":313945948,"lat":60.1869766,"lon":24.9527939},{"type":"node","id":313945949,"lat":60.1869746,"lon":24.9527945},{"type":"node","id":313945950,"lat":60.1869311,"lon":24.9527978},{"type":"node","id":313945952,"lat":60.186976,"lon":24.9534378},{"type":"node","id":313945953,"lat":60.1870916,"lon":24.9534022},{"type":"node","id":313945955,"lat":60.1871269,"lon":24.9532738},{"type":"node","id":313945965,"lat":60.1870009,"lon":24.9534301},{"type":"node","id":313945966,"lat":60.1870568,"lon":24.9540818},{"type":"node","id":313945967,"lat":60.1870436,"lon":24.9539193},{"type":"node","id":313945968,"lat":60.1871382,"lon":24.9559419},{"type":"node","id":313945973,"lat":60.1873587,"lon":24.9559579},{"type":"node","id":314299730,"lat":60.1877019,"lon":24.9532218},{"type":"node","id":354862333,"lat":60.1854289,"lon":24.9534829},{"type":"node","id":354862334,"lat":60.1868986,"lon":24.9533252},{"type":"node","id":354862336,"lat":60.185462,"lon":24.9534793},{"type":"node","id":354862338,"lat":60.1856033,"lon":24.9534642},{"type":"node","id":354862342,"lat":60.1856492,"lon":24.9534592},{"type":"node","id":354872572,"lat":60.1871346,"lon":24.9533915},{"type":"node","id":354872573,"lat":60.1871316,"lon":24.9533375},{"type":"node","id":354872574,"lat":60.1872021,"lon":24.9532308},{"type":"node","id":354872576,"lat":60.1876018,"lon":24.9531832},{"type":"node","id":354872579,"lat":60.1876016,"lon":24.9532356},{"type":"node","id":354872582,"lat":60.1875999,"lon":24.9530764},{"type":"node","id":354873302,"lat":60.1867121,"lon":24.9531916},{"type":"node","id":374308235,"lat":60.1871619,"lon":24.953151},{"type":"node","id":374308255,"lat":60.1868526,"lon":24.9531787},{"type":"node","id":374308268,"lat":60.1869303,"lon":24.9527451},{"type":"node","id":374308281,"lat":60.1871032,"lon":24.9535435},{"type":"node","id":431474646,"lat":60.186032,"lon":24.9543303},{"type":"node","id":434619559,"lat":60.1876814,"lon":24.9538996},{"type":"node","id":434619561,"lat":60.1876847,"lon":24.9539699},{"type":"node","id":434619563,"lat":60.1877161,"lon":24.9559317},{"type":"node","id":435207149,"lat":60.1860101,"lon":24.9542942},{"type":"node","id":435207150,"lat":60.1860513,"lon":24.9541915},{"type":"node","id":435207151,"lat":60.1864811,"lon":24.9541446},{"type":"node","id":435207152,"lat":60.1867163,"lon":24.9545431},{"type":"node","id":435207153,"lat":60.1867517,"lon":24.9550009},{"type":"node","id":435207154,"lat":60.1868644,"lon":24.9552411},{"type":"node","id":435207156,"lat":60.186886,"lon":24.9557318},{"type":"node","id":447906135,"lat":60.1864799,"lon":24.9541194},{"type":"node","id":447906136,"lat":60.1867092,"lon":24.9544475},{"type":"node","id":447906137,"lat":60.186756,"lon":24.9549692},{"type":"node","id":447906138,"lat":60.186868,"lon":24.9551976},{"type":"node","id":566833617,"lat":60.1871436,"lon":24.9540637},{"type":"node","id":646464813,"lat":60.1882758,"lon":24.953174},{"type":"node","id":646466567,"lat":60.1870706,"lon":24.9540902},{"type":"node","id":646466568,"lat":60.1870473,"lon":24.9540981},{"type":"node","id":646466569,"lat":60.186994,"lon":24.9534836},{"type":"node","id":660540663,"lat":60.18749,"lon":24.9531936},{"type":"node","id":672967997,"lat":60.189151,"lon":24.9529056},{"type":"node","id":672968098,"lat":60.189338,"lon":24.9528869},{"type":"node","id":878639601,"lat":60.18729,"lon":24.9558271},{"type":"node","id":878716703,"lat":60.1882728,"lon":24.952999},{"type":"node","id":878716714,"lat":60.188419,"lon":24.952989},{"type":"node","id":894103939,"lat":60.1870338,"lon":24.9541027},{"type":"node","id":989319672,"lat":60.1870982,"lon":24.9545538},{"type":"node","id":1011920771,"lat":60.186858,"lon":24.9554586},{"type":"node","id":1011920815,"lat":60.1868344,"lon":24.9552945},{"type":"node","id":1011920844,"lat":60.1868936,"lon":24.9554424},{"type":"node","id":1011920928,"lat":60.1871721,"lon":24.953098},{"type":"node","id":1011920951,"lat":60.1871867,"lon":24.9531752},{"type":"node","id":1011920999,"lat":60.1868968,"lon":24.955613},{"type":"node","id":1011921107,"lat":60.1868168,"lon":24.9551122},{"type":"node","id":1011921115,"lat":60.1870809,"lon":24.9552606},{"type":"node","id":1011921117,"lat":60.1870467,"lon":24.9530633},{"type":"node","id":1011921136,"lat":60.1873501,"lon":24.9558595},{"type":"node","id":1011921144,"lat":60.1868483,"lon":24.9557056},{"type":"node","id":1011921151,"lat":60.1870601,"lon":24.9529767},{"type":"node","id":1016540084,"lat":60.1868465,"lon":24.9551842},{"type":"node","id":1016540105,"lat":60.1866636,"lon":24.9543958},{"type":"node","id":1016540255,"lat":60.186576,"lon":24.9541956},{"type":"node","id":1016540314,"lat":60.1867972,"lon":24.9559231},{"type":"node","id":1016540341,"lat":60.1865356,"lon":24.9541599},{"type":"node","id":1016540349,"lat":60.1866568,"lon":24.9542944},{"type":"node","id":1016540363,"lat":60.1860605,"lon":24.9542582},{"type":"node","id":1016540420,"lat":60.1868047,"lon":24.9558615},{"type":"node","id":1016540422,"lat":60.1866821,"lon":24.9543827},{"type":"node","id":1016540451,"lat":60.1866003,"lon":24.9542706},{"type":"node","id":1016540515,"lat":60.1868202,"lon":24.9559758},{"type":"node","id":1016540518,"lat":60.1866487,"lon":24.9543018},{"type":"node","id":1016540528,"lat":60.186582,"lon":24.954177},{"type":"node","id":1016540531,"lat":60.1866123,"lon":24.9542441},{"type":"node","id":1016540547,"lat":60.186586,"lon":24.9536413},{"type":"node","id":1016540562,"lat":60.1868821,"lon":24.9553334},{"type":"node","id":1016540566,"lat":60.1866343,"lon":24.9543288},{"type":"node","id":1016540584,"lat":60.1868305,"lon":24.955911},{"type":"node","id":1017104521,"lat":60.1863057,"lon":24.9534129},{"type":"node","id":1017104737,"lat":60.1868832,"lon":24.9530262},{"type":"node","id":1017158351,"lat":60.1866856,"lon":24.9544748},{"type":"node","id":1017158368,"lat":60.1865277,"lon":24.9541896},{"type":"node","id":1017158400,"lat":60.1866214,"lon":24.9542288},{"type":"node","id":1017158405,"lat":60.1873935,"lon":24.9546222},{"type":"node","id":1017158409,"lat":60.186702,"lon":24.95446},{"type":"node","id":1017158426,"lat":60.1865373,"lon":24.9541364},{"type":"node","id":1017158429,"lat":60.1870991,"lon":24.9527845},{"type":"node","id":1017158439,"lat":60.1866843,"lon":24.9543701},{"type":"node","id":1017158461,"lat":60.1872642,"lon":24.9546382},{"type":"node","id":1017158463,"lat":60.1867263,"lon":24.9545442},{"type":"node","id":1017158487,"lat":60.1865637,"lon":24.954221},{"type":"node","id":1017158502,"lat":60.1873239,"lon":24.9553068},{"type":"node","id":1405382204,"lat":60.1863521,"lon":24.9541907},{"type":"node","id":1405382207,"lat":60.1863511,"lon":24.9541584},{"type":"node","id":1405905917,"lat":60.1867716,"lon":24.9531861},{"type":"node","id":1420862206,"lat":60.1865406,"lon":24.9532086},{"type":"node","id":1435258082,"lat":60.1874705,"lon":24.9531413},{"type":"node","id":1525464073,"lat":60.1872879,"lon":24.9533241},{"type":"node","id":1526055715,"lat":60.1860077,"lon":24.9543865},{"type":"node","id":1526055723,"lat":60.186072,"lon":24.9534355},{"type":"node","id":1526055726,"lat":60.1860987,"lon":24.9542175},{"type":"node","id":1526055760,"lat":60.1864823,"lon":24.9541774},{"type":"node","id":1526055768,"lat":60.1865785,"lon":24.9533836},{"type":"node","id":1526055773,"lat":60.1866977,"lon":24.9545563},{"type":"node","id":1526055775,"lat":60.1867351,"lon":24.9550539},{"type":"node","id":1526055777,"lat":60.1868129,"lon":24.9552201},{"type":"node","id":1526055778,"lat":60.1868364,"lon":24.9546143},{"type":"node","id":1526055779,"lat":60.1868287,"lon":24.9557878},{"type":"node","id":1526055784,"lat":60.1868617,"lon":24.9555485},{"type":"node","id":1526055786,"lat":60.1868708,"lon":24.9558028},{"type":"node","id":1526055790,"lat":60.1869334,"lon":24.953948},{"type":"node","id":1526055792,"lat":60.1869898,"lon":24.9545823},{"type":"node","id":1526061460,"lat":60.1870938,"lon":24.9553963},{"type":"node","id":1548499922,"lat":60.1876714,"lon":24.9536146},{"type":"node","id":1854588213,"lat":60.1866406,"lon":24.9533773},{"type":"node","id":1854588216,"lat":60.1868958,"lon":24.9535072},{"type":"node","id":1854588217,"lat":60.1869209,"lon":24.953801},{"type":"node","id":1854588222,"lat":60.1869425,"lon":24.9540548},{"type":"node","id":1854588223,"lat":60.1869607,"lon":24.9542685},{"type":"node","id":1854588224,"lat":60.1869803,"lon":24.9544794},{"type":"node","id":1857439527,"lat":60.1872885,"lon":24.9549073},{"type":"node","id":1857439529,"lat":60.1873139,"lon":24.9551842},{"type":"node","id":1859006155,"lat":60.1875808,"lon":24.9532832},{"type":"node","id":1876917778,"lat":60.1869937,"lon":24.9529111},{"type":"node","id":1876917781,"lat":60.1870031,"lon":24.9529506},{"type":"node","id":1876917782,"lat":60.1870197,"lon":24.9528549},{"type":"node","id":1876917783,"lat":60.187146,"lon":24.953084},{"type":"node","id":1876917787,"lat":60.1871427,"lon":24.9531668},{"type":"node","id":1876917789,"lat":60.1872308,"lon":24.9531059},{"type":"node","id":1876917790,"lat":60.1893758,"lon":24.9528759},{"type":"node","id":1990847875,"lat":60.1867177,"lon":24.9533142},{"type":"node","id":2130693885,"lat":60.1871017,"lon":24.9538407},{"type":"node","id":2130693890,"lat":60.187127,"lon":24.9538311},{"type":"node","id":2130693894,"lat":60.1871601,"lon":24.9538184},{"type":"node","id":2143280220,"lat":60.1874156,"lon":24.9531264},{"type":"node","id":2143280221,"lat":60.1873826,"lon":24.9532224},{"type":"node","id":2281115225,"lat":60.1869257,"lon":24.952654},{"type":"node","id":2281122053,"lat":60.1867132,"lon":24.9532264},{"type":"node","id":2281122059,"lat":60.1867157,"lon":24.9532749},{"type":"node","id":2411513954,"lat":60.1871702,"lon":24.9532726},{"type":"node","id":2411513955,"lat":60.1871696,"lon":24.953469},{"type":"node","id":2411513957,"lat":60.1871724,"lon":24.9535245},{"type":"node","id":2411513958,"lat":60.1872039,"lon":24.9532498},{"type":"node","id":2411513959,"lat":60.1872022,"lon":24.9534623},{"type":"node","id":2411513960,"lat":60.187205,"lon":24.9535178},{"type":"node","id":2411513961,"lat":60.187231,"lon":24.9532387},{"type":"node","id":2411513966,"lat":60.1875771,"lon":24.9532044},{"type":"node","id":3071471376,"lat":60.1866102,"lon":24.9542141},{"type":"node","id":3121982733,"lat":60.1860041,"lon":24.9534424},{"type":"node","id":3121982735,"lat":60.1861037,"lon":24.9534325},{"type":"node","id":3121982740,"lat":60.1867947,"lon":24.9559815},{"type":"node","id":3198988062,"lat":60.1874484,"lon":24.9532474},{"type":"node","id":3340044954,"lat":60.1870156,"lon":24.9533064},{"type":"node","id":3340044955,"lat":60.1870831,"lon":24.9540854},{"type":"node","id":3340044957,"lat":60.1872352,"lon":24.9558488},{"type":"node","id":3340044958,"lat":60.1872631,"lon":24.9558392},{"type":"node","id":4674523987,"lat":60.1857081,"lon":24.9537558},{"type":"node","id":6321049035,"lat":60.1868954,"lon":24.9554921},{"type":"node","id":6321049036,"lat":60.1868891,"lon":24.9553828},{"type":"node","id":6321049057,"lat":60.1870856,"lon":24.9544522},{"type":"node","id":6321049058,"lat":60.187047,"lon":24.9542174},{"type":"node","id":6321049062,"lat":60.1871978,"lon":24.9531047},{"type":"node","id":6321049063,"lat":60.1872663,"lon":24.9532186},{"type":"node","id":6323267639,"lat":60.1868499,"lon":24.9549424},{"type":"node","id":6323267640,"lat":60.1868849,"lon":24.9551936},{"type":"node","id":6324968526,"lat":60.1877133,"lon":24.9545594},{"type":"node","id":6324968602,"lat":60.1867881,"lon":24.9540756},{"type":"node","id":6324968627,"lat":60.1865132,"lon":24.9541293},{"type":"node","id":6324968686,"lat":60.1867245,"lon":24.9550076},{"type":"node","id":6324968687,"lat":60.1867566,"lon":24.9551026},{"type":"node","id":6324968688,"lat":60.1867878,"lon":24.9551568},{"type":"node","id":6324968689,"lat":60.1868502,"lon":24.9553791},{"type":"node","id":6324968690,"lat":60.1868577,"lon":24.9556325},{"type":"node","id":6461223463,"lat":60.186983,"lon":24.9529069},{"type":"node","id":6461223464,"lat":60.1870046,"lon":24.9531636},{"type":"node","id":6461223465,"lat":60.1870319,"lon":24.9531618},{"type":"node","id":6461223466,"lat":60.186981,"lon":24.9528344},{"type":"node","id":6461223467,"lat":60.1869865,"lon":24.9528734},{"type":"node","id":6461223468,"lat":60.1872134,"lon":24.9531748},{"type":"node","id":6461223469,"lat":60.1871647,"lon":24.9531722},{"type":"node","id":6461223470,"lat":60.1870643,"lon":24.9535516},{"type":"node","id":6461223471,"lat":60.18703,"lon":24.953473},{"type":"node","id":6461223472,"lat":60.1871098,"lon":24.9540749},{"type":"node","id":6461232594,"lat":60.1876441,"lon":24.9530713},{"type":"node","id":6461232597,"lat":60.1883403,"lon":24.9529944},{"type":"node","id":6502483267,"lat":60.1870382,"lon":24.9552119},{"type":"node","id":6783371247,"lat":60.187437,"lon":24.9559299},{"type":"node","id":8852722353,"lat":60.1868305,"lon":24.9519139},{"type":"node","id":8852722355,"lat":60.1868265,"lon":24.9518371},{"type":"node","id":8852722357,"lat":60.1868392,"lon":24.9520753},{"type":"node","id":8852722360,"lat":60.1868423,"lon":24.9521296},{"type":"node","id":8852722362,"lat":60.1868451,"lon":24.9521816},{"type":"node","id":8852722366,"lat":60.1868509,"lon":24.9523051},{"type":"node","id":8852722368,"lat":60.1868627,"lon":24.9525953},{"type":"node","id":11061441068,"lat":60.1869343,"lon":24.9539474},{"type":"node","id":11061441069,"lat":60.1868551,"lon":24.9529917},{"type":"node","id":11061441070,"lat":60.1867985,"lon":24.951687},{"type":"node","id":11061441071,"lat":60.186455,"lon":24.951721},{"type":"node","id":11063552300,"lat":60.186835,"lon":24.9519968},{"type":"node","id":11096552113,"lat":60.1868466,"lon":24.952211},{"type":"node","id":11278815053,"lat":60.1860825,"lon":24.9541881},{"type":"node","id":11278815054,"lat":60.1866235,"lon":24.9542618},{"type":"node","id":11741753851,"lat":60.1877172,"lon":24.9551767},{"type":"node","id":11741860006,"lat":60.1872391,"lon":24.9532717},{"type":"node","id":11766458365,"lat":60.1875001,"lon":24.955931},{"type":"node","id":11766489087,"lat":60.1869575,"lon":24.954231},{"type":"node","id":11766489088,"lat":60.1869379,"lon":24.9540013},{"type":"node","id":11766489089,"lat":60.1869301,"lon":24.9539095},{"type":"node","id":11775370446,"lat":60.1872533,"lon":24.9553856},{"type":"node","id":11775370447,"lat":60.1873088,"lon":24.9553692},{"type":"node","id":11775370448,"lat":60.1873302,"lon":24.9553637},{"type":"node","id":11775370451,"lat":60.1871866,"lon":24.954582},{"type":"node","id":11775370452,"lat":60.1872415,"lon":24.9545715},{"type":"node","id":11775370453,"lat":60.1872579,"lon":24.9545685},{"type":"node","id":11775370454,"lat":60.1873871,"lon":24.954545},{"type":"node","id":11775370457,"lat":60.1872042,"lon":24.9541778},{"type":"node","id":11775370458,"lat":60.1872219,"lon":24.9541735},{"type":"node","id":11775370459,"lat":60.1872363,"lon":24.9545102},{"type":"node","id":11775370460,"lat":60.1872521,"lon":24.9545044},{"type":"node","id":11775370463,"lat":60.1870386,"lon":24.9525913},{"type":"node","id":11775370464,"lat":60.1870893,"lon":24.9525839},{"type":"node","id":11775372972,"lat":60.1870683,"lon":24.9521522},{"type":"node","id":11775372973,"lat":60.1870561,"lon":24.9519007},{"type":"node","id":11804063355,"lat":60.1870618,"lon":24.9520151},{"type":"node","id":11804712103,"lat":60.1874175,"lon":24.9539599},{"type":"node","id":11804712104,"lat":60.1874135,"lon":24.953775},{"type":"node","id":11804712105,"lat":60.1873017,"lon":24.953488},{"type":"node","id":11804712106,"lat":60.1875038,"lon":24.953465},{"type":"node","id":11804712107,"lat":60.1871753,"lon":24.9536595},{"type":"node","id":11804712108,"lat":60.1871596,"lon":24.9536624},{"type":"node","id":11804712109,"lat":60.1875793,"lon":24.9532373},{"type":"node","id":12124797499,"lat":60.1861096,"lon":24.9541643},{"type":"node","id":12303047713,"lat":60.1868166,"lon":24.9549519},{"type":"node","id":12547679397,"lat":60.1861286,"lon":24.953429},{"type":"node","id":12547679398,"lat":60.1862532,"lon":24.9534174},{"type":"node","id":210475258,"lat":60.1874633,"lon":24.9602788},{"type":"node","id":210522985,"lat":60.1873754,"lon":24.9590267},{"type":"node","id":210522986,"lat":60.1874345,"lon":24.9597812},{"type":"node","id":210524462,"lat":60.1872187,"lon":24.9572168},{"type":"node","id":262982616,"lat":60.1872577,"lon":24.9574271},{"type":"node","id":317913564,"lat":60.1871715,"lon":24.956369},{"type":"node","id":435207157,"lat":60.1868329,"lon":24.9561375},{"type":"node","id":435207158,"lat":60.1868762,"lon":24.9568605},{"type":"node","id":435207159,"lat":60.1867694,"lon":24.9572678},{"type":"node","id":435207160,"lat":60.1872526,"lon":24.9573115},{"type":"node","id":435207168,"lat":60.1865564,"lon":24.9578921},{"type":"node","id":435207169,"lat":60.1866251,"lon":24.9590543},{"type":"node","id":435207170,"lat":60.1865726,"lon":24.9593883},{"type":"node","id":435207171,"lat":60.1867173,"lon":24.9574078},{"type":"node","id":435207172,"lat":60.186743,"lon":24.9573333},{"type":"node","id":452815162,"lat":60.1875019,"lon":24.9615343},{"type":"node","id":452815163,"lat":60.1874047,"lon":24.9619875},{"type":"node","id":1011920871,"lat":60.187272,"lon":24.9575977},{"type":"node","id":1016540119,"lat":60.1868159,"lon":24.9570371},{"type":"node","id":1016540230,"lat":60.1868674,"lon":24.9569385},{"type":"node","id":1016540502,"lat":60.186835,"lon":24.9569348},{"type":"node","id":1016540545,"lat":60.1868553,"lon":24.9570079},{"type":"node","id":1016635066,"lat":60.1874302,"lon":24.9597289},{"type":"node","id":1016635144,"lat":60.1873893,"lon":24.9591974},{"type":"node","id":1016635159,"lat":60.1871748,"lon":24.9567027},{"type":"node","id":1016635215,"lat":60.1874153,"lon":24.9595428},{"type":"node","id":1016635230,"lat":60.1874045,"lon":24.9594094},{"type":"node","id":1016635252,"lat":60.1871248,"lon":24.9561363},{"type":"node","id":1018118962,"lat":60.187266,"lon":24.9575333},{"type":"node","id":1437334925,"lat":60.1867486,"lon":24.9572372},{"type":"node","id":1526055774,"lat":60.1867231,"lon":24.9573071},{"type":"node","id":1526055781,"lat":60.1868465,"lon":24.9568459},{"type":"node","id":5025854696,"lat":60.1865834,"lon":24.9583533},{"type":"node","id":6323267642,"lat":60.1868502,"lon":24.9567624},{"type":"node","id":6323267643,"lat":60.1868462,"lon":24.9566461},{"type":"node","id":6323267644,"lat":60.1868426,"lon":24.9570591},{"type":"node","id":6323267645,"lat":60.1868777,"lon":24.9567618},{"type":"node","id":6323267646,"lat":60.1868747,"lon":24.9566747},{"type":"node","id":6323267682,"lat":60.1865777,"lon":24.9582555},{"type":"node","id":6323271690,"lat":60.1865858,"lon":24.9583934},{"type":"node","id":6681317453,"lat":60.1866022,"lon":24.9577543},{"type":"node","id":8454073098,"lat":60.1867007,"lon":24.9574577},{"type":"node","id":8831720836,"lat":60.1874753,"lon":24.9605321},{"type":"node","id":8831720840,"lat":60.1874703,"lon":24.9604252},{"type":"node","id":8831720842,"lat":60.1874642,"lon":24.9602979},{"type":"node","id":8836005055,"lat":60.1874785,"lon":24.9605993},{"type":"node","id":10933921839,"lat":60.1874817,"lon":24.9606691},{"type":"node","id":10933921840,"lat":60.1875073,"lon":24.9613048},{"type":"node","id":11766458357,"lat":60.1874228,"lon":24.9596359}]}