{"version":0.6,"generator":"Overpass API 0.7.62.5 1bd436f1","osm3s":{"timestamp_osm_base":"2025-03-12T12:19:57Z","copyright":"The data included in this document is from www.openstreetmap.org. The data is made available under ODbL."},"elements":[{"type":"way","id":4281134,"nodes":[317710595,2390208433,317710596],"tags":{"bicycle":"use_sidepath","highway":"primary","lanes":"1","lit":"yes","maxspeed":"50","name":"V\u00e4\u00e4ksyntie","name:fi":"V\u00e4\u00e4ksyntie","name:sv":"V\u00e4\u00e4ksyv\u00e4gen","oneway":"yes","parking:lane:both":"no_stopping","smoothness":"good","snowplowing":"yes","source:maxspeed":"FI:urban","surface":"asphalt"}},{"type":"way","id":22957385,"nodes":[247356991,247356992,247356550,247356993,247356991],"tags":{"access":"yes","amenity":"parking","fee":"yes","parking":"surface","surface":"paved"}},{"type":"way","id":28903494,"nodes":[317710595,60539387],"tags":{"bicycle":"use_sidepath","fi:hkr:kunnossapitoluokka":"I","guideposted_leads_to_ref":"170","highway":"primary","lanes":"2","lit":"yes","maxspeed":"50","name":"Junatie","name:fi":"Junatie","name:sv":"T\u00e5gv\u00e4gen","oneway":"yes","paved:date:lanes":"2016|","priority_road":"yes_unposted","smoothness":"good","source:maxspeed":"FI:urban","surface":"asphalt"}},{"type":"way","id":28903495,"nodes":[317710596,34516802],"tags":{"bicycle":"use_sidepath","fi:hkr:kunnossapitoluokka":"I","guideposted_leads_to_ref":"1;3;45;51","highway":"primary","lanes":"3","lit":"yes","maxspeed":"50","name":"Teollisuuskatu","name:fi":"Teollisuuskatu","name:sv":"Industrigatan","oneway":"yes","parking:lane:both":"no_stopping","priority_road":"yes_unposted","psv:lanes":"||designated","smoothness":"good","snowplowing":"yes","surface":"asphalt"}},{"type":"way","id":30258153,"nodes":[34516802,10762049473,10762049477,247356551,471323045],"tags":{"bicycle":"use_sidepath","fi:hkr:kunnossapitoluokka":"I","guideposted_leads_to_ref":"1;3;45;51","highway":"primary","lanes":"3","lit":"yes","maxspeed":"50","name":"Teollisuuskatu","name:fi":"Teollisuuskatu","name:sv":"Industrigatan","oneway":"yes","placement":"right_of:1","priority_road":"yes_unposted","surface":"asphalt","turn:lanes":"||merge_to_left"}},{"type":"way","id":30262585,"nodes":[2886219949,10762049502,10762074010,1011941605,1011941642,3224662578],"tags":{"bicycle":"use_sidepath","fi:hkr:kunnossapitoluokka":"I","guideposted_leads_to_ref":"170","highway":"primary","lanes":"2","lit":"yes","lit:perceived":"poor","maxspeed":"50","name":"Teollisuuskatu","name:fi":"Teollisuuskatu","name:sv":"Industrigatan","oneway":"yes","parking:condition:reason:left":"dual_carriage","parking:lane:left":"no_stopping","parking:lane:right":"no_parking","priority_road":"yes_unposted","smoothness":"good","snowplowing":"yes","surface":"asphalt"}},{"type":"way","id":30471893,"nodes":[460381306,460393511,933210003],"tags":{"bicycle":"use_sidepath","construction":"residential","highway":"construction","lanes":"1","lit":"yes","maxspeed":"30","name":"Aleksis Kiven katu","name:fi":"Aleksis Kiven katu","name:sv":"Aleksis Kivis Gata","oneway":"yes","parking:lane:left":"no_stopping","parking:lane:right":"no_parking","snowplowing":"yes","surface":"asphalt"}},{"type":"way","id":31717442,"nodes":[10762049459,457296953,460382259,6074774490,1416509007,6074774489,434619598],"tags":{"construction":"footway","footway":"sidewalk","highway":"construction","lit":"yes","snowplowing":"yes","surface":"asphalt"}},{"type":"way","id":35271107,"nodes":[247356551,11649134477,317710728,317710729,247356550,247356992,247356549],"tags":{"highway":"service","lit":"yes","name":"Gebhardinaukio","name:fi":"Gebhardinaukio","name:sv":"Gebhardsplatsen","surface":"paving_stones"}},{"type":"way","id":35271111,"nodes":[457296951,247360449,460393511],"tags":{"bicycle":"designated","construction":"cycleway","foot":"designated","highway":"construction","lit":"yes","segregated":"no","snowplowing":"yes","surface":"asphalt"}},{"type":"way","id":39342194,"nodes":[471323045,11491748018,247356552,652672624],"tags":{"bicycle":"use_sidepath","fi:hkr:kunnossapitoluokka":"I","guideposted_leads_to_ref":"1;3;45;51","highway":"primary","lanes":"2","lit":"yes","lit:perceived":"poor","maxspeed":"50","name":"Teollisuuskatu","name:fi":"Teollisuuskatu","name:sv":"Industrigatan","oneway":"yes","priority_road":"yes_unposted","surface":"asphalt"}},{"type":"way","id":61188121,"nodes":[765062662,317710726,34516830,317710725,25812144,317710593,10762049487,115279878,34516802],"tags":{"bicycle":"use_sidepath","highway":"primary","lanes":"2","lit":"yes","maxspeed":"40","name":"V\u00e4\u00e4ksyntie","name:fi":"V\u00e4\u00e4ksyntie","name:sv":"V\u00e4\u00e4ksyv\u00e4gen","oneway":"yes","parking:left":"no","parking:left:restriction":"no_stopping","parking:right":"no","parking:right:restriction":"no_parking","snowplowing":"yes","surface":"asphalt"}},{"type":"way","id":61188122,"nodes":[34516802,2390208432,317710595],"tags":{"bicycle":"use_sidepath","highway":"primary","lanes":"2","lit":"yes","maxspeed":"50","name":"V\u00e4\u00e4ksyntie","name:fi":"V\u00e4\u00e4ksyntie","name:sv":"V\u00e4\u00e4ksyv\u00e4gen","oneway":"yes","parking:lane:both":"no_stopping","smoothness":"good","snowplowing":"yes","surface":"asphalt"}},{"type":"way","id":79949638,"nodes":[933210003,11980990002,933210038],"tags":{"bicycle":"use_sidepath","construction":"residential","highway":"construction","lanes":"1","lit":"yes","maxspeed":"30","name":"Aleksis Kiven katu","name:fi":"Aleksis Kiven katu","name:sv":"Aleksis Kivis Gata","oneway":"yes","parking:left":"no","parking:left:restriction":"no_stopping","parking:right":"lane","parking:right:fee:conditional":"yes @ (Mo-Fr 09:00-21:00)","parking:right:orientation":"parallel","parking:right:placement":"dedicated","parking:right:zone":"J","parking:ticket:zone":"3","snowplowing":"yes","surface":"asphalt"}},{"type":"way","id":86163950,"nodes":[1000082158,631988009,1000082141],"tags":{"layer":"-1","location":"underground","man_made":"pipeline","source":"survey","type":"heat"}},{"type":"way","id":130231256,"nodes":[247360447,667349556,247360451,247360448,1416508994,1992074026,247360449],"tags":{"construction":"footway","highway":"construction","lit":"yes","snowplowing":"yes","source":"survey","surface":"asphalt","was:foot":"no","was:highway":"cycleway","width":"2.5"}},{"type":"way","id":139189888,"nodes":[413450477,804545593,804545590,9933537930,9526342596,9526342595,9526342597,804545589,413450476,9933537934,9526342601,9526342602,9526342603,9526342605,413450519,9526342604,3800868597,3800868596,804545592,11822800894,11822800891,9526378654,9526378653,9526378639,9526378647,9526378638,413450478,804545586,9526378628,804545588,413450477],"tags":{"hoitoluokitus_viheralue":"A2","leisure":"park","name":"Dallap\u00e9npuisto","name:fi":"Dallap\u00e9npuisto","name:sv":"Dallap\u00e9parken","wikidata":"Q11855725","wikimedia_commons":"Category:Dallap\u00e9npuisto","wikipedia":"fi:Dallap\u00e9npuisto"}},{"type":"way","id":201010296,"nodes":[2109581949,2109581948],"tags":{"man_made":"beam"}},{"type":"way","id":201010301,"nodes":[2109581965,2109581964,2109581963,2109581961,2109581960],"tags":{"layer":"3","man_made":"beam"}},{"type":"way","id":238081191,"nodes":[471323054,4528128505,471323066,471323067,1406256679,266225783,1406256663,266225784,317710724,1406256620,5541144803,4528127330,266225785,6074774181,6074774180,247356993,247356991,266225786,6074774177,247356990,1011941632,11810092810,1011941608,247356986,9526378676,9526378677,9526378678,4528117288,4528117287,4528121925,471323054],"tags":{"landuse":"commercial"}},{"type":"way","id":263469198,"nodes":[34508713,9933537935,10762049455,34508702,3800868645,34508714,288022959,10762049495,6074774492],"tags":{"cycleway:surface":"asphalt","footway:surface":"asphalt","highway":"cycleway","lane_markings":"yes","lit":"yes","segregated":"yes","snowplowing":"yes","surface":"paved"}},{"type":"way","id":316358462,"nodes":[3224662578,6074774491,10762049476,10762049472,317710595],"tags":{"bicycle":"use_sidepath","fi:hkr:kunnossapitoluokka":"I","guideposted_leads_to_ref":"170","highway":"primary","lanes":"3","lit":"yes","lit:perceived":"poor","maxspeed":"50","name":"Teollisuuskatu","name:fi":"Teollisuuskatu","name:sv":"Industrigatan","oneway":"yes","parking:condition:reason:left":"dual_carriage","parking:lane:left":"no_stopping","parking:lane:right":"no_parking","placement":"right_of:2","priority_road":"yes_unposted","smoothness":"good","snowplowing":"yes","source:maxspeed":"FI:urban","surface":"asphalt","turn:lanes":"left|through|through;right"}},{"type":"way","id":617133807,"nodes":[413450487,7884194192,5833969511,5833969518,5833969512,6074774179,5833969513,10762074014,6074774178,5833969514,11491748019,5833969516,317710728,10762049492,119233695],"tags":{"foot":"no","highway":"cycleway","lane_markings":"yes","lanes":"2","lit":"yes","surface":"asphalt"}},{"type":"way","id":646604166,"nodes":[6074774183,6074774182,6074774181,6074774180,6074774183],"tags":{"access":"yes","amenity":"bicycle_parking","bicycle_parking":"stands","capacity":"24","covered":"no","fee":"no"}},{"type":"way","id":969896551,"nodes":[6074774492,10762049457,10762049456,10762049458,460393511],"tags":{"construction":"cycleway","cycleway:surface":"asphalt","footway:surface":"asphalt","highway":"construction","lane_markings":"yes","lit":"yes","segregated":"yes","snowplowing":"yes","surface":"paved"}},{"type":"way","id":969896552,"nodes":[9933537938,10762049473,10762049472,10762049471],"tags":{"crossing":"traffic_signals","cycleway":"crossing","cycleway:surface":"asphalt","highway":"cycleway","lane_markings":"yes","lit":"yes","segregated":"yes","snowplowing":"yes","surface":"paved"}},{"type":"way","id":985509665,"nodes":[9110890393,9110890394,9110890395,9110890396,9110890397,7804159986,9110890398,9110890399,9110890400,9110890401,9110890402,9110890403,9110890404,9110890405,9110890406,9110890407,9110890408,9110890409,9110890410,9110890411,9110890412,9110890413,9110890414,9110890415,9110890416,9110906817,9110906818,9110906819,9110906820,9110906821,9110906822,9110906823,9110906824,9110906825,9110906826,9110906827,9110906828,9110906829,9110906830,9110906831,9110906832,9110906833,9110906834,9110906835,9110906836,9110906837,9110906838,9110906839,9110906840,9110906841,9110906842,10967559392,9110906843,9110906844,9110906845,11434931245,10968284186,9110906846,9110906847,6857815932,9110906848,9110906849,9110906850,9110906851,9110906852,9110906853,11310609171,9110906854,9110906855,9110906856,9110906857,9110906858,9110906859,9110906860,9110906861,9110906862,9110906863,9110906864,9110906865,9110906866,9110890393],"tags":{"area":"yes","boundary":"legal","description":"Raskaan liikenteen rajoitusalue Helsingiss\u00e4"}},{"type":"way","id":1034082816,"nodes":[9526378620,9526378621,9526378622,9526378623,9526378624,9526378625,9526378626,9526378627,9526342606,9526342607,9526342608,9933537936,9526342609,9526342610,9526342611,9526342612,9526342613,9526378620],"tags":{"landuse":"grass"}},{"type":"way","id":1034082822,"nodes":[9526342603,3800868596,3800868597,9526342604,413450519,9526342605,9526342603],"tags":{"landuse":"grass"}},{"type":"way","id":1083993104,"nodes":[9933537946,9526342614,9526342615,9526342616,9933537941,9933537942,9933537943,9526378617,9933537944,9526378618,9526378619,9933537939,9933537940,9933537946],"tags":{"landuse":"grass"}},{"type":"way","id":1157273982,"nodes":[10762049496,10762049465,10762049466,10762049467,10762049469],"tags":{"highway":"footway","lit":"yes","surface":"asphalt"}},{"type":"way","id":1157273983,"nodes":[10762049459,10762049458,10762049460],"tags":{"construction":"footway","crossing":"uncontrolled","crossing:markings":"zebra","footway":"crossing","highway":"construction","lit":"yes","surface":"asphalt"}},{"type":"way","id":1157273986,"nodes":[119233695,9933537938],"tags":{"highway":"cycleway","lane_markings":"yes","lit":"yes","segregated":"yes","snowplowing":"yes","surface":"paved"}},{"type":"way","id":1157273987,"nodes":[10762049471,12377119163,6074774492],"tags":{"bicycle":"designated","foot":"designated","highway":"cycleway","lane_markings":"yes","lit":"yes","segregated":"yes","snowplowing":"yes","surface":"paved"}},{"type":"way","id":1157273988,"nodes":[10762049474,10762049476,10762049477,10762049475],"tags":{"crossing":"traffic_signals","crossing:markings":"zebra","footway":"crossing","highway":"footway","lit":"yes","surface":"asphalt"}},{"type":"way","id":1157273989,"nodes":[10762049491,10762049481,10762049478],"tags":{"footway":"sidewalk","highway":"footway"}},{"type":"way","id":1157273990,"nodes":[1011941621,10762049499,10762049484,119233695],"tags":{"highway":"cycleway","lit":"yes","segregated":"yes","snowplowing":"yes","surface":"paved"}},{"type":"way","id":1157273991,"nodes":[10762049479,10762049480,10762049481],"tags":{"footway":"sidewalk","highway":"footway"}},{"type":"way","id":1157273992,"nodes":[10762049480,10762049482],"tags":{"footway":"sidewalk","highway":"footway"}},{"type":"way","id":1157273993,"nodes":[10762049482,10762049484,10762049483],"tags":{"crossing":"uncontrolled","crossing:markings":"zebra","footway":"crossing","highway":"footway"}},{"type":"way","id":1157273994,"nodes":[10762049483,10762049485],"tags":{"footway":"sidewalk","highway":"footway"}},{"type":"way","id":1157273995,"nodes":[10762049485,10762049487,10762049488,10762049486],"tags":{"crossing":"traffic_signals","crossing:markings":"yes","footway":"crossing","highway":"footway"}},{"type":"way","id":1157273996,"nodes":[10762049489,119233695],"tags":{"bicycle":"designated","cycleway:surface":"asphalt","foot":"designated","footway:surface":"asphalt","highway":"cycleway","lane_markings":"yes","lit":"yes","segregated":"yes","snowplowing":"yes","surface":"asphalt"}},{"type":"way","id":1157273997,"nodes":[10762049475,10762049490],"tags":{"footway":"sidewalk","highway":"footway"}},{"type":"way","id":1157273998,"nodes":[10762049490,10762049492,10762049491],"tags":{"crossing":"uncontrolled","crossing:markings":"zebra","footway":"crossing","highway":"footway"}},{"type":"way","id":1157273999,"nodes":[10762049474,12377119162,10762049493],"tags":{"check_date:lit":"2023-06-16","highway":"footway","lit":"yes"}},{"type":"way","id":1157274000,"nodes":[10762049493,10762049495,10762049494],"tags":{"check_date:lit":"2023-06-16","crossing":"uncontrolled","crossing:markings":"zebra","footway":"crossing","highway":"footway","lit":"yes"}},{"type":"way","id":1157274001,"nodes":[10762049494,10762049496],"tags":{"highway":"footway","lit":"yes"}},{"type":"way","id":1157274013,"nodes":[10762074017,317710597,115279878,10762049489],"tags":{"crossing":"traffic_signals","cycleway":"crossing","cycleway:surface":"asphalt","footway:surface":"asphalt","highway":"cycleway","lit":"yes","segregated":"yes","snowplowing":"yes","surface":"paved"}},{"type":"way","id":1307411272,"nodes":[12107632864,12107632865,12107632866,12107632867,12107632868,12107632869,12107632870,12107632871,12107632872,12107632873,12107632874,12107632875,12107632876,12107632877,12107632864],"tags":{"natural":"scrub"}},{"type":"way","id":1317001922,"nodes":[12188892877,12379424237,12379424238,12379424239,12188892878,12188892879,12379424240,12379424241,12188892880,12188892881,12559393449,12559393451,12559393452,12559393454,12559393455,12559393456,12559393453,12559393450,12559393447,12559393448,12188892882,12188892883,12188892884,12188892885,12377119165,12188892877],"tags":{"landuse":"construction"}},{"type":"way","id":1317001925,"nodes":[457296953,10762049464,10762049496],"tags":{"construction":"footway","highway":"construction","lit":"yes","surface":"asphalt"}},{"type":"way","id":1338099038,"nodes":[12377119162,12377119163,12377119164,12377119174,10762049461],"tags":{"highway":"footway","lit":"yes","temporary":"yes"}},{"type":"node","id":9110906864,"lat":60.1778629,"lon":24.8786913},{"type":"node","id":9110906862,"lat":60.167146,"lon":24.9015515},{"type":"node","id":9110906863,"lat":60.1667876,"lon":24.897899},{"type":"node","id":9110906865,"lat":60.1825536,"lon":24.8774179},{"type":"node","id":9110906866,"lat":60.190492,"lon":24.8808861},{"type":"node","id":9110890396,"lat":60.1914535,"lon":24.8994341},{"type":"node","id":9110890397,"lat":60.1913286,"lon":24.9000333},{"type":"node","id":9110890393,"lat":60.1919033,"lon":24.8822775},{"type":"node","id":9110890394,"lat":60.1959007,"lon":24.8871363},{"type":"node","id":9110890395,"lat":60.1953012,"lon":24.88975},{"type":"node","id":9110906858,"lat":60.1645288,"lon":24.9131682},{"type":"node","id":9110906856,"lat":60.1633534,"lon":24.9215337},{"type":"node","id":9110906857,"lat":60.1648455,"lon":24.9213829},{"type":"node","id":9110906850,"lat":60.1610527,"lon":24.9296596},{"type":"node","id":9110906851,"lat":60.1618029,"lon":24.9298272},{"type":"node","id":9110906852,"lat":60.1619613,"lon":24.9287046},{"type":"node","id":9110906853,"lat":60.1611062,"lon":24.9260986},{"type":"node","id":9110906854,"lat":60.1613102,"lon":24.9246545},{"type":"node","id":9110906855,"lat":60.1618696,"lon":24.9235275},{"type":"node","id":11310609171,"lat":60.161176,"lon":24.9253518},{"type":"node","id":9110906860,"lat":60.1666876,"lon":24.9088456},{"type":"node","id":9110906861,"lat":60.1671794,"lon":24.9041652},{"type":"node","id":9110906859,"lat":60.1660375,"lon":24.9114593},{"type":"node","id":6857815932,"lat":60.1551438,"lon":24.9352916},{"type":"node","id":9110906847,"lat":60.1549915,"lon":24.9353896},{"type":"node","id":9110906846,"lat":60.1532322,"lon":24.9373499},{"type":"node","id":10968284186,"lat":60.1537675,"lon":24.9415562},{"type":"node","id":11434931245,"lat":60.1538163,"lon":24.9419395},{"type":"node","id":9110906848,"lat":60.1597522,"lon":24.9321895},{"type":"node","id":9110906849,"lat":60.1604441,"lon":24.9307151},{"type":"node","id":9110906845,"lat":60.1549077,"lon":24.9505155},{"type":"node","id":9110906836,"lat":60.1646034,"lon":24.9528778},{"type":"node","id":9110906837,"lat":60.1639782,"lon":24.9532632},{"type":"node","id":9110906838,"lat":60.1619943,"lon":24.9560779},{"type":"node","id":9110906834,"lat":60.1678207,"lon":24.9524422},{"type":"node","id":9110906835,"lat":60.165637,"lon":24.952593},{"type":"node","id":7804159986,"lat":60.1910693,"lon":24.9127788},{"type":"node","id":9110890398,"lat":60.1910621,"lon":24.9131018},{"type":"node","id":9110890399,"lat":60.1896878,"lon":24.9163492},{"type":"node","id":9110890400,"lat":60.1898627,"lon":24.9209902},{"type":"node","id":9110890401,"lat":60.1908872,"lon":24.9233359},{"type":"node","id":9110890402,"lat":60.19177,"lon":24.9265758},{"type":"node","id":9110890403,"lat":60.1922947,"lon":24.9293905},{"type":"node","id":247360447,"lat":60.1893762,"lon":24.9558742},{"type":"node","id":9110890416,"lat":60.1911454,"lon":24.9545737},{"type":"node","id":12188892881,"lat":60.1892826,"lon":24.9559407},{"type":"node","id":12559393447,"lat":60.1894015,"lon":24.9554252},{"type":"node","id":12559393448,"lat":60.189409,"lon":24.9559528},{"type":"node","id":12559393449,"lat":60.1892818,"lon":24.9551161},{"type":"node","id":12559393450,"lat":60.189415,"lon":24.9546993},{"type":"node","id":12559393451,"lat":60.1892844,"lon":24.9546878},{"type":"node","id":12559393452,"lat":60.1893284,"lon":24.953972},{"type":"node","id":12559393453,"lat":60.1894517,"lon":24.9539441},{"type":"node","id":12559393454,"lat":60.1893594,"lon":24.9536657},{"type":"node","id":12559393455,"lat":60.1894394,"lon":24.9529899},{"type":"node","id":12559393456,"lat":60.1895497,"lon":24.9531319},{"type":"node","id":9110890404,"lat":60.1931858,"lon":24.9345341},{"type":"node","id":9110890405,"lat":60.1935106,"lon":24.9354556},{"type":"node","id":9110890406,"lat":60.194077,"lon":24.9358075},{"type":"node","id":9110890407,"lat":60.1953678,"lon":24.9360588},{"type":"node","id":9110890408,"lat":60.195576,"lon":24.9360756},{"type":"node","id":9110890409,"lat":60.1962838,"lon":24.9360756},{"type":"node","id":9110890410,"lat":60.195959,"lon":24.9416213},{"type":"node","id":9110890411,"lat":60.1958924,"lon":24.9424423},{"type":"node","id":9110890412,"lat":60.1956259,"lon":24.9438329},{"type":"node","id":9110890413,"lat":60.1951263,"lon":24.9450057},{"type":"node","id":9110890414,"lat":60.1921448,"lon":24.9519432},{"type":"node","id":9110890415,"lat":60.1915535,"lon":24.9533338},{"type":"node","id":9110906843,"lat":60.1544992,"lon":24.960853},{"type":"node","id":9110906844,"lat":60.1530567,"lon":24.9569827},{"type":"node","id":10967559392,"lat":60.1547594,"lon":24.9613499},{"type":"node","id":9110906842,"lat":60.1561751,"lon":24.9640531},{"type":"node","id":9110906839,"lat":60.1610523,"lon":24.9568654},{"type":"node","id":9110906840,"lat":60.160427,"lon":24.9579377},{"type":"node","id":9110906841,"lat":60.1607105,"lon":24.9612048},{"type":"node","id":9110906829,"lat":60.1697543,"lon":24.9596467},{"type":"node","id":9110906830,"lat":60.1696793,"lon":24.9586916},{"type":"node","id":9110906831,"lat":60.1694543,"lon":24.9584571},{"type":"node","id":9110906832,"lat":60.1689042,"lon":24.9584738},{"type":"node","id":9110906833,"lat":60.1680208,"lon":24.9570497},{"type":"node","id":9110906823,"lat":60.1767417,"lon":24.9575188},{"type":"node","id":9110906824,"lat":60.1763251,"lon":24.957988},{"type":"node","id":9110906825,"lat":60.1762418,"lon":24.9589597},{"type":"node","id":9110906826,"lat":60.1762334,"lon":24.9604676},{"type":"node","id":9110906827,"lat":60.1756918,"lon":24.9615064},{"type":"node","id":9110906828,"lat":60.1741919,"lon":24.9618415},{"type":"node","id":9110906822,"lat":60.1790997,"lon":24.9572843},{"type":"node","id":9110906821,"lat":60.1845566,"lon":24.9659481},{"type":"node","id":25812144,"lat":60.1905143,"lon":24.961408},{"type":"node","id":34508702,"lat":60.189918,"lon":24.9590699},{"type":"node","id":34508713,"lat":60.1901315,"lon":24.9582444},{"type":"node","id":34508714,"lat":60.1898006,"lon":24.959512},{"type":"node","id":34516802,"lat":60.1898375,"lon":24.9610832},{"type":"node","id":34516830,"lat":60.1906259,"lon":24.9615183},{"type":"node","id":60539387,"lat":60.1896308,"lon":24.9615609},{"type":"node","id":115279878,"lat":60.1899472,"lon":24.9611436},{"type":"node","id":119233695,"lat":60.1899688,"lon":24.9609683},{"type":"node","id":247356549,"lat":60.1902457,"lon":24.959465},{"type":"node","id":247356550,"lat":60.1901011,"lon":24.9605254},{"type":"node","id":247356551,"lat":60.1899206,"lon":24.960582},{"type":"node","id":247356552,"lat":60.1901279,"lon":24.9593279},{"type":"node","id":247356986,"lat":60.1906702,"lon":24.9570487},{"type":"node","id":247356990,"lat":60.1903544,"lon":24.9585102},{"type":"node","id":247356991,"lat":60.1901502,"lon":24.9596558},{"type":"node","id":247356992,"lat":60.1902131,"lon":24.9596877},{"type":"node","id":247356993,"lat":60.1900422,"lon":24.9605176},{"type":"node","id":247360448,"lat":60.1893844,"lon":24.9589298},{"type":"node","id":247360449,"lat":60.1893898,"lon":24.9611784},{"type":"node","id":247360451,"lat":60.1893831,"lon":24.9586649},{"type":"node","id":266225783,"lat":60.1915091,"lon":24.9604786},{"type":"node","id":266225784,"lat":60.1906944,"lon":24.9613063},{"type":"node","id":266225785,"lat":60.1899918,"lon":24.9609085},{"type":"node","id":266225786,"lat":60.1901589,"lon":24.9595783},{"type":"node","id":288022959,"lat":60.1897044,"lon":24.960134},{"type":"node","id":317710593,"lat":60.1900389,"lon":24.96118},{"type":"node","id":317710595,"lat":60.1897071,"lon":24.9611098},{"type":"node","id":317710596,"lat":60.1898129,"lon":24.9612467},{"type":"node","id":317710597,"lat":60.1899304,"lon":24.9613044},{"type":"node","id":317710724,"lat":60.1905668,"lon":24.96125},{"type":"node","id":317710725,"lat":60.1905786,"lon":24.9614608},{"type":"node","id":317710726,"lat":60.1906795,"lon":24.9616297},{"type":"node","id":317710728,"lat":60.1900092,"lon":24.9606368},{"type":"node","id":317710729,"lat":60.1900883,"lon":24.960615},{"type":"node","id":413450476,"lat":60.1900651,"lon":24.9583427},{"type":"node","id":413450477,"lat":60.1902623,"lon":24.957107},{"type":"node","id":413450478,"lat":60.1895114,"lon":24.9562292},{"type":"node","id":413450487,"lat":60.1908537,"lon":24.9566275},{"type":"node","id":413450519,"lat":60.1895327,"lon":24.9610006},{"type":"node","id":434619598,"lat":60.1894983,"lon":24.9588077},{"type":"node","id":457296951,"lat":60.1893281,"lon":24.9611783},{"type":"node","id":457296953,"lat":60.1895108,"lon":24.9610958},{"type":"node","id":460381306,"lat":60.1894509,"lon":24.9614534},{"type":"node","id":460382259,"lat":60.1895077,"lon":24.9605648},{"type":"node","id":460393511,"lat":60.1894572,"lon":24.9611828},{"type":"node","id":471323045,"lat":60.190016,"lon":24.9600143},{"type":"node","id":471323054,"lat":60.1910006,"lon":24.9580375},{"type":"node","id":471323066,"lat":60.1911944,"lon":24.9589741},{"type":"node","id":471323067,"lat":60.1913481,"lon":24.9597131},{"type":"node","id":631988009,"lat":60.1900114,"lon":24.9612705},{"type":"node","id":652672624,"lat":60.1902557,"lon":24.9586114},{"type":"node","id":667349556,"lat":60.1893748,"lon":24.9561232},{"type":"node","id":765062662,"lat":60.1907182,"lon":24.9617486},{"type":"node","id":804545586,"lat":60.1895241,"lon":24.956202},{"type":"node","id":804545588,"lat":60.1899913,"lon":24.9567717},{"type":"node","id":804545589,"lat":60.1901011,"lon":24.9581649},{"type":"node","id":804545590,"lat":60.1902709,"lon":24.9572927},{"type":"node","id":804545592,"lat":60.189513,"lon":24.9587577},{"type":"node","id":804545593,"lat":60.1902819,"lon":24.9572218},{"type":"node","id":933210003,"lat":60.1894529,"lon":24.9604886},{"type":"node","id":933210038,"lat":60.189448,"lon":24.9594957},{"type":"node","id":1000082141,"lat":60.1900333,"lon":24.9611118},{"type":"node","id":1000082158,"lat":60.1899934,"lon":24.9614004},{"type":"node","id":1011941605,"lat":60.1901823,"lon":24.9584296},{"type":"node","id":1011941608,"lat":60.1905814,"lon":24.9574676},{"type":"node","id":1011941621,"lat":60.1901772,"lon":24.9611413},{"type":"node","id":1011941632,"lat":60.1905426,"lon":24.9576461},{"type":"node","id":1011941642,"lat":60.1900364,"lon":24.9592653},{"type":"node","id":1406256620,"lat":60.1905441,"lon":24.9612413},{"type":"node","id":1406256663,"lat":60.1911008,"lon":24.9608946},{"type":"node","id":1406256679,"lat":60.1913906,"lon":24.9599063},{"type":"node","id":1416508994,"lat":60.189385,"lon":24.9591731},{"type":"node","id":1416509007,"lat":60.189498,"lon":24.959246},{"type":"node","id":1992074026,"lat":60.1893911,"lon":24.9610364},{"type":"node","id":2109581948,"lat":60.1895469,"lon":24.9612211},{"type":"node","id":2109581949,"lat":60.1895561,"lon":24.9611907},{"type":"node","id":2109581960,"lat":60.1897664,"lon":24.960513},{"type":"node","id":2109581961,"lat":60.1897897,"lon":24.9605268},{"type":"node","id":2109581963,"lat":60.1898174,"lon":24.9605432},{"type":"node","id":2109581964,"lat":60.1898479,"lon":24.9605613},{"type":"node","id":2109581965,"lat":60.1898664,"lon":24.9605723},{"type":"node","id":2390208432,"lat":60.1897728,"lon":24.9610792},{"type":"node","id":2390208433,"lat":60.1897583,"lon":24.9612113},{"type":"node","id":2886219949,"lat":60.1904345,"lon":24.9572081},{"type":"node","id":3224662578,"lat":60.1899118,"lon":24.9599452},{"type":"node","id":3800868596,"lat":60.1895154,"lon":24.9594655},{"type":"node","id":3800868597,"lat":60.1895206,"lon":24.9609592},{"type":"node","id":3800868645,"lat":60.1898284,"lon":24.9593829},{"type":"node","id":4528117287,"lat":60.1908722,"lon":24.9570766},{"type":"node","id":4528117288,"lat":60.190837,"lon":24.9569569},{"type":"node","id":4528121925,"lat":60.1908891,"lon":24.9573668},{"type":"node","id":4528127330,"lat":60.190086,"lon":24.9610351},{"type":"node","id":4528128505,"lat":60.1911431,"lon":24.958724},{"type":"node","id":5541144803,"lat":60.1902517,"lon":24.9611025},{"type":"node","id":5833969511,"lat":60.1907723,"lon":24.9567828},{"type":"node","id":5833969512,"lat":60.1906714,"lon":24.9569813},{"type":"node","id":5833969513,"lat":60.1905492,"lon":24.9575179},{"type":"node","id":5833969514,"lat":60.1902849,"lon":24.9587363},{"type":"node","id":5833969516,"lat":60.1901367,"lon":24.9596107},{"type":"node","id":5833969518,"lat":60.1906904,"lon":24.9569364},{"type":"node","id":6074774177,"lat":60.1903005,"lon":24.9587418},{"type":"node","id":6074774178,"lat":60.1905329,"lon":24.9576047},{"type":"node","id":6074774179,"lat":60.1905573,"lon":24.9574782},{"type":"node","id":6074774180,"lat":60.1900116,"lon":24.9607433},{"type":"node","id":6074774181,"lat":60.1900078,"lon":24.9607744},{"type":"node","id":6074774182,"lat":60.1901198,"lon":24.9607471},{"type":"node","id":6074774183,"lat":60.1901251,"lon":24.9607065},{"type":"node","id":6074774489,"lat":60.1894979,"lon":24.9588614},{"type":"node","id":6074774490,"lat":60.189498,"lon":24.9594689},{"type":"node","id":6074774491,"lat":60.189797,"lon":24.9606138},{"type":"node","id":6074774492,"lat":60.1896186,"lon":24.9607095},{"type":"node","id":7884194192,"lat":60.1908205,"lon":24.9566838},{"type":"node","id":9110906817,"lat":60.1904124,"lon":24.9574554},{"type":"node","id":9110906818,"lat":60.1899543,"lon":24.9600524},{"type":"node","id":9526342595,"lat":60.1901264,"lon":24.9580216},{"type":"node","id":9526342596,"lat":60.1901337,"lon":24.9579832},{"type":"node","id":9526342597,"lat":60.1901046,"lon":24.9581359},{"type":"node","id":9526342601,"lat":60.1898827,"lon":24.9589916},{"type":"node","id":9526342602,"lat":60.1898574,"lon":24.9590849},{"type":"node","id":9526342603,"lat":60.1897656,"lon":24.959417},{"type":"node","id":9526342604,"lat":60.1895237,"lon":24.9609904},{"type":"node","id":9526342605,"lat":60.1896526,"lon":24.9601399},{"type":"node","id":9526342606,"lat":60.190304,"lon":24.9574644},{"type":"node","id":9526342607,"lat":60.1901677,"lon":24.958132},{"type":"node","id":9526342608,"lat":60.1901316,"lon":24.9583155},{"type":"node","id":9526342609,"lat":60.1900734,"lon":24.9585818},{"type":"node","id":9526342610,"lat":60.1899711,"lon":24.958939},{"type":"node","id":9526342611,"lat":60.189825,"lon":24.9594489},{"type":"node","id":9526342612,"lat":60.1898054,"lon":24.9595584},{"type":"node","id":9526342613,"lat":60.1896477,"lon":24.9605871},{"type":"node","id":9526342614,"lat":60.1895883,"lon":24.9609691},{"type":"node","id":9526342615,"lat":60.1895558,"lon":24.9611715},{"type":"node","id":9526342616,"lat":60.189531,"lon":24.9613962},{"type":"node","id":9526378617,"lat":60.1896085,"lon":24.9613651},{"type":"node","id":9526378618,"lat":60.1896313,"lon":24.9613134},{"type":"node","id":9526378619,"lat":60.1896467,"lon":24.9612379},{"type":"node","id":9526378620,"lat":60.1897493,"lon":24.9606594},{"type":"node","id":9526378621,"lat":60.190113,"lon":24.9585948},{"type":"node","id":9526378622,"lat":60.1903274,"lon":24.9575006},{"type":"node","id":9526378623,"lat":60.1903306,"lon":24.9574773},{"type":"node","id":9526378624,"lat":60.190329,"lon":24.957462},{"type":"node","id":9526378625,"lat":60.1903225,"lon":24.957454},{"type":"node","id":9526378626,"lat":60.1903142,"lon":24.9574512},{"type":"node","id":9526378627,"lat":60.1903085,"lon":24.9574547},{"type":"node","id":9526378628,"lat":60.1898753,"lon":24.956628},{"type":"node","id":9526378638,"lat":60.189512,"lon":24.9571342},{"type":"node","id":9526378639,"lat":60.1895124,"lon":24.9577472},{"type":"node","id":9526378647,"lat":60.1895121,"lon":24.9572662},{"type":"node","id":9526378653,"lat":60.1895124,"lon":24.9578691},{"type":"node","id":9526378654,"lat":60.1895128,"lon":24.9585123},{"type":"node","id":9526378676,"lat":60.190705,"lon":24.9569586},{"type":"node","id":9526378677,"lat":60.1907414,"lon":24.9569027},{"type":"node","id":9526378678,"lat":60.1907941,"lon":24.9568994},{"type":"node","id":9933537930,"lat":60.1902142,"lon":24.9575847},{"type":"node","id":9933537934,"lat":60.1900081,"lon":24.9585845},{"type":"node","id":9933537935,"lat":60.1900977,"lon":24.9584298},{"type":"node","id":9933537936,"lat":60.1901052,"lon":24.9584504},{"type":"node","id":9933537938,"lat":60.1899341,"lon":24.9609402},{"type":"node","id":9933537939,"lat":60.1897242,"lon":24.9608242},{"type":"node","id":9933537940,"lat":60.1896224,"lon":24.9607627},{"type":"node","id":9933537941,"lat":60.1895501,"lon":24.9614038},{"type":"node","id":9933537942,"lat":60.1895743,"lon":24.961399},{"type":"node","id":9933537943,"lat":60.1895931,"lon":24.9613833},{"type":"node","id":9933537944,"lat":60.1896211,"lon":24.9613423},{"type":"node","id":9933537946,"lat":60.1896127,"lon":24.9607939},{"type":"node","id":10762049455,"lat":60.1900692,"lon":24.9585513},{"type":"node","id":10762049456,"lat":60.1895435,"lon":24.9611883},{"type":"node","id":10762049457,"lat":60.1895559,"lon":24.9611063},{"type":"node","id":10762049458,"lat":60.1895126,"lon":24.9611916},{"type":"node","id":10762049459,"lat":60.1895117,"lon":24.9611687},{"type":"node","id":10762049460,"lat":60.1895135,"lon":24.9612155},{"type":"node","id":10762049461,"lat":60.1894882,"lon":24.9615851},{"type":"node","id":10762049464,"lat":60.1895393,"lon":24.9610697},{"type":"node","id":10762049465,"lat":60.1896983,"lon":24.9599813},{"type":"node","id":10762049466,"lat":60.189776,"lon":24.9594642},{"type":"node","id":10762049467,"lat":60.1898122,"lon":24.9593135},{"type":"node","id":10762049469,"lat":60.1898887,"lon":24.9590518},{"type":"node","id":10762049471,"lat":60.1897276,"lon":24.9607882},{"type":"node","id":10762049472,"lat":60.1897609,"lon":24.9608127},{"type":"node","id":10762049473,"lat":60.1898687,"lon":24.960892},{"type":"node","id":10762049474,"lat":60.1897405,"lon":24.9607098},{"type":"node","id":10762049475,"lat":60.1899433,"lon":24.9608581},{"type":"node","id":10762049476,"lat":60.189775,"lon":24.960735},{"type":"node","id":10762049477,"lat":60.1898816,"lon":24.960813},{"type":"node","id":10762049478,"lat":60.1900882,"lon":24.9609315},{"type":"node","id":10762049479,"lat":60.1900768,"lon":24.9610409},{"type":"node","id":10762049480,"lat":60.1900175,"lon":24.9609722},{"type":"node","id":10762049481,"lat":60.1900072,"lon":24.9608905},{"type":"node","id":10762049482,"lat":60.1900129,"lon":24.960993},{"type":"node","id":10762049483,"lat":60.1900029,"lon":24.9610332},{"type":"node","id":10762049484,"lat":60.1900084,"lon":24.9610111},{"type":"node","id":10762049485,"lat":60.1899948,"lon":24.9610957},{"type":"node","id":10762049486,"lat":60.1899575,"lon":24.9613956},{"type":"node","id":10762049487,"lat":60.189987,"lon":24.9611589},{"type":"node","id":10762049488,"lat":60.189967,"lon":24.9613196},{"type":"node","id":10762049489,"lat":60.1899563,"lon":24.961056},{"type":"node","id":10762049490,"lat":60.1899686,"lon":24.9608699},{"type":"node","id":10762049491,"lat":60.1899935,"lon":24.9608836},{"type":"node","id":10762049492,"lat":60.1899801,"lon":24.9608762},{"type":"node","id":10762049493,"lat":60.1896493,"lon":24.9606445},{"type":"node","id":10762049494,"lat":60.1896152,"lon":24.9606201},{"type":"node","id":10762049495,"lat":60.1896304,"lon":24.9606307},{"type":"node","id":10762049496,"lat":60.1896061,"lon":24.9606125},{"type":"node","id":10762049499,"lat":60.1901032,"lon":24.9611011},{"type":"node","id":10762049502,"lat":60.1903971,"lon":24.9573891},{"type":"node","id":10762074010,"lat":60.1903867,"lon":24.9574396},{"type":"node","id":10762074014,"lat":60.1905403,"lon":24.9575661},{"type":"node","id":10762074017,"lat":60.1899194,"lon":24.9614112},{"type":"node","id":11491748018,"lat":60.1901138,"lon":24.9594129},{"type":"node","id":11491748019,"lat":60.1901661,"lon":24.9594303},{"type":"node","id":11649134477,"lat":60.1899779,"lon":24.9606249},{"type":"node","id":11810092810,"lat":60.1905672,"lon":24.957534},{"type":"node","id":11822800891,"lat":60.1895129,"lon":24.9585906},{"type":"node","id":11822800894,"lat":60.189513,"lon":24.9587016},{"type":"node","id":11980990002,"lat":60.1894492,"lon":24.9597376},{"type":"node","id":12107632864,"lat":60.1902163,"lon":24.9585269},{"type":"node","id":12107632865,"lat":60.1902102,"lon":24.9586361},{"type":"node","id":12107632866,"lat":60.1901998,"lon":24.9586979},{"type":"node","id":12107632867,"lat":60.1901351,"lon":24.9590622},{"type":"node","id":12107632868,"lat":60.1900788,"lon":24.9593984},{"type":"node","id":12107632869,"lat":60.1900193,"lon":24.9597499},{"type":"node","id":12107632870,"lat":60.1899911,"lon":24.9599168},{"type":"node","id":12107632871,"lat":60.189985,"lon":24.9599145},{"type":"node","id":12107632872,"lat":60.1899952,"lon":24.9597825},{"type":"node","id":12107632873,"lat":60.1900027,"lon":24.959702},{"type":"node","id":12107632874,"lat":60.1900414,"lon":24.9594693},{"type":"node","id":12107632875,"lat":60.1901604,"lon":24.9588128},{"type":"node","id":12107632876,"lat":60.1902014,"lon":24.9585768},{"type":"node","id":12107632877,"lat":60.1902094,"lon":24.9585332},{"type":"node","id":12188892877,"lat":60.1894169,"lon":24.962254},{"type":"node","id":12188892878,"lat":60.189237,"lon":24.9625085},{"type":"node","id":12188892879,"lat":60.1891614,"lon":24.9623328},{"type":"node","id":12188892880,"lat":60.1892953,"lon":24.9589096},{"type":"node","id":12188892882,"lat":60.1895274,"lon":24.9561134},{"type":"node","id":12188892883,"lat":60.1895078,"lon":24.9589696},{"type":"node","id":12188892884,"lat":60.1895278,"lon":24.9606699},{"type":"node","id":12188892885,"lat":60.1896596,"lon":24.9607636},{"type":"node","id":12377119162,"lat":60.1896878,"lon":24.9606716},{"type":"node","id":12377119163,"lat":60.1896756,"lon":24.9607507},{"type":"node","id":12377119164,"lat":60.1896402,"lon":24.9609625},{"type":"node","id":12377119165,"lat":60.1894554,"lon":24.9617183},{"type":"node","id":12377119174,"lat":60.189524,"lon":24.96149},{"type":"node","id":12379424240,"lat":60.1892644,"lon":24.961054},{"type":"node","id":12379424241,"lat":60.189254,"lon":24.9591293},{"type":"node","id":9110906820,"lat":60.1858978,"lon":24.9676906},{"type":"node","id":12379424237,"lat":60.1892293,"lon":24.9637599},{"type":"node","id":12379424238,"lat":60.1891307,"lon":24.9636986},{"type":"node","id":12379424239,"lat":60.1892373,"lon":24.9627528},{"type":"node","id":9110906819,"lat":60.1883967,"lon":24.970254}]}