{"version":0.6,"generator":"Overpass API 0.7.62.5 1bd436f1","osm3s":{"timestamp_osm_base":"2025-03-12T12:19:57Z","copyright":"The data included in this document is from www.openstreetmap.org. The data is made available under ODbL."},"elements":[{"type":"node","id":457296951,"lat":60.1893281,"lon":24.9611783,"tags":{"bicycle":"yes","crossing":"uncontrolled","highway":"crossing","kerb":"none","py\u00f6r\u00e4_v\u00e4ist\u00e4\u00e4_aina_autoa":"t\u00e4m\u00e4_osa"}},{"type":"node","id":1411003287,"lat":60.1892476,"lon":24.9608107,"tags":{"access":"private","addr:housenumber":"4-8","addr:street":"Aleksis Kiven katu","addr:unit":"A","description":"With buzzer","entrance":"staircase","wheelchair":"no"}},{"type":"node","id":1411003291,"lat":60.1892499,"lon":24.9602192,"tags":{"access":"private","addr:housenumber":"4-8","addr:street":"Aleksis Kiven katu","addr:unit":"C","description":"With buzzer","entrance":"staircase","wheelchair":"no"}},{"type":"node","id":1411003297,"lat":60.1892488,"lon":24.960515,"tags":{"access":"private","addr:housenumber":"4-8","addr:street":"Aleksis Kiven katu","addr:unit":"B","description":"With buzzer","entrance":"staircase","wheelchair":"no"}},{"type":"node","id":1411003299,"lat":60.189251,"lon":24.9599235,"tags":{"access":"private","addr:housenumber":"4-8","addr:street":"Aleksis Kiven katu","addr:unit":"D","description":"With buzzer","entrance":"staircase","wheelchair":"no"}},{"type":"node","id":2050468358,"lat":60.1892921,"lon":24.9611721,"tags":{"traffic_sign:missing":"FI:511"}},{"type":"node","id":2344184737,"lat":60.1893673,"lon":24.9611177,"tags":{"traffic_sign":"FI:681[bicycle]","traffic_sign:2":"FI:812[left_right]"}},{"type":"node","id":2538642791,"lat":60.1893505,"lon":24.9611678,"tags":{"traffic_sign":"FI:511"}},{"type":"node","id":3800867855,"lat":60.1893645,"lon":24.9609478,"tags":{"denotation":"street","leaf_cycle":"deciduous","leaf_type":"broadleaved","species":"Tilia x europaea","species:fi":"Puistolehmus","species:wikidata":"Q163760","species:wikipedia":"fi:Puistolehmus","was:natural":"tree"}},{"type":"node","id":3800868558,"lat":60.1893654,"lon":24.9603466,"tags":{"denotation":"street","leaf_cycle":"deciduous","leaf_type":"broadleaved","natural":"tree","species":"Tilia x europaea","species:fi":"Puistolehmus","species:wikidata":"Q163760","species:wikipedia":"fi:Puistolehmus"}},{"type":"node","id":3800868559,"lat":60.1893659,"lon":24.960487,"tags":{"denotation":"street","leaf_cycle":"deciduous","leaf_type":"broadleaved","natural":"tree","species":"Tilia x europaea","species:fi":"Puistolehmus","species:wikidata":"Q163760","species:wikipedia":"fi:Puistolehmus"}},{"type":"node","id":3800868560,"lat":60.1893664,"lon":24.9601874,"tags":{"denotation":"street","leaf_cycle":"deciduous","leaf_type":"broadleaved","natural":"tree","species":"Tilia x europaea","species:fi":"Puistolehmus","species:wikidata":"Q163760","species:wikipedia":"fi:Puistolehmus"}},{"type":"node","id":3800990106,"lat":60.1889356,"lon":24.961189,"tags":{"natural":"tree"}},{"type":"node","id":3800990109,"lat":60.1889688,"lon":24.9611514,"tags":{"natural":"tree"}},{"type":"node","id":3800990110,"lat":60.1889989,"lon":24.9611078,"tags":{"natural":"tree"}},{"type":"node","id":3800990111,"lat":60.1890182,"lon":24.9609902,"tags":{"natural":"tree"}},{"type":"node","id":3800990113,"lat":60.1890465,"lon":24.9611042,"tags":{"natural":"tree"}},{"type":"node","id":3800990115,"lat":60.1891014,"lon":24.9611005,"tags":{"natural":"tree"}},{"type":"node","id":3800990118,"lat":60.1891484,"lon":24.9611139,"tags":{"natural":"tree"}},{"type":"node","id":3800990120,"lat":60.1892081,"lon":24.9611066,"tags":{"natural":"tree"}},{"type":"node","id":4776872106,"lat":60.189227,"lon":24.9608766,"tags":{"addr:city":"Helsinki","addr:housenumber":"4-8","addr:postcode":"00500","addr:street":"Aleksis Kiven katu","name":"DTM Oy Nykykaihdin","opening_hours":"Mo 09:00-18:00; Tu-Th 09:00-16:00","shop":"window_blind","website":"https:\/\/nykykaihdin.fi\/","wheelchair":"yes"}},{"type":"node","id":8859786077,"lat":60.1892474,"lon":24.9608789,"tags":{"access":"yes","addr:housenumber":"4-8","addr:street":"Aleksis Kiven katu","entrance":"yes","wheelchair":"no"}},{"type":"node","id":8859786079,"lat":60.1892485,"lon":24.9609923,"tags":{"access":"private","barrier":"gate"}}]}