{"version":0.6,"generator":"Overpass API 0.7.62.5 1bd436f1","osm3s":{"timestamp_osm_base":"2025-03-12T12:17:00Z","copyright":"The data included in this document is from www.openstreetmap.org. The data is made available under ODbL."},"elements":[{"type":"node","id":76597832,"lat":60.1867726,"lon":24.9517696,"tags":{"addr:city":"Helsinki","addr:country":"FI","addr:housenumber":"20","addr:postcode":"00530","addr:street":"Helsinginkatu","amenity":"pub","full_name":"Soittoruokala Roskapankki","name":"Roskapankki","opening_hours":"Mo-Su 09:00-02:00","outdoor_seating":"yes"}},{"type":"node","id":249344998,"lat":60.1868222,"lon":24.9528341,"tags":{"addr:city":"Helsinki","addr:country":"FI","addr:housenumber":"18","addr:postcode":"00530","addr:street":"Helsinginkatu","branch":"Helsinginkatu","brand":"Alepa","brand:wikidata":"Q4716167","diet:halal":"no","diet:kosher":"no","name":"Alepa","opening_hours":"Mo-Sa 07:00-23:00; Su 09:00-23:00","payment:credit_cards":"yes","payment:debit_cards":"yes","shop":"convenience","short_name":"Alepa","website":"https:\/\/www.s-kanava.fi\/toimipaikka\/alepa-helsinginkatu\/512413709","wheelchair":"yes"}},{"type":"node","id":289555118,"lat":60.1869969,"lon":24.9517867,"tags":{"highway":"traffic_signals"}},{"type":"node","id":298186488,"lat":60.1869814,"lon":24.951957,"tags":{"bench":"yes","bin":"yes","departures_board":"realtime","lit":"yes","name":"Helsinginkatu","name:fi":"Helsinginkatu","name:sv":"Helsingegatan","public_transport":"platform","railway":"tram_stop","ref":"H0250","shelter":"yes","tram":"yes","wheelchair":"yes","zone:HSL":"A"}},{"type":"node","id":313769715,"lat":60.1871156,"lon":24.9530623,"tags":{"button_operated":"no","crossing":"traffic_signals","highway":"crossing","traffic_signals:sound":"no","traffic_signals:vibration":"no"}},{"type":"node","id":313945943,"lat":60.1870081,"lon":24.9527917,"tags":{"button_operated":"no","crossing":"traffic_signals","highway":"crossing","traffic_signals:vibration":"no"}},{"type":"node","id":313945946,"lat":60.1870488,"lon":24.9527885,"tags":{"button_operated":"no","crossing":"traffic_signals","highway":"crossing","traffic_signals:vibration":"no"}},{"type":"node","id":313945947,"lat":60.1870014,"lon":24.9527922,"tags":{"button_operated":"no","crossing":"traffic_signals","highway":"crossing","traffic_signals:vibration":"no"}},{"type":"node","id":313945948,"lat":60.1869766,"lon":24.9527939,"tags":{"crossing":"traffic_signals","highway":"crossing","traffic_signals:vibration":"no"}},{"type":"node","id":313945949,"lat":60.1869746,"lon":24.9527945,"tags":{"crossing":"traffic_signals","highway":"crossing","traffic_signals:vibration":"no"}},{"type":"node","id":313945950,"lat":60.1869311,"lon":24.9527978,"tags":{"button_operated":"no","crossing":"traffic_signals","highway":"crossing","traffic_signals:vibration":"no"}},{"type":"node","id":338913358,"lat":60.187255,"lon":24.9528773,"tags":{"addr:city":"Helsinki","addr:country":"FI","addr:housenumber":"18","addr:street":"Fleminginkatu"}},{"type":"node","id":340216717,"lat":60.1866704,"lon":24.9529316,"tags":{"addr:city":"Helsinki","addr:country":"FI","addr:housenumber":"16","addr:street":"Fleminginkatu"}},{"type":"node","id":374308268,"lat":60.1869303,"lon":24.9527451,"tags":{"cycleway":"asl","highway":"traffic_signals"}},{"type":"node","id":475530641,"lat":60.1871612,"lon":24.9526065,"tags":{"addr:city":"Helsinki","addr:country":"FI","addr:housenumber":"21","addr:street":"Helsinginkatu"}},{"type":"node","id":475530642,"lat":60.1871256,"lon":24.952017,"tags":{"addr:city":"Helsinki","addr:country":"FI","addr:housenumber":"23","addr:street":"Helsinginkatu"}},{"type":"node","id":1029533182,"lat":60.1867819,"lon":24.9521369,"tags":{"addr:city":"Helsinki","addr:country":"FI","addr:housenumber":"20","addr:street":"Helsinginkatu"}},{"type":"node","id":1029533194,"lat":60.1867789,"lon":24.9526797,"tags":{"addr:city":"Helsinki","addr:country":"FI","addr:housenumber":"18","addr:street":"Helsinginkatu"}},{"type":"node","id":1405905918,"lat":60.186682,"lon":24.953006,"tags":{"amenity":"vending_machine","check_date":"2023-08-25","currency:EUR":"yes","indoor":"no","opening_hours":"Mo-Fr 09:00-19:00","operator":"HKR","parking:ticket:zone":"3","payment:coins":"yes","ref":"356","vending":"parking_tickets"}},{"type":"node","id":1420854499,"lat":60.1871921,"lon":24.9517455,"tags":{"addr:city":"Helsinki","addr:country":"FI","addr:housenumber":"17","addr:street":"Kaarlenkatu"}},{"type":"node","id":1420854514,"lat":60.1870304,"lon":24.9518794,"tags":{"electrified":"power_feed","graffiti:tag":"lmnk;horst"}},{"type":"node","id":1503101605,"lat":60.1867867,"lon":24.9524265,"tags":{"end_date":"2020-08","name":"Baiks Kallio","was:shop":"bicycle"}},{"type":"node","id":1503103162,"lat":60.1868561,"lon":24.9519757,"tags":{"advertising":"poster_box","check_date":"2023-05-06","lit":"yes"}},{"type":"node","id":1503103926,"lat":60.1867852,"lon":24.9521897,"tags":{"addr:housenumber":"20","addr:street":"Helsinginkatu","level":"0","name":"Pinta","shop":"hairdresser"}},{"type":"node","id":1859006128,"lat":60.1868108,"lon":24.9520014,"tags":{"access":"yes","addr:housenumber":"20","addr:street":"Helsinginkatu","entrance":"shop","wheelchair":"no"}},{"type":"node","id":1859006131,"lat":60.1870746,"lon":24.9518981,"tags":{"entrance":"staircase","ref":"B"}},{"type":"node","id":1859006134,"lat":60.1872261,"lon":24.9529641,"tags":{"entrance":"staircase","ref":"B"}},{"type":"node","id":2050454055,"lat":60.1868441,"lon":24.951769,"tags":{"traffic_sign":"FI:372"}},{"type":"node","id":2060111183,"lat":60.1868828,"lon":24.9527465,"tags":{"traffic_signals":"signal","traffic_signals:detector":"remote_sensing","traffic_signals:foot":"yes","traffic_signals:motor_vehicle":"yes"}},{"type":"node","id":2060111186,"lat":60.1870115,"lon":24.9517417,"tags":{"man_made":"utility_pole","material":"steel","traffic_sign":"FI:333","traffic_signals":"signal","traffic_signals:foot":"yes","traffic_signals:motor_vehicle":"yes"}},{"type":"node","id":2060111187,"lat":60.1870256,"lon":24.9527257,"tags":{"traffic_signals":"signal","traffic_signals:button":"yes","traffic_signals:foot":"yes"}},{"type":"node","id":2060111188,"lat":60.187027,"lon":24.9528265,"tags":{"traffic_sign":"FI:417"}},{"type":"node","id":2126141319,"lat":60.186869,"lon":24.952474,"tags":{"man_made":"utility_pole","material":"steel","traffic_sign":"FI:372","traffic_sign:2":"FI:855a[9-21]","traffic_sign:3":"FI:871[Vy\u00f6hyke 3 Ei koske P-tunnuksella I\/J]","traffic_sign:4":"FI:825"}},{"type":"node","id":2126141320,"lat":60.1869035,"lon":24.9524713,"tags":{"layer":"1","location":"overhead","traffic_sign":"FI:414[right]"}},{"type":"node","id":2126141321,"lat":60.1869345,"lon":24.9524689,"tags":{"layer":"1","location":"overhead","traffic_sign":"FI:413[left]"}},{"type":"node","id":2281113560,"lat":60.1868034,"lon":24.9518396,"tags":{"access":"yes","addr:housenumber":"20","addr:street":"Helsinginkatu","entrance":"shop","wheelchair":"no"}},{"type":"node","id":2281115223,"lat":60.1868622,"lon":24.9523058,"tags":{"traffic_sign":"FI:372","traffic_sign:2":"FI:855a[9-21]","traffic_sign:3":"FI:871[Vy\u00f6hyke 3 Ei koske P-tunnuksella I\/J]"}},{"type":"node","id":2281115224,"lat":60.186868,"lon":24.9525751,"tags":{"traffic_signals":"controller"}},{"type":"node","id":2281122066,"lat":60.1868295,"lon":24.9524428,"tags":{"advertising":"sign","label":"Suomen Polkupy\u00f6r\u00e4tukku","lit":"yes"}},{"type":"node","id":2281122071,"lat":60.1868361,"lon":24.9525972,"tags":{"access":"yes","addr:housenumber":"18","addr:street":"Helsinginkatu","entrance":"yes","wheelchair":"yes"}},{"type":"node","id":2281122076,"lat":60.1868393,"lon":24.9526874,"tags":{"advertising":"sign","entrance":"shop","label":"Alepa","lit":"yes"}},{"type":"node","id":2281122082,"lat":60.1868429,"lon":24.9530615,"tags":{"traffic_sign":"FI:371"}},{"type":"node","id":2281122089,"lat":60.1868436,"lon":24.9527925,"tags":{"advertising":"window"}},{"type":"node","id":2411513943,"lat":60.1869922,"lon":24.9523841,"tags":{"traffic_sign":"FI:533"}},{"type":"node","id":2411513950,"lat":60.1870662,"lon":24.9527284,"tags":{"traffic_sign":"FI:371","traffic_signals":"signal","traffic_signals:button":"yes","traffic_signals:foot":"yes"}},{"type":"node","id":2411513952,"lat":60.1871346,"lon":24.9530534,"tags":{"traffic_sign":"FI:231","traffic_signals":"signal","traffic_signals:foot":"yes","traffic_signals:motor_vehicle":"yes"}},{"type":"node","id":2411513956,"lat":60.1871722,"lon":24.9530663,"tags":{"traffic_signals":"signal"}},{"type":"node","id":3511936286,"lat":60.1866764,"lon":24.9517356,"tags":{"addr:city":"Helsinki","addr:housenumber":"15","addr:postcode":"00530","addr:street":"Kaarlenkatu","amenity":"cafe","check_date":"2024-08-13","contact:instagram":"omamaa.cafe","contact:website":"http:\/\/www.omamaa.fi\/","cuisine":"international","description":"Cafe and Food cooperative","diet:vegan":"yes","diet:vegetarian":"yes","full_name":"Luomukahvila Oma maa","identity":"yes;solidarity_economy;commons","interaction":"diy_and_dit;buying_and_selling;cousing","level":"0","lunch":"yes","microroasting":"yes","name":"Oma maa","office":"cooperative","opening_hours":"Tu-Fr 07:00-17:00; Sa-Su 09:00-18:00","outdoor_seating":"yes","payment:cash":"yes","payment:credit_cards":"yes","payment:debit_cards":"yes","provides":"food+drink;culture","toilets":"yes","topic":"food+drink;culture"}},{"type":"node","id":3953645172,"lat":60.1866644,"lon":24.9518237,"tags":{"addr:city":"Helsinki","addr:housenumber":"15","addr:postcode":"00530","addr:street":"Kaarlenkatu","amenity":"community_centre","contact:website":"https:\/\/stadinaikapankki.wordpress.com\/","identity":"solidarity_economy;demonetized_economy;community_based_currencies;commons;economy_for_the_common_good;collaborative_economy;degrowth;p2p_economy","interaction":"sharing;diy_and_dit","level":"0","name":"Stadin aikapankki","provides":"culture;learning_opportunities;community;participation","topic":"culture;learning_opportunities;community;participation"}},{"type":"node","id":6787322410,"lat":60.1871268,"lon":24.952767,"tags":{"addr:city":"Helsinki","addr:housenumber":"21","addr:postcode":"00510","addr:street":"Helsinginkatu","amenity":"bar","lgbtq":"welcome","name":"Limbo","opening_hours":"We-Th 18:00-02:00; Fr-Sa 16:00-03:00; Su 18:00-02:00","outdoor_seating":"yes","payment:credit_cards":"yes","payment:debit_cards":"yes","website":"https:\/\/limbobar.fi\/"}},{"type":"node","id":7353959328,"lat":60.1871107,"lon":24.9523827,"tags":{"addr:city":"Helsinki","addr:housenumber":"21","addr:postcode":"00530","addr:street":"Helsinginkatu","amenity":"restaurant","cuisine":"italian","delivery":"yes","name":"Faselli","opening_hours":"Mo 16:00-21:00; Tu-We 16:00-21:30; Th 16:00-22:00; Fr 12:00-23:00; Sa 13:00-23:00; Su 13:00-21:00","outdoor_seating":"yes","payment:credit_cards":"yes","payment:debit_cards":"yes","phone":"+358 449802957","takeaway":"yes","website":"https:\/\/www.faselli.fi\/"}},{"type":"node","id":8852722352,"lat":60.1868066,"lon":24.9519187,"tags":{"access":"yes","addr:housenumber":"20","addr:street":"Helsinginkatu","entrance":"shop","wheelchair":"no"}},{"type":"node","id":8852722354,"lat":60.186783,"lon":24.9519128,"tags":{"addr:housenumber":"20","addr:street":"Helsinginkatu","craft":"photographer","level":"1","name":"Kallion kuvahommat"}},{"type":"node","id":8852722356,"lat":60.1868141,"lon":24.9520784,"tags":{"access":"yes","addr:housenumber":"20","addr:street":"Helsinginkatu","entrance":"shop","wheelchair":"no"}},{"type":"node","id":8852722358,"lat":60.1867794,"lon":24.9520836,"tags":{"addr:housenumber":"20","addr:street":"Helsinginkatu","craft":"electronics_repair","electronics_repair":"phone","level":"1","name":"Drmobilefix","opening_hours":"Mo-Fr 10:00-18:00; Sa 11:00-16:00"}},{"type":"node","id":8852722359,"lat":60.1868165,"lon":24.9521332,"tags":{"access":"private","addr:housenumber":"20","addr:street":"Helsinginkatu","description":"With buzzer","entrance":"staircase","wheelchair":"no"}},{"type":"node","id":8852722361,"lat":60.1868191,"lon":24.9521849,"tags":{"access":"yes","addr:housenumber":"20","addr:street":"Helsinginkatu","entrance":"shop","wheelchair":"no"}},{"type":"node","id":8852722364,"lat":60.1868236,"lon":24.9523062,"tags":{"access":"private","barrier":"gate"}},{"type":"node","id":10870309939,"lat":60.1868986,"lon":24.9525402,"tags":{"access":"yes","amenity":"bicycle_parking","bicycle_parking":"stands","capacity":"10","covered":"no","fee":"no"}},{"type":"node","id":11063428806,"lat":60.1868626,"lon":24.9522485,"tags":{"bus":"yes","highway":"bus_stop","name":"Helsinginkatu","name:fi":"Helsinginkatu","name:sv":"Helsingegatan","public_transport":"platform","ref":"H2150","website":"https:\/\/reittiopas.hsl.fi\/pysakit\/HSL%3A1121120","wheelchair":"no","zone:HSL":"A"}},{"type":"node","id":11775372971,"lat":60.1870879,"lon":24.9521485,"tags":{"addr:unit":"A","entrance":"yes","ref":"A"}},{"type":"node","id":11775372974,"lat":60.1870908,"lon":24.9517571,"tags":{"craft":"cleaning","name":"MK-Clean Service Oy","website":"https:\/\/www.mkcleanservice.fi\/"}},{"type":"node","id":11804063355,"lat":60.1870618,"lon":24.9520151,"tags":{"bench":"yes","bin":"yes","lit":"yes","name":"Helsinginkatu","name:fi":"Helsinginkatu","name:sv":"Helsingegatan","shelter":"yes","was:bus":"yes","was:highway":"bus_stop","was:public_transport":"platform","was:ref":"H2149","was:website":"https:\/\/reittiopas.hsl.fi\/pysakit\/HSL%3A1121119","wheelchair":"no","zone:HSL":"A"}}]}