{"version":0.6,"generator":"Overpass API 0.7.61.5 4133829e","osm3s":{"timestamp_osm_base":"2023-08-13T09:20:22Z","copyright":"The data included in this document is from www.openstreetmap.org. The data is made available under ODbL."},"elements":[{"type":"node","id":319709211,"lat":60.1635552,"lon":24.941307,"tags":{"addr:city":"Helsinki","addr:country":"FI","addr:housenumber":"6","addr:street":"Annankatu"}},{"type":"node","id":319709782,"lat":60.163333,"lon":24.9414103,"tags":{"addr:city":"Helsinki","addr:country":"FI","addr:housenumber":"13","addr:postcode":"00120","addr:street":"Iso Roobertinkatu"}},{"type":"node","id":319804346,"lat":60.1630547,"lon":24.9406473,"tags":{"man_made":"surveillance"}},{"type":"node","id":319804348,"lat":60.1630411,"lon":24.9405585,"tags":{"addr:city":"Helsinki","addr:country":"FI","addr:housenumber":"21","addr:postcode":"00120","addr:street":"Iso Roobertinkatu"}},{"type":"node","id":319805409,"lat":60.1630945,"lon":24.9407029,"tags":{"addr:city":"Helsinki","addr:country":"FI","addr:housenumber":"19","addr:postcode":"00120","addr:street":"Iso Roobertinkatu","name":"Mafka & Alakoski","opening_hours":"Tu-Fr 11:00-18:00; Sa 11:00-16:00","shop":"yes"}},{"type":"node","id":319805410,"lat":60.1632288,"lon":24.941117,"tags":{"addr:city":"Helsinki","addr:country":"FI","addr:housenumber":"15","addr:postcode":"00120","addr:street":"Iso Roobertinkatu"}},{"type":"node","id":564652690,"lat":60.1630325,"lon":24.9411461,"tags":{"addr:city":"Helsinki","addr:country":"FI","addr:housenumber":"20-22","addr:postcode":"00120","addr:street":"Iso Roobertinkatu","branch":"Roba","brand":"K-Market","brand:wikidata":"Q11868562","brand:wikipedia":"fi:K-Market","diet:halal":"no","diet:kosher":"no","name":"K-Market","opening_hours":"Mo-Fr 7:00-22:00; Sa 9:00-21:00; Su 12:00-20:00","phone":"09-611899","shop":"convenience","website":"https:\/\/www.k-ruoka.fi\/kauppa\/k-market-roba","wheelchair":"yes"}},{"type":"node","id":600388159,"lat":60.1632942,"lon":24.9412669,"tags":{"addr:city":"Helsinki","addr:country":"FI","addr:housenumber":"15","addr:postcode":"00120","addr:street":"Iso Roobertinkatu","amenity":"bar","cuisine":"kebab","name":"Bar Bronco","opening_hours":"Mo-Fr 11:00-02:00; Sa-Su 12:00-02:00","payment:credit_cards":"yes","payment:debit_cards":"yes","url":"http:\/\/www.stadinkebab.fi\/"}},{"type":"node","id":600388160,"lat":60.1633238,"lon":24.9413519,"tags":{"addr:city":"Helsinki","addr:country":"FI","addr:housenumber":"13","addr:postcode":"00120","addr:street":"Iso Roobertinkatu","amenity":"pub","name":"Tommy Knocker","opening_hours":"Mo-Fr 14:00-01:00;Sa 12:00-01:00;Su 14:00-00:00","payment:credit_cards":"yes","payment:debit_cards":"yes","website":"http:\/\/www.tommyknocker.fi\/"}},{"type":"node","id":2018446354,"lat":60.1635285,"lon":24.941378,"tags":{"addr:city":"Helsinki","addr:country":"FI","addr:housenumber":"6","addr:postcode":"00120","addr:street":"Annankatu","amenity":"restaurant","cuisine":"thai","diet:halal":"no","diet:kosher":"no","name":"Haru+","payment:credit_cards":"yes","payment:debit_cards":"yes","website":"https:\/\/harusushi.f"}},{"type":"node","id":3329276127,"lat":60.1635513,"lon":24.9414064,"tags":{"note":"Ei ihan FI:836 mitoiltaan kyll\u00e4","traffic_sign":"FI:521","traffic_sign:2":"FI:836"}},{"type":"node","id":4692325010,"lat":60.1631527,"lon":24.9414501,"tags":{"addr:city":"Helsinki","addr:country":"FI","addr:housenumber":"20-22","addr:postcode":"00120","addr:street":"Iso Roobertinkatu","amenity":"cafe","diet:halal":"no","diet:kosher":"no","name":"Mat","payment:credit_cards":"yes","payment:debit_cards":"yes","shop":"yes","website":"http:\/\/mat.st"}},{"type":"node","id":4692325016,"lat":60.1630719,"lon":24.9406283,"tags":{"addr:city":"Helsinki","addr:country":"FI","addr:housenumber":"19","addr:postcode":"00120","addr:street":"Iso Roobertinkatu","amenity":"restaurant","cuisine":"japanese","diet:halal":"no","diet:kosher":"no","name":"Kurume"}},{"type":"node","id":4714454789,"lat":60.162999,"lon":24.9404197,"tags":{"addr:city":"Helsinki","addr:country":"FI","addr:housenumber":"21","addr:postcode":"00120","addr:street":"Iso Roobertinkatu","amenity":"bar","name":"Jackie","opening_hours":"Tu,We 16:00-23:00, Th 16:00-02:00, Fr,Sa 16:00-03:00","website":"http:\/\/jackie.fi\/","wheelchair:description":"New bar will open on 31 March 2017. Former 'We Got Beef' bar closed in January 2017."}},{"type":"node","id":4754875506,"lat":60.1631266,"lon":24.9407886,"tags":{"addr:city":"Helsinki","addr:country":"FI","addr:housenumber":"19","addr:postcode":"00120","addr:street":"Iso Roobertinkatu","name":"Meikkipussi","payment:credit_cards":"yes","payment:debit_cards":"yes","shop":"beauty"}},{"type":"node","id":4866386135,"lat":60.163155,"lon":24.9408688,"tags":{"addr:city":"Helsinki","addr:country":"FI","addr:housenumber":"17","addr:postcode":"00120","addr:street":"Iso Roobertinkatu","name":"Korugalleria Roba","opening_hours":"Mo-Fr 10:00-17:00; Sa 10:00-14:00","shop":"jewelry"}},{"type":"node","id":4867707126,"lat":60.1630338,"lon":24.9413232,"tags":{"addr:city":"Helsinki","addr:country":"FI","addr:housenumber":"20-22","addr:postcode":"00120","addr:street":"Iso Roobertinkatu","name":"Suomen reumaliitto","office":"ngo"}},{"type":"node","id":4867707127,"lat":60.1630431,"lon":24.9413306,"tags":{"addr:city":"Helsinki","addr:country":"FI","addr:housenumber":"20-22","addr:postcode":"00120","addr:street":"Iso Roobertinkatu","amenity":"school","name":"Eiran aikuislukio","website":"http:\/\/www.eira.fi"}},{"type":"node","id":4867707128,"lat":60.1630455,"lon":24.9413688,"tags":{"addr:city":"Helsinki","addr:country":"FI","addr:housenumber":"20-22","addr:postcode":"00120","addr:street":"Iso Roobertinkatu","male":"yes","name":"Profile parturi","payment:credit_cards":"yes","payment:debit_cards":"yes","shop":"hairdresser"}},{"type":"node","id":4867707129,"lat":60.1630358,"lon":24.9413641,"tags":{"addr:city":"Helsinki","addr:country":"FI","addr:housenumber":"20-22","addr:postcode":"00120","addr:street":"Iso Roobertinkatu","name":"Tapahtumat M.A.T. Oy Ab","office":"company"}},{"type":"node","id":4867707130,"lat":60.1630325,"lon":24.9413453,"tags":{"addr:city":"Helsinki","addr:country":"FI","addr:housenumber":"20-22","addr:postcode":"00120","addr:street":"Iso Roobertinkatu","name":"Lepopiste","office":"company"}},{"type":"node","id":4867707131,"lat":60.1630291,"lon":24.9413366,"tags":{"addr:city":"Helsinki","addr:country":"FI","addr:housenumber":"20-22","addr:postcode":"00120","addr:street":"Iso Roobertinkatu","name":"Roban konna OY","office":"company"}},{"type":"node","id":4867707132,"lat":60.1630268,"lon":24.9413292,"tags":{"addr:city":"Helsinki","addr:country":"FI","addr:housenumber":"20-22","addr:postcode":"00120","addr:street":"Iso Roobertinkatu","name":"There Is No Spoon OY","office":"company"}},{"type":"node","id":4867707133,"lat":60.1630228,"lon":24.9413178,"tags":{"addr:city":"Helsinki","addr:country":"FI","addr:housenumber":"20-22","addr:postcode":"00120","addr:street":"Iso Roobertinkatu","name":"Elokuvayhti\u00f6 komeetta","office":"company"}},{"type":"node","id":4867707134,"lat":60.1630191,"lon":24.9413071,"tags":{"addr:city":"Helsinki","addr:country":"FI","addr:housenumber":"20-22","addr:postcode":"00120","addr:street":"Iso Roobertinkatu","name":"Kotimaailma","office":"company"}},{"type":"node","id":4867707135,"lat":60.1630145,"lon":24.9412944,"tags":{"addr:city":"Helsinki","addr:country":"FI","addr:housenumber":"20-22","addr:postcode":"00120","addr:street":"Iso Roobertinkatu","name":"Askel terveyteen","office":"company"}},{"type":"node","id":4867707136,"lat":60.1630098,"lon":24.9412823,"tags":{"addr:city":"Helsinki","addr:country":"FI","addr:housenumber":"20-22","addr:postcode":"00120","addr:street":"Iso Roobertinkatu","name":"Twin Tone Oy","office":"company"}},{"type":"node","id":4867707137,"lat":60.1630058,"lon":24.9412655,"tags":{"addr:city":"Helsinki","addr:country":"FI","addr:housenumber":"20-22","addr:postcode":"00120","addr:street":"Iso Roobertinkatu","name":"Tilitoimisto","office":"company"}},{"type":"node","id":4867707138,"lat":60.1629931,"lon":24.9412769,"tags":{"addr:city":"Helsinki","addr:country":"FI","addr:housenumber":"20-22","addr:postcode":"00120","addr:street":"Iso Roobertinkatu","name":"Psykoterapeutit Helminen & R\u00f6nk\u00e4","office":"company"}},{"type":"node","id":4867707139,"lat":60.1629978,"lon":24.941287,"tags":{"addr:city":"Helsinki","addr:country":"FI","addr:housenumber":"20-22","addr:postcode":"00120","addr:street":"Iso Roobertinkatu","name":"Hogrete","office":"company"}},{"type":"node","id":4867707140,"lat":60.1630021,"lon":24.9413071,"tags":{"addr:city":"Helsinki","addr:country":"FI","addr:housenumber":"20-22","addr:postcode":"00120","addr:street":"Iso Roobertinkatu","name":"Positive Life Solutions","office":"company"}},{"type":"node","id":4867707141,"lat":60.1630091,"lon":24.9413219,"tags":{"addr:city":"Helsinki","addr:country":"FI","addr:housenumber":"20-22","addr:postcode":"00120","addr:street":"Iso Roobertinkatu","name":"\u00c4ss\u00e4 Design Oy","office":"company"}},{"type":"node","id":4867707142,"lat":60.1630128,"lon":24.9413386,"tags":{"addr:city":"Helsinki","addr:country":"FI","addr:housenumber":"20-22","addr:postcode":"00120","addr:street":"Iso Roobertinkatu","name":"Osaamistehdas OY","office":"company"}},{"type":"node","id":4867707143,"lat":60.1630228,"lon":24.9413554,"tags":{"addr:city":"Helsinki","addr:country":"FI","addr:housenumber":"20-22","addr:postcode":"00120","addr:street":"Iso Roobertinkatu","name":"Vean Investment Ab","office":"company"}},{"type":"node","id":4867707144,"lat":60.1630271,"lon":24.9413735,"tags":{"addr:city":"Helsinki","addr:country":"FI","addr:housenumber":"20-22","addr:postcode":"00120","addr:street":"Iso Roobertinkatu","name":"Lavaretus Underwriting AB","office":"company"}},{"type":"node","id":4867707145,"lat":60.1630318,"lon":24.9413829,"tags":{"addr:city":"Helsinki","addr:country":"FI","addr:housenumber":"20-22","addr:postcode":"00120","addr:street":"Iso Roobertinkatu","name":"Industrial News Service OY","office":"company"}},{"type":"node","id":4867707146,"lat":60.1630348,"lon":24.9413983,"tags":{"addr:city":"Helsinki","addr:country":"FI","addr:housenumber":"20-22","addr:postcode":"00120","addr:street":"Iso Roobertinkatu","name":"Finsk-Svenska Handelskammaren","office":"company"}},{"type":"node","id":4867707147,"lat":60.1630403,"lon":24.941405,"tags":{"addr:city":"Helsinki","addr:country":"FI","addr:housenumber":"20-22","addr:postcode":"00120","addr:street":"Iso Roobertinkatu","name":"Anders Innovations OY","office":"company"}},{"type":"node","id":4867707148,"lat":60.1630583,"lon":24.9413956,"tags":{"addr:city":"Helsinki","addr:country":"FI","addr:housenumber":"20-22","addr:postcode":"00120","addr:street":"Iso Roobertinkatu","amenity":"school","name":"Etel\u00e4-Helsingin kansalaisopisto"}},{"type":"node","id":4867707150,"lat":60.1631441,"lon":24.9414868,"tags":{"addr:city":"Helsinki","addr:country":"FI","addr:housenumber":"20-22","addr:postcode":"00120","addr:street":"Iso Roobertinkatu","name":"Ruokakauppa","opening_hours":"Mo 10:00-16:00; Tu-Fr 8:30-18:00; Sa 11:00-16:00","payment:credit_cards":"yes","payment:debit_cards":"yes","shop":"greengrocer"}},{"type":"node","id":4992404248,"lat":60.1635943,"lon":24.94054,"tags":{"natural":"tree"}},{"type":"node","id":4992404249,"lat":60.163649,"lon":24.9406171,"tags":{"natural":"tree"}},{"type":"node","id":4992404250,"lat":60.163597,"lon":24.9406703,"tags":{"natural":"tree"}},{"type":"node","id":5368320179,"lat":60.163488,"lon":24.9414518,"tags":{"addr:city":"Helsinki","addr:street":"Annankatu"}},{"type":"node","id":5706110996,"lat":60.1632036,"lon":24.9410029,"tags":{"addr:city":"Helsinki","addr:street":"Iso Roobertinkatu","clothes":"children","name":"Mini Rodini","payment:credit_cards":"yes","payment:debit_cards":"yes","shop":"clothes"}},{"type":"node","id":5706110997,"lat":60.1631755,"lon":24.9409171,"tags":{"addr:city":"Helsinki","addr:street":"Iso Roobertinkatu","name":"Groom","shop":"hairdresser"}},{"type":"node","id":6482405753,"lat":60.1630593,"lon":24.9412095,"tags":{"addr:city":"Helsinki","addr:housenumber":"20-22","addr:postcode":"00120","addr:street":"Iso Roobertinkatu","amenity":"restaurant","cuisine":"vietnamese","diet:halal":"no","diet:kosher":"no","name":"NOM Vietnamese Kitchen","payment:credit_cards":"yes","payment:debit_cards":"yes","website":"http:\/\/nomvietnamesekitchen.fi\/"}},{"type":"node","id":7669516110,"lat":60.1631813,"lon":24.941459,"tags":{"access":"yes","addr:housenumber":"20-22","addr:street":"Iso Roobertinkatu","entrance":"secondary","opening_hours":"Mo-Su 12:00-02:00","wheelchair":"yes"}},{"type":"node","id":7669516112,"lat":60.1631658,"lon":24.941484,"tags":{"addr:housenumber":"20-22","addr:street":"Iso Roobertinkatu","amenity":"bar","level":"1","name":"Brewster Bar","opening_hours":"ma-su 12-02","payment:credit_cards":"yes","payment:debit_cards":"yes"}},{"type":"node","id":7669516113,"lat":60.1631302,"lon":24.9413163,"tags":{"access":"yes","addr:housenumber":"20-22","addr:street":"Iso Roobertinkatu","entrance":"secondary","wheelchair":"yes"}},{"type":"node","id":7669516115,"lat":60.1631068,"lon":24.9412497,"tags":{"access":"no","addr:housenumber":"20","addr:street":"Iso Roobertinkatu","entrance":"secondary","wheelchair":"yes"}},{"type":"node","id":7669516117,"lat":60.1630595,"lon":24.9411152,"tags":{"access":"yes","addr:housenumber":"20-22","addr:street":"Iso Roobertinkatu","entrance":"secondary","opening_hours":"Mo-Fr 07:00-22:00; Sa 09:00-21:00; Su 12:00-18:00","wheelchair":"yes"}},{"type":"node","id":7680128423,"lat":60.1630844,"lon":24.9411859,"tags":{"access":"yes","addr:housenumber":"20-22","addr:street":"Iso Roobertinkatu","description":"With buzzer","entrance":"main","wheelchair":"yes"}},{"type":"node","id":7680128425,"lat":60.1631869,"lon":24.9414747,"tags":{"access":"private","barrier":"gate"}},{"type":"node","id":9338778472,"lat":60.1630029,"lon":24.9409538,"tags":{"access":"yes","addr:housenumber":"24","addr:street":"Iso Roobertinkatu","entrance":"main","wheelchair":"yes"}},{"type":"node","id":10181313478,"lat":60.1631245,"lon":24.9410611,"tags":{"access":"yes","amenity":"bicycle_parking","bicycle_parking":"stands","capacity":"22","covered":"no","fee":"no"}}]}