{"version":0.6,"generator":"Overpass API 0.7.61.5 4133829e","osm3s":{"timestamp_osm_base":"2023-08-13T09:19:16Z","timestamp_areas_base":"2023-08-13T03:48:45Z","copyright":"The data included in this document is from www.openstreetmap.org. The data is made available under ODbL."},"elements":[{"type":"way","id":37264747,"nodes":[434153017,249217726,434153019,1377394514,247321555,247321556,247321566,247321567,434153015,3232013787,10961559266,1377394534,3232013793,3232013799,247321530,2524250178,3330896634,3330896633,1377394532,7615674340,7615674339,7615674337,1377394527,247321531,3336810244,9699667417,1377394501,9699741724,1377394497,1377394496,434153012,1377394498,434153011,247321551,247321546,1011446784,247321543,434153010,3329276136,1377394500,247321533,3232013774,434153018,247321536,247321535,247321541,434153016,434153017],"tags":{"landuse":"residential"}},{"type":"way","id":54893910,"nodes":[690901335,690901336,690901337,690901338,690901339,690901340,690901341,8506018430,690901342,690901343,8070752247,3617622879,690901344,690901345,690901346,690901348,690901335],"tags":{"airspace":"c","date":"19-nov-2009","lower_limit":"2500","lower_limit_type":"msl","ref":"HELSINKI TMA UPPER","source":"https:\/\/ais.fi\/ais\/eaip\/fi\/","type":"tma","upper_limit":"245","upper_limit_type":"fl"}},{"type":"way","id":86943008,"nodes":[1011446822,1377394506,1377394502,247321622,247321616,1011446769,1011446794,247321617,1011446798,1011446773,1377394496,434153012,1377394498,434153011,247321552,1011446782,1011446822],"tags":{"addr:city":"Helsinki","addr:country":"FI","addr:housenumber":"9","addr:street":"Iso Roobertinkatu","building":"yes","wikidata":"Q98413236"}},{"type":"way","id":697076747,"nodes":[6546867317,6546867316,8183894805,8629428198,6546867491,6546867492,6546867493,6546867494,6546867495,6546867315,6546867314,6546867313,6546867312,6546867311,6546867310,6546867496,6546867497,6546867309,6546867308,6546867307,6546867498,6546867499,6546867500,6546867501,6546867502,6546867306,6546867305,6546867304,6546867303,6546867302,6546867301,6546867503,6546867504,6546867300,6546867299,6546867298,6546867505,6546867506,6546867507,6546867508,6546867509,6546867297,6546867296,1324853797,6852154744,6852154672,9097653902,1978706100,1978706102,265580721,7710491362,1575226482,1575226489,1978706103,1324853800,1978706101,1978700111,1978700123,6546867511,6546867291,6546867290,6546867289,6546867512,6546867513,6546867514,6546867515,6546867516,6546867288,6546867287,6546867286,6546867285,6546862984,6546862983,6546867517,6546867518,6546862982,6546862981,6546862980,6546867519,6546867520,6546867521,6546862979,6546867522,6546867523,6546862978,6546862977,6546862976,6546862975,6546862974,6546867469,6546867470,6546867471,6546867472,6546867473,6546867474,6546862973,6546862972,6546862971,6546862970,6546862969,6546862968,6546867475,6546867476,6546862967,6546862966,6546867477,6546867478,6546867479,6546867480,6546867481,6546867482,6546862965,6546862964,6546862963,6546862962,6546862961,6546862960,6546867483,6546867484,6546862959,6546862958,6546867485,6546867486,6546867487,6546867488,6546867489,6546867490,6546862957,6546862956,6546862955,6546862954,6546867317],"tags":{"area":"yes","boundary":"public_transport","name":"A","network":"HSL","public_transport":"fare_zone","ref":"A","zone:HSL":"A"}},{"type":"way","id":846049028,"nodes":[247321533,247321532,434153012,1377394496,1377394497,1377394501,9699667417,3336810244,247321531,1377394527,247321530,247321533],"tags":{"name":"Fasaani","name:fi":"Fasaani","place":"city_block","ref":"88"}},{"type":"way","id":985509665,"nodes":[9110890393,9110890394,9110890395,9110890396,9110890397,7804159986,9110890398,9110890399,9110890400,9110890401,9110890402,9110890403,9110890404,9110890405,9110890406,9110890407,9110890408,9110890409,9110890410,9110890411,9110890412,9110890413,9110890414,9110890415,9110890416,9110906817,9110906818,9110906819,9110906820,9110906821,9110906822,9110906823,9110906824,9110906825,9110906826,9110906827,9110906828,9110906829,9110906830,9110906831,9110906832,9110906833,9110906834,9110906835,9110906836,9110906837,9110906838,9110906839,9110906840,9110906841,9110906842,10967559392,9110906843,9110906844,9110906845,10968284186,9110906846,9110906847,9110906848,9110906849,9110906850,9110906851,9110906852,9110906853,9110906854,9110906855,9110906856,9110906857,9110906858,9110906859,9110906860,9110906861,9110906862,9110906863,9110906864,9110906865,9110906866,9110890393],"tags":{"area":"yes","boundary":"legal","description":"Raskaan liikenteen rajoitusalue Helsingiss\u00e4"}},{"type":"area","id":3600034914,"tags":{"admin_level":"8","alt_name":"Hesa;Stadi","boundary":"administrative","capital":"yes","name":"Helsinki","name:ar":"\u0647\u0644\u0633\u0646\u0643\u064a","name:ca":"H\u00e8lsinki","name:ckb":"\u06be\u06ce\u0644\u0633\u06cc\u0646\u06a9\u06cc","name:da":"Helsingfors","name:de":"Helsinki","name:en":"Helsinki","name:fa":"\u0647\u0644\u0633\u06cc\u0646\u06a9\u06cc","name:fi":"Helsinki","name:he":"\u05d4\u05dc\u05e1\u05d9\u05e0\u05e7\u05d9","name:ko":"\ud5ec\uc2f1\ud0a4","name:nn":"Helsingfors","name:no":"Helsingfors","name:ru":"\u0425\u0435\u043b\u044c\u0441\u0438\u043d\u043a\u0438","name:sv":"Helsingfors","name:ur":"\u06c1\u0644\u0633\u0646\u06a9\u06cc","place":"city","ref":"091","source:ref":"http:\/\/www.kunnat.net","type":"boundary","wikidata":"Q1757","wikipedia":"fi:Helsinki"}},{"type":"area","id":3600037355,"tags":{"ISO3166-2":"FI-18","admin_level":"6","alt_name:la":"Terra Nova","boundary":"administrative","is_in:country_code":"FI","name":"Uusimaa","name:en":"Uusimaa","name:fi":"Uusimaa","name:hu":"Uusimaa","name:la":"Nylandia","name:ru":"\u0423\u0443\u0441\u0438\u043c\u0430\u0430","name:sv":"Nyland","official_name":"Uudenmaan maakunta","official_name:en":"Uusimaa County","official_name:fi":"Uudenmaan maakunta","official_name:sv":"Nylands landskap","ref":"FI181","ref:nuts":"FI1B;FI1B1","ref:nuts:2":"FI1B","ref:nuts:3":"FI1B1","source:ref":"http:\/\/fi.wikipedia.org\/wiki\/NUTS:FI","type":"boundary","wikidata":"Q5711","wikipedia":"fi:Uudenmaan maakunta"}},{"type":"area","id":3600038090,"tags":{"ISO3166-2":"FI-ES","admin_level":"4","boundary":"historic","end_date":"2009-12-31","name":"Etel\u00e4-Suomi","name:ar":"\u0641\u0646\u0644\u0646\u062f\u0627 \u0627\u0644\u062c\u0646\u0648\u0628\u064a\u0629","name:be":"\u041f\u0430\u045e\u0434\u043d\u0451\u0432\u0430\u044f \u0424\u0456\u043d\u043b\u044f\u043d\u0434\u044b\u044f","name:de":"S\u00fcdfinnland","name:en":"Southern Finland","name:es":"Finlandia Meridional","name:et":"L\u00f5una-Soome l\u00e4\u00e4n","name:fi":"Etel\u00e4-Suomi","name:fr":"Finlande m\u00e9ridionale","name:hu":"D\u00e9l-Finnorsz\u00e1g","name:lt":"Piet\u0173 Suomija","name:lv":"Dienvidsomija","name:pl":"Finlandia Po\u0142udniowa","name:pt":"Finl\u00e2ndia Meridional","name:ru":"\u042e\u0436\u043d\u0430\u044f \u0424\u0438\u043d\u043b\u044f\u043d\u0434\u0438\u044f","name:sk":"Ju\u017en\u00e9 F\u00ednsko","name:sv":"S\u00f6dra Finland","ref":"FI18","source:ref":"http:\/\/fi.wikipedia.org\/wiki\/NUTS:FI","start_date":"1997","type":"boundary","was:official_name":"Etel\u00e4-Suomen l\u00e4\u00e4ni","was:official_name:fi":"Etel\u00e4-Suomen l\u00e4\u00e4ni","was:official_name:sv":"S\u00f6dra Finlands l\u00e4n","wikidata":"Q188752","wikipedia":"en:Southern Finland Province"}},{"type":"area","id":3600038101,"tags":{"admin_level":"7","alt_name":"Helsingin seutu;Suur-Helsinki","alt_name:de":"Gro\u00dfraum Helsinki","alt_name:en":"Greater Helsinki;Helsinki Metropolitan Area","alt_name:sv":"Helsingforsregionen;Storhelsingfors","boundary":"administrative","name":"Helsingin seutukunta","name:de":"Verwaltungsgemeinschaft Helsinki","name:en":"Helsinki sub-region","name:fi":"Helsingin seutukunta","name:sv":"Helsingfors ekonomiska region","ref":"011","source:ref":"http:\/\/fi.wikipedia.org\/wiki\/LAU:FI","type":"boundary","wikidata":"Q940914","wikipedia":"fi:Helsingin seutukunta"}},{"type":"area","id":3600054224,"tags":{"ISO3166-1":"FI","ISO3166-1:alpha2":"FI","ISO3166-1:alpha3":"FIN","ISO3166-1:numeric":"246","admin_level":"2","alt_name:eo":"Finlando;Finnio;Finnujo;Suomio;Suomujo","boundary":"administrative","default_language":"fi","driving_side":"right","flag":"http:\/\/upload.wikimedia.org\/wikipedia\/commons\/b\/bc\/Flag_of_Finland.svg","int_name":"Finland","name":"Suomi \/ Finland","name:ab":"\u0421\u0443\u043e\u043c\u0438","name:ace":"Finlandia","name:af":"Finland","name:als":"Finnland","name:am":"\u134a\u1295\u120b\u1295\u12f5","name:an":"Finlandia","name:ang":"Finnland","name:ar":"\u0641\u0646\u0644\u0646\u062f\u0627","name:arc":"\u0726\u0722\u0720\u0722\u0715\u0710","name:arz":"\u0641\u064a\u0646\u0644\u0627\u0646\u062f\u0627","name:ast":"Finlandia","name:ay":"Phini suyu","name:az":"Finlandiya","name:ba":"\u0424\u0438\u043d\u043b\u044f\u043d\u0434\u0438\u044f","name:bar":"Finnl\u00e5nd","name:bat-smg":"Soum\u0117j\u0117","name:bcl":"Finlandya","name:be":"\u0424\u0456\u043d\u043b\u044f\u043d\u0434\u044b\u044f","name:be-tarask":"\u0424\u0456\u043d\u043b\u044f\u043d\u0434\u044b\u044f","name:bg":"\u0424\u0438\u043d\u043b\u0430\u043d\u0434\u0438\u044f","name:bi":"Finland","name:bm":"Finland","name:bn":"\u09ab\u09bf\u09a8\u09b2\u09cd\u09af\u09be\u09a8\u09cd\u09a1","name:bo":"\u0f67\u0fa5\u0f72\u0f53\u0f0b\u0f63\u0f53","name:bpy":"\u09ab\u09bf\u09a8\u09b2\u09cd\u09af\u09be\u09a8\u09cd\u09a1","name:br":"Finland","name:bs":"Finska","name:bxr":"\u0424\u0438\u043d\u043b\u0430\u043d\u0434","name:ca":"Finl\u00e0ndia","name:cdo":"H\u016dng-l\u00e0ng","name:ce":"\u0424\u0438\u043d\u043b\u044f\u043d\u0434\u0438","name:ceb":"Finlandia","name:chr":"\u13eb\u13c2\u13a6\u13d9\u13af","name:ckb":"\u0641\u06cc\u0646\u0644\u0627\u0646\u062f","name:co":"Finlandia","name:crh":"Finlandiya","name:cs":"Finsko","name:csb":"Fi\u0144sk\u00f4","name:cu":"\u0421\u043e\u0443\u043c\u044c","name:cv":"\u0424\u0438\u043d\u043b\u044f\u043d\u0434\u0438","name:cy":"Y Ffindir","name:da":"Finland","name:de":"Finnland","name:din":"Pinl\u025bn","name:diq":"Finlanda","name:dsb":"Finska","name:dv":"\u078a\u07a8\u0782\u07b0\u078d\u07ad\u0782\u07b0\u0791\u07aa","name:dz":"\u0f55\u0f72\u0f53\u0f0b\u0f63\u0f7a\u0f53\u0f4c\u0f0b","name:ee":"Finland","name:el":"\u03a6\u03b9\u03bd\u03bb\u03b1\u03bd\u03b4\u03af\u03b1","name:en":"Finland","name:eo":"Finnlando","name:es":"Finlandia","name:et":"Soome","name:eu":"Finlandia","name:ext":"Finl\u00e1ndia","name:fa":"\u0641\u0646\u0644\u0627\u0646\u062f","name:fi":"Suomi","name:fo":"Finnland","name:fr":"Finlande","name:frp":"Finlande","name:frr":"Finl\u00f6nj","name:fur":"Finlande","name:fy":"Finl\u00e2n","name:ga":"An Fhionlainn","name:gag":"Finlandiya","name:gan":"\u82ac\u862d","name:gd":"Su\u00f2maidh","name:gl":"Finlandia","name:gn":"H\u0129landia","name:gu":"\u0aab\u0ac0\u0aa8\u0ab2\u0ac7\u0a82\u0aa1","name:gv":"Finnlynn","name:hak":"F\u00fbn-l\u00e0n","name:haw":"Pinilana","name:he":"\u05e4\u05d9\u05e0\u05dc\u05e0\u05d3","name:hi":"\u092b\u093c\u093f\u0928\u0932\u0948\u0902\u0921","name:hif":"Finland","name:hr":"Finska","name:hsb":"Finska","name:ht":"Fenlann","name:hu":"Finnorsz\u00e1g","name:hy":"\u0556\u056b\u0576\u056c\u0561\u0576\u0564\u056b\u0561","name:ia":"Finlandia","name:id":"Finlandia","name:ie":"Finland","name:ig":"Finland","name:ilo":"Finlandia","name:io":"Finlando","name:is":"Finnland","name:it":"Finlandia","name:iu":"\u1403\u14d0\u14da\u14d0\u1466","name:ja":"\u30d5\u30a3\u30f3\u30e9\u30f3\u30c9","name:jbo":"finland","name:jv":"Finlandia","name:ka":"\u10e4\u10d8\u10dc\u10d4\u10d7\u10d8","name:kaa":"Finlyandiya","name:kbd":"\u0424\u0438\u043d\u043b\u044d\u043d\u0434","name:kg":"Finlandi","name:ki":"Finland","name:kk":"\u0424\u0438\u043d\u043b\u0430\u043d\u0434\u0438\u044f","name:kl":"Finlandi","name:kn":"\u0cab\u0cbf\u0ca8\u0ccd\u200d\u0cb2\u0ccd\u0caf\u0cbe\u0c82\u0ca1\u0ccd","name:ko":"\ud540\ub780\ub4dc","name:koi":"\u0421\u0443\u043e\u043c\u0438","name:krc":"\u0424\u0438\u043d\u043b\u044f\u043d\u0434\u0438\u044f","name:ks":"\u0641\u0646\u0646\u0634","name:ksh":"Finnlandt","name:ku":"F\u00eenland","name:kv":"\u0424\u0438\u043d\u043b\u044f\u043d\u0434\u0438\u044f","name:kw":"Pow Finn","name:ky":"\u0424\u0438\u043d\u043b\u044f\u043d\u0434\u0438\u044f","name:la":"Finnia","name:lad":"Finlandia","name:lb":"Finnland","name:lez":"\u0424\u0438\u043d\u043b\u044f\u043d\u0434\u0438\u044f","name:lg":"Finilandi","name:li":"Finland","name:lij":"Finlandia","name:lmo":"Finlandia","name:ln":"Finilanda","name:lt":"Suomija","name:ltg":"Suomeja","name:lv":"Somija","name:lzh":"\u82ac\u862d","name:mdf":"\u0421\u0443\u043e\u043c\u0438 \u043c\u0430\u0441\u0442\u043e\u0440","name:mg":"Finlandy","name:mhr":"\u0421\u0443\u043e\u043c\u0438 \u042d\u043b","name:mi":"Whinarana","name:mk":"\u0424\u0438\u043d\u0441\u043a\u0430","name:ml":"\u0d2b\u0d3f\u0d7b\u0d32\u0d3e\u0d28\u0d4d\u0d31\u0d4d","name:mn":"\u0424\u0438\u043d\u043b\u044f\u043d\u0434","name:mr":"\u092b\u093f\u0928\u0932\u0902\u0921","name:mrj":"\u0424\u0438\u043d\u043b\u044f\u043d\u0434\u0438","name:ms":"Finland","name:mt":"Finlandja","name:my":"\u1016\u1004\u103a\u101c\u1014\u103a\u1014\u102d\u102f\u1004\u103a\u1004\u1036","name:myv":"\u0421\u0443\u043e\u043c\u0438 \u041c\u0430\u0441\u0442\u043e\u0440","name:na":"Finland","name:nah":"Fintl\u0101lpan","name:nan":"Suomi","name:nds":"Finnland","name:nds-nl":"Finlaand","name:ne":"\u092b\u093f\u0928\u0932\u094d\u092f\u093e\u0923\u094d\u0921","name:new":"\u092b\u093f\u0928\u0932\u094d\u092f\u093e\u0928\u094d\u0921","name:nl":"Finland","name:nn":"Finland","name:no":"Finland","name:nov":"Finlande","name:nrm":"F\u00eenlande","name:nv":"Nahodits\u02bc\u01eb\u02bc\u0142\u00e1n\u00ed","name:oc":"Finl\u00e0ndia","name:or":"\u0b2b\u0b3f\u0b28\u0b32\u0b4d\u0b5f\u0b3e\u0b23\u0b4d\u0b21","name:os":"\u0424\u0438\u043d\u043b\u044f\u043d\u0434\u0438","name:pa":"\u0a2b\u0a3c\u0a3f\u0a28\u0a32\u0a48\u0a02\u0a21","name:pam":"Finland","name:pap":"Finlandia","name:pcd":"Finlinde","name:pih":"Finland","name:pl":"Finlandia","name:pms":"Finlandia","name:pnb":"\u0641\u0646\u0644\u06cc\u0646\u0688","name:pnt":"\u03a6\u03b9\u03bd\u03bb\u03b1\u03bd\u03b4\u03af\u03b1","name:ps":"\u0641\u06d0\u0646\u0644\u0627\u0646\u0689","name:pt":"Finl\u00e2ndia","name:qu":"Phinsuyu","name:rm":"Finlanda","name:rmy":"Finland","name:ro":"Finlanda","name:roa-rup":"Finlanda","name:roa-tara":"Finlandie","name:ru":"\u0424\u0438\u043d\u043b\u044f\u043d\u0434\u0438\u044f","name:rue":"\u0424\u0456\u043d\u044c\u0441\u043a\u043e","name:rw":"Finilande","name:sa":"\u092b\u093f\u0928\u094d\u0932\u0948\u0902\u0921","name:sah":"\u0424\u0438\u043d\u043b\u044f\u043d\u0434\u0438\u044f","name:sc":"Finlandia","name:scn":"Finlandia","name:sco":"Finland","name:se":"Suopma","name:sh":"Finska","name:si":"\u0dc6\u0dd2\u0db1\u0dca\u0dbd\u0db1\u0dca\u0dad\u0dba","name:sje":"Suobma","name:sk":"F\u00ednsko","name:sl":"Finska","name:sm":"Finalagi","name:smn":"Suom\u00e2","name:sms":"L\u00e4\u00e4\u02b9ddj\u00e2nnam","name:so":"Finland","name:sq":"Finlanda","name:sr":"\u0424\u0438\u043d\u0441\u043a\u0430","name:srn":"Finland","name:ss":"IFini","name:st":"Finland","name:stq":"Finlound","name:su":"Finlandia","name:sv":"Finland","name:sw":"Ufini","name:szl":"Finland","name:ta":"\u0baa\u0bbf\u0ba9\u0bcd\u0bb2\u0bbe\u0ba8\u0bcd\u0ba4\u0bc1","name:te":"\u0c2b\u0c3f\u0c28\u0c4d\u0c32\u0c46\u0c02\u0c21\u0c4d","name:tet":"Finl\u00e1ndia","name:tg":"\u0424\u0438\u043d\u043b\u0430\u043d\u0434","name:th":"\u0e1b\u0e23\u0e30\u0e40\u0e17\u0e28\u0e1f\u0e34\u0e19\u0e41\u0e25\u0e19\u0e14\u0e4c","name:tk":"Finl\u00fdandi\u00fda","name:tl":"Pinlandiya","name:tok":"ma Sumi","name:tpi":"Pinlan","name:tr":"Finlandiya","name:tt":"\u0424\u0438\u043d\u043b\u04d9\u043d\u0434\u0438\u044f","name:tzl":"Finph\u00e4ts","name:udm":"\u0424\u0438\u043d\u043b\u044f\u043d\u0434\u0438\u044f","name:ug":"\u0641\u0649\u0646\u0644\u0627\u0646\u062f\u0649\u064a\u06d5","name:uk":"\u0424\u0456\u043d\u043b\u044f\u043d\u0434\u0456\u044f","name:ur":"\u0641\u0646 \u0644\u06cc\u0646\u0688","name:uz":"Finlandiya","name:vec":"Finlandia","name:vep":"Suomenma","name:vi":"Ph\u1ea7n Lan","name:vls":"Finland","name:vo":"Suomiy\u00e4n","name:vro":"Soom\u00f5","name:wa":"Finlande","name:war":"Finlandya","name:wo":"Finlaand","name:wuu":"\u82ac\u5170","name:xal":"\u0421\u0443\u04bb\u043e\u043c\u0443\u0434\u0438\u043d \u041e\u0440\u043d","name:xmf":"\u10e4\u10d8\u10dc\u10d4\u10d7\u10d8","name:yi":"\u05e4\u05d9\u05e0\u05dc\u05d0\u05e0\u05d3","name:yo":"Finlandi","name:yue":"\u82ac\u862d","name:za":"Finlan","name:zea":"Finland","name:zh":"\u82ac\u5170","name:zh-Hans":"\u82ac\u5170","name:zh-Hant":"\u82ac\u862d","name:zh_pinyin":"F\u0113nl\u00e1n","name:zu":"IFinlandi","official_name":"Suomen tasavalta \/ Republiken Finland","official_name:ar":"\u062c\u0645\u0647\u0648\u0631\u064a\u0629 \u0641\u0646\u0644\u0646\u062f\u0627","official_name:be":"\u0424\u0456\u043d\u043b\u044f\u043d\u0434\u0441\u043a\u0430\u044f \u0420\u044d\u0441\u043f\u0443\u0431\u043b\u0456\u043a\u0430","official_name:cs":"Finsk\u00e1 republika","official_name:da":"Repbulikken Finland","official_name:de":"Republik Finnland","official_name:el":"\u0394\u03b7\u03bc\u03bf\u03ba\u03c1\u03b1\u03c4\u03af\u03b1 \u03c4\u03b7\u03c2 \u03a6\u03b9\u03bd\u03bb\u03b1\u03bd\u03b4\u03af\u03b1\u03c2","official_name:en":"Republic of Finland","official_name:eo":"Respubliko Finnlando","official_name:es":"Rep\u00fablica de Finlandia","official_name:et":"Soome Vabariik","official_name:fa":"\u062c\u0645\u0647\u0648\u0631\u06cc \u0641\u0646\u0644\u0627\u0646\u062f","official_name:fi":"Suomen tasavalta","official_name:fr":"R\u00e9publique de Finlande","official_name:id":"Republik Finlandia","official_name:is":"L\u00fd\u00f0veldi\u00f0 Finnland","official_name:it":"Repubblica di Finlandia","official_name:ja":"\u30d5\u30a3\u30f3\u30e9\u30f3\u30c9\u5171\u548c\u56fd","official_name:lt":"Suomijos Respublika","official_name:nn":"Republikken Finland","official_name:no":"Republikken Finland","official_name:pt":"Rep\u00fablica da Finl\u00e2ndia","official_name:ru":"\u0424\u0438\u043d\u043b\u044f\u043d\u0434\u0441\u043a\u0430\u044f \u0420\u0435\u0441\u043f\u0443\u0431\u043b\u0438\u043a\u0430","official_name:se":"Suoma d\u00e1ssev\u00e1ldi","official_name:sk":"F\u00ednska republika","official_name:sv":"Republiken Finland","official_name:ur":"\u062c\u0645\u06c1\u0648\u0631\u06cc\u06c1 \u0641\u0646 \u0644\u06cc\u0646\u0688","official_name:vi":"C\u1ed9ng h\u00f2a Ph\u1ea7n Lan","official_name:zh":"\u82ac\u5170\u5171\u548c\u56fd","official_name:zh-Hans":"\u82ac\u5170\u5171\u548c\u56fd","official_name:zh-Hant":"\u82ac\u862d\u5171\u548c\u570b","type":"boundary","website":"https:\/\/www.finland.fi\/","wikidata":"Q33","wikipedia":"fi:Suomi"}},{"type":"area","id":3600184703,"tags":{"admin_level":"10","boundary":"administrative","loc_name":"R\u00f6\u00f6peri","name":"Punavuori","name:fi":"Punavuori","name:sv":"R\u00f6dbergen","ref":"05","type":"boundary","wikidata":"Q2037874","wikipedia":"en:Punavuori"}},{"type":"area","id":3602375172,"tags":{"admin_level":"3","boundary":"administrative","name":"Manner-Suomi","name:en":"Mainland Finland","name:fi":"Manner-Suomi","name:hu":"Sz\u00e1razf\u00f6ldi Finnorsz\u00e1g","name:ru":"\u041c\u0430\u0442\u0435\u0440\u0438\u043a\u043e\u0432\u0430\u044f \u0424\u0438\u043d\u043b\u044f\u043d\u0434\u0438\u044f","name:sv":"Fasta Finland","note":"NUTS1: admin_level=3","ref":"FI1","ref:nuts":"FI1","ref:nuts:1":"FI1","timezone":"Europe\/Helsinki","type":"boundary","wikidata":"Q1083368"}},{"type":"area","id":3602579844,"tags":{"ISO3166-2:old":"FI-ES","admin_level":"5","boundary":"administrative","name":"Etel\u00e4-Suomen aluehallintovirasto","name:da":"Sydfinlands regionsforvaltning","name:de":"S\u00fcdfinnland","name:en":"Southern Finland","name:fi":"Etel\u00e4-Suomen aluehallintovirasto","name:ru":"\u0410\u0433\u0435\u043d\u0442\u0441\u0442\u0432\u043e \u0440\u0435\u0433\u0438\u043e\u043d\u0430\u043b\u044c\u043d\u043e\u0433\u043e \u0443\u043f\u0440\u0430\u0432\u043b\u0435\u043d\u0438\u044f \u042e\u0436\u043d\u043e\u0439 \u0424\u0438\u043d\u043b\u044f\u043d\u0434\u0438\u0438","name:sk":"Ju\u017en\u00e9 F\u00ednsko","name:sv":"S\u00f6dra Finlands regionf\u00f6rvaltningsverk","source":"http:\/\/en.wikipedia.org\/wiki\/Regional_State_Administrative_Agencies_of_Finland","type":"boundary","wikidata":"Q107033548"}},{"type":"area","id":3604146365,"tags":{"admin_level":"9","boundary":"administrative","int_name":"Etel\u00e4inen suurpiiri","name":"Etel\u00e4inen suurpiiri","name:en":"Southern major district","name:fi":"Etel\u00e4inen suurpiiri","name:sv":"S\u00f6dra stordistriktet","type":"boundary","wikidata":"Q3059221","wikipedia":"fi:Etel\u00e4inen suurpiiri"}},{"type":"area","id":3613449613,"tags":{"alt_name":"Suur-Helsinki","alt_name:sv":"Storhelsingfors","boundary":"place","name":"P\u00e4\u00e4kaupunkiseutu","name:de":"Hauptstadtregion","name:en":"Capital region","name:fi":"P\u00e4\u00e4kaupunkiseutu","name:sv":"Huvudstadsregionen","place":"region","short_name":"PK-seutu","type":"boundary","wikidata":"Q18691387","wikipedia":"fi:P\u00e4\u00e4kaupunkiseutu"}},{"type":"node","id":690901335,"lat":59.7116621,"lon":24.0455315},{"type":"node","id":690901336,"lat":59.883315,"lon":24.8500225},{"type":"node","id":690901337,"lat":59.9083273,"lon":25.3332922},{"type":"node","id":690901338,"lat":59.8833365,"lon":25.8666441},{"type":"node","id":690901348,"lat":60.1700136,"lon":24.0993044},{"type":"node","id":690901346,"lat":60.4477979,"lon":24.0436861},{"type":"node","id":690901345,"lat":60.6810578,"lon":24.2848704},{"type":"node","id":6546862974,"lat":60.130414,"lon":24.835671},{"type":"node","id":6546867469,"lat":60.136518,"lon":24.836828},{"type":"node","id":6546867470,"lat":60.142841,"lon":24.838022},{"type":"node","id":6546867471,"lat":60.144163,"lon":24.838272},{"type":"node","id":6546862973,"lat":60.15107,"lon":24.840859},{"type":"node","id":6546867472,"lat":60.148672,"lon":24.839143},{"type":"node","id":6546867473,"lat":60.149962,"lon":24.839378},{"type":"node","id":6546867474,"lat":60.150263,"lon":24.839435},{"type":"node","id":6546862970,"lat":60.158011,"lon":24.841341},{"type":"node","id":6546862971,"lat":60.157029,"lon":24.840942},{"type":"node","id":6546862972,"lat":60.155189,"lon":24.840916},{"type":"node","id":6546862968,"lat":60.162581,"lon":24.843179},{"type":"node","id":6546862969,"lat":60.159016,"lon":24.841749},{"type":"node","id":6546867475,"lat":60.165245,"lon":24.84428},{"type":"node","id":6546862966,"lat":60.165719,"lon":24.844405},{"type":"node","id":6546862967,"lat":60.165585,"lon":24.844412},{"type":"node","id":6546867476,"lat":60.165422,"lon":24.844349},{"type":"node","id":6546867477,"lat":60.16602,"lon":24.844391},{"type":"node","id":6546867478,"lat":60.170505,"lon":24.844235},{"type":"node","id":6546862964,"lat":60.173566,"lon":24.84412},{"type":"node","id":6546862965,"lat":60.173277,"lon":24.84414},{"type":"node","id":6546867479,"lat":60.17232,"lon":24.844173},{"type":"node","id":6546867480,"lat":60.172543,"lon":24.844166},{"type":"node","id":6546867481,"lat":60.173135,"lon":24.844146},{"type":"node","id":6546867482,"lat":60.173253,"lon":24.844141},{"type":"node","id":6546862961,"lat":60.181021,"lon":24.843637},{"type":"node","id":6546862962,"lat":60.180787,"lon":24.84365},{"type":"node","id":6546862963,"lat":60.179428,"lon":24.843723},{"type":"node","id":6546862960,"lat":60.185425,"lon":24.843386},{"type":"node","id":6546862958,"lat":60.196369,"lon":24.843107},{"type":"node","id":6546862959,"lat":60.196023,"lon":24.842931},{"type":"node","id":6546867483,"lat":60.195133,"lon":24.842834},{"type":"node","id":6546867484,"lat":60.195761,"lon":24.842797},{"type":"node","id":6546867485,"lat":60.198052,"lon":24.843967},{"type":"node","id":6546867486,"lat":60.199217,"lon":24.844562},{"type":"node","id":6546862954,"lat":60.204446,"lon":24.846801},{"type":"node","id":6546862955,"lat":60.204054,"lon":24.846839},{"type":"node","id":6546862956,"lat":60.204,"lon":24.846844},{"type":"node","id":6546862957,"lat":60.203735,"lon":24.846869},{"type":"node","id":6546867487,"lat":60.201923,"lon":24.845943},{"type":"node","id":6546867488,"lat":60.202476,"lon":24.846226},{"type":"node","id":6546867489,"lat":60.20288,"lon":24.846432},{"type":"node","id":6546867490,"lat":60.202967,"lon":24.846476},{"type":"node","id":6546862975,"lat":60.1234668,"lon":24.9217442},{"type":"node","id":9110906864,"lat":60.1778629,"lon":24.8786913},{"type":"node","id":9110906862,"lat":60.167146,"lon":24.9015515},{"type":"node","id":9110906863,"lat":60.1667876,"lon":24.897899},{"type":"node","id":9110906865,"lat":60.1825536,"lon":24.8774179},{"type":"node","id":9110906866,"lat":60.190492,"lon":24.8808861},{"type":"node","id":9110890396,"lat":60.1914535,"lon":24.8994341},{"type":"node","id":9110890397,"lat":60.1913286,"lon":24.9000333},{"type":"node","id":9110890393,"lat":60.1919033,"lon":24.8822775},{"type":"node","id":9110890394,"lat":60.1959007,"lon":24.8871363},{"type":"node","id":9110890395,"lat":60.1953012,"lon":24.88975},{"type":"node","id":9110906858,"lat":60.1645288,"lon":24.9131682},{"type":"node","id":9110906856,"lat":60.1633534,"lon":24.9215337},{"type":"node","id":9110906857,"lat":60.1648455,"lon":24.9213829},{"type":"node","id":9110906850,"lat":60.1610527,"lon":24.9296596},{"type":"node","id":9110906851,"lat":60.1618029,"lon":24.9298272},{"type":"node","id":9110906852,"lat":60.1619613,"lon":24.9287046},{"type":"node","id":9110906853,"lat":60.1610527,"lon":24.9260909},{"type":"node","id":9110906854,"lat":60.1612361,"lon":24.9247673},{"type":"node","id":9110906855,"lat":60.1618696,"lon":24.9235275},{"type":"node","id":9110906860,"lat":60.1666876,"lon":24.9088456},{"type":"node","id":9110906861,"lat":60.1671794,"lon":24.9041652},{"type":"node","id":9110906859,"lat":60.1660375,"lon":24.9114593},{"type":"node","id":9110906847,"lat":60.1549915,"lon":24.9353896},{"type":"node","id":9110906846,"lat":60.1532322,"lon":24.9373499},{"type":"node","id":10968284186,"lat":60.1537675,"lon":24.9415562},{"type":"node","id":9110906848,"lat":60.1597522,"lon":24.9321895},{"type":"node","id":9110906849,"lat":60.1604441,"lon":24.9307151},{"type":"node","id":247321530,"lat":60.1650734,"lon":24.9427369},{"type":"node","id":247321532,"lat":60.1634589,"lon":24.9418551},{"type":"node","id":247321533,"lat":60.1643392,"lon":24.940621},{"type":"node","id":247321535,"lat":60.1641745,"lon":24.941243},{"type":"node","id":247321536,"lat":60.1643365,"lon":24.9410159},{"type":"node","id":247321541,"lat":60.164105,"lon":24.9413404},{"type":"node","id":247321543,"lat":60.1639235,"lon":24.9414769},{"type":"node","id":247321546,"lat":60.1639573,"lon":24.9415742},{"type":"node","id":247321551,"lat":60.1640073,"lon":24.9417184},{"type":"node","id":247321552,"lat":60.1640748,"lon":24.9417704},{"type":"node","id":247321555,"lat":60.1642172,"lon":24.9421342},{"type":"node","id":247321556,"lat":60.164239,"lon":24.9421969},{"type":"node","id":247321566,"lat":60.1642693,"lon":24.9422842},{"type":"node","id":247321567,"lat":60.1644871,"lon":24.9419789},{"type":"node","id":247321616,"lat":60.164032,"lon":24.9421517},{"type":"node","id":247321617,"lat":60.1638311,"lon":24.9423738},{"type":"node","id":247321622,"lat":60.1640463,"lon":24.9421928},{"type":"node","id":249217726,"lat":60.1641434,"lon":24.9416742},{"type":"node","id":434153010,"lat":60.1638598,"lon":24.9412931},{"type":"node","id":434153011,"lat":60.1640415,"lon":24.941817},{"type":"node","id":434153012,"lat":60.1636409,"lon":24.9423786},{"type":"node","id":434153015,"lat":60.1647046,"lon":24.941674},{"type":"node","id":434153016,"lat":60.1640854,"lon":24.9413679},{"type":"node","id":434153017,"lat":60.1641759,"lon":24.9416287},{"type":"node","id":434153018,"lat":60.1644305,"lon":24.9408841},{"type":"node","id":434153019,"lat":60.1640857,"lon":24.9417551},{"type":"node","id":1011446769,"lat":60.1639344,"lon":24.9422885},{"type":"node","id":1011446773,"lat":60.1638443,"lon":24.9424759},{"type":"node","id":1011446782,"lat":60.1641641,"lon":24.9420277},{"type":"node","id":1011446784,"lat":60.1639351,"lon":24.9415103},{"type":"node","id":1011446794,"lat":60.1639205,"lon":24.9422485},{"type":"node","id":1011446798,"lat":60.1638593,"lon":24.942455},{"type":"node","id":1011446822,"lat":60.1641514,"lon":24.9420454},{"type":"node","id":1377394496,"lat":60.1637299,"lon":24.9426363},{"type":"node","id":1377394497,"lat":60.1638242,"lon":24.9429081},{"type":"node","id":1377394498,"lat":60.1639096,"lon":24.9420019},{"type":"node","id":1377394500,"lat":60.1639751,"lon":24.9411314},{"type":"node","id":1377394502,"lat":60.1640612,"lon":24.9421718},{"type":"node","id":1377394506,"lat":60.1640902,"lon":24.9421312},{"type":"node","id":1377394514,"lat":60.164175,"lon":24.9420124},{"type":"node","id":1377394534,"lat":60.1648871,"lon":24.9422002},{"type":"node","id":2524250178,"lat":60.1650034,"lon":24.942835},{"type":"node","id":3232013774,"lat":60.1643592,"lon":24.9406787},{"type":"node","id":3232013787,"lat":60.1647076,"lon":24.9416828},{"type":"node","id":3232013793,"lat":60.1649042,"lon":24.9422495},{"type":"node","id":3232013799,"lat":60.1650354,"lon":24.9426274},{"type":"node","id":3329276136,"lat":60.1639703,"lon":24.9411381},{"type":"node","id":3330896634,"lat":60.1649499,"lon":24.9429099},{"type":"node","id":10961559266,"lat":60.1648042,"lon":24.9419611},{"type":"node","id":9110906845,"lat":60.1549077,"lon":24.9505155},{"type":"node","id":247321531,"lat":60.1641903,"lon":24.9439589},{"type":"node","id":1377394501,"lat":60.1640078,"lon":24.9434328},{"type":"node","id":1377394527,"lat":60.1643713,"lon":24.9437212},{"type":"node","id":1377394532,"lat":60.1647168,"lon":24.9432367},{"type":"node","id":3330896633,"lat":60.1648214,"lon":24.9430901},{"type":"node","id":3336810244,"lat":60.1641824,"lon":24.9439362},{"type":"node","id":7615674337,"lat":60.1644557,"lon":24.9436028},{"type":"node","id":7615674339,"lat":60.1645752,"lon":24.9434353},{"type":"node","id":7615674340,"lat":60.1646054,"lon":24.943393},{"type":"node","id":9699667417,"lat":60.1641613,"lon":24.9438756},{"type":"node","id":9699741724,"lat":60.1639155,"lon":24.9431691},{"type":"node","id":9110906836,"lat":60.1646034,"lon":24.9528778},{"type":"node","id":9110906837,"lat":60.1639782,"lon":24.9532632},{"type":"node","id":9110906838,"lat":60.1619943,"lon":24.9560779},{"type":"node","id":9110906834,"lat":60.1678207,"lon":24.9524422},{"type":"node","id":9110906835,"lat":60.165637,"lon":24.952593},{"type":"node","id":7804159986,"lat":60.1910693,"lon":24.9127002},{"type":"node","id":9110890398,"lat":60.1910621,"lon":24.9131018},{"type":"node","id":9110890399,"lat":60.1896878,"lon":24.9163492},{"type":"node","id":9110890400,"lat":60.1898627,"lon":24.9209902},{"type":"node","id":9110890401,"lat":60.1908872,"lon":24.9233359},{"type":"node","id":9110890402,"lat":60.19177,"lon":24.9265758},{"type":"node","id":9110890403,"lat":60.1922947,"lon":24.9293905},{"type":"node","id":9110890416,"lat":60.1911454,"lon":24.9545737},{"type":"node","id":9110890404,"lat":60.1931858,"lon":24.9345341},{"type":"node","id":9110890405,"lat":60.1935106,"lon":24.9354556},{"type":"node","id":9110890406,"lat":60.194077,"lon":24.9358075},{"type":"node","id":9110890407,"lat":60.1953678,"lon":24.9360588},{"type":"node","id":9110890408,"lat":60.195576,"lon":24.9360756},{"type":"node","id":9110890409,"lat":60.1962838,"lon":24.9360756},{"type":"node","id":9110890410,"lat":60.195959,"lon":24.9416213},{"type":"node","id":9110890411,"lat":60.1958924,"lon":24.9424423},{"type":"node","id":9110890412,"lat":60.1956259,"lon":24.9438329},{"type":"node","id":9110890413,"lat":60.1951263,"lon":24.9450057},{"type":"node","id":9110890414,"lat":60.1921448,"lon":24.9519432},{"type":"node","id":9110890415,"lat":60.1915535,"lon":24.9533338},{"type":"node","id":6546862976,"lat":60.1247215,"lon":24.9748866},{"type":"node","id":6546862978,"lat":60.138483,"lon":25.026023},{"type":"node","id":6546862977,"lat":60.133183,"lon":25.028611},{"type":"node","id":9110906843,"lat":60.1544992,"lon":24.960853},{"type":"node","id":9110906844,"lat":60.1530567,"lon":24.9569827},{"type":"node","id":10967559392,"lat":60.1547594,"lon":24.9613499},{"type":"node","id":9110906842,"lat":60.1561751,"lon":24.9640531},{"type":"node","id":9110906839,"lat":60.1610523,"lon":24.9568654},{"type":"node","id":9110906840,"lat":60.160427,"lon":24.9579377},{"type":"node","id":9110906841,"lat":60.1607105,"lon":24.9612048},{"type":"node","id":9110906829,"lat":60.1697543,"lon":24.9596467},{"type":"node","id":9110906830,"lat":60.1696793,"lon":24.9586916},{"type":"node","id":9110906831,"lat":60.1694543,"lon":24.9584571},{"type":"node","id":9110906832,"lat":60.1689042,"lon":24.9584738},{"type":"node","id":9110906833,"lat":60.1680208,"lon":24.9570497},{"type":"node","id":9110906823,"lat":60.1767417,"lon":24.9575188},{"type":"node","id":9110906824,"lat":60.1763251,"lon":24.957988},{"type":"node","id":9110906825,"lat":60.1762418,"lon":24.9589597},{"type":"node","id":9110906826,"lat":60.1762334,"lon":24.9604676},{"type":"node","id":9110906827,"lat":60.1756918,"lon":24.9615064},{"type":"node","id":9110906828,"lat":60.1741919,"lon":24.9618415},{"type":"node","id":6546867522,"lat":60.159868,"lon":24.993652},{"type":"node","id":6546867523,"lat":60.153276,"lon":25.002369},{"type":"node","id":6546862979,"lat":60.168521,"lon":24.999409},{"type":"node","id":9110906822,"lat":60.1790997,"lon":24.9572843},{"type":"node","id":9110906821,"lat":60.1845566,"lon":24.9659481},{"type":"node","id":9110906817,"lat":60.1904124,"lon":24.9574554},{"type":"node","id":9110906818,"lat":60.1899543,"lon":24.9600524},{"type":"node","id":9110906820,"lat":60.1858978,"lon":24.9676906},{"type":"node","id":9110906819,"lat":60.1883967,"lon":24.970254},{"type":"node","id":6546862981,"lat":60.203073,"lon":24.988053},{"type":"node","id":6546862980,"lat":60.195285,"lon":24.996855},{"type":"node","id":6546867521,"lat":60.1784383,"lon":25.0209777},{"type":"node","id":6546867519,"lat":60.190873,"lon":25.015806},{"type":"node","id":6546867520,"lat":60.186447,"lon":25.021622},{"type":"node","id":6546867317,"lat":60.207991,"lon":24.848482},{"type":"node","id":6546867316,"lat":60.21129,"lon":24.870432},{"type":"node","id":6546867491,"lat":60.2093899,"lon":24.8795322},{"type":"node","id":6546867492,"lat":60.209854,"lon":24.8810044},{"type":"node","id":6546867493,"lat":60.2108943,"lon":24.8815716},{"type":"node","id":6546867494,"lat":60.2109773,"lon":24.8821583},{"type":"node","id":8183894805,"lat":60.2094316,"lon":24.8793325},{"type":"node","id":8629428198,"lat":60.2094027,"lon":24.8794711},{"type":"node","id":6546867495,"lat":60.2114706,"lon":24.8833952},{"type":"node","id":6546867309,"lat":60.214771,"lon":24.888957},{"type":"node","id":6546867310,"lat":60.2122922,"lon":24.8885359},{"type":"node","id":6546867311,"lat":60.2116457,"lon":24.8882657},{"type":"node","id":6546867312,"lat":60.2114406,"lon":24.887457},{"type":"node","id":6546867313,"lat":60.2112289,"lon":24.8865384},{"type":"node","id":6546867314,"lat":60.2113536,"lon":24.8853916},{"type":"node","id":6546867315,"lat":60.2115037,"lon":24.884288},{"type":"node","id":6546867496,"lat":60.2124186,"lon":24.8888916},{"type":"node","id":6546867497,"lat":60.2127024,"lon":24.8885789},{"type":"node","id":6546867307,"lat":60.2170281,"lon":24.8928225},{"type":"node","id":6546867308,"lat":60.2163728,"lon":24.8914526},{"type":"node","id":6546867498,"lat":60.2177445,"lon":24.8939633},{"type":"node","id":6546867306,"lat":60.2205154,"lon":24.8969304},{"type":"node","id":6546867499,"lat":60.2191431,"lon":24.8960047},{"type":"node","id":6546867500,"lat":60.219249,"lon":24.8964311},{"type":"node","id":6546867501,"lat":60.219743,"lon":24.896394},{"type":"node","id":6546867502,"lat":60.2200321,"lon":24.8963463},{"type":"node","id":6546867302,"lat":60.2243089,"lon":24.8996939},{"type":"node","id":6546867303,"lat":60.22389,"lon":24.8990969},{"type":"node","id":6546867304,"lat":60.2235821,"lon":24.8997924},{"type":"node","id":6546867305,"lat":60.2229308,"lon":24.8986259},{"type":"node","id":6546867300,"lat":60.2258119,"lon":24.9023445},{"type":"node","id":6546867301,"lat":60.2246482,"lon":24.9003184},{"type":"node","id":6546867503,"lat":60.2244652,"lon":24.9008536},{"type":"node","id":6546867504,"lat":60.2254342,"lon":24.9010776},{"type":"node","id":6546867298,"lat":60.226206,"lon":24.9057333},{"type":"node","id":6546867299,"lat":60.2261891,"lon":24.9052144},{"type":"node","id":6546867505,"lat":60.2263436,"lon":24.9057158},{"type":"node","id":6546867506,"lat":60.226994,"lon":24.90935},{"type":"node","id":6546867507,"lat":60.2269245,"lon":24.9157362},{"type":"node","id":6546867508,"lat":60.223961,"lon":24.922923},{"type":"node","id":6546867509,"lat":60.223607,"lon":24.931483},{"type":"node","id":6546867297,"lat":60.2252459,"lon":24.9337112},{"type":"node","id":1324853797,"lat":60.2294109,"lon":24.9455066},{"type":"node","id":1978706100,"lat":60.2301579,"lon":24.9491113},{"type":"node","id":6546867296,"lat":60.22908,"lon":24.943759},{"type":"node","id":6852154672,"lat":60.2299709,"lon":24.9482501},{"type":"node","id":6852154744,"lat":60.2299073,"lon":24.9478351},{"type":"node","id":9097653902,"lat":60.2300817,"lon":24.9488589},{"type":"node","id":265580721,"lat":60.2304352,"lon":24.9503397},{"type":"node","id":1324853800,"lat":60.2304194,"lon":24.9533136},{"type":"node","id":1575226482,"lat":60.2300716,"lon":24.951064},{"type":"node","id":1575226489,"lat":60.2305523,"lon":24.9525581},{"type":"node","id":1978700111,"lat":60.2303,"lon":24.9538332},{"type":"node","id":1978700123,"lat":60.2307879,"lon":24.9553485},{"type":"node","id":1978706101,"lat":60.2302654,"lon":24.9534474},{"type":"node","id":1978706102,"lat":60.2302831,"lon":24.949604},{"type":"node","id":1978706103,"lat":60.2307093,"lon":24.9530466},{"type":"node","id":7710491362,"lat":60.2304775,"lon":24.9507158},{"type":"node","id":6546867511,"lat":60.2308808,"lon":24.9560672},{"type":"node","id":6546867285,"lat":60.2169483,"lon":24.9823199},{"type":"node","id":6546867286,"lat":60.2176458,"lon":24.9803034},{"type":"node","id":6546867512,"lat":60.2232528,"lon":24.963124},{"type":"node","id":6546867513,"lat":60.2227454,"lon":24.9674861},{"type":"node","id":6546867514,"lat":60.2231415,"lon":24.9680991},{"type":"node","id":6546867290,"lat":60.2292654,"lon":24.9598523},{"type":"node","id":6546867291,"lat":60.2306328,"lon":24.9568987},{"type":"node","id":6546867289,"lat":60.226776,"lon":24.963615},{"type":"node","id":6546867515,"lat":60.222349,"lon":24.970893},{"type":"node","id":6546867516,"lat":60.2191949,"lon":24.9740873},{"type":"node","id":6546867287,"lat":60.2187019,"lon":24.9793735},{"type":"node","id":6546867288,"lat":60.2189442,"lon":24.9761057},{"type":"node","id":6546862982,"lat":60.208093,"lon":24.985839},{"type":"node","id":6546862983,"lat":60.2156205,"lon":24.9849738},{"type":"node","id":6546862984,"lat":60.2166902,"lon":24.9834889},{"type":"node","id":6546867517,"lat":60.2145314,"lon":24.9837323},{"type":"node","id":6546867518,"lat":60.21287,"lon":24.984724},{"type":"node","id":690901344,"lat":60.8207095,"lon":24.7452662},{"type":"node","id":3617622879,"lat":60.8207126,"lon":24.747973},{"type":"node","id":8070752247,"lat":60.8207166,"lon":24.7523877},{"type":"node","id":690901343,"lat":60.8212117,"lon":25.2971575},{"type":"node","id":690901342,"lat":60.5924866,"lon":25.9921715},{"type":"node","id":690901339,"lat":60.1333398,"lon":26.550071},{"type":"node","id":690901340,"lat":60.1441518,"lon":26.6613505},{"type":"node","id":8506018430,"lat":60.4894203,"lon":26.1846176},{"type":"node","id":690901341,"lat":60.470269,"lon":26.2203095}]}