{"version":0.6,"generator":"Overpass API 0.7.62.5 1bd436f1","osm3s":{"timestamp_osm_base":"2025-03-12T12:18:00Z","copyright":"The data included in this document is from www.openstreetmap.org. The data is made available under ODbL."},"elements":[{"type":"way","id":19852486,"nodes":[1526055668,1526055660,7478444141,1526055658,1526055673,1526055674,207646226,6324968507,6324968506,7478444132,6324968504,6324968505,207646228,7478444139,207646229,207646230,207646231,7478444133,207646232,7478444142,207646224,7478444140,1526055668],"tags":{"addr:housenumber":"6","addr:street":"Torkkelinkatu","building":"school","wikidata":"Q11862154","wikipedia":"fi:Helsingin kuvataidelukio"}},{"type":"way","id":19987741,"nodes":[210530268,1821634469,210530264,1829968222,878449128,878449161,210530268],"tags":{"building":"apartments","building:levels":"3","building:maintenance:operator":"Huoltoalanen Oy","roof:levels":"1","wikidata":"Q98433065"}},{"type":"way","id":37102277,"nodes":[435207175,1016188420,1016087913,1823254724],"tags":{"footway":"sidewalk","highway":"footway","lit":"yes","paved:date":"2012","surface":"asphalt"}},{"type":"way","id":37102278,"nodes":[431474656,8454073105,8387640537,4187018123,8387640539,5026470564,431474658,435207171,8454073096,431474653],"tags":{"bicycle":"no","footway":"sidewalk","highway":"footway","surface":"asphalt"}},{"type":"way","id":37336530,"nodes":[435207149,435207150,11278815053,1405382207,435207151,1016540341,1016540255,1016540531,11278815054,1016540518,1016540422,1017158409,435207152,435207153,1011921107,1016540084,435207154,1016540562,6321049036,1011920844,6321049035,1011920999,435207156,1526055786,1016540584,1016540515,435207157,6323267646,6323267645,435207158,1016540230,1016540545,6323267644,435207159,435207172,435207171,8454073098,6681317453,435207168,6323267682,5025854696,6323271690,435207169,435207170],"tags":{"bicycle":"no","footway":"sidewalk","highway":"footway","lit":"yes","surface":"asphalt"}},{"type":"way","id":38082557,"nodes":[210522362,8454085620,8454073099,1016635380,8454085619,210522364,210522367,1016634981,1011920756,1016635105,1011920966,210522369,1016634994,6321049015,210522984,1016635280,1016635169,210522985,1016635144,1016635230,1016635215,11766458357,1016635066,210522986,3121969524,210522987,207646360,1815848579,1505146097,1815848565,3121969523,1505146082,207646357,207646358,1526055771,5025854695,1526055765,6681317452,210522380,210522362],"tags":{"landuse":"residential"}},{"type":"way","id":38082559,"nodes":[1016188425,1821634446,1821634443,1016188415,1016188562,1009015935,1009015846,1526055599,1526055622,1526055621,8844615277,1526055669,447906148,1526055748,6324968599,1526055750,6324968598,6324968597,447906147,2441941514,447906146,1526055757,1526055754,447906145,878449165,1526055709,1016188451,8599800741,8599800748,1016188476,1016188425],"tags":{"landuse":"residential"}},{"type":"way","id":74322470,"nodes":[1526055719,1016188412,1526055710,1526055702,7478444137,878603942],"tags":{"highway":"residential","maxspeed":"30","name":"Torkkelinkatu","name:fi":"Torkkelinkatu","name:sv":"Torkelsgatan","parking:condition:right":"ticket","parking:condition:right:residents":"I","parking:condition:right:time_interval":"Mo-Fr 09:00-19:00","parking:lane:left":"no_parking","parking:lane:right":"parallel","parking:lane:right:parallel":"on_street","parking:ticket:zone":"3","sidewalk:both":"separate","surface":"asphalt"}},{"type":"way","id":74322500,"nodes":[878603916,878604105,7478444138,878604107,878604023,1016188473,878603997,7478444134,1016087032,878604065,1016087264,1016087063,1016087308],"tags":{"highway":"footway","lit":"yes","surface":"asphalt"}},{"type":"way","id":74322535,"nodes":[1526055725,878604245,1526055719],"tags":{"highway":"residential","maxspeed":"30","name":"Torkkelinkatu","name:fi":"Torkkelinkatu","name:sv":"Torkelsgatan","parking:lane:left":"no_parking","sidewalk:both":"separate","surface":"asphalt"}},{"type":"way","id":74322557,"nodes":[878603911,878604030,8599800735,878604242,1526055713,878603977,1016188386,878604129,878604000],"tags":{"highway":"footway","lit":"yes","surface":"asphalt"}},{"type":"way","id":87429914,"nodes":[1011920756,1016635258,210522378,210522380,210522362,8454085620,8454073099,1016635380,8454085619,210522364,210522367,1016634981,1011920756],"tags":{"building":"apartments","building:levels":"6","building:maintenance:operator":"Kanta-Helsingin Kiinteist\u00f6huolto Oy"}},{"type":"way","id":122595259,"nodes":[36773426,7538503132,765555383,153397403,289552742,765555352,153396586,153387010,153387008,153387007,5403081700,11766458359,159648494,153387003,159648793,153387002,159659369,159648492,159659366,159648490,1930579955,1930579951,153386999,153396099,5403579177,418089171,331822731,153396098,176228720,418089170,153396097,4525230191,5403606847,8852865454,332058882,332058881,332058880,332058879,153396094,153396093,175884750,159659363,153396092,5403677504,332058878,153396089,159668053,153396088,332058877,159667645,1381017864,5405088461,12063465541],"tags":{"electrified":"rail","frequency":"0","gauge":"1522","layer":"-4","maxspeed":"70","operator":"HKL-Metroliikenne","railway":"subway","railway:preferred_direction":"forward","source":"extrapolation, local knowledge","tunnel":"yes","voltage":"750"}},{"type":"way","id":139225446,"nodes":[1526055763,207646362,1815714118,3121969518,2052970773,207646363,3121969515,1815714115,3121969512,1528618309,1815714114,1823264242,1823264239,1528618308,1823264238,5026527380,207646364,1016188459,262986007,3122005102,1823264243,207646365,8387640542,8387640536,1016635386,8387640538,207646396,5026470565,1526055772,3122017555,5026470540,1526055761,3122017545,3122017548,1526055767,1526055763],"tags":{"landuse":"residential"}},{"type":"way","id":139225450,"nodes":[1526055698,7478444129,1526055699,1526055704,1526055706,7478444128,1526055711,1526055721,1526055692,7517797164,7517797165,10937790915,1526055650,10937790916,1526055698],"tags":{"addr:housenumber":"6","addr:street":"Torkkelinkatu","alt_name":"Tossu","amenity":"school","loc_name":"Kuvataidelukio","name":"Helsingin kuvataidelukio","old_name":"Torkkelin lukio","short_name":"Torkkeli"}},{"type":"way","id":139225457,"nodes":[1526055732,1526055717],"tags":{"highway":"steps","incline":"up","ramp":"no","surface":"stone"}},{"type":"way","id":139225460,"nodes":[1526055717,1526055713],"tags":{"highway":"footway","surface":"asphalt"}},{"type":"way","id":139225478,"nodes":[1526055747,1526055744,1526055740,1526055732],"tags":{"highway":"footway","surface":"asphalt"}},{"type":"way","id":139225496,"nodes":[447906145,1526055754,1823290504,1823290503,1823290502],"tags":{"barrier":"retaining_wall"}},{"type":"way","id":139225504,"nodes":[1526055729,1526055737,3121969507,1526055741,418089195,1526055733,1526055729],"tags":{"building":"yes","building:levels":"1","description":"S\u00f6rn\u00e4isten metroaseman etel\u00e4inen h\u00e4t\u00e4ulosk\u00e4ynti","roof:shape":"flat"}},{"type":"way","id":139225519,"nodes":[1526055735,1526055736,1823264235,3121969508,1526055745,1526055731,3121969505,1526055722,1526055720,1526055718,10937790970,878449165,447906145,1823264234,1526055735],"tags":{"hoitoluokitus_viheralue":"A3","leisure":"park","name":"Torkkelinaukio","name:fi":"Torkkelinaukio","name:sv":"Torkelsplatsen","old_name:sv":"Torkelplatsen","operator":"Helsingin kaupunki","operator:type":"government","operator:wikidata":"Q20251620"}},{"type":"way","id":139430290,"nodes":[1528618318,1528618308,1823264238,5026527380,207646364,1016188459,262986007,3122005102,1823264243,207646365,8387640542,8387640536,1016635386,8387640538,207646396,207646463,8387640524,1016188518,1016188442,6324968590,9732875217,262986006,207646397,6324968592,9732871517,5026527381,6324968591,8387640526,8387640530,5026470541,1528618318],"tags":{"addr:housenumber":"1","addr:street":"Harjutorinkatu","building":"apartments","building:levels":"8","building:maintenance:operator":"Kanta-Helsingin Kiinteist\u00f6huolto Oy","name":"Kotiharju","roof:levels":"1","roof:shape":"hipped","start_date":"1928","wikidata":"Q98410721"}},{"type":"way","id":139430302,"nodes":[1528618308,1528618318,1528618320,1528618309,1815714114,1823264242,1823264239,1528618308],"tags":{"building":"apartments","building:levels":"8","building:maintenance:operator":"Repo Kiinteist\u00f6hoito Oy","roof:colour":"#AAAAAA","wikidata":"Q98410718"}},{"type":"way","id":170430078,"nodes":[435207174,1016188384,4339462279,1526055747,435207173,4187018124,431474656],"tags":{"bicycle":"no","footway":"sidewalk","highway":"footway","lit":"yes","surface":"paved"}},{"type":"way","id":171266926,"nodes":[1823254724,4187018125,435207174],"tags":{"footway":"sidewalk","highway":"footway","lit":"yes","surface":"paved"}},{"type":"way","id":171268260,"nodes":[1823264237,1526055749],"tags":{"alt_name":"Franzeninkatu","highway":"residential","lanes":"1","maxspeed":"30","name":"Franz\u00e9ninkatu","name:fi":"Franz\u00e9ninkatu","name:sv":"Franz\u00e9nsgatan","oneway":"yes","oneway:bicycle":"no","parking:condition:right":"ticket","parking:condition:right:default":"free","parking:condition:right:residents":"I","parking:condition:right:time_interval":"Mo-Fr 09:00-19:00","parking:left":"no","parking:left:restriction":"no_parking","parking:right":"yes","parking:right:orientation":"parallel","parking:ticket:zone":"3","surface":"paved"}},{"type":"way","id":171268261,"nodes":[1823264236,1823264237],"tags":{"alt_name":"Franzeninkatu","highway":"residential","lanes":"1","maxspeed":"30","name":"Franz\u00e9ninkatu","name:fi":"Franz\u00e9ninkatu","name:sv":"Franz\u00e9nsgatan","oneway":"yes","oneway:bicycle":"no","parking:left":"no","parking:left:restriction":"no_parking","parking:right":"no","parking:right:restriction":"no_parking","surface":"asphalt"}},{"type":"way","id":171268262,"nodes":[1526055737,1823264235,1526055736,1526055735,1823264234,1823264232],"tags":{"barrier":"retaining_wall"}},{"type":"way","id":171268622,"nodes":[1823268685,1016188471],"tags":{"alt_name":"Franzeninkatu","highway":"residential","lanes":"1","maxspeed":"30","name":"Franz\u00e9ninkatu","name:fi":"Franz\u00e9ninkatu","name:sv":"Franz\u00e9nsgatan","oneway":"yes","oneway:bicycle":"no","parking:both":"yes","parking:both:orientation":"parallel","parking:condition:both":"ticket","parking:condition:both:default":"free","parking:condition:both:residents":"I","parking:condition:both:time_interval":"Mo-Fr 09:00-19:00","parking:ticket:zone":"3","surface":"asphalt"}},{"type":"way","id":171268625,"nodes":[1016188471,1526055744,1016188449,1526055742,1823264236],"tags":{"alt_name":"Franzeninkatu","highway":"residential","lanes":"1","maxspeed":"30","name":"Franz\u00e9ninkatu","name:fi":"Franz\u00e9ninkatu","name:sv":"Franz\u00e9nsgatan","oneway":"yes","oneway:bicycle":"no","parking:condition:right":"ticket","parking:condition:right:default":"free","parking:condition:right:residents":"I","parking:condition:right:time_interval":"Mo-Fr 09:00-19:00","parking:left":"no","parking:left:restriction":"no_parking","parking:right":"yes","parking:right:orientation":"parallel","parking:ticket:zone":"3","surface":"asphalt"}},{"type":"way","id":307138536,"nodes":[2441941528,3121969507],"tags":{"man_made":"beam"}},{"type":"way","id":307138542,"nodes":[3121969505,1526055731,1526055745,3121969508],"tags":{"barrier":"retaining_wall"}},{"type":"way","id":307142239,"nodes":[2441941529,3122005102],"tags":{"man_made":"beam"}},{"type":"way","id":307143216,"nodes":[3122017550,3122017551],"tags":{"man_made":"beam"}},{"type":"way","id":307143217,"nodes":[3122017555,3122017556],"tags":{"man_made":"beam"}},{"type":"way","id":307143218,"nodes":[3122017545,3122017546],"tags":{"man_made":"beam"}},{"type":"way","id":307143219,"nodes":[1526055772,3122017555,5026470540,1526055761,3122017545,3122017548],"tags":{"barrier":"wall"}},{"type":"way","id":418263657,"nodes":[4187018123,8454073103,1016635386],"tags":{"highway":"footway","surface":"asphalt"}},{"type":"way","id":418263658,"nodes":[4187018124,1823264243],"tags":{"highway":"footway"}},{"type":"way","id":418263659,"nodes":[4187018125,1823264238],"tags":{"highway":"footway"}},{"type":"way","id":436060298,"nodes":[1016188459,4339462279],"tags":{"highway":"footway"}},{"type":"way","id":514431794,"nodes":[1016635258,6681317450],"tags":{"barrier":"fence"}},{"type":"way","id":514431795,"nodes":[1528618318,1526055761],"tags":{"barrier":"fence"}},{"type":"way","id":514518461,"nodes":[207646396,5026470565,1526055772],"tags":{"barrier":"fence"}},{"type":"way","id":514518462,"nodes":[5026470540,8387640527,8387640528,5026470541,1528618318,1526055761,5026470540],"tags":{"building":"shed","building:levels":"1","source":"approximation"}},{"type":"way","id":514518463,"nodes":[5026470553,5026470554,5026470555,5026470556,5026470557,5026470558,5026470559,5026470560,5026470542,5026470543,5026470546,5026470547,5026470548,5026470549,5026470550,5026470551,5026470552,5026470544,5026470545,5026470553],"tags":{"man_made":"planter","source":"approximation","was:amenity":"fountain"}},{"type":"way","id":514518464,"nodes":[5026470563,5026470564,8454073102,5026470565],"tags":{"highway":"service"}},{"type":"way","id":514518465,"nodes":[5026470565,5026470566,5026470567,8387640533,5026470568,9732871617,5026470569],"tags":{"access":"private","highway":"service","service":"driveway"}},{"type":"way","id":514524645,"nodes":[5026527380,1823264238,1528618308,1528618318,6324968591,5026527381,5026527380],"tags":{"building:levels":"8","building:part":"yes"}},{"type":"way","id":514524646,"nodes":[5026527381,6324968592,207646397,262986006,6324968590,1016188442,1016188518,8387640524,207646463,207646396,8387640538,1016635386,8387640536,8387640542,207646365,1823264243,2441941529,1016188459,207646364,5026527380,5026527381],"tags":{"building:levels":"7","building:part":"yes"}},{"type":"way","id":556280040,"nodes":[5276733511,11766458359,418089195],"tags":{"access":"no","highway":"footway","layer":"-4","start_date":"1984-09-01","tunnel":"yes"}},{"type":"way","id":675196601,"nodes":[6323271685,6323267682,6681317451,6323267684,6323267683],"tags":{"highway":"service","pihatie":"yes","service":"driveway"}},{"type":"way","id":675196602,"nodes":[6323271691,6323271690,6323271689,6323271688,6323271687,6323271686],"tags":{"highway":"service","pihatie":"yes","service":"driveway"}},{"type":"way","id":682474357,"nodes":[1526055774,431474658,1526055762,6323271685,6323271691,1526055770,646467819,1526055764],"tags":{"highway":"residential","lanes":"1","maxspeed":"30","name":"Aadolfinkatu","name:fi":"Aadolfinkatu","name:sv":"Adolfsgatan","oneway":"yes","oneway:bicycle":"no","surface":"asphalt"}},{"type":"way","id":682474358,"nodes":[1526055774,5026470563,431474652,1526055755],"tags":{"highway":"residential","lit":"yes","maxspeed":"30","name":"Harjutorinkatu","name:fi":"Harjutorinkatu","name:sv":"\u00c5storgsgatan","parking:right":"no","parking:right:restriction":"no_parking","surface":"asphalt"}},{"type":"way","id":710645398,"nodes":[210522380,6681317452,1526055765,6681317451,6681317450],"tags":{"barrier":"wall"}},{"type":"way","id":710645399,"nodes":[6681317453,6681317452],"tags":{"highway":"footway","surface":"asphalt"}},{"type":"way","id":798956572,"nodes":[6681317452,7472263990,6323267683],"tags":{"highway":"footway","pihatie":"yes"}},{"type":"way","id":799612264,"nodes":[7478444135,7478444134],"tags":{"highway":"footway","surface":"paving_stones"}},{"type":"way","id":799612265,"nodes":[7478444136,7478444135],"tags":{"handrail":"no","highway":"steps","incline":"down","ramp":"no","step_count":"3","surface":"paving_stones"}},{"type":"way","id":903066877,"nodes":[5026470567,8387640529,8387640532,8387640531,8387640530],"tags":{"access":"private","highway":"footway"}},{"type":"way","id":903066878,"nodes":[8387640531,8387640534,5026470568],"tags":{"access":"private","highway":"footway"}},{"type":"way","id":903066879,"nodes":[8387640527,8387640529],"tags":{"access":"private","highway":"footway"}},{"type":"way","id":903066880,"nodes":[8387640528,8387640532],"tags":{"access":"private","highway":"footway"}},{"type":"way","id":903066881,"nodes":[8387640533,8387640524],"tags":{"access":"private","highway":"steps","incline":"down"}},{"type":"way","id":903066882,"nodes":[8387640526,8387640534],"tags":{"access":"private","highway":"footway"}},{"type":"way","id":903066883,"nodes":[8387640536,8387640537],"tags":{"highway":"footway"}},{"type":"way","id":903066885,"nodes":[8387640541,8387640540,8387640542,207646365,8387640543,8387640544,8387640541],"tags":{"landuse":"grass"}},{"type":"way","id":910467681,"nodes":[8454073106,8454073104,8454073103],"tags":{"highway":"footway"}},{"type":"way","id":910467682,"nodes":[8454073104,8387640538],"tags":{"handrail":"no","highway":"steps","incline":"up","step_count":"2"}},{"type":"way","id":910467684,"nodes":[8454073102,8454073106],"tags":{"handrail":"no","highway":"steps","incline":"up","step_count":"2"}},{"type":"way","id":910467685,"nodes":[8454073107,8454073108,8454073109,8454073110,8454073107],"tags":{"landuse":"grass"}},{"type":"way","id":1059309168,"nodes":[9732871617,9732871517],"tags":{"access":"private","highway":"footway"}},{"type":"way","id":1059309720,"nodes":[5026470569,9732875217],"tags":{"access":"private","highway":"footway"}},{"type":"way","id":1177319985,"nodes":[1823264232,10937790970,1526055718,1526055720,1526055722,3121969505,1526055731,1526055745,3121969508,1823264235,1526055736,1526055735,1823264234,1823264232],"tags":{"landuse":"grass"}},{"type":"way","id":1224530735,"nodes":[11356210397,11356210398],"tags":{"barrier":"fence","fence_type":"picket","material":"wood","name":"dick fence (dicket fence)"}},{"type":"node","id":153396088,"lat":60.1702948,"lon":24.9358078},{"type":"node","id":159667645,"lat":60.1700909,"lon":24.934662},{"type":"node","id":332058877,"lat":60.1702196,"lon":24.935288},{"type":"node","id":1381017864,"lat":60.1699594,"lon":24.9341422},{"type":"node","id":5405088461,"lat":60.1689291,"lon":24.9310832},{"type":"node","id":12063465541,"lat":60.1688203,"lon":24.9307692},{"type":"node","id":153396089,"lat":60.1704267,"lon":24.9372318},{"type":"node","id":153396092,"lat":60.1705706,"lon":24.9424333},{"type":"node","id":159668053,"lat":60.1703622,"lon":24.9364773},{"type":"node","id":332058878,"lat":60.1704691,"lon":24.937993},{"type":"node","id":5403677504,"lat":60.1704934,"lon":24.9388663},{"type":"node","id":153396093,"lat":60.1707768,"lon":24.9444701},{"type":"node","id":153396094,"lat":60.1709235,"lon":24.9451739},{"type":"node","id":159659363,"lat":60.1706046,"lon":24.9430503},{"type":"node","id":175884750,"lat":60.1706864,"lon":24.9438115},{"type":"node","id":332058879,"lat":60.1710926,"lon":24.9457788},{"type":"node","id":332058880,"lat":60.1713004,"lon":24.9463571},{"type":"node","id":332058881,"lat":60.171485,"lon":24.9467844},{"type":"node","id":332058882,"lat":60.171727,"lon":24.9471677},{"type":"node","id":4525230191,"lat":60.172802,"lon":24.948402},{"type":"node","id":5403606847,"lat":60.1724079,"lon":24.9479234},{"type":"node","id":8852865454,"lat":60.1723595,"lon":24.9478697},{"type":"node","id":153396097,"lat":60.1740076,"lon":24.9497863},{"type":"node","id":153396098,"lat":60.175625,"lon":24.950466},{"type":"node","id":176228720,"lat":60.1748308,"lon":24.9503697},{"type":"node","id":331822731,"lat":60.1757181,"lon":24.950462},{"type":"node","id":418089170,"lat":60.1744132,"lon":24.9501623},{"type":"node","id":418089171,"lat":60.1765692,"lon":24.9504214},{"type":"node","id":153386999,"lat":60.1819072,"lon":24.9498547},{"type":"node","id":153387002,"lat":60.1845216,"lon":24.9544677},{"type":"node","id":153396099,"lat":60.1815487,"lon":24.949856},{"type":"node","id":159648490,"lat":60.1828004,"lon":24.9503136},{"type":"node","id":159648492,"lat":60.1838917,"lon":24.9518608},{"type":"node","id":159648793,"lat":60.1848832,"lon":24.9559105},{"type":"node","id":159659366,"lat":60.1833748,"lon":24.9510123},{"type":"node","id":159659369,"lat":60.1842115,"lon":24.9528839},{"type":"node","id":1009015935,"lat":60.1849264,"lon":24.9548619},{"type":"node","id":1016188415,"lat":60.1846735,"lon":24.9551342},{"type":"node","id":1016188425,"lat":60.1847057,"lon":24.9555241},{"type":"node","id":1016188562,"lat":60.1848162,"lon":24.9547038},{"type":"node","id":1821634443,"lat":60.1846122,"lon":24.955332},{"type":"node","id":1821634446,"lat":60.1846158,"lon":24.9554304},{"type":"node","id":1930579951,"lat":60.182145,"lon":24.9498917},{"type":"node","id":1930579955,"lat":60.1825158,"lon":24.9500687},{"type":"node","id":5403579177,"lat":60.1801821,"lon":24.9500075},{"type":"node","id":435207149,"lat":60.1860101,"lon":24.9542942},{"type":"node","id":435207150,"lat":60.1860513,"lon":24.9541915},{"type":"node","id":435207151,"lat":60.1864811,"lon":24.9541446},{"type":"node","id":435207152,"lat":60.1867163,"lon":24.9545431},{"type":"node","id":435207153,"lat":60.1867517,"lon":24.9550009},{"type":"node","id":435207154,"lat":60.1868644,"lon":24.9552411},{"type":"node","id":435207156,"lat":60.186886,"lon":24.9557318},{"type":"node","id":447906147,"lat":60.1863208,"lon":24.955116},{"type":"node","id":447906148,"lat":60.1856793,"lon":24.9539462},{"type":"node","id":1009015846,"lat":60.185082,"lon":24.9544058},{"type":"node","id":1011920844,"lat":60.1868936,"lon":24.9554424},{"type":"node","id":1011920999,"lat":60.1868968,"lon":24.955613},{"type":"node","id":1011921107,"lat":60.1868168,"lon":24.9551122},{"type":"node","id":1016188476,"lat":60.1850251,"lon":24.955869},{"type":"node","id":1016540084,"lat":60.1868465,"lon":24.9551842},{"type":"node","id":1016540255,"lat":60.186576,"lon":24.9541956},{"type":"node","id":1016540341,"lat":60.1865356,"lon":24.9541599},{"type":"node","id":1016540422,"lat":60.1866821,"lon":24.9543827},{"type":"node","id":1016540515,"lat":60.1868202,"lon":24.9559758},{"type":"node","id":1016540518,"lat":60.1866487,"lon":24.9543018},{"type":"node","id":1016540531,"lat":60.1866123,"lon":24.9542441},{"type":"node","id":1016540562,"lat":60.1868821,"lon":24.9553334},{"type":"node","id":1016540584,"lat":60.1868305,"lon":24.955911},{"type":"node","id":1017158409,"lat":60.186702,"lon":24.95446},{"type":"node","id":1405382207,"lat":60.1863511,"lon":24.9541584},{"type":"node","id":1526055599,"lat":60.1850926,"lon":24.9543794},{"type":"node","id":1526055621,"lat":60.1851577,"lon":24.9539849},{"type":"node","id":1526055622,"lat":60.1851651,"lon":24.9541818},{"type":"node","id":1526055669,"lat":60.1856482,"lon":24.953932},{"type":"node","id":1526055748,"lat":60.1862569,"lon":24.954879},{"type":"node","id":1526055750,"lat":60.1862941,"lon":24.9549637},{"type":"node","id":1526055786,"lat":60.1868708,"lon":24.9558028},{"type":"node","id":2441941514,"lat":60.1863474,"lon":24.9556337},{"type":"node","id":6321049035,"lat":60.1868954,"lon":24.9554921},{"type":"node","id":6321049036,"lat":60.1868891,"lon":24.9553828},{"type":"node","id":6324968597,"lat":60.1863156,"lon":24.9550551},{"type":"node","id":6324968598,"lat":60.186306,"lon":24.9550076},{"type":"node","id":6324968599,"lat":60.1862769,"lon":24.9549162},{"type":"node","id":8599800748,"lat":60.1851682,"lon":24.9560624},{"type":"node","id":8844615277,"lat":60.1852925,"lon":24.9539704},{"type":"node","id":11278815053,"lat":60.1860825,"lon":24.9541881},{"type":"node","id":11278815054,"lat":60.1866235,"lon":24.9542618},{"type":"node","id":153387003,"lat":60.1853195,"lon":24.9570477},{"type":"node","id":153387007,"lat":60.187914,"lon":24.9601991},{"type":"node","id":153387008,"lat":60.1884224,"lon":24.9610136},{"type":"node","id":153387010,"lat":60.1888506,"lon":24.9618829},{"type":"node","id":153396586,"lat":60.1890847,"lon":24.9626348},{"type":"node","id":159648494,"lat":60.1858799,"lon":24.9579633},{"type":"node","id":207646224,"lat":60.185657,"lon":24.958765},{"type":"node","id":207646226,"lat":60.1858776,"lon":24.9583579},{"type":"node","id":207646228,"lat":60.1858482,"lon":24.9577315},{"type":"node","id":207646229,"lat":60.1859509,"lon":24.9577075},{"type":"node","id":207646230,"lat":60.1859921,"lon":24.9584236},{"type":"node","id":207646231,"lat":60.1859476,"lon":24.958434},{"type":"node","id":207646232,"lat":60.1859625,"lon":24.9586938},{"type":"node","id":207646357,"lat":60.1865855,"lon":24.9593565},{"type":"node","id":207646358,"lat":60.1866185,"lon":24.9591505},{"type":"node","id":207646360,"lat":60.1871856,"lon":24.9597493},{"type":"node","id":207646362,"lat":60.1865086,"lon":24.9593031},{"type":"node","id":207646363,"lat":60.1863312,"lon":24.9591852},{"type":"node","id":207646364,"lat":60.1862333,"lon":24.9575244},{"type":"node","id":207646365,"lat":60.1863539,"lon":24.957027},{"type":"node","id":207646396,"lat":60.1866239,"lon":24.9574124},{"type":"node","id":207646397,"lat":60.186349,"lon":24.9574751},{"type":"node","id":207646463,"lat":60.1865413,"lon":24.9576578},{"type":"node","id":210522362,"lat":60.186693,"lon":24.9575104},{"type":"node","id":210522364,"lat":60.1868586,"lon":24.9577407},{"type":"node","id":210522367,"lat":60.1868174,"lon":24.9578698},{"type":"node","id":210522369,"lat":60.1868948,"lon":24.9587114},{"type":"node","id":210522378,"lat":60.1866736,"lon":24.9578071},{"type":"node","id":210522380,"lat":60.186617,"lon":24.9577315},{"type":"node","id":210522984,"lat":60.1871722,"lon":24.9591052},{"type":"node","id":210522985,"lat":60.1873754,"lon":24.9590267},{"type":"node","id":210522986,"lat":60.1874345,"lon":24.9597812},{"type":"node","id":210522987,"lat":60.1873175,"lon":24.9598193},{"type":"node","id":210530264,"lat":60.1858665,"lon":24.9570302},{"type":"node","id":210530268,"lat":60.1859938,"lon":24.9572076},{"type":"node","id":262986006,"lat":60.1863708,"lon":24.9574118},{"type":"node","id":262986007,"lat":60.1862581,"lon":24.9573087},{"type":"node","id":418089195,"lat":60.1861469,"lon":24.9579386},{"type":"node","id":431474652,"lat":60.1863977,"lon":24.9568576},{"type":"node","id":431474653,"lat":60.1869109,"lon":24.9576786},{"type":"node","id":431474656,"lat":60.1863761,"lon":24.9569254},{"type":"node","id":431474658,"lat":60.1866983,"lon":24.9573789},{"type":"node","id":435207157,"lat":60.1868329,"lon":24.9561375},{"type":"node","id":435207158,"lat":60.1868762,"lon":24.9568605},{"type":"node","id":435207159,"lat":60.1867694,"lon":24.9572678},{"type":"node","id":435207168,"lat":60.1865564,"lon":24.9578921},{"type":"node","id":435207169,"lat":60.1866251,"lon":24.9590543},{"type":"node","id":435207170,"lat":60.1865726,"lon":24.9593883},{"type":"node","id":435207171,"lat":60.1867173,"lon":24.9574078},{"type":"node","id":435207172,"lat":60.186743,"lon":24.9573333},{"type":"node","id":435207173,"lat":60.1862602,"lon":24.9572699},{"type":"node","id":435207174,"lat":60.1862238,"lon":24.9575551},{"type":"node","id":435207175,"lat":60.1863651,"lon":24.9592481},{"type":"node","id":447906145,"lat":60.1861645,"lon":24.9572848},{"type":"node","id":447906146,"lat":60.1863954,"lon":24.9565105},{"type":"node","id":646467819,"lat":60.1865447,"lon":24.9593722},{"type":"node","id":878449128,"lat":60.1859294,"lon":24.9568474},{"type":"node","id":878449161,"lat":60.1860567,"lon":24.9570248},{"type":"node","id":878449165,"lat":60.1859875,"lon":24.9573248},{"type":"node","id":878603911,"lat":60.185808,"lon":24.9570343},{"type":"node","id":878603916,"lat":60.1857351,"lon":24.957184},{"type":"node","id":878603942,"lat":60.1857955,"lon":24.9571499},{"type":"node","id":878603977,"lat":60.1859953,"lon":24.9574018},{"type":"node","id":878603997,"lat":60.1859736,"lon":24.9577745},{"type":"node","id":878604000,"lat":60.1861049,"lon":24.9586843},{"type":"node","id":878604023,"lat":60.1859349,"lon":24.957565},{"type":"node","id":878604030,"lat":60.1858978,"lon":24.9571906},{"type":"node","id":878604065,"lat":60.1860302,"lon":24.958806},{"type":"node","id":878604105,"lat":60.1858093,"lon":24.9573357},{"type":"node","id":878604107,"lat":60.1858957,"lon":24.9574816},{"type":"node","id":878604129,"lat":60.1860363,"lon":24.9576475},{"type":"node","id":878604242,"lat":60.1859534,"lon":24.9572973},{"type":"node","id":878604245,"lat":60.186074,"lon":24.9586933},{"type":"node","id":1011920756,"lat":60.1868523,"lon":24.9582877},{"type":"node","id":1011920966,"lat":60.1868873,"lon":24.9587009},{"type":"node","id":1016087032,"lat":60.1860251,"lon":24.9587036},{"type":"node","id":1016087063,"lat":60.1860482,"lon":24.959148},{"type":"node","id":1016087264,"lat":60.1860348,"lon":24.9588997},{"type":"node","id":1016087308,"lat":60.1860591,"lon":24.9593381},{"type":"node","id":1016087913,"lat":60.1863209,"lon":24.9591555},{"type":"node","id":1016188384,"lat":60.1862316,"lon":24.9574308},{"type":"node","id":1016188386,"lat":60.1860232,"lon":24.9575317},{"type":"node","id":1016188412,"lat":60.1859855,"lon":24.9575594},{"type":"node","id":1016188420,"lat":60.1863255,"lon":24.9592224},{"type":"node","id":1016188442,"lat":60.1864316,"lon":24.9574702},{"type":"node","id":1016188449,"lat":60.1861846,"lon":24.9574488},{"type":"node","id":1016188451,"lat":60.1854984,"lon":24.9565088},{"type":"node","id":1016188459,"lat":60.1862405,"lon":24.9574268},{"type":"node","id":1016188471,"lat":60.1862233,"lon":24.9572084},{"type":"node","id":1016188473,"lat":60.1859556,"lon":24.9576395},{"type":"node","id":1016188518,"lat":60.1864238,"lon":24.9574964},{"type":"node","id":1016540230,"lat":60.1868674,"lon":24.9569385},{"type":"node","id":1016540545,"lat":60.1868553,"lon":24.9570079},{"type":"node","id":1016634981,"lat":60.1868344,"lon":24.9580754},{"type":"node","id":1016634994,"lat":60.1869525,"lon":24.9587955},{"type":"node","id":1016635066,"lat":60.1874302,"lon":24.9597289},{"type":"node","id":1016635105,"lat":60.1868697,"lon":24.9584935},{"type":"node","id":1016635144,"lat":60.1873893,"lon":24.9591974},{"type":"node","id":1016635169,"lat":60.1872127,"lon":24.9590849},{"type":"node","id":1016635215,"lat":60.1874153,"lon":24.9595428},{"type":"node","id":1016635230,"lat":60.1874045,"lon":24.9594094},{"type":"node","id":1016635258,"lat":60.1867175,"lon":24.9583199},{"type":"node","id":1016635280,"lat":60.187211,"lon":24.9590858},{"type":"node","id":1016635380,"lat":60.1867823,"lon":24.9576341},{"type":"node","id":1016635386,"lat":60.1865579,"lon":24.9573199},{"type":"node","id":1505146082,"lat":60.1867749,"lon":24.9594795},{"type":"node","id":1505146097,"lat":60.1870344,"lon":24.9596492},{"type":"node","id":1526055650,"lat":60.1854581,"lon":24.9585245},{"type":"node","id":1526055658,"lat":60.1855648,"lon":24.958407},{"type":"node","id":1526055660,"lat":60.1855728,"lon":24.9585449},{"type":"node","id":1526055668,"lat":60.1856434,"lon":24.9585284},{"type":"node","id":1526055673,"lat":60.185639,"lon":24.9583897},{"type":"node","id":1526055674,"lat":60.1856404,"lon":24.9584132},{"type":"node","id":1526055692,"lat":60.1857103,"lon":24.9588615},{"type":"node","id":1526055698,"lat":60.1858272,"lon":24.9574035},{"type":"node","id":1526055699,"lat":60.1858911,"lon":24.9575112},{"type":"node","id":1526055702,"lat":60.1859202,"lon":24.9573764},{"type":"node","id":1526055704,"lat":60.1859297,"lon":24.95759},{"type":"node","id":1526055706,"lat":60.1859481,"lon":24.9576664},{"type":"node","id":1526055709,"lat":60.1859623,"lon":24.9572671},{"type":"node","id":1526055710,"lat":60.1859617,"lon":24.9574699},{"type":"node","id":1526055711,"lat":60.1859613,"lon":24.9577567},{"type":"node","id":1526055713,"lat":60.1859786,"lon":24.9573486},{"type":"node","id":1526055717,"lat":60.186006,"lon":24.9573433},{"type":"node","id":1526055718,"lat":60.1860113,"lon":24.9574084},{"type":"node","id":1526055719,"lat":60.1860098,"lon":24.9576733},{"type":"node","id":1526055720,"lat":60.1860284,"lon":24.9574775},{"type":"node","id":1526055721,"lat":60.1860215,"lon":24.9587801},{"type":"node","id":1526055722,"lat":60.1860433,"lon":24.9575725},{"type":"node","id":1526055725,"lat":60.1860867,"lon":24.9588791},{"type":"node","id":1526055729,"lat":60.1861185,"lon":24.957747},{"type":"node","id":1526055731,"lat":60.1861129,"lon":24.9587125},{"type":"node","id":1526055732,"lat":60.1861313,"lon":24.9573195},{"type":"node","id":1526055733,"lat":60.1861308,"lon":24.9579427},{"type":"node","id":1526055735,"lat":60.1861557,"lon":24.9573968},{"type":"node","id":1526055736,"lat":60.1861563,"lon":24.957523},{"type":"node","id":1526055737,"lat":60.1861545,"lon":24.9577378},{"type":"node","id":1526055740,"lat":60.1861615,"lon":24.9573138},{"type":"node","id":1526055741,"lat":60.1861668,"lon":24.9579335},{"type":"node","id":1526055742,"lat":60.1861866,"lon":24.9575584},{"type":"node","id":1526055744,"lat":60.1861985,"lon":24.9573273},{"type":"node","id":1526055745,"lat":60.1862184,"lon":24.9587184},{"type":"node","id":1526055747,"lat":60.1862409,"lon":24.9573434},{"type":"node","id":1526055749,"lat":60.1862494,"lon":24.9586983},{"type":"node","id":1526055754,"lat":60.1863747,"lon":24.9566447},{"type":"node","id":1526055755,"lat":60.1863666,"lon":24.9568134},{"type":"node","id":1526055757,"lat":60.1863909,"lon":24.9565729},{"type":"node","id":1526055761,"lat":60.1865076,"lon":24.9578543},{"type":"node","id":1526055762,"lat":60.1865341,"lon":24.9578736},{"type":"node","id":1526055763,"lat":60.1865354,"lon":24.9593213},{"type":"node","id":1526055764,"lat":60.1865266,"lon":24.9594891},{"type":"node","id":1526055765,"lat":60.1865635,"lon":24.9578963},{"type":"node","id":1526055767,"lat":60.1865796,"lon":24.9590449},{"type":"node","id":1526055770,"lat":60.1866036,"lon":24.95904},{"type":"node","id":1526055771,"lat":60.1866335,"lon":24.959057},{"type":"node","id":1526055772,"lat":60.1866469,"lon":24.9574451},{"type":"node","id":1526055774,"lat":60.1867231,"lon":24.9573071},{"type":"node","id":1528618308,"lat":60.1862547,"lon":24.957919},{"type":"node","id":1528618309,"lat":60.1862919,"lon":24.9585522},{"type":"node","id":1528618318,"lat":60.1863901,"lon":24.9578868},{"type":"node","id":1528618320,"lat":60.1864273,"lon":24.95852},{"type":"node","id":1815714114,"lat":60.1862875,"lon":24.9584784},{"type":"node","id":1815714115,"lat":60.1863126,"lon":24.9588745},{"type":"node","id":1815714118,"lat":60.1864048,"lon":24.9592335},{"type":"node","id":1815848565,"lat":60.1870158,"lon":24.959637},{"type":"node","id":1815848579,"lat":60.1871106,"lon":24.9597008},{"type":"node","id":1821634469,"lat":60.1859335,"lon":24.9571236},{"type":"node","id":1823254724,"lat":60.1862441,"lon":24.9579185},{"type":"node","id":1823264232,"lat":60.1861321,"lon":24.9573425},{"type":"node","id":1823264234,"lat":60.1861568,"lon":24.957343},{"type":"node","id":1823264235,"lat":60.186167,"lon":24.9577353},{"type":"node","id":1823264236,"lat":60.186193,"lon":24.9576752},{"type":"node","id":1823264237,"lat":60.186207,"lon":24.9579215},{"type":"node","id":1823264238,"lat":60.1862455,"lon":24.9577735},{"type":"node","id":1823264239,"lat":60.1862641,"lon":24.9580796},{"type":"node","id":1823264242,"lat":60.1862817,"lon":24.9583793},{"type":"node","id":1823264243,"lat":60.1863091,"lon":24.9571588},{"type":"node","id":1823268685,"lat":60.1863361,"lon":24.9568976},{"type":"node","id":1823290502,"lat":60.1862968,"lon":24.9566399},{"type":"node","id":1823290503,"lat":60.1863252,"lon":24.956624},{"type":"node","id":1823290504,"lat":60.1863516,"lon":24.9566293},{"type":"node","id":1829968222,"lat":60.1859022,"lon":24.9569265},{"type":"node","id":2052970773,"lat":60.1863424,"lon":24.9591925},{"type":"node","id":2441941528,"lat":60.1861708,"lon":24.9579295},{"type":"node","id":2441941529,"lat":60.1862588,"lon":24.9573009},{"type":"node","id":3121969505,"lat":60.1860892,"lon":24.9583172},{"type":"node","id":3121969507,"lat":60.1861666,"lon":24.9579304},{"type":"node","id":3121969508,"lat":60.1861788,"lon":24.9579446},{"type":"node","id":3121969512,"lat":60.1862969,"lon":24.9586299},{"type":"node","id":3121969515,"lat":60.1863252,"lon":24.9590835},{"type":"node","id":3121969518,"lat":60.1863906,"lon":24.9592242},{"type":"node","id":3121969523,"lat":60.1869963,"lon":24.9596243},{"type":"node","id":3121969524,"lat":60.1873238,"lon":24.9598173},{"type":"node","id":3122005102,"lat":60.1862604,"lon":24.9573019},{"type":"node","id":3122017545,"lat":60.1865164,"lon":24.9579992},{"type":"node","id":3122017546,"lat":60.1865217,"lon":24.9579965},{"type":"node","id":3122017548,"lat":60.1865381,"lon":24.9583666},{"type":"node","id":3122017550,"lat":60.1865661,"lon":24.9576781},{"type":"node","id":3122017551,"lat":60.1865719,"lon":24.9576859},{"type":"node","id":3122017555,"lat":60.1866374,"lon":24.9574727},{"type":"node","id":3122017556,"lat":60.1866437,"lon":24.9574809},{"type":"node","id":4187018123,"lat":60.1865901,"lon":24.9572266},{"type":"node","id":4187018124,"lat":60.1863012,"lon":24.9571481},{"type":"node","id":4187018125,"lat":60.1862361,"lon":24.9577748},{"type":"node","id":4339462279,"lat":60.1862323,"lon":24.9574238},{"type":"node","id":5025854695,"lat":60.1866288,"lon":24.9589583},{"type":"node","id":5025854696,"lat":60.1865834,"lon":24.9583533},{"type":"node","id":5026470540,"lat":60.186525,"lon":24.9577987},{"type":"node","id":5026470541,"lat":60.1863865,"lon":24.9578307},{"type":"node","id":5026470542,"lat":60.1864377,"lon":24.9577073},{"type":"node","id":5026470543,"lat":60.1864415,"lon":24.9577155},{"type":"node","id":5026470544,"lat":60.1864185,"lon":24.9577598},{"type":"node","id":5026470545,"lat":60.1864149,"lon":24.9577526},{"type":"node","id":5026470546,"lat":60.1864438,"lon":24.9577258},{"type":"node","id":5026470547,"lat":60.1864442,"lon":24.9577371},{"type":"node","id":5026470548,"lat":60.1864426,"lon":24.957748},{"type":"node","id":5026470549,"lat":60.1864393,"lon":24.9577571},{"type":"node","id":5026470550,"lat":60.1864346,"lon":24.9577634},{"type":"node","id":5026470551,"lat":60.1864291,"lon":24.9577661},{"type":"node","id":5026470552,"lat":60.1864235,"lon":24.9577648},{"type":"node","id":5026470553,"lat":60.1864126,"lon":24.9577435},{"type":"node","id":5026470554,"lat":60.1864119,"lon":24.9577334},{"type":"node","id":5026470555,"lat":60.1864127,"lon":24.9577233},{"type":"node","id":5026470556,"lat":60.186415,"lon":24.9577142},{"type":"node","id":5026470557,"lat":60.1864186,"lon":24.9577071},{"type":"node","id":5026470558,"lat":60.1864231,"lon":24.9577025},{"type":"node","id":5026470559,"lat":60.1864282,"lon":24.957701},{"type":"node","id":5026470560,"lat":60.1864332,"lon":24.9577026},{"type":"node","id":5026470563,"lat":60.1866899,"lon":24.9572612},{"type":"node","id":5026470564,"lat":60.1866656,"lon":24.9573329},{"type":"node","id":5026470565,"lat":60.1866337,"lon":24.9574275},{"type":"node","id":5026470566,"lat":60.1865452,"lon":24.957685},{"type":"node","id":5026470567,"lat":60.1864892,"lon":24.9576964},{"type":"node","id":5026470568,"lat":60.1863895,"lon":24.9575588},{"type":"node","id":5026470569,"lat":60.1863876,"lon":24.9574796},{"type":"node","id":5026527380,"lat":60.1862345,"lon":24.9575832},{"type":"node","id":5026527381,"lat":60.1863591,"lon":24.9575539},{"type":"node","id":5276733511,"lat":60.186182,"lon":24.9586943},{"type":"node","id":5403081700,"lat":60.186393,"lon":24.9585664},{"type":"node","id":6321049015,"lat":60.1869662,"lon":24.9588147},{"type":"node","id":6323267644,"lat":60.1868426,"lon":24.9570591},{"type":"node","id":6323267645,"lat":60.1868777,"lon":24.9567618},{"type":"node","id":6323267646,"lat":60.1868747,"lon":24.9566747},{"type":"node","id":6323267682,"lat":60.1865777,"lon":24.9582555},{"type":"node","id":6323267683,"lat":60.1866497,"lon":24.9579405},{"type":"node","id":6323267684,"lat":60.1866769,"lon":24.9582152},{"type":"node","id":6323271685,"lat":60.1865573,"lon":24.9582638},{"type":"node","id":6323271686,"lat":60.1868499,"lon":24.9590131},{"type":"node","id":6323271687,"lat":60.1867184,"lon":24.9588231},{"type":"node","id":6323271688,"lat":60.1866942,"lon":24.9585965},{"type":"node","id":6323271689,"lat":60.186603,"lon":24.9584083},{"type":"node","id":6323271690,"lat":60.1865858,"lon":24.9583934},{"type":"node","id":6323271691,"lat":60.186565,"lon":24.9583929},{"type":"node","id":6324968504,"lat":60.1858652,"lon":24.9582227},{"type":"node","id":6324968505,"lat":60.1858763,"lon":24.9582201},{"type":"node","id":6324968506,"lat":60.1858719,"lon":24.9583404},{"type":"node","id":6324968507,"lat":60.1858765,"lon":24.9583393},{"type":"node","id":6324968590,"lat":60.1863883,"lon":24.9574063},{"type":"node","id":6324968591,"lat":60.1863715,"lon":24.957551},{"type":"node","id":6324968592,"lat":60.1863565,"lon":24.9574897},{"type":"node","id":6681317450,"lat":60.1865915,"lon":24.9583513},{"type":"node","id":6681317451,"lat":60.1865854,"lon":24.9582524},{"type":"node","id":6681317452,"lat":60.1866073,"lon":24.9577615},{"type":"node","id":6681317453,"lat":60.1866022,"lon":24.9577543},{"type":"node","id":7472263990,"lat":60.1866377,"lon":24.9578056},{"type":"node","id":7478444128,"lat":60.1859525,"lon":24.9576968},{"type":"node","id":7478444129,"lat":60.1858613,"lon":24.957461},{"type":"node","id":7478444132,"lat":60.1858686,"lon":24.9582816},{"type":"node","id":7478444133,"lat":60.1859514,"lon":24.9584996},{"type":"node","id":7478444134,"lat":60.1860131,"lon":24.9584864},{"type":"node","id":7478444135,"lat":60.1859955,"lon":24.9584902},{"type":"node","id":7478444136,"lat":60.1859805,"lon":24.9584934},{"type":"node","id":7478444137,"lat":60.1859071,"lon":24.9573525},{"type":"node","id":7478444138,"lat":60.1858705,"lon":24.9574391},{"type":"node","id":7478444139,"lat":60.1858696,"lon":24.9577265},{"type":"node","id":7478444140,"lat":60.1856463,"lon":24.9585782},{"type":"node","id":7478444141,"lat":60.1855707,"lon":24.9585089},{"type":"node","id":7478444142,"lat":60.1856812,"lon":24.9587594},{"type":"node","id":7517797164,"lat":60.1856509,"lon":24.9587821},{"type":"node","id":7517797165,"lat":60.1855589,"lon":24.9586592},{"type":"node","id":8387640524,"lat":60.1864826,"lon":24.9575771},{"type":"node","id":8387640526,"lat":60.1863817,"lon":24.9577403},{"type":"node","id":8387640527,"lat":60.1864558,"lon":24.9578147},{"type":"node","id":8387640528,"lat":60.1864401,"lon":24.9578183},{"type":"node","id":8387640529,"lat":60.1864542,"lon":24.957782},{"type":"node","id":8387640530,"lat":60.1863847,"lon":24.9577979},{"type":"node","id":8387640531,"lat":60.1864022,"lon":24.957794},{"type":"node","id":8387640532,"lat":60.1864386,"lon":24.9577858},{"type":"node","id":8387640533,"lat":60.1864586,"lon":24.9576547},{"type":"node","id":8387640534,"lat":60.1863994,"lon":24.9577371},{"type":"node","id":8387640536,"lat":60.1865298,"lon":24.9572796},{"type":"node","id":8387640537,"lat":60.1865613,"lon":24.9571861},{"type":"node","id":8387640538,"lat":60.1865869,"lon":24.9573605},{"type":"node","id":8387640539,"lat":60.1866175,"lon":24.9572651},{"type":"node","id":8387640540,"lat":60.1865283,"lon":24.9572211},{"type":"node","id":8387640541,"lat":60.1865415,"lon":24.9571799},{"type":"node","id":8387640542,"lat":60.1865159,"lon":24.9572596},{"type":"node","id":8387640543,"lat":60.1863814,"lon":24.9569522},{"type":"node","id":8387640544,"lat":60.1863954,"lon":24.9569723},{"type":"node","id":8454073096,"lat":60.1868139,"lon":24.9575429},{"type":"node","id":8454073098,"lat":60.1867007,"lon":24.9574577},{"type":"node","id":8454073099,"lat":60.1867472,"lon":24.9575855},{"type":"node","id":8454073102,"lat":60.1866494,"lon":24.9573808},{"type":"node","id":8454073103,"lat":60.1865732,"lon":24.9572756},{"type":"node","id":8454073104,"lat":60.1866024,"lon":24.9573159},{"type":"node","id":8454073105,"lat":60.1865466,"lon":24.9571654},{"type":"node","id":8454073106,"lat":60.1866315,"lon":24.9573561},{"type":"node","id":8454073107,"lat":60.1866592,"lon":24.9573333},{"type":"node","id":8454073108,"lat":60.1866475,"lon":24.9573671},{"type":"node","id":8454073109,"lat":60.1865804,"lon":24.9572761},{"type":"node","id":8454073110,"lat":60.1865925,"lon":24.9572408},{"type":"node","id":8454085619,"lat":60.1868507,"lon":24.9577296},{"type":"node","id":8454085620,"lat":60.1867201,"lon":24.9575479},{"type":"node","id":8599800735,"lat":60.1859054,"lon":24.9572051},{"type":"node","id":8599800741,"lat":60.1852352,"lon":24.9561531},{"type":"node","id":9732871517,"lat":60.1863577,"lon":24.9575198},{"type":"node","id":9732871617,"lat":60.1863885,"lon":24.9575168},{"type":"node","id":9732875217,"lat":60.1863837,"lon":24.9574077},{"type":"node","id":10937790915,"lat":60.1855422,"lon":24.9586368},{"type":"node","id":10937790916,"lat":60.1855297,"lon":24.9583072},{"type":"node","id":10937790970,"lat":60.1860007,"lon":24.9573712},{"type":"node","id":11356210397,"lat":60.1865673,"lon":24.9572551},{"type":"node","id":11356210398,"lat":60.1865518,"lon":24.9572997},{"type":"node","id":11766458357,"lat":60.1874228,"lon":24.9596359},{"type":"node","id":11766458359,"lat":60.1861635,"lon":24.9582967},{"type":"node","id":36773426,"lat":60.1891726,"lon":24.9666085},{"type":"node","id":153397403,"lat":60.1893188,"lon":24.9648795},{"type":"node","id":289552742,"lat":60.1892938,"lon":24.9641139},{"type":"node","id":765555352,"lat":60.1892171,"lon":24.9633591},{"type":"node","id":765555383,"lat":60.1892798,"lon":24.9656612},{"type":"node","id":7538503132,"lat":60.1891938,"lon":24.9664213}]}