{"version":0.6,"generator":"Overpass API 0.7.61.5 4133829e","osm3s":{"timestamp_osm_base":"2023-08-13T09:21:25Z","copyright":"The data included in this document is from www.openstreetmap.org. The data is made available under ODbL."},"elements":[{"type":"node","id":311042061,"lat":60.1655098,"lon":24.9409701,"tags":{"addr:city":"Helsinki","addr:country":"FI","addr:housenumber":"10","addr:postcode":"00120","addr:street":"Bulevardi"}},{"type":"node","id":319709238,"lat":60.165317,"lon":24.9404522,"tags":{"addr:city":"Helsinki","addr:country":"FI","addr:housenumber":"12","addr:street":"Bulevardi"}},{"type":"node","id":2195109758,"lat":60.1654441,"lon":24.9406082,"tags":{"access":"private","barrier":"gate","wheelchair":"yes"}},{"type":"node","id":2195109760,"lat":60.1655289,"lon":24.9408534,"tags":{"access":"yes","addr:housenumber":"10","addr:street":"Bulevardi","addr:unit":"B","entrance":"main","opening_hours":"Tu-Fr 12:00-18:00; Sa,Su 12:00-16:00","wheelchair":"yes"}},{"type":"node","id":2195109762,"lat":60.1655426,"lon":24.940893,"tags":{"access":"private","barrier":"gate","description":"With buzzer","wheelchair":"yes"}},{"type":"node","id":2195109763,"lat":60.165556,"lon":24.9409319,"tags":{"addr:housenumber":"10","addr:street":"Bulevardi","addr:unit":"A","entrance":"main"}},{"type":"node","id":3231344552,"lat":60.1653609,"lon":24.9401853,"tags":{"traffic_sign":"FI:371","traffic_sign:2":"FI:871[Ei koske CD-autoja]"}},{"type":"node","id":3231344553,"lat":60.1654956,"lon":24.9405808,"tags":{"traffic_sign":"FI:521","traffic_sign:2":"FI:855b[9-21 (9-18)]","traffic_sign:3":"FI:871[Vy\u00f6hyke 1 Kertamaksu enint. 4 h]","traffic_sign:4":"FI:871[Lippuautomaatti \u2192]"}},{"type":"node","id":3231344554,"lat":60.1655615,"lon":24.9403869,"tags":{"traffic_sign":"FI:521","traffic_sign:2":"FI:855b[9-21 (9-18)]","traffic_sign:3":"FI:871[Vy\u00f6hyke 1 Kertamaksu enint. 4 h]"}},{"type":"node","id":4692013485,"lat":60.1653197,"lon":24.9403447,"tags":{"addr:city":"Helsinki","addr:country":"FI","addr:housenumber":"12","addr:street":"Bulevardi","amenity":"restaurant","diet:halal":"no","diet:kosher":"no","email":"pammy@pamela.fi","name":"Ravintola Pamela","old_name":"Werner","opening_hours":"Mo-Th 11:00-22:00; Fr 11:00-24:00; Sa 12:00-24:00","opening_hours:covid19":"off","phone":"+358 405474203","website":"https:\/\/www.pamela.fi\/"}},{"type":"node","id":4860193982,"lat":60.1654047,"lon":24.9406429,"tags":{"addr:city":"Helsinki","addr:country":"FI","addr:housenumber":"12","addr:street":"Bulevardi","email":"info@selectcollection.fi","name":"Select Collection","opening_hours":"Mo-Fr 9:00-17:00","phone":"+358975195100","shop":"travel_agency"}},{"type":"node","id":4860193983,"lat":60.1654531,"lon":24.9408555,"tags":{"addr:city":"Helsinki","addr:country":"FI","addr:housenumber":"10","addr:postcode":"00120","amenity":"arts_centre","name":"Helsinki Contemporary","opening_hours":"Tu-Fr 11:00-17:00; Th 11:00-17:45; Sa,Su 12:00-16:00","phone":"+35892785301"}},{"type":"node","id":4860193984,"lat":60.1655004,"lon":24.9410057,"tags":{"addr:city":"Helsinki","addr:country":"FI","addr:housenumber":"10","addr:postcode":"00120","addr:street":"Bulevardi","name":"OY Chydenius AB","office":"company"}},{"type":"node","id":4860193985,"lat":60.1654904,"lon":24.9409936,"tags":{"addr:city":"Helsinki","addr:country":"FI","addr:housenumber":"10","addr:postcode":"00120","addr:street":"Bulevardi","name":"Spirit FM","office":"company"}},{"type":"node","id":4860193986,"lat":60.1654991,"lon":24.9409453,"tags":{"addr:city":"Helsinki","addr:country":"FI","addr:housenumber":"10","addr:postcode":"00120","addr:street":"Bulevardi","name":"Veropaja","office":"company"}},{"type":"node","id":7628509302,"lat":60.1654258,"lon":24.9405552,"tags":{"access":"yes","addr:housenumber":"12","addr:street":"Bulevardi","entrance":"secondary","opening_hours":"Mo-Fr 09:00-17:00"}},{"type":"node","id":7628509305,"lat":60.1653311,"lon":24.9402815,"tags":{"access":"yes","entrance":"secondary","wheelchair":"no"}},{"type":"node","id":7892501733,"lat":60.165397,"lon":24.9404719,"tags":{"access":"private","addr:housenumber":"12","addr:street":"Bulevardi","addr:unit":"A","entrance":"main"}},{"type":"node","id":7892501735,"lat":60.1653634,"lon":24.9403749,"tags":{"access":"yes","addr:housenumber":"12","addr:street":"Bulevardi","entrance":"secondary","wheelchair":"no"}},{"type":"node","id":9562276417,"lat":60.1655618,"lon":24.9409513,"tags":{"addr:housenumber":"10","addr:street":"Bulevardi","addr:unit":"A","name":"Talent Vectia","shop":"yes"}},{"type":"node","id":9562276418,"lat":60.1655618,"lon":24.9409513,"tags":{"addr:housenumber":"10","addr:street":"Bulevardi","addr:unit":"A","name":"Verona","shop":"yes"}},{"type":"node","id":10904861262,"lat":60.1655022,"lon":24.940216,"tags":{"natural":"tree"}},{"type":"node","id":10904861263,"lat":60.1655451,"lon":24.9403647,"tags":{"natural":"tree"}},{"type":"node","id":10904861267,"lat":60.1653734,"lon":24.9402368,"tags":{"natural":"tree"}},{"type":"node","id":10904861268,"lat":60.1654091,"lon":24.9403508,"tags":{"natural":"tree"}},{"type":"node","id":10904861269,"lat":60.1654478,"lon":24.940451,"tags":{"natural":"tree"}},{"type":"node","id":10904861270,"lat":60.1656072,"lon":24.9405473,"tags":{"natural":"tree"}},{"type":"node","id":10904861271,"lat":60.1656524,"lon":24.9406828,"tags":{"natural":"tree"}},{"type":"node","id":10904861275,"lat":60.1655654,"lon":24.9407799,"tags":{"natural":"tree"}},{"type":"node","id":10904861276,"lat":60.1655091,"lon":24.9406351,"tags":{"natural":"tree"}},{"type":"node","id":10904861277,"lat":60.1656014,"lon":24.9409016,"tags":{"natural":"tree"}},{"type":"node","id":10904861278,"lat":60.1656581,"lon":24.9410757,"tags":{"natural":"tree"}}]}