{"version":0.6,"generator":"Overpass API 0.7.62.5 1bd436f1","osm3s":{"timestamp_osm_base":"2025-03-12T12:22:58Z","copyright":"The data included in this document is from www.openstreetmap.org. The data is made available under ODbL."},"elements":[{"type":"node","id":168195895,"lat":60.1902698,"lon":24.9493275,"tags":{"highway":"turning_circle"}},{"type":"node","id":257322095,"lat":60.1906374,"lon":24.9495404,"tags":{"button_operated":"no","check_date:crossing":"2021-01-27","crossing":"traffic_signals","highway":"crossing","segregated":"yes","traffic_signals:sound":"no","traffic_signals:vibration":"no"}},{"type":"node","id":257322666,"lat":60.1905188,"lon":24.9494179,"tags":{"button_operated":"no","check_date:crossing":"2021-11-13","crossing":"traffic_signals","highway":"crossing","segregated":"yes","traffic_signals:sound":"no","traffic_signals:vibration":"no"}},{"type":"node","id":266152849,"lat":60.1904995,"lon":24.9490388,"tags":{"button_operated":"no","crossing":"traffic_signals","crossing:island":"no","highway":"crossing","segregated":"yes","traffic_signals:sound":"yes","traffic_signals:vibration":"no"}},{"type":"node","id":266152850,"lat":60.190611,"lon":24.9491106,"tags":{"railway":"tram_level_crossing"}},{"type":"node","id":288996160,"lat":60.1904576,"lon":24.9491516,"tags":{"button_operated":"no","crossing":"traffic_signals","highway":"crossing","py\u00f6r\u00e4_v\u00e4ist\u00e4\u00e4_aina_autoa":"t\u00e4m\u00e4_jos_valoton","segregated":"yes","traffic_signals:sound":"yes","traffic_signals:vibration":"no"}},{"type":"node","id":310644059,"lat":60.1904089,"lon":24.949078,"tags":{"highway":"traffic_signals"}},{"type":"node","id":310644061,"lat":60.1905859,"lon":24.949669,"tags":{"highway":"traffic_signals","highway:give_way":"yes"}},{"type":"node","id":313788812,"lat":60.1906165,"lon":24.9495224,"tags":{"button_operated":"no","check_date:crossing":"2021-01-27","crossing":"traffic_signals","crossing:island":"yes","highway":"crossing","segregated":"yes","traffic_signals:sound":"no","traffic_signals:vibration":"no"}},{"type":"node","id":313790920,"lat":60.1906437,"lon":24.9491091,"tags":{"railway":"tram_level_crossing"}},{"type":"node","id":313790921,"lat":60.1904825,"lon":24.9490845,"tags":{"button_operated":"no","crossing":"traffic_signals","crossing:island":"no","highway":"crossing","segregated":"yes","traffic_signals:sound":"yes","traffic_signals:vibration":"no"}},{"type":"node","id":313790923,"lat":60.1906075,"lon":24.9491965,"tags":{"railway":"tram_level_crossing"}},{"type":"node","id":313790924,"lat":60.1906566,"lon":24.949176,"tags":{"railway":"tram_level_crossing"}},{"type":"node","id":315265847,"lat":60.1905395,"lon":24.9494395,"tags":{"button_operated":"no","check_date:crossing":"2021-01-27","crossing":"traffic_signals","crossing:island":"yes","highway":"crossing","segregated":"yes","traffic_signals:sound":"no","traffic_signals:vibration":"no"}},{"type":"node","id":320924018,"lat":60.190421,"lon":24.9502677,"tags":{"est_height":"8","man_made":"surveillance","revolving":"yes"}},{"type":"node","id":434619397,"lat":60.1902357,"lon":24.9490974,"tags":{"amenity":"recycling","fixme":"Pienmetalli saattaisi olla muutakin kuin cans","location":"overground","recycling:clothes":"yes","recycling_type":"container"}},{"type":"node","id":670252285,"lat":60.1900876,"lon":24.9495836,"tags":{"addr:city":"Helsinki","addr:country":"FI","addr:housenumber":"15","addr:street":"It\u00e4inen Brahenkatu"}},{"type":"node","id":670255662,"lat":60.190181,"lon":24.9490101,"tags":{"graffiti:tag":"vics;minur"}},{"type":"node","id":670262268,"lat":60.1901759,"lon":24.9494838,"tags":{"entrance":"staircase","ref":"B"}},{"type":"node","id":670262269,"lat":60.1902446,"lon":24.9498736,"tags":{"addr:city":"Helsinki","addr:housenumber":"40","addr:postcode":"00510","addr:street":"Aleksis Kiven katu","addr:unit":"C","entrance":"staircase"}},{"type":"node","id":1237779821,"lat":60.1907144,"lon":24.9496815,"tags":{"guidepost":"destination","traffic_sign":"FI:612[up][FI:673[up] FI:667[4]|LAHTI LAHTIS|FI:667[7]|KOTKA]","traffic_sign:2":"FI:612[FI:667[170]|IT\u00c4KESKUS \u00d6STRA CENTRUM|PASILA B\u00d6LE]","traffic_sign:3":"FI:211","traffic_sign:4":"FI:371"}},{"type":"node","id":1406192194,"lat":60.1906811,"lon":24.9499627,"tags":{"addr:city":"Helsinki","addr:country":"FI","addr:housenumber":"15","addr:postcode":"00510","addr:street":"Aleksis Kiven katu"}},{"type":"node","id":1886401991,"lat":60.1903994,"lon":24.9492127,"tags":{"man_made":"utility_pole","material":"steel","traffic_sign":"FI:511;FI:511","traffic_signals":"signal","traffic_signals:motor_vehicle":"yes"}},{"type":"node","id":1993708625,"lat":60.1905997,"lon":24.9494874,"tags":{"traffic_sign":"FI:331","traffic_signals:foot":"yes"}},{"type":"node","id":2059769086,"lat":60.1904431,"lon":24.9494367,"tags":{"man_made":"utility_pole","material":"steel","traffic_sign":"FI:511","traffic_sign:2":"FI:371","traffic_signals":"signal","traffic_signals:foot":"yes"}},{"type":"node","id":2059769087,"lat":60.190531,"lon":24.9495348,"tags":{"traffic_sign":"FI:511;FI:511","traffic_sign:2":"FI:422","traffic_signals:foot":"yes"}},{"type":"node","id":2201332798,"lat":60.1906362,"lon":24.9496439,"tags":{"traffic_sign":"FI:511","traffic_sign:2":"FI:231","traffic_signals":"signal","traffic_signals:foot":"yes","traffic_signals:motor_vehicle":"yes"}},{"type":"node","id":2331680984,"lat":60.19057,"lon":24.9495748,"tags":{"man_made":"utility_pole","material":"steel","traffic_sign":"FI:511","traffic_sign:2":"FI:231","traffic_signals":"signal","traffic_signals:foot":"yes","traffic_signals:motor_vehicle":"yes"}},{"type":"node","id":2331680985,"lat":60.1906887,"lon":24.9496459,"tags":{"traffic_signals:button":"yes","traffic_signals:foot":"yes"}},{"type":"node","id":2331704915,"lat":60.1904098,"lon":24.9491842,"tags":{"layer":"2","traffic_sign":"FI:332","traffic_sign:2":"FI:851[6-23 (6-23) 6-23]"}},{"type":"node","id":2331704916,"lat":60.1904172,"lon":24.9491637,"tags":{"layer":"2","traffic_signals:motor_vehicle":"yes"}},{"type":"node","id":2451383823,"lat":60.1900622,"lon":24.9503142,"tags":{"barrier":"gate"}},{"type":"node","id":2451383832,"lat":60.1901778,"lon":24.95014,"tags":{"traffic_sign":"FI:372","traffic_sign:2":"FI:851[8-17]"}},{"type":"node","id":2451383837,"lat":60.1904017,"lon":24.9496089,"tags":{"traffic_sign":"FI:372","traffic_sign:2":"FI:855a[9-21]","traffic_sign:3":"FI:871[Vy\u00f6hyke 3 Ei koske P-tunnuksella J]","traffic_sign:4":"FI:871[\u2190 Lippuautomaatti]"}},{"type":"node","id":2460241597,"lat":60.1901432,"lon":24.9491877,"tags":{"traffic_sign":"FI:521","traffic_sign:2":"FI:855b[9-21]","traffic_sign:3":"FI:871[Vy\u00f6hyke 3 Ei koske P-tunnuksella J]","traffic_sign:4":"FI:521c[left]"}},{"type":"node","id":2460241598,"lat":60.1901422,"lon":24.9494772,"tags":{"traffic_sign":"FI:373;FI:374"}},{"type":"node","id":2538855908,"lat":60.1904592,"lon":24.9498537,"tags":{"man_made":"utility_pole","material":"steel"}},{"type":"node","id":2538855910,"lat":60.1904807,"lon":24.9498875,"tags":{"traffic_sign":"FI:413[left]"}},{"type":"node","id":2538855911,"lat":60.190482,"lon":24.9498897,"tags":{"traffic_sign":"FI:412","traffic_sign:2":"FI:871"}},{"type":"node","id":2538855913,"lat":60.1905027,"lon":24.9499223,"tags":{"traffic_sign":"FI:414[right]"}},{"type":"node","id":2651923149,"lat":60.1903939,"lon":24.9492277,"tags":{"layer":"2","traffic_sign":"FI:425;FI:632[right][FI:312 23-06 (23-06) 23-06]"}},{"type":"node","id":2671413138,"lat":60.1901569,"lon":24.9490135,"tags":{"entrance":"service"}},{"type":"node","id":2671413147,"lat":60.1903194,"lon":24.9493139,"tags":{"barrier":"bollard","bicycle":"yes","bollard":"fixed","foot":"yes"}},{"type":"node","id":5646207524,"lat":60.1903214,"lon":24.9492316,"tags":{"access":"yes","amenity":"bicycle_parking","bicycle_parking":"stands","capacity":"10","check_date:capacity":"2023-04-01","covered":"no","fee":"no"}},{"type":"node","id":6051965158,"lat":60.190251,"lon":24.9490496,"tags":{"natural":"tree"}},{"type":"node","id":6051965161,"lat":60.1901,"lon":24.9490897,"tags":{"natural":"tree"}},{"type":"node","id":6889402689,"lat":60.1902656,"lon":24.9494325,"tags":{"leaf_type":"broadleaved","natural":"tree"}},{"type":"node","id":6889402690,"lat":60.1903135,"lon":24.9494995,"tags":{"leaf_type":"broadleaved","natural":"tree"}},{"type":"node","id":6889402691,"lat":60.1903626,"lon":24.9495933,"tags":{"leaf_type":"broadleaved","natural":"tree"}},{"type":"node","id":6889402692,"lat":60.1905286,"lon":24.9496897,"tags":{"leaf_type":"broadleaved","natural":"tree"}},{"type":"node","id":6889402693,"lat":60.1904904,"lon":24.9497713,"tags":{"leaf_type":"broadleaved","natural":"tree"}},{"type":"node","id":6889402694,"lat":60.1904568,"lon":24.949706,"tags":{"leaf_type":"broadleaved","natural":"tree"}},{"type":"node","id":6889402695,"lat":60.1904133,"lon":24.9498137,"tags":{"leaf_type":"broadleaved","natural":"tree"}},{"type":"node","id":6889402696,"lat":60.1904263,"lon":24.9499313,"tags":{"leaf_type":"broadleaved","natural":"tree"}},{"type":"node","id":6889402697,"lat":60.1903622,"lon":24.9499337,"tags":{"leaf_type":"broadleaved","natural":"tree"}},{"type":"node","id":6889402698,"lat":60.1903764,"lon":24.9500578,"tags":{"leaf_type":"broadleaved","natural":"tree"}},{"type":"node","id":6889402699,"lat":60.1903095,"lon":24.9500659,"tags":{"leaf_type":"broadleaved","natural":"tree"}},{"type":"node","id":6889402700,"lat":60.1903216,"lon":24.9501794,"tags":{"leaf_type":"broadleaved","natural":"tree"}},{"type":"node","id":6889402701,"lat":60.1902579,"lon":24.9501843,"tags":{"leaf_type":"broadleaved","natural":"tree"}},{"type":"node","id":6889402702,"lat":60.1902721,"lon":24.9503133,"tags":{"leaf_type":"broadleaved","natural":"tree"}},{"type":"node","id":6889402703,"lat":60.1902068,"lon":24.9503157,"tags":{"leaf_type":"broadleaved","natural":"tree"}},{"type":"node","id":6889402739,"lat":60.1904927,"lon":24.9496333,"tags":{"man_made":"utility_pole","material":"steel"}},{"type":"node","id":6889402740,"lat":60.1903334,"lon":24.9499998,"tags":{"man_made":"utility_pole","material":"steel"}},{"type":"node","id":6889402741,"lat":60.1903484,"lon":24.9501223,"tags":{"man_made":"utility_pole","material":"steel"}},{"type":"node","id":9947990264,"lat":60.1906547,"lon":24.9494027,"tags":{"railway":"tram_level_crossing"}},{"type":"node","id":9947990265,"lat":60.1907083,"lon":24.9492524,"tags":{"railway":"tram_level_crossing"}},{"type":"node","id":11591899982,"lat":60.1906976,"lon":24.9493956,"tags":{"railway":"tram_level_crossing"}},{"type":"node","id":11591899983,"lat":60.1907153,"lon":24.9493535,"tags":{"railway":"tram_level_crossing"}},{"type":"node","id":11591899984,"lat":60.1905969,"lon":24.949333,"tags":{"railway":"tram_level_crossing"}},{"type":"node","id":11591899986,"lat":60.1906689,"lon":24.9491942,"tags":{"railway":"tram_level_crossing"}},{"type":"node","id":11591899989,"lat":60.1905904,"lon":24.949238,"tags":{"railway":"tram_level_crossing"}},{"type":"node","id":11591899990,"lat":60.1906586,"lon":24.9491002,"tags":{"railway":"tram_level_crossing"}},{"type":"node","id":11591899991,"lat":60.1901432,"lon":24.9501083,"tags":{"addr:city":"Helsinki","addr:housenumber":"40","addr:postcode":"00510","addr:street":"Aleksis Kiven katu","addr:unit":"D","entrance":"staircase"}},{"type":"node","id":12108640183,"lat":60.1906137,"lon":24.9491812,"tags":{"railway":"tram_level_crossing"}}]}