{"version":0.6,"generator":"Overpass API 0.7.61.5 4133829e","osm3s":{"timestamp_osm_base":"2023-08-13T09:21:25Z","copyright":"The data included in this document is from www.openstreetmap.org. The data is made available under ODbL."},"elements":[{"type":"node","id":247140127,"lat":60.1644483,"lon":24.9404864,"tags":{"access":"yes","addr:housenumber":"15","addr:street":"Uudenmaankatu","entrance":"secondary","wheelchair":"no"}},{"type":"node","id":310148894,"lat":60.1643832,"lon":24.940522,"tags":{"crossing":"traffic_signals","highway":"crossing","traffic_signals:sound":"no","traffic_signals:vibration":"no"}},{"type":"node","id":312057196,"lat":60.1646181,"lon":24.9403257,"tags":{"addr:city":"Helsinki","addr:country":"FI","addr:housenumber":"13","addr:postcode":"00120","addr:street":"Annankatu"}},{"type":"node","id":315385113,"lat":60.1643931,"lon":24.9403704,"tags":{"crossing":"traffic_signals","crossing:island":"no","highway":"crossing","traffic_signals:sound":"no","traffic_signals:vibration":"no"}},{"type":"node","id":319709204,"lat":60.1645778,"lon":24.9406522,"tags":{"addr:city":"Helsinki","addr:country":"FI","addr:housenumber":"15","addr:postcode":"00120","addr:street":"Uudenmaankatu"}},{"type":"node","id":319709206,"lat":60.1643988,"lon":24.9408705,"tags":{"addr:city":"Helsinki","addr:country":"FI","addr:housenumber":"14","addr:street":"Uudenmaankatu"}},{"type":"node","id":319807518,"lat":60.1646007,"lon":24.9402735,"tags":{"access":"yes","addr:housenumber":"13","addr:street":"Annankatu","entrance":"secondary","wheelchair":"no"}},{"type":"node","id":319810654,"lat":60.1646812,"lon":24.9402394,"tags":{"addr:city":"Helsinki","addr:country":"FI","addr:housenumber":"13","addr:postcode":"00120","addr:street":"Annankatu","name":"Anna Ruohonen","opening_hours":"Tu-Fr 11:00-18:00; Sa 11:00-16:00; PH off","tourism":"gallery"}},{"type":"node","id":527785338,"lat":60.164637,"lon":24.941482,"tags":{"amenity":"vending_machine","currency:EUR":"yes","opening_hours":"Mo-Fr 09:00-19:00; Sa 09:00-18:00","operator":"HKR","parking:ticket:zone":"1","payment:coins":"yes","ref":"124","vending":"parking_tickets"}},{"type":"node","id":719891416,"lat":60.1644407,"lon":24.9408783,"tags":{"departures_board":"no","highway":"bus_stop","name":"Annankatu","ref":"1004","shelter":"no","timetable":"no","zone:HSL":"A"}},{"type":"node","id":1555281104,"lat":60.1647082,"lon":24.9410575,"tags":{"addr:city":"Helsinki","addr:country":"FI","addr:housenumber":"13","addr:postcode":"00120","addr:street":"Uudenmaankatu","wikidata":"Q98433235"}},{"type":"node","id":2018446356,"lat":60.1644666,"lon":24.9404945,"tags":{"addr:city":"Helsinki","addr:country":"FI","addr:housenumber":"15","addr:postcode":"00120","addr:street":"Uudenmaankatu","amenity":"restaurant","cuisine":"sushi","diet:halal":"no","diet:kosher":"no","name":"Sushibar+wine","opening_hours":"Mo-Th 11:00-22:00;Fr 11:00-23:00;Sa 14:00-23:00","phone":"+358106668456","website":"https:\/\/www.sushibar.fi\/","wheelchair":"no"}},{"type":"node","id":3232013775,"lat":60.1643636,"lon":24.9406755,"tags":{"traffic_sign":"FI:551[left]","traffic_sign:2":"FI:318","traffic_sign:3":"FI:848"}},{"type":"node","id":3232013776,"lat":60.1644075,"lon":24.9402419,"tags":{"traffic_sign":"FI:333","traffic_signals":"signal","traffic_signals:foot":"yes","traffic_signals:motor_vehicle":"yes"}},{"type":"node","id":3232013777,"lat":60.1644219,"lon":24.9405052,"tags":{"fixme":"Temporary due to construction site?","temporary":"yes","traffic_sign":"FI:551[right]"}},{"type":"node","id":3232013778,"lat":60.1644297,"lon":24.9403199,"tags":{"highway":"traffic_signals"}},{"type":"node","id":3232013779,"lat":60.1644351,"lon":24.9405435,"tags":{"fixme":"Temporary due to construction site?","temporary":"yes","traffic_sign":"FI:372","traffic_sign:2":"FI:855a[9-21 (9-18)]","traffic_sign:3":"FI:871[Vy\u00f6hyke 1 Kertamaksu enint. 60 min]","traffic_sign:4":"FI:871[Ei koske P-tunnuksella B]","traffic_sign:5":"FI:871[Lippuautomaatti \u2192]"}},{"type":"node","id":3232013780,"lat":60.1644351,"lon":24.9408888,"tags":{"traffic_sign":"FI:531"}},{"type":"node","id":3232013781,"lat":60.1644367,"lon":24.94042,"tags":{"fixme":"Temporary due to construction site?","temporary":"yes","traffic_sign":"FI:318","traffic_sign:2":"FI:848","traffic_sign:3":"FI:372","traffic_sign:4":"FI:851[7-18 (9-15)]"}},{"type":"node","id":3232013783,"lat":60.1644787,"lon":24.9410115,"tags":{"traffic_sign":"FI:372","traffic_sign:2":"FI:855a[9-21 (9-18)]","traffic_sign:3":"FI:871[Vy\u00f6hyke 1 Kertamaksu enint. 60 min]","traffic_sign:4":"FI:871[Ei koske P-tunnuksella B]","traffic_sign:5":"FI:871[\u2190 Lippuautomaatti]"}},{"type":"node","id":3232013784,"lat":60.1645067,"lon":24.9403177,"tags":{"temporary":"yes","traffic_sign":"FI:521","traffic_sign:2":"FI:855b[9-21 (9-18)]","traffic_sign:3":"FI:871[Vy\u00f6hyke 1 Kertamaksu enint. 4 h]"}},{"type":"node","id":4549508089,"lat":60.1647743,"lon":24.9413567,"tags":{"addr:city":"Helsinki","addr:country":"FI","addr:housenumber":"9-11","addr:postcode":"00120","addr:street":"Uudenmaankatu","amenity":"restaurant","cuisine":"nordic","diet:halal":"no","diet:kosher":"no","name":"Demo","name:en":"Demo","opening_hours":"Tu-Sa 16:00-23:00","stars":"1","website":"http:\/\/www.restaurantdemo.fi\/","wikidata":"Q18658722","wikipedia":"fi:Demo (ravintola)"}},{"type":"node","id":4691897401,"lat":60.164586,"lon":24.9403614,"tags":{"addr:city":"Helsinki","addr:country":"FI","addr:housenumber":"13","addr:postcode":"00120","addr:street":"Annankatu","name":"Demmers Teehaus","opening_hours":"Mo-Tu 10:00-18:00;We-Fr 10:00-19:00;Sa 10:00-16:00; PH off","phone":"+358401727925","shop":"tea","website":"http:\/\/www.demmer.fi"}},{"type":"node","id":4691897410,"lat":60.1647231,"lon":24.9412125,"tags":{"addr:city":"Helsinki","addr:country":"FI","addr:housenumber":"13","addr:street":"Uudenmaankatu","amenity":"restaurant","diet:halal":"no","diet:kosher":"no","name":"Penny","opening_hours":"We-Th 11:00-23:00; Fr 11:00-24:00; Sa 12:00-24:00; Su 12:00-18:00","website":"http:\/\/www.restaurantpenny.fi"}},{"type":"node","id":4691897412,"lat":60.1646932,"lon":24.9410108,"tags":{"addr:city":"Helsinki","addr:country":"FI","addr:housenumber":"13","addr:postcode":"00120","addr:street":"Uudenmaankatu","cuisine":"salad","name":"M Room","shop":"hairdresser"}},{"type":"node","id":4708261679,"lat":60.1645567,"lon":24.9413279,"tags":{"addr:city":"Helsinki","addr:country":"FI","addr:housenumber":"10","addr:street":"Uudenmaankatu"}},{"type":"node","id":4708261680,"lat":60.164504,"lon":24.9411753,"tags":{"addr:city":"Helsinki","addr:country":"FI","addr:housenumber":"12","addr:street":"Uudenmaankatu"}},{"type":"node","id":4716736488,"lat":60.1645365,"lon":24.9412696,"tags":{"addr:city":"Helsinki","addr:country":"FI","addr:housenumber":"10","addr:street":"Uudenmaankatu","name":"Otavan kirjakauppa","opening_hours":"Mo-Fr 10:00-18:00","shop":"books"}},{"type":"node","id":4754875493,"lat":60.1643786,"lon":24.9408119,"tags":{"name":"Youngest Fashion","opening_hours":"Mo-Fr 10:00-18:00; Sa 10:00-16:00","shop":"baby_goods"}},{"type":"node","id":4754875510,"lat":60.1645825,"lon":24.9406666,"tags":{"addr:city":"Helsinki","addr:country":"FI","addr:housenumber":"15","addr:postcode":"00120","addr:street":"Uudenmaankatu","name":"Lang\u00f8","shop":"clothes","website":"lango-home.com"}},{"type":"node","id":4754876128,"lat":60.164592,"lon":24.9407899,"tags":{"addr:city":"Helsinki","addr:country":"FI","addr:housenumber":"15","addr:postcode":"00120","addr:street":"Uudenmaankatu","name":"Point","phone":"+358941820230","shop":"hairdresser","website":"www.hiusmuotoilupoint.fi"}},{"type":"node","id":4861869331,"lat":60.1648494,"lon":24.9414963,"tags":{"addr:city":"Helsinki","addr:country":"FI","addr:housenumber":"9-11","addr:postcode":"00120","addr:street":"Uudenmaankatu","opening_hours":"Mo-Fr 11:00-18:00; Sa 10:00-14:00","shop":"fur"}},{"type":"node","id":4861869332,"lat":60.1648173,"lon":24.9413964,"tags":{"addr:city":"Helsinki","addr:country":"FI","addr:housenumber":"9-11","addr:postcode":"00120","addr:street":"Uudenmaankatu","name":"hair911.fi","phone":"+358405624662","shop":"hairdresser","website":"www.hair911.fi"}},{"type":"node","id":4861869333,"lat":60.1647223,"lon":24.9411011,"tags":{"addr:city":"Helsinki","addr:country":"FI","addr:housenumber":"13","addr:postcode":"00120","addr:street":"Uudenmaankatu","name":"Astiataivas.fi","opening_hours":"Mo-Tu 10:00-17:00; We 11:00-15:30; Th-Fr 11:00-17:00; Sa 11:00-15:00","phone":"+358405459060","shop":"kitchen","website":"https:\/\/www.astiataivas.fi\/"}},{"type":"node","id":4865883646,"lat":60.1644021,"lon":24.9408801,"tags":{"addr:city":"Helsinki","addr:country":"FI","addr:housenumber":"14","addr:street":"Uudenmaankatu","phone":"+358449792333","shop":"hairdresser","website":"https:\/\/www.hairdesignhelsinki.fi\/"}},{"type":"node","id":4866386134,"lat":60.1646362,"lon":24.940304,"tags":{"addr:city":"Helsinki","addr:country":"FI","addr:housenumber":"13","addr:postcode":"00120","addr:street":"Annankatu","name":"frank\/ie","opening_hours":"Tu-Fr 12:00-18:00; Sa 12:00-17:00","shop":"clothes","website":"www.frankie.fi"}},{"type":"node","id":5011281362,"lat":60.1647211,"lon":24.9401849,"tags":{"addr:city":"Helsinki","addr:country":"FI","addr:housenumber":"13","addr:postcode":"00120","addr:street":"Annankatu","name":"Credigo\/Northmill oy","office":"company"}},{"type":"node","id":5011281363,"lat":60.1647227,"lon":24.9401827,"tags":{"addr:city":"Helsinki","addr:country":"FI","addr:housenumber":"13","addr:postcode":"00120","addr:street":"Annankatu","name":"Essedel Capital Partners oy","office":"company"}},{"type":"node","id":5011281364,"lat":60.1647246,"lon":24.9401801,"tags":{"addr:city":"Helsinki","addr:country":"FI","addr:housenumber":"13","addr:postcode":"00120","addr:street":"Annankatu","name":"MTF Rivertours","office":"company"}},{"type":"node","id":5011281365,"lat":60.1647274,"lon":24.9401762,"tags":{"addr:city":"Helsinki","addr:country":"FI","addr:housenumber":"13","addr:postcode":"00120","addr:street":"Annankatu","name":"Futurist oy","office":"company"}},{"type":"node","id":5011281366,"lat":60.1647164,"lon":24.9401913,"tags":{"addr:city":"Helsinki","addr:country":"FI","addr:housenumber":"13","addr:postcode":"00120","addr:street":"Annankatu","name":"Matka-prima oy","office":"company"}},{"type":"node","id":5011281367,"lat":60.164716,"lon":24.9401918,"tags":{"addr:city":"Helsinki","addr:country":"FI","addr:housenumber":"13","addr:postcode":"00120","addr:street":"Annankatu","name":"T\u00f6tt\u00f6r\u00f6\u00f6 network","office":"company"}},{"type":"node","id":5011281368,"lat":60.1647162,"lon":24.9401916,"tags":{"addr:city":"Helsinki","addr:country":"FI","addr:housenumber":"13","addr:postcode":"00120","addr:street":"Annankatu","name":"Maakunnan asunnot oy","office":"company"}},{"type":"node","id":5011281369,"lat":60.1647145,"lon":24.9401939,"tags":{"addr:city":"Helsinki","addr:country":"FI","addr:housenumber":"13","addr:postcode":"00120","addr:street":"Annankatu","name":"Lamy oy","office":"company"}},{"type":"node","id":5011281371,"lat":60.164653,"lon":24.940278,"tags":{"addr:city":"Helsinki","addr:country":"FI","addr:housenumber":"13","addr:postcode":"00120","addr:street":"Annankatu","name":"Make Up Forever","opening_hours":"Mo-Tu 11:00-18:00; We 11:00-19:00; Th-Fr 11:00-18:00; Sa 11:00-16:00; PH off","phone":"+35896945446","shop":"beauty"}},{"type":"node","id":5011281372,"lat":60.1646682,"lon":24.9402573,"tags":{"addr:city":"Helsinki","addr:country":"FI","addr:housenumber":"13","addr:postcode":"00120","addr:street":"Annankatu","name":"Ihana","shop":"beauty"}},{"type":"node","id":6392970529,"lat":60.1645473,"lon":24.9413802,"tags":{"amenity":"cafe","diet:halal":"no","diet:kosher":"no","name":"Otavan Kirjakahvila"}},{"type":"node","id":7171895479,"lat":60.1645299,"lon":24.9413065,"tags":{"addr:city":"Helsinki","addr:housenumber":"10","addr:postcode":"00120","addr:street":"Uudenmaankatu","name":"Kustannusosakeyhti\u00f6 Otava","office":"company","short_name":"Otava","website":"https:\/\/otava.fi\/","wikidata":"Q2602805","wikipedia":"fi:Otava (kirjankustantamo)"}},{"type":"node","id":7624952822,"lat":60.1647797,"lon":24.9414449,"tags":{"access":"yes","addr:housenumber":"11","addr:street":"Uudenmaankatu","entrance":"secondary","wheelchair":"no"}},{"type":"node","id":7624952823,"lat":60.1646237,"lon":24.9409936,"tags":{"access":"yes","addr:housenumber":"13","addr:street":"Uudenmaankatu","entrance":"yes","wheelchair":"no"}},{"type":"node","id":7624952824,"lat":60.1645988,"lon":24.9409216,"tags":{"access":"yes","addr:housenumber":"13","addr:street":"Uudenmaankatu","entrance":"yes","wheelchair":"no"}},{"type":"node","id":7624952825,"lat":60.1645202,"lon":24.9406943,"tags":{"access":"private","addr:housenumber":"15","addr:street":"Uudenmaankatu","addr:unit":"A","description":"With buzzer","entrance":"staircase","wheelchair":"no"}},{"type":"node","id":7624952826,"lat":60.1646185,"lon":24.9402486,"tags":{"access":"private","barrier":"gate","description":"With buzzer"}},{"type":"node","id":7624952827,"lat":60.1646414,"lon":24.9402166,"tags":{"access":"private","addr:housenumber":"13","addr:street":"Annankatu","addr:unit":"B","description":"With buzzer","entrance":"staircase","wheelchair":"no"}},{"type":"node","id":7631538911,"lat":60.1643636,"lon":24.9402423,"tags":{"addr:housenumber":"12","addr:street":"Annankatu","name":"Kaikenkarvaiset","shop":"pet"}},{"type":"node","id":7631538913,"lat":60.1645034,"lon":24.9406456,"tags":{"access":"yes","addr:housenumber":"15","addr:street":"Uudenmaankatu","entrance":"secondary","wheelchair":"no"}},{"type":"node","id":7631746469,"lat":60.1643635,"lon":24.9402547,"tags":{"access":"yes","addr:housenumber":"12","addr:street":"Annankatu","entrance":"secondary","wheelchair":"no"}},{"type":"node","id":7631766098,"lat":60.1645687,"lon":24.9408344,"tags":{"access":"yes","addr:housenumber":"15","addr:street":"Uudenmaankatu","entrance":"yes","wheelchair":"no"}},{"type":"node","id":7631766100,"lat":60.1647084,"lon":24.9412386,"tags":{"access":"yes","addr:housenumber":"13","addr:street":"Uudenmaankatu","entrance":"secondary","wheelchair":"no"}},{"type":"node","id":7631766104,"lat":60.1647566,"lon":24.941378,"tags":{"access":"yes","addr:housenumber":"11","addr:street":"Uudenmaankatu","entrance":"secondary","wheelchair":"no"}},{"type":"node","id":7631766105,"lat":60.1646167,"lon":24.9408911,"tags":{"addr:housenumber":"13","addr:street":"Uudenmaankatu","name":"Kiffehair","shop":"hairdresser"}},{"type":"node","id":7908376919,"lat":60.1645741,"lon":24.9403106,"tags":{"access":"yes","addr:housenumber":"13","addr:street":"Annankatu","entrance":"secondary","wheelchair":"no"}},{"type":"node","id":7908376923,"lat":60.1646892,"lon":24.941183,"tags":{"access":"yes","addr:housenumber":"13","addr:street":"Uudenmaankatu","entrance":"secondary","wheelchair":"no"}},{"type":"node","id":9561954667,"lat":60.1646649,"lon":24.9401838,"tags":{"addr:housenumber":"13","addr:street":"Annankatu","entrance":"secondary","wheelchair":"no"}},{"type":"node","id":9612370617,"lat":60.1646784,"lon":24.9411517,"tags":{"access":"yes","addr:housenumber":"13","addr:street":"Uudenmaankatu","entrance":"yes","wheelchair":"no"}},{"type":"node","id":10766149469,"lat":60.1646432,"lon":24.9409692,"tags":{"addr:city":"Helsinki","addr:housenumber":"13","addr:postcode":"00120","addr:street":"Uudenmaankatu","amenity":"restaurant","cuisine":"wine_bar","name":"Grape Wine Bar & Tasting Room","phone":"+3585520822","website":"https:\/\/www.grapewinebar.fi\/"}}]}