{"version":0.6,"generator":"Overpass API 0.7.62.5 1bd436f1","osm3s":{"timestamp_osm_base":"2025-03-12T12:15:59Z","copyright":"The data included in this document is from www.openstreetmap.org. The data is made available under ODbL."},"elements":[{"type":"node","id":249344982,"lat":60.1882459,"lon":24.9571399,"tags":{"addr:city":"Helsinki","addr:country":"FI","addr:housenumber":"10","addr:postcode":"00500","addr:street":"Vaasankatu","amenity":"pub","name":"Kustaa Vaasa","opening_hours":"Tu-Th 16:00-24:00; Fr-Sa 16:00-02:00","website":"https:\/\/www.kustaavaasa.fi\/","wheelchair":"no"}},{"type":"node","id":434619455,"lat":60.1884337,"lon":24.9581594,"tags":{"crossing":"uncontrolled","crossing:island":"no","highway":"crossing"}},{"type":"node","id":434619459,"lat":60.1882975,"lon":24.9580514,"tags":{"crossing":"uncontrolled","crossing:island":"no","highway":"crossing"}},{"type":"node","id":434619478,"lat":60.1883595,"lon":24.9578735,"tags":{"crossing":"uncontrolled","crossing:island":"no","highway":"crossing"}},{"type":"node","id":434619488,"lat":60.1883585,"lon":24.9582904,"tags":{"crossing":"uncontrolled","crossing:island":"no","highway":"crossing"}},{"type":"node","id":667411337,"lat":60.1882286,"lon":24.9576264,"tags":{"addr:city":"Helsinki","addr:country":"FI","addr:housenumber":"8","addr:postcode":"00500","addr:street":"Vaasankatu"}},{"type":"node","id":667411938,"lat":60.1882152,"lon":24.9584267,"tags":{"addr:city":"Helsinki","addr:country":"FI","addr:housenumber":"6","addr:postcode":"00500","addr:street":"Vaasankatu"}},{"type":"node","id":667411939,"lat":60.188278,"lon":24.958209,"tags":{"amenity":"vending_machine","check_date":"2023-03-15","currency:EUR":"yes","indoor":"no","opening_hours":"Mo-Fr 09:00-19:00","operator":"HKR","parking:ticket:zone":"3","payment:coins":"yes","ref":"89","traffic_sign":"FI:871[Lippuautomaatti]","vending":"parking_tickets"}},{"type":"node","id":925604388,"lat":60.1884772,"lon":24.9578787,"tags":{"addr:city":"Helsinki","addr:country":"FI","addr:housenumber":"13","addr:postcode":"00500","addr:street":"Vaasankatu","name":"Salon Sina","shop":"hairdresser"}},{"type":"node","id":925604403,"lat":60.1884762,"lon":24.9577849,"tags":{"massage":"thai","name":"Oijai","opening_hours":"Mo-Su 10:00-23:00","shop":"massage"}},{"type":"node","id":1008606043,"lat":60.1886406,"lon":24.958142,"tags":{"entrance":"staircase","ref":"B"}},{"type":"node","id":1008606108,"lat":60.1885323,"lon":24.9580635,"tags":{"entrance":"staircase","ref":"A"}},{"type":"node","id":1029533177,"lat":60.1880753,"lon":24.9582452,"tags":{"addr:city":"Helsinki","addr:country":"FI","addr:housenumber":"3","addr:postcode":"00500","addr:street":"Harjukatu"}},{"type":"node","id":1056656794,"lat":60.1882423,"lon":24.9577686,"tags":{"amenity":"fast_food","cuisine":"pizza;kebab","diet:halal":"no","diet:kosher":"no","diet:vegetarian":"yes","name":"Apollo","opening_hours":"Su-Th 14:30-02:30; Fr-Sa 14:30-03:00"}},{"type":"node","id":1586582330,"lat":60.1883119,"lon":24.9572083,"tags":{"man_made":"flagpole"}},{"type":"node","id":2050466043,"lat":60.1882686,"lon":24.9581719,"tags":{"traffic_sign":"FI:511"}},{"type":"node","id":2050466045,"lat":60.1883775,"lon":24.9583851,"tags":{"traffic_sign":"FI:511"}},{"type":"node","id":2050466046,"lat":60.1884499,"lon":24.9583588,"tags":{"traffic_sign":"FI:372","traffic_sign:2":"FI:855a[9-21]","traffic_sign:3":"FI:871[Vy\u00f6hyke 3 Ei koske P-tunnuksella J]","traffic_sign:4":"FI:871[Lippuautomaatti \u2192]"}},{"type":"node","id":2050466047,"lat":60.1884648,"lon":24.9580821,"tags":{"traffic_sign":"FI:511"}},{"type":"node","id":2060112496,"lat":60.18818,"lon":24.9578447,"tags":{"entrance":"staircase"}},{"type":"node","id":2126145858,"lat":60.1882673,"lon":24.9578757,"tags":{"traffic_sign":"FI:372","traffic_sign:2":"FI:855a[9-21]","traffic_sign:3":"FI:871[Vy\u00f6hyke 3 Ei koske P-tunnuksella J]"}},{"type":"node","id":2126145896,"lat":60.1883196,"lon":24.957831,"tags":{"traffic_sign":"FI:511"}},{"type":"node","id":2330251226,"lat":60.1883215,"lon":24.9583316,"tags":{"end_date":"2013-09-30","start_date":"2013-06-01","temporary":"yes","was:traffic_sign":"FI:575;FI:576","was:traffic_sign:2":"FI:871[Huoltoajo sallittu 5-11, (5-11), 5-11]"}},{"type":"node","id":2330251228,"lat":60.1883875,"lon":24.9578521,"tags":{"end_date":"2013-09-30","start_date":"2013-06-01","temporary":"yes","was:traffic_sign":"FI:575;FI:576","was:traffic_sign:2":"FI:871[Huoltoajo sallittu 5-11, (5-11), 5-11]"}},{"type":"node","id":2479544977,"lat":60.1883142,"lon":24.9583698,"tags":{"traffic_sign":"FI:372","traffic_sign:2":"FI:855a[9-21]","traffic_sign:3":"FI:871[Vy\u00f6hyke 3 Ei koske P-tunnuksella J]"}},{"type":"node","id":2479544981,"lat":60.1883946,"lon":24.9578264,"tags":{"traffic_sign":"FI:372","traffic_sign:2":"FI:855a[9-21]","traffic_sign:3":"FI:871[Vy\u00f6hyke 3 Ei koske P-tunnuksella J]"}},{"type":"node","id":3032072428,"lat":60.1882804,"lon":24.9582004,"tags":{"traffic_sign":"FI:645[Metro][0,2]"}},{"type":"node","id":3032072430,"lat":60.1883172,"lon":24.9575984,"tags":{"amenity":"motorcycle_parking","capacity":"10","covered":"no","parking":"surface","traffic_sign":"FI:521","traffic_sign:2":"FI:841"}},{"type":"node","id":3198902406,"lat":60.1883107,"lon":24.9573348,"tags":{"traffic_sign":"FI:372","traffic_sign:2":"FI:855a[9-21]","traffic_sign:3":"FI:871[Vy\u00f6hyke 3 Ei koske P-tunnuksella J]","traffic_sign:4":"FI:871[\u2190 Lippuautomaatti]"}},{"type":"node","id":3469300190,"lat":60.1882971,"lon":24.9581387,"tags":{"kerb":"lowered"}},{"type":"node","id":3469300191,"lat":60.188298,"lon":24.9579547,"tags":{"kerb":"lowered"}},{"type":"node","id":3469321795,"lat":60.1883248,"lon":24.958281,"tags":{"barrier":"kerb","kerb":"lowered"}},{"type":"node","id":3469321796,"lat":60.1883299,"lon":24.9578733,"tags":{"kerb":"lowered"}},{"type":"node","id":3469321799,"lat":60.1883785,"lon":24.9583009,"tags":{"kerb":"lowered"}},{"type":"node","id":3469321801,"lat":60.1883825,"lon":24.9578748,"tags":{"kerb":"lowered"}},{"type":"node","id":3469321803,"lat":60.1884294,"lon":24.9582548,"tags":{"barrier":"kerb","kerb":"lowered"}},{"type":"node","id":3469321804,"lat":60.1884367,"lon":24.9580403,"tags":{"kerb":"lowered"}},{"type":"node","id":3800990087,"lat":60.1884026,"lon":24.9584317,"tags":{"natural":"tree"}},{"type":"node","id":3800990092,"lat":60.1884085,"lon":24.9572503,"tags":{"natural":"tree"}},{"type":"node","id":3800990093,"lat":60.1884085,"lon":24.9574555,"tags":{"natural":"tree"}},{"type":"node","id":3800990095,"lat":60.1884097,"lon":24.9575658,"tags":{"natural":"tree"}},{"type":"node","id":3800990097,"lat":60.1884103,"lon":24.9576785,"tags":{"natural":"tree"}},{"type":"node","id":3800990098,"lat":60.1884115,"lon":24.9573535,"tags":{"natural":"tree"}},{"type":"node","id":3800990099,"lat":60.1884115,"lon":24.9577876,"tags":{"natural":"tree"}},{"type":"node","id":3841553050,"lat":60.188249,"lon":24.9576045,"tags":{"addr:city":"Helsinki","addr:housenumber":"8","addr:postcode":"00500","addr:street":"Vaasankatu","amenity":"pub","contact:email":"stobe@solmupub.fi","name":"Solmu","opening_hours":"Mo-Th 16:00-01:00; Fr-Sa 15:00-03:00; Su 15:00-01:00","phone":"+358 44 980 3089","smoking":"no","website":"https:\/\/solmupub.fi\/"}},{"type":"node","id":4745382422,"lat":60.1884787,"lon":24.9575655,"tags":{"amenity":"restaurant","diet:halal":"no","diet:kosher":"no","diet:vegan":"yes","diet:vegetarian":"only","internet_access":"wlan","name":"Just vege","name:en":"Just vege","name:fi":"Just vege","name:sv":"Just vege","opening_hours":"Mo-Th 11:00-22:00; Fr 11:00-02:00; Sa 12:00-00:00; Su 13:00-22:00"}},{"type":"node","id":7353761436,"lat":60.1884772,"lon":24.9579686,"tags":{"addr:city":"Helsinki","addr:housenumber":"13","addr:postcode":"00500","addr:street":"Vaasankatu","amenity":"fast_food","cuisine":"kebab","name":"Br\u00f6ner","opening_hours":"Mo-Th 11:00-20:00; Fr 11:00-21:00; Sa 12:00-21:00","phone":"+358 50 350 3976","website":"https:\/\/www.broner.fi"}},{"type":"node","id":8859684328,"lat":60.1884418,"lon":24.9584756,"tags":{"access":"yes","addr:housenumber":"11","addr:street":"Vaasankatu","entrance":"yes","wheelchair":"no"}},{"type":"node","id":9130498071,"lat":60.1882843,"lon":24.9581811,"tags":{"camera:type":"dome","man_made":"surveillance","surveillance:type":"camera"}},{"type":"node","id":10163845603,"lat":60.1884111,"lon":24.957735,"tags":{"access":"yes","amenity":"bicycle_parking","bicycle_parking":"stands","capacity":"2","covered":"no","fee":"no"}},{"type":"node","id":10163845604,"lat":60.1884086,"lon":24.957515,"tags":{"access":"yes","amenity":"bicycle_parking","bicycle_parking":"stands","capacity":"2","covered":"no","fee":"no"}},{"type":"node","id":10163845605,"lat":60.1884101,"lon":24.9573038,"tags":{"access":"yes","amenity":"bicycle_parking","bicycle_parking":"stands","capacity":"2","covered":"no","fee":"no"}},{"type":"node","id":11741753791,"lat":60.1884817,"lon":24.9572363,"tags":{"addr:housenumber":"15","addr:street":"Vaasankatu","name":"H\u00e5t Data Huolto Oy","shop":"computer","website":"https:\/\/www.hatdata.net\/"}},{"type":"node","id":11741753796,"lat":60.1882491,"lon":24.9574519,"tags":{"addr:housenumber":"8","addr:postcode":"00500","addr:street":"Vaasankatu","amenity":"restaurant","cuisine":"pizza","diet:vegetarian":"yes","email":"info@blondiepizza.fi","name":"Blondie","opening_hours":"Tu-Th 16:00-22:00; Fr-Sa 16:00-23:00; Su 13:00-20:00","website":"https:\/\/blondiepizza.fi\/"}},{"type":"node","id":11741753797,"lat":60.1882452,"lon":24.9582855,"tags":{"name":"Ompeluhuone Oxana","shop":"tailor","website":"https:\/\/www.ompeluhuoneoxana.fi\/"}}]}