{"version":0.6,"generator":"Overpass API 0.7.62.5 1bd436f1","osm3s":{"timestamp_osm_base":"2025-03-12T12:43:15Z","copyright":"The data included in this document is from www.openstreetmap.org. The data is made available under ODbL."},"elements":[{"type":"node","id":207116770,"lat":60.1865653,"lon":24.9616258,"tags":{"addr:city":"Helsinki","addr:country":"FI","addr:housenumber":"23","addr:postcode":"00500","addr:street":"H\u00e4meentie","address":"H\u00e4meentie 23","amenity":"pub","contact:instagram":"jabkallio","indoor_seating":"yes","name":"JAB Just Another Bar","opening_hours":"Mo-Fr 15:00-02:00; Sa-Su 14:00-02:00","outdoor_seating":"yes","phone":"+358 9 763 967","smoking":"outside","was:website":"http:\/\/www.barbronco.fi"}},{"type":"node","id":210482882,"lat":60.1862108,"lon":24.9615026,"tags":{"source":"survey"}},{"type":"node","id":269167198,"lat":60.1860107,"lon":24.9612015,"tags":{"button_operated":"yes","crossing":"traffic_signals","crossing:island":"yes","highway":"crossing","traffic_signals:sound":"yes","traffic_signals:vibration":"no"}},{"type":"node","id":269299414,"lat":60.1861175,"lon":24.9614891,"tags":{"button_operated":"no","crossing":"traffic_signals","crossing:island":"no","highway":"crossing","traffic_signals:sound":"no","traffic_signals:vibration":"yes"}},{"type":"node","id":313771945,"lat":60.186017,"lon":24.9612571,"tags":{"button_operated":"yes","crossing":"traffic_signals","crossing:island":"yes","highway":"crossing","traffic_signals:sound":"yes","traffic_signals:vibration":"yes"}},{"type":"node","id":316422962,"lat":60.1861159,"lon":24.9615402,"tags":{"highway":"traffic_signals","highway:give_way":"yes"}},{"type":"node","id":1516305491,"lat":60.1866259,"lon":24.962356,"tags":{"access":"private","addr:housenumber":"6","addr:street":"Vilhonvuorenkuja","addr:unit":"B","entrance":"staircase"}},{"type":"node","id":1516305494,"lat":60.1865408,"lon":24.9623935,"tags":{"access":"private","addr:housenumber":"6","addr:street":"Vilhonvuorenkuja","addr:unit":"A","entrance":"staircase"}},{"type":"node","id":1520889012,"lat":60.1865237,"lon":24.9623968,"tags":{"access":"private","barrier":"gate"}},{"type":"node","id":1524453277,"lat":60.1861308,"lon":24.9623683,"tags":{"addr:city":"Helsinki","addr:country":"FI","addr:housenumber":"4","addr:street":"K\u00e4enkuja"}},{"type":"node","id":1524453281,"lat":60.1863828,"lon":24.9616077,"tags":{"addr:city":"Helsinki","addr:country":"FI","addr:housenumber":"21","addr:postcode":"00500","addr:street":"H\u00e4meentie","operator":"H\u00e4meentie 21","operator:type":"cooperative"}},{"type":"node","id":1524453286,"lat":60.1864937,"lon":24.9615636,"tags":{"access":"private","barrier":"gate"}},{"type":"node","id":1524453415,"lat":60.1866522,"lon":24.9615996,"tags":{"addr:housenumber":"23","addr:street":"H\u00e4meentie","addr:unit":"A","description":"With keycode","entrance":"staircase","wheelchair":"no"}},{"type":"node","id":1528652523,"lat":60.1859999,"lon":24.961531,"tags":{"addr:city":"Helsinki","addr:country":"FI","addr:housenumber":"19","addr:postcode":"00500","addr:street":"H\u00e4meentie","amenity":"restaurant","cuisine":"asian","diet:halal":"no","diet:kosher":"no","lunch":"yes","name":"Sushibar+Wine","opening_hours":"Mo-Fr 11:00-21:00, Sa-Su 14:00-21:00","payment:credit_cards":"yes","payment:debit_cards":"yes","phone":"+358106668462","website":"https:\/\/sushibarwine.com\/ravintolat\/kallio\/"}},{"type":"node","id":1528653108,"lat":60.1859877,"lon":24.9614618,"tags":{"access":"yes","addr:housenumber":"19","addr:street":"H\u00e4meentie","entrance":"yes","wheelchair":"no"}},{"type":"node","id":1533278178,"lat":60.1864191,"lon":24.9625146,"tags":{"access":"private","addr:housenumber":"4","addr:street":"Vilhonvuorenkuja","addr:unit":"D","entrance":"staircase","note":"Ei varsinainen rappu ilmeisesti, pari ovea \"sis\u00e4k\u00e4yt\u00e4v\u00e4ll\u00e4\" n\u00e4kyviss\u00e4","wheelchair":"yes"}},{"type":"node","id":1998508713,"lat":60.1860701,"lon":24.9615041,"tags":{"traffic_sign":"FI:363[30];FI:364[30]","traffic_sign:2":"FI:651","traffic_sign:3":"FI:372"}},{"type":"node","id":1998514236,"lat":60.1864559,"lon":24.9614662,"tags":{"layer":"1","location":"overhead","traffic_sign":"FI:541b","traffic_sign:2":"FI:871[Kuorma- ja pakettiautot 9-15, 18-07 (0-24) 0-24];FI:363[30]"}},{"type":"node","id":2103028894,"lat":60.1861876,"lon":24.9612114,"tags":{"location":"overhead","traffic_sign":"FI:332"}},{"type":"node","id":2132012240,"lat":60.1864506,"lon":24.9615581,"tags":{"man_made":"utility_pole","material":"steel"}},{"type":"node","id":3208429086,"lat":60.1861655,"lon":24.9615488,"tags":{"traffic_sign":"FI:231","traffic_signals":"signal","traffic_signals:motor_vehicle":"yes"}},{"type":"node","id":3208429088,"lat":60.186216,"lon":24.9614535,"tags":{"traffic_sign":"FI:371","traffic_sign:2":"FI:851[7-18 (9-15)]","traffic_sign:3":"FI:372"}},{"type":"node","id":3208429092,"lat":60.1864371,"lon":24.9624435,"tags":{"traffic_sign":"FI:311","traffic_sign:2":"FI:871[Pihakannen suurin sallittu kuorma 1,0 t m^2]","traffic_sign:3":"FI:344[6 t]"}},{"type":"node","id":6331356068,"lat":60.1860242,"lon":24.9613233,"tags":{"button_operated":"yes","crossing":"traffic_signals","highway":"crossing","traffic_signals:sound":"yes","traffic_signals:vibration":"no"}},{"type":"node","id":6331356078,"lat":60.186015,"lon":24.9612395,"tags":{"railway":"tram_crossing"}},{"type":"node","id":6331356090,"lat":60.1862041,"lon":24.9612824,"tags":{"button_operated":"yes","crossing":"traffic_signals","highway":"crossing","traffic_signals:sound":"yes","traffic_signals:vibration":"no"}},{"type":"node","id":6331356095,"lat":60.1862041,"lon":24.9613454,"tags":{"button_operated":"yes","crossing":"traffic_signals","highway":"crossing","traffic_signals:sound":"yes","traffic_signals:vibration":"no"}},{"type":"node","id":6331356102,"lat":60.1866,"lon":24.9612743,"tags":{"bench":"yes","bin":"yes","lit":"yes","local_ref":"12","name":"S\u00f6rn\u00e4inen (M)","name:fi":"S\u00f6rn\u00e4inen (M)","name:sv":"S\u00f6rn\u00e4s (M)","public_transport":"platform","railway":"tram_stop","ref":"H0312","shelter":"no","wheelchair":"yes","zone:HSL":"A"}},{"type":"node","id":6331356119,"lat":60.1862042,"lon":24.9612251,"tags":{"button_operated":"yes","crossing":"traffic_signals","highway":"crossing","traffic_signals:sound":"yes","traffic_signals:vibration":"no"}},{"type":"node","id":8831555658,"lat":60.1866279,"lon":24.9615941,"tags":{"access":"yes","addr:housenumber":"23","addr:street":"H\u00e4meentie","entrance":"yes","wheelchair":"no"}},{"type":"node","id":8831555659,"lat":60.1866251,"lon":24.9616663,"tags":{"addr:housenumber":"23","addr:street":"H\u00e4meentie","level":"0","name":"Moilanen oy","office":"lawyer"}},{"type":"node","id":8831555660,"lat":60.1865923,"lon":24.9615859,"tags":{"access":"yes","addr:housenumber":"23","addr:street":"H\u00e4meentie","entrance":"yes","wheelchair":"no"}},{"type":"node","id":8831555663,"lat":60.1864307,"lon":24.96155,"tags":{"access":"yes","addr:housenumber":"21","addr:street":"H\u00e4meentie","entrance":"yes"}},{"type":"node","id":8831555664,"lat":60.1864261,"lon":24.9616013,"tags":{"addr:housenumber":"21","addr:street":"H\u00e4meentie","female":"yes","level":"1","male":"yes","name":"Room parturi & kampaamo","shop":"hairdresser"}},{"type":"node","id":8831555665,"lat":60.1863651,"lon":24.9615359,"tags":{"access":"yes","addr:housenumber":"21","addr:street":"H\u00e4meentie","entrance":"yes","wheelchair":"no"}},{"type":"node","id":8831555666,"lat":60.1863635,"lon":24.9615836,"tags":{"addr:housenumber":"21","addr:street":"H\u00e4meentie","craft":"photographer","level":"1","name":"Omid Studio"}},{"type":"node","id":8831555667,"lat":60.1863339,"lon":24.9615291,"tags":{"access":"yes","addr:housenumber":"21","addr:street":"H\u00e4meentie","description":"With buzzer","entrance":"yes","wheelchair":"no"}},{"type":"node","id":8831555668,"lat":60.1863342,"lon":24.9615801,"tags":{"addr:housenumber":"21","addr:street":"H\u00e4meentie","addr:unit":"G","name":"Sweet Dream guest house","payment:credit_cards":"yes","payment:debit_cards":"yes","shop":"yes"}},{"type":"node","id":8831555669,"lat":60.1863228,"lon":24.9615267,"tags":{"access":"yes","addr:housenumber":"21","addr:street":"H\u00e4meentie","entrance":"yes","wheelchair":"no"}},{"type":"node","id":8831555670,"lat":60.1862681,"lon":24.961515,"tags":{"access":"yes","addr:housenumber":"21","addr:street":"H\u00e4meentie","entrance":"yes","wheelchair":"yes"}},{"type":"node","id":8831555671,"lat":60.1862404,"lon":24.9615587,"tags":{"addr:housenumber":"21","addr:street":"H\u00e4meentie","amenity":"restaurant","diet:halal":"no","diet:kosher":"no","level":"1","name":"PronTo","payment:credit_cards":"yes","payment:debit_cards":"yes"}},{"type":"node","id":8831555672,"lat":60.1862047,"lon":24.9615563,"tags":{"access":"yes","addr:housenumber":"21","addr:street":"H\u00e4meentie","entrance":"yes"}},{"type":"node","id":8831616507,"lat":60.1861894,"lon":24.9616216,"tags":{"access":"private","addr:housenumber":"2","addr:street":"K\u00e4enkuja","entrance":"yes","wheelchair":"no"}},{"type":"node","id":8831616508,"lat":60.1861199,"lon":24.9618679,"tags":{"access":"private","addr:housenumber":"2","addr:street":"K\u00e4enkuja","entrance":"yes","wheelchair":"no"}},{"type":"node","id":8831616510,"lat":60.1861012,"lon":24.9619428,"tags":{"access":"private","addr:housenumber":"4","addr:street":"K\u00e4enkuja","entrance":"garage","wheelchair":"no"}},{"type":"node","id":8831616511,"lat":60.1860857,"lon":24.9620033,"tags":{"access":"yes","addr:housenumber":"4","addr:street":"K\u00e4enkuja","description":"With buzzer","entrance":"yes","wheelchair":"yes"}},{"type":"node","id":8831616512,"lat":60.1861049,"lon":24.9620043,"tags":{"addr:housenumber":"4","addr:street":"K\u00e4enkuja","amenity":"cafe","contact:instagram":"boabim.cafe","name":"Boa & Bim","opening_hours":"tu - fr 12:00-18:00;sa 12:00-19:00; su 12:00-18:00"}},{"type":"node","id":8831616513,"lat":60.1860766,"lon":24.962039,"tags":{"access":"private","addr:housenumber":"4","addr:street":"K\u00e4enkuja","barrier":"gate","wheelchair":"yes"}},{"type":"node","id":8831616514,"lat":60.1860628,"lon":24.9620932,"tags":{"access":"yes","addr:housenumber":"4","addr:street":"K\u00e4enkuja","addr:unit":"A 2","entrance":"yes"}},{"type":"node","id":8831616515,"lat":60.1860814,"lon":24.9621051,"tags":{"addr:housenumber":"4","addr:street":"K\u00e4enkuja","addr:unit":"A 2","amenity":"school","check_date":"2024-04-19","name":"A+ Driving School"}},{"type":"node","id":8831616516,"lat":60.1860322,"lon":24.9622124,"tags":{"access":"yes","addr:housenumber":"4","addr:street":"K\u00e4enkuja","entrance":"yes","wheelchair":"yes"}},{"type":"node","id":8831657917,"lat":60.1860516,"lon":24.9622295,"tags":{"addr:housenumber":"4","addr:street":"K\u00e4enkuja","alt_name":"Iso Nro","check_date":"2024-04-19","level":"1","name":"Iso Numero","office":"newspaper","website":"https:\/\/www.isonumero.fi\/"}},{"type":"node","id":8831657918,"lat":60.1860058,"lon":24.9623158,"tags":{"access":"private","addr:housenumber":"4","addr:street":"K\u00e4enkuja","entrance":"yes","wheelchair":"yes"}},{"type":"node","id":8831657919,"lat":60.1859846,"lon":24.9623985,"tags":{"access":"yes","addr:housenumber":"4","addr:street":"K\u00e4enkuja","entrance":"yes"}},{"type":"node","id":8831657920,"lat":60.1860162,"lon":24.9624275,"tags":{"addr:housenumber":"4","addr:street":"K\u00e4enkuja","name":"Adalia Salon","payment:credit_cards":"yes","payment:debit_cards":"yes","shop":"beauty"}},{"type":"node","id":8831657922,"lat":60.1859911,"lon":24.9624998,"tags":{"addr:housenumber":"4","addr:street":"K\u00e4enkuja","level":"1","name":"Nax parturi kampaamo","payment:credit_cards":"yes","payment:debit_cards":"yes","shop":"hairdresser"}},{"type":"node","id":8831657925,"lat":60.1864769,"lon":24.9624585,"tags":{"access":"private","barrier":"lift_gate"}},{"type":"node","id":8831657926,"lat":60.186541,"lon":24.9618345,"tags":{"access":"private","addr:housenumber":"23","addr:street":"H\u00e4meentie","addr:unit":"B","entrance":"staircase"}},{"type":"node","id":11766491865,"lat":60.1861048,"lon":24.9612599,"tags":{"railway":"tram_level_crossing"}},{"type":"node","id":11766491866,"lat":60.1861008,"lon":24.961203,"tags":{"railway":"tram_level_crossing"}},{"type":"node","id":12546323069,"lat":60.1861695,"lon":24.9617795,"tags":{"addr:city":"Helsinki","addr:housenumber":"2","addr:postcode":"00500","addr:street":"K\u00e4enkuja"}}]}