{"version":0.6,"generator":"Overpass API 0.7.61.5 4133829e","osm3s":{"timestamp_osm_base":"2023-08-13T09:20:22Z","copyright":"The data included in this document is from www.openstreetmap.org. The data is made available under ODbL."},"elements":[{"type":"way","id":22498785,"nodes":[1380472177,7669573329,9570261217,7615674311,7615674312,3083581595,241542132,3330871448,7615674310,7625139880,7608083811,436387467,241582546,1380472210,241582111,241582113,1380472204,1380472203,1380472181,1380472180,7625139885,241582114,1380472179,7625139881,1380472183,241582109,1380472177],"tags":{"building":"apartments","building:levels":"5","wikidata":"Q98410688"}},{"type":"way","id":22498806,"nodes":[1380323461,1380323466,1380323449,241584556,7632144866,241584553,7632144865,241584554,1380323411,7625139896,7624951738,241584225,3083581574,3083581576,7625139891,7625078473,1380323461],"tags":{"building":"apartments","building:levels":"4","building:maintenance:operator":"Lassila&Tikanoja","wikidata":"Q98433193"}},{"type":"way","id":22499189,"nodes":[1380323567,1380323653,7615674345,7615674344,7615674346,7615674347,1380323655,1380323518,1380323515,241584493,1380323449,1380323466,1380323491,241584594,1380323537,1380323587,1380323590,241584595,1380323650,1380323634,1380323628,1380323624,1380323626,241584596,241584597,241584598,1380323533,1380323580,1380323584,1380323622,1380323632,1380323630,1380323607,7632144868,1380323603,1380323573,1380323570,1380323597,7632144869,1380323567],"tags":{"building":"yes","building:maintenance:operator":"Housetek Oy","wikidata":"Q98429940"}},{"type":"way","id":22499698,"nodes":[1380323653,1380323567,1380323522,1380323520,1380323531,1380323561,7632144870,1380323554,1380323558,241584602,7625078481,1380323525,1380323528,241584603,1380323479,7632144867,1380323499,1380323503,1380323507,1380323513,1380323491,1380323466,1380323461,7625078477,7625139888,7625078480,7625139886,241584221,7615674315,7615674316,1380323653],"tags":{"building":"yes","wikidata":"Q98414257"}},{"type":"way","id":22954685,"nodes":[1377402100,247321783,247321784,247321780,1377402099,1377402104,3330884440,7891825277,1377402105,247321790,8237528313,7668875276,8237528310,247321785,1377402101,1377402100],"tags":{"building":"yes"}},{"type":"way","id":22954687,"nodes":[1377402097,1377402101,247321785,1377402102,247321786,7668830441,7668875275,247321787,1377402103,247321788,7669477279,247321789,7669477278,247321790,1377402105,3330871447,247321777,3083581590,3083581586,247321778,7668830445,3083581585,3330871446,7668875278,7669477270,3083581583,7668830443,7669477269,3330871445,7668830437,1377402097],"tags":{"building":"yes"}},{"type":"way","id":28656109,"nodes":[314934970,7608083803,7608083804,314934969,314934977,314934971,7615674318,7615674317,7615674343,7883015877,7883015876,7883015875,7883015874,7883015873,1013294081,7702074818,310988551],"tags":{"bicycle":"no","footway":"sidewalk","highway":"footway","lit":"yes","snowplowing":"yes","surface":"asphalt"}},{"type":"way","id":28656137,"nodes":[310988553,7668883885,7632518862,9050703461,9570258553,7615674314,7615674313,314934973],"tags":{"bicycle":"no","footway":"sidewalk","highway":"footway","lit":"yes","snowplowing":"yes","surface":"asphalt"}},{"type":"way","id":36729034,"nodes":[310987504,1380323468],"tags":{"highway":"residential","lanes":"2","lit":"yes","maxspeed":"30","name":"Ratakatu","name:fi":"Ratakatu","name:sv":"Bangatan","parking:condition:reason":"junction","parking:lane:both":"no_stopping","surface":"sett"}},{"type":"way","id":37264928,"nodes":[247321777,3083581590,3083581586,247321778,7668830445,3083581585,3330871446,7668875278,7669477270,3083581583,7668830443,7669477269,3330871445,7668830437,1377402097,2524266577,7669477265,3330871444,2524266574,247321779,2524210110,7669477263,7608083798,7668875280,1377402098,7608083800,247321775,247321776,7608083802,1377402104,3330884440,7891825277,1377402105,3330871447,247321777],"tags":{"landuse":"commercial","name":"Kiiski","name:fi":"Kiiski","name:sv":"Gersen","place":"city_block","ref":"59"}},{"type":"way","id":37264933,"nodes":[241045619,241045620,434162866,434162871,1380411563,1380411525,434162868,243182257,241045631,434162875,241045629,434162887,1005526430,434162890,7632144872,7632144871,7624963138,3083581597,241045612,3083581596,1380411423,9183007916,7608083807,1380411411,1380411406,3330884443,7608083805,2524250158,241045613,2524210116,2524250164,7615674335,7615674333,7615674309,1380411444,2524210126,9699658926,2524210128,7615674305,7615674307,3330896631,1380411489,7615674331,7883015879,2524223841,1380411508,2524223842,1380411536,7615674327,7615674326,7615674323,1380411589,7615674322,2403892452,241045615,2403892455,3336813818,3340745087,7631833521,7631833523,1405866821,3339721590,10077722932,3083522793,241045617,241045619],"tags":{"landuse":"commercial"}},{"type":"way","id":37380559,"nodes":[436387467,241582546,1380472210,241582547,1380472212,436387468,1380472218,1380472222,1380472223,1380472226,1380472228,1380472235,436387469,1380472236,1380472237,436387470,7615674351,2282942702,247323874,436387471,241542131,1380472178,7632144851,3900514147,9050703460,1380472177,7669573329,7615674311,7615674312,3083581595,241542132,3330871448,7615674310,7625139880,7608083811,436387467],"tags":{"landuse":"commercial"}},{"type":"way","id":37380564,"nodes":[241584223,3340745076,1380323416,7624951733,7624951735,8310975639,1380323411,7625139896,7624951738,241584225,3083581574,3083581576,7625139891,7625078473,1380323461,7625078477,7625139888,7625078480,7625139886,241584221,7615674315,7615674316,1380323653,7615674345,7615674344,7615674346,7615674347,1380323655,7615674348,310988306,436387473,310988307,243178122,3340745077,241584223],"tags":{"landuse":"residential","name":"Ruutana","name:fi":"Ruutana","name:sv":"Rudan","place":"city_block","ref":"58"}},{"type":"way","id":42328834,"nodes":[299980102,528371539,5335322707],"tags":{"highway":"footway","lit":"no","surface":"compacted"}},{"type":"way","id":42333036,"nodes":[528475729,7668830439,310987504],"tags":{"highway":"residential","lit":"yes","maxspeed":"30","name":"Ratakatu","name:fi":"Ratakatu","name:sv":"Bangatan","parking:condition:left":"ticket","parking:condition:left:maxstay":"4 h","parking:condition:left:time_interval":"Mo-Fr 09:00-21:00; Sa 09:00-18:00","parking:condition:right":"private","parking:condition:right:private":"diplomat","parking:lane:both":"parallel","parking:lane:left:parallel":"on_street","surface":"asphalt"}},{"type":"way","id":54818680,"nodes":[310985436,314934629,314934630],"tags":{"highway":"footway","lit":"yes","snowplowing":"yes","surface":"sett"}},{"type":"way","id":54818681,"nodes":[314934629,1380323468,310987501,690140837],"tags":{"highway":"living_street","lanes":"2","lit":"yes","maxspeed":"30","name":"Korkeavuorenkatu","name:fi":"Korkeavuorenkatu","name:sv":"H\u00f6gbergsgatan","parking:condition:reason":"junction","parking:lane:both":"no_stopping","surface":"sett"}},{"type":"way","id":54818682,"nodes":[314934977,7625078478,314934629],"tags":{"highway":"living_street","lanes":"2","lit":"yes","maxspeed":"30","name":"Korkeavuorenkatu","name:fi":"Korkeavuorenkatu","name:sv":"H\u00f6gbergsgatan","parking:both:placement":"dedicated","parking:condition:both":"ticket","parking:condition:both:default":"free","parking:condition:both:maxstay":"60 min","parking:condition:both:residents":"B;C","parking:condition:both:time_interval":"Mo-Fr 09:00-21:00; Sa 09:00-18:00","parking:lane:both":"parallel","parking:lane:both:parallel":"on_street","parking:ticket:zone":"1","snowplowing":"yes","start_date":"before 1815","surface":"sett"}},{"type":"way","id":54818959,"nodes":[690126197,690126165,1380323475],"tags":{"diameter":"200","location":"underground","man_made":"pipeline","substance":"water"}},{"type":"way","id":54818960,"nodes":[690126175,690126173],"tags":{"location":"underground","man_made":"pipeline","substance":"gas"}},{"type":"way","id":54818961,"nodes":[690126184,690126197,690126170,988280343,988280340,988280341,988280335],"tags":{"diameter":"200","location":"underground","man_made":"pipeline","substance":"water"}},{"type":"way","id":54821136,"nodes":[314934975,314934976,314934969],"tags":{"highway":"footway","lit":"yes","snowplowing":"yes","surface":"sett"}},{"type":"way","id":54821137,"nodes":[314934969,7608083809,310985436,310987504,299980086,310987687,1007051434,310987677,299980087,1005473060],"tags":{"bicycle":"no","footway":"sidewalk","highway":"footway","lit":"yes","snowplowing":"yes","surface":"asphalt"}},{"type":"way","id":54821945,"nodes":[690140837,310987688,1380291085],"tags":{"highway":"living_street","lit":"yes","maxspeed":"30","name":"Korkeavuorenkatu","name:fi":"Korkeavuorenkatu","name:sv":"H\u00f6gbergsgatan","start_date":"after 1815","surface":"sett"}},{"type":"way","id":54821947,"nodes":[299980086,310987501,310987500],"tags":{"highway":"footway","lit":"yes","snowplowing":"yes","surface":"sett"}},{"type":"way","id":77465097,"nodes":[911782077,7632518858,7625139882,915595781],"tags":{"highway":"residential","lanes":"2","lit":"yes","maxspeed":"30","name":"Korkeavuorenkatu","name:fi":"Korkeavuorenkatu","name:sv":"H\u00f6gbergsgatan","parking:condition:both":"ticket","parking:condition:both:default":"free","parking:condition:both:residents":"C","parking:condition:both:time_interval":"Mo-Fr 09:00-21:00","parking:lane:both":"parallel","parking:lane:both:parallel":"on_street","snowplowing":"yes","start_date":"before 1815","surface":"sett"}},{"type":"way","id":77893331,"nodes":[915595779,9183136518,915595789],"tags":{"highway":"residential","lit":"yes","loc_name":"Pikku-Roba","maxspeed":"30","name":"Pieni Roobertinkatu","name:fi":"Pieni Roobertinkatu","name:sv":"Lilla Robertsgatan","note":"Kes\u00e4katu https:\/\/www.hel.fi\/static\/liitteet\/kaupunkiymparisto\/liikenne-ja-kartat\/kesakadut-liikennejarjestelyt-kartta.pdf","parking:both":"lane","parking:both:orientation":"parallel","parking:condition:right":"ticket","parking:condition:right:default":"free","parking:condition:right:residents":"B;C","parking:condition:right:time_interval":"Mo-Fr 09:00-21:00","snowplowing":"yes","start_date":"before 1815","surface":"sett"}},{"type":"way","id":77893337,"nodes":[915595781,314934974,1380323657,314934977],"tags":{"highway":"residential","lanes":"2","lit":"yes","maxspeed":"30","name":"Korkeavuorenkatu","name:fi":"Korkeavuorenkatu","name:sv":"H\u00f6gbergsgatan","parking:condition:reason":"junction","parking:lane:both":"no_stopping","surface":"sett"}},{"type":"way","id":77893344,"nodes":[915595777,314934972,1380323657,9793647383],"tags":{"highway":"residential","lit":"yes","loc_name":"Pikku-Roba","maxspeed":"30","name":"Pieni Roobertinkatu","name:fi":"Pieni Roobertinkatu","name:sv":"Lilla Robertsgatan","parking:condition:reason":"junction","parking:lane:both":"no_stopping","surface":"sett"}},{"type":"way","id":85223689,"nodes":[988280338,988280349,988280347,988280345,988280340],"tags":{"diameter":"200","location":"underground","man_made":"pipeline","substance":"water"}},{"type":"way","id":85247773,"nodes":[988554301,915595777],"tags":{"hazmat:A:forward":"no","highway":"residential","lit":"yes","loc_name":"Pikku-Roba","maxspeed":"30","name":"Pieni Roobertinkatu","name:fi":"Pieni Roobertinkatu","name:sv":"Lilla Robertsgatan","parking:condition:both":"ticket","parking:condition:both:default":"free","parking:condition:both:residents":"B;C","parking:condition:both:time_interval":"Mo-Fr 09:00-21:00","parking:lane:both":"parallel","parking:lane:both:parallel":"on_street","parking:ticket:zone":"1","snowplowing":"yes","start_date":"before 1815","surface":"sett"}},{"type":"way","id":86429210,"nodes":[298273888,7631833505,7631833502,7631833495,7631833509,7631833507,311113182,7615674320,311113856,3005789347,314935863,2403882727,314935866,9697767917,348212620,7624963136,8021950667,7632518861,7624963139,314934975],"tags":{"highway":"footway","lit":"yes","surface":"asphalt"}},{"type":"way","id":86461839,"nodes":[298275344,7632518874,7632518875,7632518876,9713069616,1380910175,311113181,311113742,311113741,7625134428,311113743,7625084890,7625134427,7632144859,7625078484,7632518857,7614707539,7625139883,7624963141,314934973],"tags":{"highway":"footway","lit":"yes","surface":"asphalt"}},{"type":"way","id":86597165,"nodes":[310987505,7625139892,7625078474,310987500,7625078476,314934630,7625139889,7625078479,314934971,314934972,314934973],"tags":{"bicycle":"no","footway":"sidewalk","highway":"footway","lit":"yes","snowplowing":"yes","surface":"paved"}},{"type":"way","id":123911204,"nodes":[1380411423,9183007916,7608083807,1380411411,434162872,241045632,241045633,9183136521,9183007915,241045626,1380411423],"tags":{"building":"yes"}},{"type":"way","id":123911206,"nodes":[1380411423,241045626,434162887,1005526430,434162890,7632144872,7632144871,7624963138,3083581597,241045612,3083581596,1380411423],"tags":{"building":"yes","wikidata":"Q98414256"}},{"type":"way","id":123915163,"nodes":[1380472197,1380472193,1380472194,1380472186,1380472187,241581381,7632518864,1380472184,1380472178,7632144851,3900514147,9050703460,1380472177,241582109,1380472195,1380472197],"tags":{"building":"yes","name":"Hotel Lilla Robert","tourism":"hotel"}},{"type":"way","id":245189782,"nodes":[299980085,6340052318,5335322707,299980086],"tags":{"bicycle":"no","highway":"footway","lit":"yes","snowplowing":"yes","surface":"asphalt"}},{"type":"way","id":289790203,"nodes":[241045615,3330896631,241045613,2524250158,7608083805,3330884443,1380411406,7608083807,9183007916,1380411423,3083581596,241045612,3083581597,3083522788,241045617,3083522793,10077722932,3339721590,1405866821,7631833523,7631833521,3340745087,3336813818,241045615],"tags":{"name":"Miekkakala","name:fi":"Miekkakala","name:sv":"Sv\u00e4rdfisken","place":"city_block","ref":"51"}},{"type":"way","id":289790206,"nodes":[289640565,3083522796,2403881122,7624963124,241542126,436387471,3900514147,3083581595,241542132,3330871448,7615674310,7608083811,3083522792,3083522794,241542125,7625134430,289640565],"tags":{"area":"yes","name":"Sampi","name:fi":"Sampi","name:sv":"St\u00f6ren","place":"city_block","ref":"52"}},{"type":"way","id":296774092,"nodes":[314934975,9183136517,7608083808,7608083806,314934978,1005526474,2524250153,313981055,2524250160,9700528717,313981052,7615674336,7615674334,9702193910,9699658929,7615674306,7615674308,7615674332,7883015880,313981047,446775858,7615674328,7615674329,298274872,7615674324,7883015878,314935873,2524223851,314935864],"tags":{"bicycle":"no","footway":"sidewalk","highway":"footway","lit":"yes","snowplowing":"yes","surface":"paved"}},{"type":"way","id":296774094,"nodes":[314934973,314934974,314934975],"tags":{"footway":"crossing","highway":"footway","lit":"yes","snowplowing":"yes","surface":"sett"}},{"type":"way","id":303878261,"nodes":[2422352016,3083581597],"tags":{"man_made":"beam"}},{"type":"way","id":303878262,"nodes":[2422352015,3083581596],"tags":{"man_made":"beam"}},{"type":"way","id":303878263,"nodes":[3083581586,3083581587],"tags":{"man_made":"beam"}},{"type":"way","id":303878264,"nodes":[3083581583,3083581582],"tags":{"man_made":"beam"}},{"type":"way","id":303878266,"nodes":[3083581590,3083581589],"tags":{"man_made":"beam"}},{"type":"way","id":303878267,"nodes":[2422351944,3083581595],"tags":{"man_made":"beam"}},{"type":"way","id":303878268,"nodes":[3083581584,3083581585],"tags":{"man_made":"beam"}},{"type":"way","id":326441971,"nodes":[3330871448,2069174806],"tags":{"man_made":"beam"}},{"type":"way","id":692229799,"nodes":[310985434,7669477266,7669477268,7668830438,7668830440,7669477272,7668830444,7669477273,7668875279,7669477274,7669477276,7668830446,310985436],"tags":{"bicycle":"no","footway":"sidewalk","highway":"footway","lit":"yes","snowplowing":"yes","surface":"asphalt"}},{"type":"way","id":814483865,"nodes":[7608083809,247321777],"tags":{"handrail":"yes","highway":"steps","incline":"up","lit":"yes","ramp":"no","step_count":"3","surface":"asphalt"}},{"type":"way","id":815419469,"nodes":[7615674313,7615674312],"tags":{"highway":"footway"}},{"type":"way","id":815419470,"nodes":[7615674314,7615674311],"tags":{"highway":"footway","lit":"yes","surface":"asphalt"}},{"type":"way","id":815419471,"nodes":[7615674317,7615674316],"tags":{"handrail":"no","highway":"steps","incline":"up","lit":"yes","ramp":"no","step_count":"3","surface":"asphalt"}},{"type":"way","id":815419472,"nodes":[7615674318,7615674315],"tags":{"handrail":"no","highway":"steps","incline":"up","ramp":"no","step_count":"3","surface":"asphalt"}},{"type":"way","id":816424252,"nodes":[7625078476,7625078477],"tags":{"handrail":"no","highway":"steps","incline":"up","ramp":"no","step_count":"2"}},{"type":"way","id":816424253,"nodes":[7625078478,7625078479,7625078480],"tags":{"highway":"service","surface":"asphalt"}},{"type":"way","id":816424254,"nodes":[7625078480,7625078482,7625078481],"tags":{"highway":"service","maxheight":"below_default","surface":"paving_stones","tunnel":"yes"}},{"type":"way","id":816430311,"nodes":[7625139887,7625139886],"tags":{"highway":"footway","lit":"yes","surface":"asphalt"}},{"type":"way","id":816430312,"nodes":[7625139889,7625139888],"tags":{"handrail":"no","highway":"steps","incline":"up","ramp":"no","step_count":"4"}},{"type":"way","id":817232537,"nodes":[7632518865,7632144867],"tags":{"handrail":"yes","highway":"steps","incline":"down","lit":"no","ramp":"no","step_count":"7","surface":"asphalt"}},{"type":"way","id":817232538,"nodes":[7632518865,7632518869,7632518868,7632518866,7632144870],"tags":{"highway":"footway","lit":"no","surface":"asphalt"}},{"type":"way","id":817232539,"nodes":[7625078481,7632518866],"tags":{"highway":"footway","lit":"no","surface":"asphalt"}},{"type":"way","id":817232540,"nodes":[7632144868,7632518867,7632518870,7632518868],"tags":{"highway":"footway","lit":"no","surface":"asphalt"}},{"type":"way","id":817232541,"nodes":[7632144869,7632518870],"tags":{"highway":"footway","lit":"no","surface":"asphalt"}},{"type":"way","id":821333562,"nodes":[7668830437,7668830438],"tags":{"highway":"footway","lit":"yes","surface":"asphalt"}},{"type":"way","id":821333563,"nodes":[7668830439,7668830440,3330871445],"tags":{"highway":"service"}},{"type":"way","id":821333564,"nodes":[3330871445,7668830441],"tags":{"highway":"service","maxheight":"below_default","tunnel":"yes"}},{"type":"way","id":821333565,"nodes":[7668830443,7668830444],"tags":{"highway":"footway"}},{"type":"way","id":821333566,"nodes":[7668830446,7668830445],"tags":{"handrail":"no","highway":"steps","incline":"down","lit":"yes","ramp":"no","step_count":"2","surface":"asphalt"}},{"type":"way","id":821333567,"nodes":[310985436,247321778],"tags":{"handrail":"no","highway":"steps","incline":"down","lit":"yes","ramp":"no","step_count":"2","surface":"asphalt"}},{"type":"way","id":821339392,"nodes":[7668875276,7668875277],"tags":{"handrail":"yes","highway":"steps","incline":"up","ramp":"no","step_count":"6"}},{"type":"way","id":821339394,"nodes":[7668875278,7668875279],"tags":{"highway":"footway","lit":"yes","surface":"asphalt"}},{"type":"way","id":821414179,"nodes":[7669477269,7669477272],"tags":{"highway":"footway"}},{"type":"way","id":821414180,"nodes":[7669477270,7669477273],"tags":{"highway":"footway","lit":"yes","surface":"asphalt"}},{"type":"way","id":821414181,"nodes":[3330871446,7669477274],"tags":{"highway":"footway","lit":"yes","surface":"asphalt"}},{"type":"way","id":844950754,"nodes":[7615674344,7883015876],"tags":{"highway":"footway","lit":"yes","surface":"asphalt"}},{"type":"way","id":844950755,"nodes":[7615674345,7883015877],"tags":{"highway":"footway","lit":"yes","surface":"asphalt"}},{"type":"way","id":885884567,"nodes":[7668830441,247321786,1377402102,247321785,8237528310,8237528311,7668875277,8237528312,8237528313,247321790,7669477278,247321789,7669477279,247321788,1377402103,247321787,7668875275,7668830441],"tags":{"area":"yes","highway":"service"}},{"type":"way","id":978119918,"nodes":[7669573329,9050703461],"tags":{"highway":"footway"}},{"type":"way","id":993969231,"nodes":[9183007915,9183007916],"tags":{"highway":"service","tunnel":"building_passage"}},{"type":"way","id":993969232,"nodes":[9183007916,9183136517,9183136518],"tags":{"highway":"service","surface":"asphalt"}},{"type":"way","id":1039261819,"nodes":[9570261217,9570258553],"tags":{"highway":"steps","incline":"down","step_count":"3"}},{"type":"way","id":1066551972,"nodes":[9793647383,314934976,915595779],"tags":{"highway":"residential","lit":"yes","loc_name":"Pikku-Roba","maxspeed":"30","name":"Pieni Roobertinkatu","name:fi":"Pieni Roobertinkatu","name:sv":"Lilla Robertsgatan","parking:condition:reason":"junction","parking:lane:both":"no_stopping","surface":"sett"}},{"type":"node","id":241045612,"lat":60.1642685,"lon":24.9459461},{"type":"node","id":241045613,"lat":60.1642177,"lon":24.9442755},{"type":"node","id":241045626,"lat":60.1643718,"lon":24.9456491},{"type":"node","id":241045629,"lat":60.1646382,"lon":24.9453894},{"type":"node","id":241045631,"lat":60.1646255,"lon":24.9449696},{"type":"node","id":241045632,"lat":60.1645761,"lon":24.9454566},{"type":"node","id":241045633,"lat":60.1643667,"lon":24.9454823},{"type":"node","id":241542131,"lat":60.1643038,"lon":24.9474973},{"type":"node","id":241542132,"lat":60.1642657,"lon":24.9462118},{"type":"node","id":241581381,"lat":60.1644196,"lon":24.9469112},{"type":"node","id":241582109,"lat":60.1644287,"lon":24.9465631},{"type":"node","id":241582111,"lat":60.1645902,"lon":24.9465438},{"type":"node","id":241582113,"lat":60.164587,"lon":24.9464337},{"type":"node","id":241582114,"lat":60.164388,"lon":24.9463817},{"type":"node","id":241582546,"lat":60.1646681,"lon":24.9464077},{"type":"node","id":241582547,"lat":60.1646744,"lon":24.9466215},{"type":"node","id":241584221,"lat":60.1641331,"lon":24.9462239},{"type":"node","id":241584223,"lat":60.1634548,"lon":24.9479293},{"type":"node","id":241584225,"lat":60.163396,"lon":24.946307},{"type":"node","id":241584493,"lat":60.1636879,"lon":24.9473627},{"type":"node","id":241584553,"lat":60.1635187,"lon":24.9464965},{"type":"node","id":241584554,"lat":60.1635249,"lon":24.9467182},{"type":"node","id":241584556,"lat":60.1636632,"lon":24.9464802},{"type":"node","id":241584594,"lat":60.1638241,"lon":24.947327},{"type":"node","id":241584595,"lat":60.164034,"lon":24.9473753},{"type":"node","id":241584596,"lat":60.1640371,"lon":24.9471002},{"type":"node","id":241584597,"lat":60.1638475,"lon":24.9471216},{"type":"node","id":241584598,"lat":60.1638412,"lon":24.9468941},{"type":"node","id":241584602,"lat":60.1640149,"lon":24.9464486},{"type":"node","id":241584603,"lat":60.1637983,"lon":24.9465293},{"type":"node","id":243178122,"lat":60.1638903,"lon":24.9478793},{"type":"node","id":243182257,"lat":60.1648187,"lon":24.9449459},{"type":"node","id":247321775,"lat":60.1640182,"lon":24.9445348},{"type":"node","id":247321776,"lat":60.1640896,"lon":24.9445299},{"type":"node","id":247321777,"lat":60.1641203,"lon":24.9459758},{"type":"node","id":247321778,"lat":60.1638335,"lon":24.9460132},{"type":"node","id":247321779,"lat":60.1635496,"lon":24.9451896},{"type":"node","id":247321780,"lat":60.1638155,"lon":24.9451076},{"type":"node","id":247321783,"lat":60.1639071,"lon":24.9453812},{"type":"node","id":247321784,"lat":60.163901,"lon":24.9451001},{"type":"node","id":247321785,"lat":60.1638258,"lon":24.9455807},{"type":"node","id":247321786,"lat":60.1638456,"lon":24.9456437},{"type":"node","id":247321787,"lat":60.1638759,"lon":24.945722},{"type":"node","id":247321788,"lat":60.1639015,"lon":24.9457875},{"type":"node","id":247321789,"lat":60.1639977,"lon":24.9457791},{"type":"node","id":247321790,"lat":60.1639931,"lon":24.9455664},{"type":"node","id":247323874,"lat":60.1648,"lon":24.9477537},{"type":"node","id":299980085,"lat":60.1634409,"lon":24.9453044},{"type":"node","id":299980086,"lat":60.1636647,"lon":24.9460457},{"type":"node","id":299980087,"lat":60.1632421,"lon":24.9460892},{"type":"node","id":299980102,"lat":60.1635083,"lon":24.9458459},{"type":"node","id":310985434,"lat":60.1635292,"lon":24.9451885},{"type":"node","id":310985436,"lat":60.1638261,"lon":24.9460271},{"type":"node","id":310987500,"lat":60.1636699,"lon":24.9462558},{"type":"node","id":310987501,"lat":60.1636658,"lon":24.9461594},{"type":"node","id":310987504,"lat":60.1637497,"lon":24.9460335},{"type":"node","id":310987505,"lat":60.1633931,"lon":24.946291},{"type":"node","id":310987677,"lat":60.1632592,"lon":24.9460871},{"type":"node","id":310987687,"lat":60.163389,"lon":24.9460737},{"type":"node","id":310987688,"lat":60.1633897,"lon":24.9461919},{"type":"node","id":310988306,"lat":60.1641775,"lon":24.947815},{"type":"node","id":310988307,"lat":60.164157,"lon":24.9478492},{"type":"node","id":310988551,"lat":60.1641854,"lon":24.947867},{"type":"node","id":310988553,"lat":60.1643003,"lon":24.9477988},{"type":"node","id":313981047,"lat":60.1649279,"lon":24.9441564},{"type":"node","id":313981052,"lat":60.1643686,"lon":24.9442199},{"type":"node","id":313981055,"lat":60.164218,"lon":24.9442421},{"type":"node","id":314934629,"lat":60.1638282,"lon":24.9461382},{"type":"node","id":314934630,"lat":60.1638314,"lon":24.9462374},{"type":"node","id":314934969,"lat":60.1641396,"lon":24.9459923},{"type":"node","id":314934970,"lat":60.1640985,"lon":24.9444223},{"type":"node","id":314934971,"lat":60.1641406,"lon":24.9462108},{"type":"node","id":314934972,"lat":60.1642,"lon":24.9462092},{"type":"node","id":314934973,"lat":60.1642593,"lon":24.9462047},{"type":"node","id":314934974,"lat":60.1642582,"lon":24.9460852},{"type":"node","id":314934975,"lat":60.1642553,"lon":24.945965},{"type":"node","id":314934976,"lat":60.1641932,"lon":24.9459796},{"type":"node","id":314934977,"lat":60.164141,"lon":24.9460986},{"type":"node","id":314934978,"lat":60.1642046,"lon":24.9443169},{"type":"node","id":348212620,"lat":60.1650177,"lon":24.9458739},{"type":"node","id":434162868,"lat":60.1648166,"lon":24.9448748},{"type":"node","id":434162872,"lat":60.1645678,"lon":24.9451835},{"type":"node","id":434162875,"lat":60.1646298,"lon":24.9451137},{"type":"node","id":434162887,"lat":60.1646451,"lon":24.9456156},{"type":"node","id":434162890,"lat":60.1646537,"lon":24.9458988},{"type":"node","id":436387467,"lat":60.1646609,"lon":24.9461645},{"type":"node","id":436387468,"lat":60.1646835,"lon":24.9469273},{"type":"node","id":436387469,"lat":60.1650152,"lon":24.9469456},{"type":"node","id":436387470,"lat":60.1650383,"lon":24.9477251},{"type":"node","id":436387471,"lat":60.1643131,"lon":24.947812},{"type":"node","id":436387473,"lat":60.1641784,"lon":24.9478468},{"type":"node","id":446775858,"lat":60.1652051,"lon":24.9441263},{"type":"node","id":528371539,"lat":60.1636102,"lon":24.9459624},{"type":"node","id":528475729,"lat":60.1636272,"lon":24.945667},{"type":"node","id":690126165,"lat":60.1637972,"lon":24.94617},{"type":"node","id":690126170,"lat":60.1638086,"lon":24.9461872},{"type":"node","id":690126173,"lat":60.1638228,"lon":24.9461267},{"type":"node","id":690126175,"lat":60.1638228,"lon":24.9461153},{"type":"node","id":690126184,"lat":60.1637924,"lon":24.9461862},{"type":"node","id":690126197,"lat":60.1637979,"lon":24.9461865},{"type":"node","id":690140837,"lat":60.1636518,"lon":24.9461605},{"type":"node","id":911782077,"lat":60.1648667,"lon":24.945994},{"type":"node","id":915595777,"lat":60.1642015,"lon":24.9462603},{"type":"node","id":915595779,"lat":60.1641914,"lon":24.9459176},{"type":"node","id":915595781,"lat":60.1642818,"lon":24.946082},{"type":"node","id":915595789,"lat":60.1641713,"lon":24.9452454},{"type":"node","id":988280335,"lat":60.1646497,"lon":24.9460843},{"type":"node","id":988280338,"lat":60.1642559,"lon":24.9479133},{"type":"node","id":988280340,"lat":60.1642112,"lon":24.9460637},{"type":"node","id":988280341,"lat":60.1642259,"lon":24.9460614},{"type":"node","id":988280343,"lat":60.1641807,"lon":24.9460684},{"type":"node","id":988280345,"lat":60.1642143,"lon":24.9461289},{"type":"node","id":988280347,"lat":60.164271,"lon":24.9478783},{"type":"node","id":988280349,"lat":60.1642756,"lon":24.9479226},{"type":"node","id":988554301,"lat":60.1642205,"lon":24.9469379},{"type":"node","id":1005473060,"lat":60.1632249,"lon":24.9460915},{"type":"node","id":1005526430,"lat":60.1646461,"lon":24.9456494},{"type":"node","id":1005526474,"lat":60.1642069,"lon":24.9442791},{"type":"node","id":1007051434,"lat":60.1633569,"lon":24.9460767},{"type":"node","id":1013294081,"lat":60.1641846,"lon":24.9478051},{"type":"node","id":1377402097,"lat":60.1636795,"lon":24.9455609},{"type":"node","id":1377402098,"lat":60.1638096,"lon":24.9448359},{"type":"node","id":1377402099,"lat":60.1638114,"lon":24.9449208},{"type":"node","id":1377402100,"lat":60.1638216,"lon":24.9453887},{"type":"node","id":1377402101,"lat":60.1638249,"lon":24.9455438},{"type":"node","id":1377402102,"lat":60.1638272,"lon":24.9456453},{"type":"node","id":1377402103,"lat":60.1639008,"lon":24.9457525},{"type":"node","id":1377402104,"lat":60.1640975,"lon":24.9448957},{"type":"node","id":1377402105,"lat":60.1641119,"lon":24.9455558},{"type":"node","id":1380291085,"lat":60.1633269,"lon":24.9462005},{"type":"node","id":1380323411,"lat":60.1634114,"lon":24.946731},{"type":"node","id":1380323416,"lat":60.1634353,"lon":24.9473912},{"type":"node","id":1380323449,"lat":60.1636694,"lon":24.9467019},{"type":"node","id":1380323461,"lat":60.1637407,"lon":24.9462681},{"type":"node","id":1380323466,"lat":60.1637525,"lon":24.9466925},{"type":"node","id":1380323468,"lat":60.1637846,"lon":24.9461438},{"type":"node","id":1380323475,"lat":60.1637968,"lon":24.946159},{"type":"node","id":1380323479,"lat":60.1638008,"lon":24.946619},{"type":"node","id":1380323491,"lat":60.1638062,"lon":24.9466864},{"type":"node","id":1380323499,"lat":60.163829,"lon":24.9466158},{"type":"node","id":1380323503,"lat":60.1638387,"lon":24.9466342},{"type":"node","id":1380323507,"lat":60.1638395,"lon":24.9466627},{"type":"node","id":1380323513,"lat":60.163829,"lon":24.9466839},{"type":"node","id":1380323515,"lat":60.1638752,"lon":24.9473416},{"type":"node","id":1380323518,"lat":60.1638784,"lon":24.9474546},{"type":"node","id":1380323520,"lat":60.1639791,"lon":24.9466096},{"type":"node","id":1380323522,"lat":60.1639807,"lon":24.9466668},{"type":"node","id":1380323525,"lat":60.1639951,"lon":24.9464509},{"type":"node","id":1380323528,"lat":60.1639967,"lon":24.9465069},{"type":"node","id":1380323531,"lat":60.164001,"lon":24.9466072},{"type":"node","id":1380323533,"lat":60.1640043,"lon":24.9468757},{"type":"node","id":1380323537,"lat":60.1639962,"lon":24.9473076},{"type":"node","id":1380323554,"lat":60.16401,"lon":24.9465098},{"type":"node","id":1380323558,"lat":60.1640166,"lon":24.946509},{"type":"node","id":1380323561,"lat":60.164012,"lon":24.9465821},{"type":"node","id":1380323567,"lat":60.1640247,"lon":24.9466618},{"type":"node","id":1380323570,"lat":60.1640151,"lon":24.9467258},{"type":"node","id":1380323573,"lat":60.1640169,"lon":24.9467882},{"type":"node","id":1380323580,"lat":60.164016,"lon":24.9468988},{"type":"node","id":1380323584,"lat":60.1640168,"lon":24.9469253},{"type":"node","id":1380323587,"lat":60.1640116,"lon":24.9473365},{"type":"node","id":1380323590,"lat":60.1640128,"lon":24.9473776},{"type":"node","id":1380323597,"lat":60.1640265,"lon":24.9467245},{"type":"node","id":1380323603,"lat":60.1640267,"lon":24.9467871},{"type":"node","id":1380323607,"lat":60.1640278,"lon":24.946826},{"type":"node","id":1380323622,"lat":60.1640297,"lon":24.9469238},{"type":"node","id":1380323624,"lat":60.1640299,"lon":24.9471972},{"type":"node","id":1380323626,"lat":60.1640398,"lon":24.947196},{"type":"node","id":1380323628,"lat":60.1640319,"lon":24.9472679},{"type":"node","id":1380323630,"lat":60.1640419,"lon":24.9468544},{"type":"node","id":1380323632,"lat":60.1640431,"lon":24.9468972},{"type":"node","id":1380323634,"lat":60.1640417,"lon":24.9472668},{"type":"node","id":1380323650,"lat":60.1640439,"lon":24.9473452},{"type":"node","id":1380323653,"lat":60.1641449,"lon":24.9466482},{"type":"node","id":1380323655,"lat":60.1641665,"lon":24.9474221},{"type":"node","id":1380323657,"lat":60.1641965,"lon":24.9460923},{"type":"node","id":1380411406,"lat":60.1642367,"lon":24.9449016},{"type":"node","id":1380411411,"lat":60.1642465,"lon":24.9452229},{"type":"node","id":1380411423,"lat":60.1642599,"lon":24.9456628},{"type":"node","id":1380411444,"lat":60.1646029,"lon":24.9442282},{"type":"node","id":1380411489,"lat":60.1647962,"lon":24.9442045},{"type":"node","id":1380411508,"lat":60.1650175,"lon":24.9441773},{"type":"node","id":1380411525,"lat":60.1650379,"lon":24.9448476},{"type":"node","id":1380411536,"lat":60.1652396,"lon":24.9441501},{"type":"node","id":1380411563,"lat":60.1652599,"lon":24.9448204},{"type":"node","id":1380472177,"lat":60.1642766,"lon":24.9465814},{"type":"node","id":1380472178,"lat":60.1643017,"lon":24.9474253},{"type":"node","id":1380472179,"lat":60.1643917,"lon":24.9465056},{"type":"node","id":1380472180,"lat":60.1644078,"lon":24.9463794},{"type":"node","id":1380472181,"lat":60.1644087,"lon":24.9464086},{"type":"node","id":1380472183,"lat":60.1644269,"lon":24.9465014},{"type":"node","id":1380472184,"lat":60.1644343,"lon":24.9474094},{"type":"node","id":1380472186,"lat":60.1644517,"lon":24.9468526},{"type":"node","id":1380472187,"lat":60.1644533,"lon":24.9469071},{"type":"node","id":1380472193,"lat":60.1644657,"lon":24.9466693},{"type":"node","id":1380472194,"lat":60.164471,"lon":24.9468503},{"type":"node","id":1380472195,"lat":60.16449,"lon":24.9465558},{"type":"node","id":1380472197,"lat":60.1644933,"lon":24.946666},{"type":"node","id":1380472203,"lat":60.1645242,"lon":24.9463947},{"type":"node","id":1380472204,"lat":60.1645256,"lon":24.9464411},{"type":"node","id":1380472210,"lat":60.1646718,"lon":24.946534},{"type":"node","id":1380472212,"lat":60.1646819,"lon":24.9468724},{"type":"node","id":1380472218,"lat":60.1647177,"lon":24.9469232},{"type":"node","id":1380472222,"lat":60.1647752,"lon":24.9469163},{"type":"node","id":1380472223,"lat":60.164777,"lon":24.9469161},{"type":"node","id":1380472226,"lat":60.1648223,"lon":24.9469107},{"type":"node","id":1380472228,"lat":60.164949,"lon":24.9468955},{"type":"node","id":1380472235,"lat":60.1650135,"lon":24.9468878},{"type":"node","id":1380472236,"lat":60.1650243,"lon":24.9472512},{"type":"node","id":1380472237,"lat":60.1650313,"lon":24.947488},{"type":"node","id":2069174806,"lat":60.1642812,"lon":24.9462048},{"type":"node","id":2282942702,"lat":60.164875,"lon":24.9477447},{"type":"node","id":2422351944,"lat":60.1642624,"lon":24.9462453},{"type":"node","id":2422352015,"lat":60.1642653,"lon":24.9459332},{"type":"node","id":2422352016,"lat":60.1642834,"lon":24.9459492},{"type":"node","id":2524210110,"lat":60.1635564,"lon":24.9451803},{"type":"node","id":2524210116,"lat":60.164235,"lon":24.9442734},{"type":"node","id":2524210126,"lat":60.1646114,"lon":24.9442272},{"type":"node","id":2524210128,"lat":60.1646645,"lon":24.9442207},{"type":"node","id":2524223841,"lat":60.1649426,"lon":24.9441865},{"type":"node","id":2524223842,"lat":60.1652222,"lon":24.9441522},{"type":"node","id":2524250153,"lat":60.1642116,"lon":24.9442543},{"type":"node","id":2524250158,"lat":60.1642206,"lon":24.9443696},{"type":"node","id":2524250160,"lat":60.1642747,"lon":24.944229},{"type":"node","id":2524250164,"lat":60.1643219,"lon":24.9442627},{"type":"node","id":2524266574,"lat":60.1635518,"lon":24.9451959},{"type":"node","id":2524266577,"lat":60.1636536,"lon":24.945487},{"type":"node","id":3083522788,"lat":60.1650167,"lon":24.9458542},{"type":"node","id":3083581574,"lat":60.1634039,"lon":24.9463061},{"type":"node","id":3083581576,"lat":60.1634212,"lon":24.9463042},{"type":"node","id":3083581582,"lat":60.1637533,"lon":24.9457978},{"type":"node","id":3083581583,"lat":60.1637582,"lon":24.9457919},{"type":"node","id":3083581584,"lat":60.1638111,"lon":24.9459627},{"type":"node","id":3083581585,"lat":60.1638147,"lon":24.9459579},{"type":"node","id":3083581586,"lat":60.16384,"lon":24.9460124},{"type":"node","id":3083581587,"lat":60.16384,"lon":24.9460201},{"type":"node","id":3083581589,"lat":60.1641148,"lon":24.9459846},{"type":"node","id":3083581590,"lat":60.164115,"lon":24.9459765},{"type":"node","id":3083581595,"lat":60.1642667,"lon":24.9462444},{"type":"node","id":3083581596,"lat":60.1642681,"lon":24.9459327},{"type":"node","id":3083581597,"lat":60.1642838,"lon":24.9459442},{"type":"node","id":3330871444,"lat":60.163625,"lon":24.9454052},{"type":"node","id":3330871445,"lat":60.1637255,"lon":24.9456959},{"type":"node","id":3330871446,"lat":60.1637997,"lon":24.9459138},{"type":"node","id":3330871447,"lat":60.1641166,"lon":24.94579},{"type":"node","id":3330871448,"lat":60.164281,"lon":24.94621},{"type":"node","id":3330884440,"lat":60.1640981,"lon":24.9449245},{"type":"node","id":3330884443,"lat":60.1642365,"lon":24.9448949},{"type":"node","id":3330896631,"lat":60.1647574,"lon":24.9442093},{"type":"node","id":3340745076,"lat":60.1634537,"lon":24.9478997},{"type":"node","id":3340745077,"lat":60.1634691,"lon":24.9479277},{"type":"node","id":3900514147,"lat":60.1642899,"lon":24.947028},{"type":"node","id":5335322707,"lat":60.163663,"lon":24.9459956},{"type":"node","id":6340052318,"lat":60.1636592,"lon":24.9459532},{"type":"node","id":7608083798,"lat":60.1636911,"lon":24.9449971},{"type":"node","id":7608083800,"lat":60.1638158,"lon":24.9448269},{"type":"node","id":7608083802,"lat":60.1640968,"lon":24.9448624},{"type":"node","id":7608083803,"lat":60.1641099,"lon":24.9448585},{"type":"node","id":7608083804,"lat":60.1641115,"lon":24.9449203},{"type":"node","id":7608083805,"lat":60.1642265,"lon":24.9445652},{"type":"node","id":7608083806,"lat":60.1642123,"lon":24.9445669},{"type":"node","id":7608083807,"lat":60.164249,"lon":24.9453057},{"type":"node","id":7608083808,"lat":60.164235,"lon":24.9453061},{"type":"node","id":7608083809,"lat":60.1641201,"lon":24.9459945},{"type":"node","id":7608083811,"lat":60.1645501,"lon":24.9461778},{"type":"node","id":7614707539,"lat":60.1645497,"lon":24.9461664},{"type":"node","id":7615674305,"lat":60.1647101,"lon":24.9442151},{"type":"node","id":7615674306,"lat":60.1647137,"lon":24.9441807},{"type":"node","id":7615674307,"lat":60.1647277,"lon":24.9442129},{"type":"node","id":7615674308,"lat":60.1647296,"lon":24.9441789},{"type":"node","id":7615674309,"lat":60.1645932,"lon":24.9442294},{"type":"node","id":7615674310,"lat":60.1643786,"lon":24.9461983},{"type":"node","id":7615674311,"lat":60.1642702,"lon":24.9463652},{"type":"node","id":7615674312,"lat":60.1642679,"lon":24.9462849},{"type":"node","id":7615674313,"lat":60.1642614,"lon":24.9462853},{"type":"node","id":7615674314,"lat":60.1642634,"lon":24.9463659},{"type":"node","id":7615674315,"lat":60.1641363,"lon":24.9463377},{"type":"node","id":7615674316,"lat":60.1641385,"lon":24.9464182},{"type":"node","id":7615674317,"lat":60.1641462,"lon":24.9464143},{"type":"node","id":7615674318,"lat":60.1641441,"lon":24.9463371},{"type":"node","id":7615674327,"lat":60.1652993,"lon":24.9441428},{"type":"node","id":7615674328,"lat":60.1653007,"lon":24.9441159},{"type":"node","id":7615674331,"lat":60.1648022,"lon":24.9442038},{"type":"node","id":7615674332,"lat":60.1648022,"lon":24.9441707},{"type":"node","id":7615674333,"lat":60.1644311,"lon":24.9442493},{"type":"node","id":7615674334,"lat":60.1644319,"lon":24.9442127},{"type":"node","id":7615674335,"lat":60.1643918,"lon":24.9442541},{"type":"node","id":7615674336,"lat":60.1643932,"lon":24.9442171},{"type":"node","id":7615674343,"lat":60.1641538,"lon":24.9466885},{"type":"node","id":7615674344,"lat":60.1641489,"lon":24.9467909},{"type":"node","id":7615674345,"lat":60.1641463,"lon":24.9466996},{"type":"node","id":7615674346,"lat":60.1641542,"lon":24.9469799},{"type":"node","id":7615674347,"lat":60.1641598,"lon":24.9471815},{"type":"node","id":7615674348,"lat":60.1641701,"lon":24.9475511},{"type":"node","id":7615674351,"lat":60.1649325,"lon":24.9477378},{"type":"node","id":7624951733,"lat":60.1634333,"lon":24.9473349},{"type":"node","id":7624951735,"lat":60.1634287,"lon":24.9472088},{"type":"node","id":7624951738,"lat":60.1634037,"lon":24.9465184},{"type":"node","id":7624963136,"lat":60.1647566,"lon":24.9459051},{"type":"node","id":7624963138,"lat":60.1644086,"lon":24.9459289},{"type":"node","id":7624963139,"lat":60.1644089,"lon":24.9459466},{"type":"node","id":7624963141,"lat":60.1643782,"lon":24.946189},{"type":"node","id":7625078473,"lat":60.163543,"lon":24.9462904},{"type":"node","id":7625078474,"lat":60.1635433,"lon":24.9462719},{"type":"node","id":7625078476,"lat":60.1638262,"lon":24.946238},{"type":"node","id":7625078477,"lat":60.1638259,"lon":24.9462585},{"type":"node","id":7625078478,"lat":60.1639968,"lon":24.9461169},{"type":"node","id":7625078479,"lat":60.1639994,"lon":24.9462229},{"type":"node","id":7625078480,"lat":60.1639995,"lon":24.946239},{"type":"node","id":7625078481,"lat":60.164005,"lon":24.9464498},{"type":"node","id":7625078482,"lat":60.1640034,"lon":24.94639},{"type":"node","id":7625078484,"lat":60.1652426,"lon":24.9460751},{"type":"node","id":7625139880,"lat":60.1643969,"lon":24.946196},{"type":"node","id":7625139881,"lat":60.1644038,"lon":24.9465042},{"type":"node","id":7625139882,"lat":60.1643948,"lon":24.946065},{"type":"node","id":7625139883,"lat":60.1643968,"lon":24.9461866},{"type":"node","id":7625139885,"lat":60.1643982,"lon":24.9463805},{"type":"node","id":7625139886,"lat":60.1640532,"lon":24.9462329},{"type":"node","id":7625139887,"lat":60.1640532,"lon":24.9462183},{"type":"node","id":7625139888,"lat":60.1639473,"lon":24.9462449},{"type":"node","id":7625139889,"lat":60.1639469,"lon":24.9462274},{"type":"node","id":7625139891,"lat":60.1635165,"lon":24.9462934},{"type":"node","id":7625139892,"lat":60.1635155,"lon":24.9462754},{"type":"node","id":7625139896,"lat":60.1634082,"lon":24.9466416},{"type":"node","id":7632144851,"lat":60.1642938,"lon":24.9471586},{"type":"node","id":7632144865,"lat":60.1635193,"lon":24.9465185},{"type":"node","id":7632144866,"lat":60.1635854,"lon":24.946489},{"type":"node","id":7632144867,"lat":60.1638109,"lon":24.9466179},{"type":"node","id":7632144868,"lat":60.1640273,"lon":24.9468073},{"type":"node","id":7632144869,"lat":60.1640258,"lon":24.9467003},{"type":"node","id":7632144870,"lat":60.1640113,"lon":24.9465558},{"type":"node","id":7632144871,"lat":60.1645065,"lon":24.9459169},{"type":"node","id":7632144872,"lat":60.164644,"lon":24.9459},{"type":"node","id":7632518857,"lat":60.1648208,"lon":24.9461306},{"type":"node","id":7632518858,"lat":60.1648194,"lon":24.9460011},{"type":"node","id":7632518861,"lat":60.1645076,"lon":24.9459348},{"type":"node","id":7632518862,"lat":60.1642839,"lon":24.9471605},{"type":"node","id":7632518864,"lat":60.1644261,"lon":24.9471327},{"type":"node","id":7632518865,"lat":60.1638286,"lon":24.9465693},{"type":"node","id":7632518866,"lat":60.164006,"lon":24.9465562},{"type":"node","id":7632518867,"lat":60.1639732,"lon":24.9468119},{"type":"node","id":7632518868,"lat":60.1639679,"lon":24.946559},{"type":"node","id":7632518869,"lat":60.1639458,"lon":24.9465607},{"type":"node","id":7632518870,"lat":60.1639709,"lon":24.9467022},{"type":"node","id":7668830437,"lat":60.1637044,"lon":24.9456338},{"type":"node","id":7668830438,"lat":60.1636931,"lon":24.9456514},{"type":"node","id":7668830439,"lat":60.163658,"lon":24.9457593},{"type":"node","id":7668830440,"lat":60.163714,"lon":24.9457105},{"type":"node","id":7668830441,"lat":60.1638508,"lon":24.9456572},{"type":"node","id":7668830443,"lat":60.1637539,"lon":24.9457794},{"type":"node","id":7668830444,"lat":60.163744,"lon":24.9457953},{"type":"node","id":7668830445,"lat":60.1638184,"lon":24.9459688},{"type":"node","id":7668830446,"lat":60.16381,"lon":24.9459816},{"type":"node","id":7668875275,"lat":60.1638689,"lon":24.9457039},{"type":"node","id":7668875276,"lat":60.1638651,"lon":24.9455773},{"type":"node","id":7668875277,"lat":60.1638652,"lon":24.9456022},{"type":"node","id":7668875278,"lat":60.1637838,"lon":24.9458672},{"type":"node","id":7668875279,"lat":60.1637752,"lon":24.9458834},{"type":"node","id":7668875280,"lat":60.1637823,"lon":24.9448731},{"type":"node","id":7668883885,"lat":60.164297,"lon":24.9476722},{"type":"node","id":7669477263,"lat":60.1635628,"lon":24.9451716},{"type":"node","id":7669477265,"lat":60.1636496,"lon":24.9454757},{"type":"node","id":7669477266,"lat":60.1636116,"lon":24.9454213},{"type":"node","id":7669477268,"lat":60.1636349,"lon":24.945487},{"type":"node","id":7669477269,"lat":60.1637437,"lon":24.9457494},{"type":"node","id":7669477270,"lat":60.1637767,"lon":24.9458463},{"type":"node","id":7669477272,"lat":60.1637334,"lon":24.9457654},{"type":"node","id":7669477273,"lat":60.1637655,"lon":24.9458561},{"type":"node","id":7669477274,"lat":60.1637914,"lon":24.9459291},{"type":"node","id":7669477276,"lat":60.1638023,"lon":24.94596},{"type":"node","id":7669477278,"lat":60.1639974,"lon":24.945767},{"type":"node","id":7669477279,"lat":60.1639089,"lon":24.9457868},{"type":"node","id":7669573329,"lat":60.1642752,"lon":24.9465331},{"type":"node","id":7702074818,"lat":60.1641851,"lon":24.9478422},{"type":"node","id":7883015873,"lat":60.1641775,"lon":24.9475484},{"type":"node","id":7883015874,"lat":60.1641674,"lon":24.9471817},{"type":"node","id":7883015875,"lat":60.1641619,"lon":24.9469811},{"type":"node","id":7883015876,"lat":60.1641566,"lon":24.94679},{"type":"node","id":7883015877,"lat":60.1641541,"lon":24.946698},{"type":"node","id":7883015879,"lat":60.1649042,"lon":24.9441912},{"type":"node","id":7883015880,"lat":60.1649046,"lon":24.944159},{"type":"node","id":7891825277,"lat":60.1641041,"lon":24.9451973},{"type":"node","id":8021950667,"lat":60.1646855,"lon":24.9459136},{"type":"node","id":8237528310,"lat":60.1638616,"lon":24.9455775},{"type":"node","id":8237528311,"lat":60.163862,"lon":24.9456024},{"type":"node","id":8237528312,"lat":60.1638705,"lon":24.9456019},{"type":"node","id":8237528313,"lat":60.1638702,"lon":24.9455771},{"type":"node","id":8310975639,"lat":60.16342,"lon":24.9469678},{"type":"node","id":9050703460,"lat":60.164283,"lon":24.9467972},{"type":"node","id":9050703461,"lat":60.1642677,"lon":24.946534},{"type":"node","id":9183007915,"lat":60.1643707,"lon":24.9456144},{"type":"node","id":9183007916,"lat":60.1642588,"lon":24.9456263},{"type":"node","id":9183136517,"lat":60.1642449,"lon":24.9456278},{"type":"node","id":9183136518,"lat":60.1641829,"lon":24.9456344},{"type":"node","id":9183136521,"lat":60.164367,"lon":24.9454906},{"type":"node","id":9570258553,"lat":60.1642647,"lon":24.946416},{"type":"node","id":9570261217,"lat":60.1642717,"lon":24.9464157},{"type":"node","id":9699658926,"lat":60.1646219,"lon":24.9442259},{"type":"node","id":9699658929,"lat":60.1646212,"lon":24.9441912},{"type":"node","id":9700528717,"lat":60.164344,"lon":24.9442223},{"type":"node","id":9702193910,"lat":60.1645928,"lon":24.9441944},{"type":"node","id":9793647383,"lat":60.1641949,"lon":24.946036},{"type":"node","id":241045615,"lat":60.1656899,"lon":24.9440948},{"type":"node","id":241045617,"lat":60.1657326,"lon":24.9457664},{"type":"node","id":241045619,"lat":60.1654967,"lon":24.9457954},{"type":"node","id":241045620,"lat":60.1654884,"lon":24.9455247},{"type":"node","id":241542125,"lat":60.1659675,"lon":24.9460081},{"type":"node","id":241542126,"lat":60.166048,"lon":24.9476043},{"type":"node","id":289640565,"lat":60.1659896,"lon":24.9460467},{"type":"node","id":298273888,"lat":60.1670511,"lon":24.9456774},{"type":"node","id":298274872,"lat":60.1653877,"lon":24.9441065},{"type":"node","id":298275344,"lat":60.1670559,"lon":24.9458666},{"type":"node","id":311113181,"lat":60.1661063,"lon":24.9459802},{"type":"node","id":311113182,"lat":60.1661237,"lon":24.9457553},{"type":"node","id":311113741,"lat":60.1659973,"lon":24.9459883},{"type":"node","id":311113742,"lat":60.1660494,"lon":24.9459862},{"type":"node","id":311113743,"lat":60.1657471,"lon":24.9460086},{"type":"node","id":311113856,"lat":60.1658572,"lon":24.9457768},{"type":"node","id":314935863,"lat":60.1657995,"lon":24.94578},{"type":"node","id":314935864,"lat":60.1657024,"lon":24.9440847},{"type":"node","id":314935866,"lat":60.1657418,"lon":24.9457807},{"type":"node","id":314935873,"lat":60.1656459,"lon":24.9440815},{"type":"node","id":434162866,"lat":60.1654836,"lon":24.9453665},{"type":"node","id":434162871,"lat":60.1654663,"lon":24.944795},{"type":"node","id":1380411589,"lat":60.1654459,"lon":24.9441248},{"type":"node","id":1380910175,"lat":60.1661276,"lon":24.9459782},{"type":"node","id":1405866821,"lat":60.1657162,"lon":24.9451257},{"type":"node","id":2403881122,"lat":60.1660389,"lon":24.9473607},{"type":"node","id":2403882727,"lat":60.1657517,"lon":24.9457806},{"type":"node","id":2403892452,"lat":60.1656687,"lon":24.9440974},{"type":"node","id":2403892455,"lat":60.1656909,"lon":24.9441351},{"type":"node","id":2524223851,"lat":60.1656933,"lon":24.9440798},{"type":"node","id":3005789347,"lat":60.1658455,"lon":24.9457774},{"type":"node","id":3083522792,"lat":60.1657266,"lon":24.9460369},{"type":"node","id":3083522793,"lat":60.165732,"lon":24.9457422},{"type":"node","id":3083522794,"lat":60.1658665,"lon":24.9460202},{"type":"node","id":3083522796,"lat":60.1659906,"lon":24.9460739},{"type":"node","id":3336813818,"lat":60.1657026,"lon":24.9445913},{"type":"node","id":3339721590,"lat":60.1657193,"lon":24.9452458},{"type":"node","id":3340745087,"lat":60.1657066,"lon":24.9447498},{"type":"node","id":7615674320,"lat":60.1658624,"lon":24.9457764},{"type":"node","id":7615674322,"lat":60.1655155,"lon":24.9441162},{"type":"node","id":7615674323,"lat":60.1654379,"lon":24.9441258},{"type":"node","id":7615674324,"lat":60.1654381,"lon":24.9441016},{"type":"node","id":7615674326,"lat":60.165354,"lon":24.9441361},{"type":"node","id":7615674329,"lat":60.165356,"lon":24.9441099},{"type":"node","id":7624963124,"lat":60.166041,"lon":24.9474185},{"type":"node","id":7625084890,"lat":60.1656227,"lon":24.946025},{"type":"node","id":7625134427,"lat":60.165606,"lon":24.9460272},{"type":"node","id":7625134428,"lat":60.1657863,"lon":24.9460054},{"type":"node","id":7625134430,"lat":60.1659792,"lon":24.9460285},{"type":"node","id":7631833495,"lat":60.1665404,"lon":24.9457203},{"type":"node","id":7631833502,"lat":60.1665784,"lon":24.9457172},{"type":"node","id":7631833505,"lat":60.1666442,"lon":24.9457116},{"type":"node","id":7631833507,"lat":60.1663932,"lon":24.9457327},{"type":"node","id":7631833509,"lat":60.1664196,"lon":24.9457305},{"type":"node","id":7631833521,"lat":60.1657083,"lon":24.9448174},{"type":"node","id":7631833523,"lat":60.1657109,"lon":24.9449195},{"type":"node","id":7632144859,"lat":60.1654216,"lon":24.9460515},{"type":"node","id":7632518874,"lat":60.1667056,"lon":24.9459092},{"type":"node","id":7632518875,"lat":60.16661,"lon":24.9459147},{"type":"node","id":7632518876,"lat":60.1665314,"lon":24.945929},{"type":"node","id":7883015878,"lat":60.1655158,"lon":24.9440941},{"type":"node","id":9697767917,"lat":60.1655216,"lon":24.945809},{"type":"node","id":9713069616,"lat":60.1663289,"lon":24.9459537},{"type":"node","id":10077722932,"lat":60.1657223,"lon":24.945364}]}