{"version":0.6,"generator":"Overpass API 0.7.62.5 1bd436f1","osm3s":{"timestamp_osm_base":"2025-03-12T12:43:15Z","copyright":"The data included in this document is from www.openstreetmap.org. The data is made available under ODbL."},"elements":[{"type":"way","id":17280251,"nodes":[880502037,1524453401,7477036736,269160403,6331356031,269160404,298191115],"tags":{"bicycle":"use_sidepath","highway":"residential","lanes":"1","lit":"yes","maxspeed":"30","name":"H\u00e4meentie","name:fi":"H\u00e4meentie","name:sv":"Tavastv\u00e4gen","oneway":"yes","parking:left":"no","parking:left:restriction":"no_stopping","parking:right":"no","parking:right:restriction":"no_parking","paved:date":"2020","priority_road":"yes_unposted","sidewalk:left":"no","sidewalk:right":"separate","smoothness":"good","snowplowing":"yes","surface":"asphalt","taxi":"yes"}},{"type":"way","id":19984915,"nodes":[210482863,8831555637,210482864,6331356030,210482866,1016087663,210482884,210482846,210482849,8831555640,8831555639,8831555635,452815163,210482863],"tags":{"addr:city":"Helsinki","addr:country":"FI","addr:housenumber":"27","addr:postcode":"00500","addr:street":"H\u00e4meentie","building":"apartments","building:levels":"7","omistusasuntoja":"yes","operator":"H\u00e4meentie 27","operator:type":"cooperative","roof:levels":"0"}},{"type":"way","id":24785267,"nodes":[210482874,1505146064,6331356082,210482875,1520889027,210482871,3208429100,3208429099,3208429098,210482873,3208429096,1516305500,1516305491,1516305494,1520889012,210482874],"tags":{"addr:city":"Helsinki","addr:country":"FI","addr:housenumber":"6","addr:street":"Vilhonvuorenkuja","building":"apartments","building:maintenance:operator":"Insales Oy"}},{"type":"way","id":37336534,"nodes":[210475258,8831720842,8831720840,8831720836,8836005055,1502885919,8831720834,8831720829,8831720827,8831720825,1016540071,210475259,1502885918,210475261,210475263,1016540473,1011921084,1016540252,1514488893,1505146092,10716694611,1505146066,210475255,10716694616,1505146023,10690315431,10690315432,10690315434,210475257,8831720880,1016088234,8831720877,3121969516,8831720875,1505146062,8831720872,8831720870,8831720869,8831720867,1503053520,8831720865,1503053521,1815848569,8836005047,11766458358,8831720855,8831720853,1503053524,8831720849,8831720845,1810074638,2281139574,2281139578,210475258],"tags":{"landuse":"residential"}},{"type":"way","id":38341712,"nodes":[8831555642,1505146088,8831555645,8831555647,8831555649,8831555651,1524453415,8831555658,8831555660,1505146069,1524453286,8831555663,8831555665,8831555667,8831555669,8831555670,210482882,1505146038,6318508344,6318508345,1528653114,1528653105,8861964928,452815143,6190144651,6190144650,6190144671,6190144674,6190144687,1528652724,3120513480,848590996,5871005967,11595288010,207114319,207114318,1016086997,207113519,1530480659,449728838,449728837],"tags":{"admin_level":"10","boundary":"administrative"}},{"type":"way","id":47215916,"nodes":[1526055789,8315807739,948464658,1526055743,948464681,1526055637,11278785862,948464669,1528652564],"tags":{"diameter":"300","layer":"-1","location":"underground","man_made":"pipeline","substance":"water"}},{"type":"way","id":136998664,"nodes":[1502877981,11029929457,1528653179,11029929458,1502877980,1533278294],"tags":{"barrier":"retaining_wall"}},{"type":"way","id":136999442,"nodes":[1502885919,8831720834,8831720827,8831720825,1016540071,2281142608,1651544565,210475259,1502885918,210475261,210475263,1016540473,1011921084,1016540252,210478087,210478088,210478089,1502885909,1502885912,1502885911,1502885910,1502885907,1502885906,1502885919],"tags":{"addr:city":"Helsinki","addr:country":"FI","addr:housenumber":"52","addr:street":"H\u00e4meentie","building":"apartments","building:levels":"7","building:maintenance:operator":"Kallion Kiinteist\u00f6huolto Oy","roof:levels":"0","roof:material":"metal","roof:shape":"many","wikidata":"Q98411628"}},{"type":"way","id":136999654,"nodes":[1502889899,1502889902,210482850,1502889904,8831330406,1502889907,1502889922,1502889923,210482851,1502885917,1502885915,1502885913,1502879715,210482853,210482855,210482861,210482863,452815163,1502889899],"tags":{"building:levels":"1","building:part":"yes"}},{"type":"way","id":137212814,"nodes":[210482855,210482861,210482863,452815163,210482850,1502889904,8831330406,1502889907,1502889922,1502889923,210482851,1502885917,1502885915,1502885913,1502879715,210482853,210482855],"tags":{"landuse":"commercial"}},{"type":"way","id":137212817,"nodes":[210482858,1516305496,1516305541,210482873,3208429096,1516305500,1516305491,1516305494,1520889012,210482874,210483323,1505146040,179911825,179911826,1533278123,8831657924,179911827,1821634470,1505146018,3208429082,1821634468,1807728754,8831657921,8831657919,8831657918,8831616516,8831616514,8831616513,8831616511,8831616510,1016087641,8831616508,269302226,8831616507,269302225,8831555672,6331356083,210482882,8831555670,8831555669,8831555667,8831555665,8831555663,1524453286,1505146069,8831555660,8831555658,1524453415,8831555651,8831555649,8831555647,8831555645,1505146088,8831555642,9717269534,1524453388,1524453308,1524453264,210482884,210482846,210482849,8831555640,8831555639,8831555635,452815163,210482863,210482861,210482855,1516305539,1516305484,210482858],"tags":{"landuse":"residential"}},{"type":"way","id":137212836,"nodes":[210482861,210482855,1516305539,1516305484,210482858,210482859,1016088241,1016087767,1016087149,1016088051,1016087100,1016087681,210482861],"tags":{"building":"yes","guard:operator":"Vartio\u00e4ss\u00e4t"}},{"type":"way","id":137212845,"nodes":[210482855,210482861,210482863,452815163,1502889899,1502889902,210482850,1502889904,8831330406,1502889907,1502889922,1502889923,210482851,1502885917,1502885915,1502885913,1502879715,210482853,210482855],"tags":{"building":"office","building:maintenance:operator":"Lassila&Tikanoja","guard:operator":"Securitas"}},{"type":"way","id":137212850,"nodes":[1516305486,1533278293,1533278291,1520889014,1528653163,1528653152,11029929466,1505146072,1505146074],"tags":{"barrier":"retaining_wall"}},{"type":"way","id":137212855,"nodes":[1505146088,8831555642,9717269534,1524453388,1524453308,1524453264,210482884,1016087663,1516305502,1516305527,9720384578,9720384579,9726785417,1016087812,1505146088],"tags":{"building":"apartments","building:levels":"8","operator":"H\u00e4meentie 25","operator:type":"cooperative","roof:levels":"0"}},{"type":"way","id":137212858,"nodes":[1505146092,1016087761,10716691101,210478087,1016540252,1514488893,1505146092],"tags":{"addr:city":"Helsinki","addr:country":"FI","addr:housenumber":"50","addr:street":"H\u00e4meentie","building":"apartments","building:levels":"8","building:maintenance:operator":"JJ-Erikoishuolto Oy","roof:material":"metal"}},{"type":"way","id":137212864,"nodes":[1505146069,8831555660,8831555658,1524453415,8831555651,8831555649,8831555647,8831555645,1505146088,1016087812,8831657927,8831657926,6331356084,210482868,1505146069],"tags":{"addr:city":"Helsinki","addr:country":"FI","addr:housenumber":"23","addr:street":"H\u00e4meentie","building":"yes","building:levels":"7","building:maintenance:operator":"Alppilan Kiinteist\u00f6huolto Oy","operator":"H\u00e4meentie 23","operator:type":"cooperative"}},{"type":"way","id":138301060,"nodes":[1516305524,1528653163,1528653152,11029929466,1505146072,1505146074,1516305534],"tags":{"barrier":"fence"}},{"type":"way","id":138301061,"nodes":[1502877653,1520888995,8013075122,1528653165],"tags":{"highway":"residential","maxspeed":"30","name":"Vilhonvuorenkuja","name:fi":"Vilhonvuorenkuja","name:sv":"Vilhelmsbergsgr\u00e4nd","parking:condition:left":"ticket","parking:condition:left:default":"free","parking:condition:left:residents":"I","parking:condition:left:time_interval":"Mo-Fr 09:00-19:00","parking:left":"yes","parking:left:orientation":"parallel","parking:right":"no","parking:right:restriction":"no_parking","parking:ticket:zone":"3","paved:date":"2011"}},{"type":"way","id":138301062,"nodes":[1502877655,1516305503,1516305526,1516305520,1516305507,9628871097,9628871098,1516305514],"tags":{"est_width":"0.6","footway":"sidewalk","highway":"footway","paved:date":"2011","surface":"asphalt"}},{"type":"way","id":138301067,"nodes":[1516305496,1516305541],"tags":{"barrier":"retaining_wall"}},{"type":"way","id":138301068,"nodes":[1528653156,1516305507,1516305540],"tags":{"highway":"service","maxweight":"12","service":"driveway"}},{"type":"way","id":138301069,"nodes":[1520888981,1520888989,1533278294,1520889007,1516305486,1516305505,1516305487,1516305544,1516305524,1516305490,1516305538,1516305532],"tags":{"natural":"cliff"}},{"type":"way","id":138301070,"nodes":[1528653165,1516305519,1528653156,1516305506],"tags":{"highway":"residential","maxspeed":"30","name":"Vilhonvuorenkuja","name:fi":"Vilhonvuorenkuja","name:sv":"Vilhelmsbergsgr\u00e4nd","parking:right":"no","parking:right:restriction":"no_parking","paved:date":"2011"}},{"type":"way","id":138301079,"nodes":[1516305496,1516305541],"tags":{"barrier":"wall"}},{"type":"way","id":138301080,"nodes":[1516305498,11145790573,1516305513,1516305499,11029929461,1516305492],"tags":{"barrier":"fence"}},{"type":"way","id":138703900,"nodes":[1520888995,1520889007],"tags":{"highway":"track"}},{"type":"way","id":138703903,"nodes":[1520889027,1520889016,1520888978,1520889033,1520889025],"tags":{"highway":"service","service":"driveway"}},{"type":"way","id":139435816,"nodes":[1528653090,1528653120,1528653130,1528653140,1505146072,11029929466,1528653152,1528653163,1520889014,1533278291,1533278293,1502877980,11029929458,1528653179,11029929457,1502877981,1502877982,1502877658,1502877660,441031900,11029929460,650381918,1502877650,11029929579,1502877645,1502877644,11029929592,11029929591,650381920,1524453455,1524453457,1502877637,1502877639,441031901,11029929721,441031902,123436360,11145790556,210489843,4844329877,8093324522,11029929658,11029929659,11145790544,1530480732,11145790537,11145790536,1528653090],"tags":{"hoitoluokitus_viheralue":"A2","leisure":"park","name":"Katri Valan puisto","name:fi":"Katri Valan puisto","name:sv":"Katri Valas park","wikidata":"Q77024678","wikimedia_commons":"Category:Katri Valan puisto","wikipedia":"fi:Katri Valan puisto"}},{"type":"way","id":203219812,"nodes":[269167205,269160347,269160348,6331356097,7477036735,10716694612,3757133378],"tags":{"bicycle":"use_sidepath","highway":"residential","lanes":"1","lit":"yes","maxspeed":"30","name":"H\u00e4meentie","name:fi":"H\u00e4meentie","name:sv":"Tavastv\u00e4gen","oneway":"yes","paved:date":"2020","priority_road":"yes_unposted","sidewalk:left":"no","sidewalk:right":"separate","snowplowing":"yes","surface":"asphalt","taxi":"yes"}},{"type":"way","id":314796853,"nodes":[1516305540,1516305483,1516305528,1516305520,1516305519],"tags":{"highway":"service","service":"driveway"}},{"type":"way","id":314796858,"nodes":[3208429096,3208429097],"tags":{"man_made":"beam"}},{"type":"way","id":462782311,"nodes":[8219629659,269182763,1011921196,10716691077,10716691078,1011920726,10716691079,10716691080,7477036734,8287193331,8315807738],"tags":{"bicycle":"designated","cycleway:surface":"asphalt","cycleway:width":"1.5","foot":"designated","footway:surface":"asphalt","highway":"cycleway","lit":"yes","oneway":"yes","segregated":"yes","snowplowing":"yes","surface":"asphalt"}},{"type":"way","id":462782312,"nodes":[8315807741,9726687697,9726687698,9726687699,9726687700,1840663359,8831555662,8831555661,8831555657,8831555653,8831555656,8831555655,8831555654,8831555643,9717269535,9717269533,9717269532,269299416,8315807740,8315807743],"tags":{"bicycle":"designated","cycleway:surface":"asphalt","cycleway:width":"1.5","foot":"designated","footway:surface":"asphalt","highway":"cycleway","lit":"yes","oneway":"yes","segregated":"yes","snowplowing":"yes","surface":"asphalt"}},{"type":"way","id":462782318,"nodes":[8315807743,8315807745,9717266746,8219629655,269299417,9717264464,1011920916,8831555636,269299419,9717264463,672760624,9717264462,9717264461,9717264460,9717264459,269299421,1502877730],"tags":{"bicycle":"no","footway":"sidewalk","highway":"footway","lit":"yes","smoothness":"good","snowplowing":"yes","surface":"asphalt"}},{"type":"way","id":676058164,"nodes":[6331356030,6331356029],"tags":{"highway":"service","service":"driveway"}},{"type":"way","id":676058165,"nodes":[210482846,6331356030],"tags":{"highway":"service","maxheight:signed":"no","service":"driveway","tunnel":"yes"}},{"type":"way","id":676058166,"nodes":[6331356031,8315807740,210482846],"tags":{"highway":"service","service":"driveway","surface":"asphalt"}},{"type":"way","id":676058174,"nodes":[8219629657,6331356108,6331356107,6331356106,6331356105,6331356104,6331356103,9696732379,6331356102,6331356101],"tags":{"bench":"yes","bin":"yes","foot":"yes","highway":"platform","lit":"yes","name":"S\u00f6rn\u00e4inen (M)","name:fi":"S\u00f6rn\u00e4inen (M)","name:sv":"S\u00f6rn\u00e4s (M)","public_transport":"platform","shelter":"yes","surface":"paving_stones"}},{"type":"way","id":676058202,"nodes":[313771919,6331356254,6331356253,6331356252,6331356185,6331356251,6331356250,11766491861,11766491863,6331356248,6331356247,6331356246,6331356245,6331356244,6331356243,6331356242,6331356110,11766491864,6331356298],"tags":{"electrified":"contact_line","frequency":"0","gauge":"1000","oneway":"yes","operator":"HKL-Raitioliikenne","railway":"tram","voltage":"600"}},{"type":"way","id":676058205,"nodes":[313772983,11766458366,6331356055,6331356054,6331356053,6331356052,6331356051,6331356050,6331356049,6331356048,6331356047,6331356069,6331356070,6331356071,6331356072,6331356073,6331356074,6331356078,11766491865,6331356090,6331356089,6331356088,6331356087,6331356086,6331356085,6331356289,6331356266,9929522945,6331356288,7474813963,6331356287,7474813962,6331356286,6331356285,6331356284,6331356283,6331356282,6331356281,6331356280,7474813958,6331356233,6331356290],"tags":{"electrified":"contact_line","frequency":"0","gauge":"1000","oneway":"yes","operator":"HKL-Raitioliikenne","railway":"tram","voltage":"600"}},{"type":"way","id":676058208,"nodes":[6331356308,6331356235,6331356307,6331356293,6331356306,6331356305,6331356304,6331356303,6331356302,6331356301,6331356262,6331356299,6331356111,11766491864,6331356298,6331356124,6331356123,6331356122,6331356121,6331356120,6331356119,11766491866,6331356081,6331356077,6331356076,6331356075,6331356067,6331356066,6331356065,6331356064,6331356063,6331356062,6331356061,6331356060,6331356059,6331356058,6331356057,6331356056,11766458367,313772985],"tags":{"electrified":"contact_line","frequency":"0","gauge":"1000","oneway":"yes","operator":"HKL-Raitioliikenne","railway":"tram","voltage":"600"}},{"type":"way","id":883793662,"nodes":[8219629659,6331356112,8219629657,11766491864,9929522945,8219629656,8219629655],"tags":{"footway":"crossing","highway":"footway","lit":"yes","smoothness":"good","surface":"asphalt"}},{"type":"way","id":894639408,"nodes":[8315807743,298191115],"tags":{"foot":"no","highway":"cycleway","lit":"yes","oneway":"yes","surface":"asphalt"}},{"type":"way","id":954198192,"nodes":[8831555642,8831555644],"tags":{"handrail":"yes","highway":"steps","incline":"up","lit":"yes","ramp":"no","step_count":"30","surface":"paving_stones"}},{"type":"way","id":954198193,"nodes":[8831555635,8831555639,8831555640,210482849,210482846,210482884,1524453264,1524453308,1524453388,9717269534,8831555642],"tags":{"admin_level":"10","boundary":"administrative"}},{"type":"way","id":954198194,"nodes":[8831555643,8831555642],"tags":{"highway":"footway","lit":"yes","surface":"asphalt"}},{"type":"way","id":954198195,"nodes":[8831555653,8831555651],"tags":{"handrail":"no","highway":"steps","incline":"up","lit":"yes","ramp":"no","step_count":"2","surface":"paving_stones"}},{"type":"way","id":954198196,"nodes":[8831555654,8831555645],"tags":{"handrail":"no","highway":"steps","incline":"up","lit":"yes","ramp":"no","step_count":"2","surface":"paving_stones"}},{"type":"way","id":954198197,"nodes":[8831555655,8831555647],"tags":{"handrail":"no","highway":"steps","incline":"up","lit":"yes","ramp":"no","step_count":"2","surface":"paving_stones"}},{"type":"way","id":954198198,"nodes":[8831555656,8831555649],"tags":{"handrail":"no","highway":"steps","incline":"up","lit":"yes","ramp":"no","step_count":"2","surface":"paving_stones"}},{"type":"way","id":954198199,"nodes":[8831555657,1524453415],"tags":{"handrail":"no","highway":"steps","incline":"up","lit":"yes","ramp":"no","step_count":"2","surface":"paving_stones"}},{"type":"way","id":1041509576,"nodes":[298191115,8219629656,6331356113,269167204],"tags":{"cycleway:right":"lane","highway":"residential","lanes":"1","lit":"yes","maxspeed":"30","name":"H\u00e4meentie","name:fi":"H\u00e4meentie","name:sv":"Tavastv\u00e4gen","oneway":"yes","parking:both":"no","parking:both:restriction":"no_stopping","paved:date":"2020","priority_road":"yes_unposted","sidewalk:left":"no","sidewalk:right":"separate","smoothness":"good","snowplowing":"yes","start_date":"before 1894","surface":"asphalt","taxi":"yes"}},{"type":"way","id":1047132595,"nodes":[9628871097,1516305500],"tags":{"handrail":"no","highway":"steps","incline":"up","step_count":"3"}},{"type":"way","id":1057519860,"nodes":[9717266746,8831555640],"tags":{"handrail":"no","highway":"steps","incline":"up","lit":"yes","ramp":"no","step_count":"2","surface":"paving_stones"}},{"type":"way","id":1057521295,"nodes":[9717269532,1524453264],"tags":{"highway":"footway","lit":"yes","surface":"asphalt"}},{"type":"way","id":1057521296,"nodes":[9717269533,1524453308],"tags":{"highway":"footway","lit":"yes","surface":"asphalt"}},{"type":"way","id":1057521297,"nodes":[9717269535,1524453388],"tags":{"highway":"footway","lit":"yes","surface":"asphalt"}},{"type":"way","id":1057521298,"nodes":[1516305483,1516305527],"tags":{"highway":"footway"}},{"type":"way","id":1057521299,"nodes":[1516305528,1516305502],"tags":{"highway":"footway"}},{"type":"way","id":1058542720,"nodes":[1524453372,9726761006,9726761005],"tags":{"highway":"footway"}},{"type":"way","id":1058542721,"nodes":[9726761005,8831657927],"tags":{"highway":"footway"}},{"type":"way","id":1058543611,"nodes":[1516305540,9726785417],"tags":{"highway":"footway"}},{"type":"way","id":1152002250,"nodes":[10716694612,8287193331,10716694611],"tags":{"highway":"service","service":"driveway","surface":"asphalt"}},{"type":"way","id":1176906223,"nodes":[10933921838,1502885912,1502885909,210478089,210478088,210478087,1016540252,1011921084,1016540473,210475263,210475261,1502885908,10933921838],"tags":{"building:levels":"7","building:part":"yes","roof:colour":"tan","roof:levels":"0.5","roof:material":"metal","roof:shape":"gabled"}},{"type":"way","id":1187827882,"nodes":[11029929458,1502877980,1533278294,11029929461,11029929462,11029929463,11029929464,11029929465,1505146115,6190446082,1505146130,1505146136,1505146168,11029929459,11029929458],"tags":{"natural":"scrub"}},{"type":"way","id":1187827883,"nodes":[11029929461,1516305499,1516305513,11145790573,1516305498,1516305532,1516305538,1516305490,1516305524,1528653163,1528653152,11029929466,11029929467,11029929468,11029929469,11029929470,11029929471,11029929472,11029929473,11029929474,11029929475,11029929476,11029929477,11029929478,11029929479,11029929480,11029929481,11029929482,11029929483,11029929484,11029929485,11029929486,11029929487,11029929488,11029929489,11029929490,441031904,11029929491,11029929492,1516308013,1516308040,1516308031,6190446030,11029929493,11955870160,11955870161,1505146103,6190446081,1505146112,11029929465,11029929464,11029929463,11029929462,11029929461],"tags":{"landuse":"grass"}},{"type":"way","id":1202251846,"nodes":[11145790573,1516305513,1516305499,11029929461,1533278294,1520889007,1516305486,1516305505,1516305487,1516305544,1516305524,1516305490,1516305538,1516305532,11145790573],"tags":{"natural":"bare_rock"}},{"type":"way","id":1251978850,"nodes":[210482866,210482859],"tags":{"barrier":"fence"}},{"type":"way","id":1251978851,"nodes":[1016087812,210482871],"tags":{"barrier":"fence"}},{"type":"node","id":207113519,"lat":60.1833154,"lon":24.9587688},{"type":"node","id":207114318,"lat":60.1837302,"lon":24.9593144},{"type":"node","id":207114319,"lat":60.1839174,"lon":24.9595556},{"type":"node","id":313772983,"lat":60.1844793,"lon":24.9600347},{"type":"node","id":313772985,"lat":60.1844948,"lon":24.9599867},{"type":"node","id":449728837,"lat":60.1821407,"lon":24.9564887},{"type":"node","id":449728838,"lat":60.1831068,"lon":24.9583838},{"type":"node","id":848590996,"lat":60.1842548,"lon":24.9599993},{"type":"node","id":948464669,"lat":60.1832159,"lon":24.958123},{"type":"node","id":1016086997,"lat":60.18338,"lon":24.9588456},{"type":"node","id":1528652564,"lat":60.1824764,"lon":24.9569564},{"type":"node","id":1528652724,"lat":60.1845554,"lon":24.9603993},{"type":"node","id":1530480659,"lat":60.1832211,"lon":24.9586263},{"type":"node","id":3120513480,"lat":60.1844233,"lon":24.9602224},{"type":"node","id":5871005967,"lat":60.1841495,"lon":24.9598626},{"type":"node","id":6190144674,"lat":60.1849444,"lon":24.9608787},{"type":"node","id":6190144687,"lat":60.1846945,"lon":24.9605714},{"type":"node","id":6331356052,"lat":60.184941,"lon":24.9605996},{"type":"node","id":6331356053,"lat":60.1848476,"lon":24.9604979},{"type":"node","id":6331356054,"lat":60.1847653,"lon":24.9604059},{"type":"node","id":6331356055,"lat":60.1846231,"lon":24.9602233},{"type":"node","id":6331356056,"lat":60.1846368,"lon":24.9601786},{"type":"node","id":6331356057,"lat":60.1847423,"lon":24.9603171},{"type":"node","id":6331356058,"lat":60.1848799,"lon":24.9604722},{"type":"node","id":6331356059,"lat":60.1849845,"lon":24.9605809},{"type":"node","id":11278785862,"lat":60.1846989,"lon":24.9600396},{"type":"node","id":11595288010,"lat":60.1840687,"lon":24.9597558},{"type":"node","id":11766458366,"lat":60.1845492,"lon":24.9601264},{"type":"node","id":11766458367,"lat":60.184563,"lon":24.9600789},{"type":"node","id":210475255,"lat":60.1861639,"lon":24.9609825},{"type":"node","id":210475257,"lat":60.1860711,"lon":24.9594103},{"type":"node","id":210475258,"lat":60.1874633,"lon":24.9602788},{"type":"node","id":210475259,"lat":60.187504,"lon":24.9613118},{"type":"node","id":210475261,"lat":60.1874377,"lon":24.961408},{"type":"node","id":210475263,"lat":60.1874082,"lon":24.9613552},{"type":"node","id":210478087,"lat":60.1872296,"lon":24.9610256},{"type":"node","id":210478088,"lat":60.1872424,"lon":24.9609446},{"type":"node","id":210478089,"lat":60.1873541,"lon":24.9610271},{"type":"node","id":210482846,"lat":60.1871445,"lon":24.9617099},{"type":"node","id":210482849,"lat":60.1872741,"lon":24.9618161},{"type":"node","id":210482850,"lat":60.1874342,"lon":24.962026},{"type":"node","id":210482851,"lat":60.1875544,"lon":24.9625183},{"type":"node","id":210482855,"lat":60.1872226,"lon":24.962538},{"type":"node","id":210482858,"lat":60.1870349,"lon":24.9622934},{"type":"node","id":210482859,"lat":60.1870706,"lon":24.9620696},{"type":"node","id":210482861,"lat":60.1873005,"lon":24.9623048},{"type":"node","id":210482863,"lat":60.1873352,"lon":24.9621961},{"type":"node","id":210482864,"lat":60.1872209,"lon":24.9620431},{"type":"node","id":210482866,"lat":60.1870901,"lon":24.9619422},{"type":"node","id":210482868,"lat":60.1865004,"lon":24.9618105},{"type":"node","id":210482871,"lat":60.1867766,"lon":24.9620572},{"type":"node","id":210482873,"lat":60.1867644,"lon":24.962293},{"type":"node","id":210482874,"lat":60.1865077,"lon":24.9624031},{"type":"node","id":210482875,"lat":60.1864814,"lon":24.9621708},{"type":"node","id":210482882,"lat":60.1862108,"lon":24.9615026},{"type":"node","id":210482884,"lat":60.1871297,"lon":24.9616985},{"type":"node","id":269160347,"lat":60.1872818,"lon":24.961395},{"type":"node","id":269160348,"lat":60.1871877,"lon":24.9613471},{"type":"node","id":269160403,"lat":60.1870478,"lon":24.9615275},{"type":"node","id":269160404,"lat":60.1872293,"lon":24.961618},{"type":"node","id":269167204,"lat":60.1873913,"lon":24.9617668},{"type":"node","id":269167205,"lat":60.1873795,"lon":24.961472},{"type":"node","id":269182763,"lat":60.1873512,"lon":24.9613771},{"type":"node","id":269299416,"lat":60.1871231,"lon":24.9616346},{"type":"node","id":269299417,"lat":60.1873567,"lon":24.9618634},{"type":"node","id":269299419,"lat":60.1874221,"lon":24.96196},{"type":"node","id":269299421,"lat":60.1875634,"lon":24.9625032},{"type":"node","id":269302225,"lat":60.1862011,"lon":24.9616245},{"type":"node","id":269302226,"lat":60.1861812,"lon":24.9616196},{"type":"node","id":298191115,"lat":60.1872868,"lon":24.9616662},{"type":"node","id":313771919,"lat":60.187627,"lon":24.9611978},{"type":"node","id":452815143,"lat":60.1856226,"lon":24.961375},{"type":"node","id":452815163,"lat":60.1874047,"lon":24.9619875},{"type":"node","id":672760624,"lat":60.1874467,"lon":24.9620119},{"type":"node","id":880502037,"lat":60.1864589,"lon":24.9613968},{"type":"node","id":948464658,"lat":60.1862007,"lon":24.9611182},{"type":"node","id":948464681,"lat":60.1861075,"lon":24.9610936},{"type":"node","id":1011920726,"lat":60.1871426,"lon":24.9612503},{"type":"node","id":1011920916,"lat":60.1873961,"lon":24.9619191},{"type":"node","id":1011921084,"lat":60.1872596,"lon":24.9612256},{"type":"node","id":1011921196,"lat":60.187303,"lon":24.9613364},{"type":"node","id":1016087100,"lat":60.1872359,"lon":24.9622856},{"type":"node","id":1016087149,"lat":60.1871962,"lon":24.9622599},{"type":"node","id":1016087641,"lat":60.1861063,"lon":24.961923},{"type":"node","id":1016087663,"lat":60.1871005,"lon":24.9618794},{"type":"node","id":1016087681,"lat":60.1872505,"lon":24.9622414},{"type":"node","id":1016087761,"lat":60.1868496,"lon":24.9609481},{"type":"node","id":1016087767,"lat":60.1871442,"lon":24.9621943},{"type":"node","id":1016087812,"lat":60.1867853,"lon":24.9618865},{"type":"node","id":1016088051,"lat":60.1872149,"lon":24.962258},{"type":"node","id":1016088234,"lat":60.1860935,"lon":24.9593749},{"type":"node","id":1016088241,"lat":60.1871384,"lon":24.9621588},{"type":"node","id":1016540071,"lat":60.1874994,"lon":24.9611511},{"type":"node","id":1016540252,"lat":60.1871993,"lon":24.9612088},{"type":"node","id":1016540473,"lat":60.1873425,"lon":24.9612865},{"type":"node","id":1502877980,"lat":60.1871254,"lon":24.9625368},{"type":"node","id":1502879715,"lat":60.1874073,"lon":24.9626551},{"type":"node","id":1502885906,"lat":60.1873406,"lon":24.9606962},{"type":"node","id":1502885907,"lat":60.187345,"lon":24.9607851},{"type":"node","id":1502885908,"lat":60.1873589,"lon":24.9611178},{"type":"node","id":1502885909,"lat":60.1873609,"lon":24.961057},{"type":"node","id":1502885910,"lat":60.1873645,"lon":24.9607978},{"type":"node","id":1502885911,"lat":60.1873695,"lon":24.9610139},{"type":"node","id":1502885912,"lat":60.1873753,"lon":24.9610411},{"type":"node","id":1502885913,"lat":60.1874253,"lon":24.9626384},{"type":"node","id":1502885915,"lat":60.1874429,"lon":24.962622},{"type":"node","id":1502885917,"lat":60.1874604,"lon":24.9626057},{"type":"node","id":1502885918,"lat":60.1874739,"lon":24.9613555},{"type":"node","id":1502885919,"lat":60.1874814,"lon":24.9606691},{"type":"node","id":1502889899,"lat":60.1874128,"lon":24.9620172},{"type":"node","id":1502889902,"lat":60.187419,"lon":24.9620388},{"type":"node","id":1502889904,"lat":60.1874625,"lon":24.962137},{"type":"node","id":1502889907,"lat":60.1874785,"lon":24.9621985},{"type":"node","id":1502889922,"lat":60.1875302,"lon":24.9624256},{"type":"node","id":1502889923,"lat":60.187539,"lon":24.9624537},{"type":"node","id":1503053520,"lat":60.186822,"lon":24.9598568},{"type":"node","id":1503053521,"lat":60.1868976,"lon":24.9599063},{"type":"node","id":1503053524,"lat":60.1871761,"lon":24.9600833},{"type":"node","id":1505146023,"lat":60.186121,"lon":24.9602791},{"type":"node","id":1505146038,"lat":60.1862014,"lon":24.9615084},{"type":"node","id":1505146062,"lat":60.1864687,"lon":24.9596186},{"type":"node","id":1505146064,"lat":60.1864762,"lon":24.9622943},{"type":"node","id":1505146066,"lat":60.1865046,"lon":24.9610584},{"type":"node","id":1505146069,"lat":60.1865133,"lon":24.9615679},{"type":"node","id":1505146072,"lat":60.1865484,"lon":24.9625077},{"type":"node","id":1505146074,"lat":60.1865501,"lon":24.9625278},{"type":"node","id":1505146088,"lat":60.1867987,"lon":24.9616308},{"type":"node","id":1505146092,"lat":60.1868262,"lon":24.9611271},{"type":"node","id":1514488893,"lat":60.1871107,"lon":24.9611889},{"type":"node","id":1516305483,"lat":60.1868549,"lon":24.9619102},{"type":"node","id":1516305484,"lat":60.1870778,"lon":24.9623489},{"type":"node","id":1516305486,"lat":60.1870807,"lon":24.9625141},{"type":"node","id":1516305487,"lat":60.1870313,"lon":24.9624436},{"type":"node","id":1516305490,"lat":60.1868824,"lon":24.9625051},{"type":"node","id":1516305491,"lat":60.1866259,"lon":24.962356},{"type":"node","id":1516305494,"lat":60.1865408,"lon":24.9623935},{"type":"node","id":1516305496,"lat":60.1869844,"lon":24.962294},{"type":"node","id":1516305498,"lat":60.1867473,"lon":24.9626072},{"type":"node","id":1516305499,"lat":60.1870329,"lon":24.9625178},{"type":"node","id":1516305500,"lat":60.186711,"lon":24.9623185},{"type":"node","id":1516305502,"lat":60.1870495,"lon":24.9618698},{"type":"node","id":1516305505,"lat":60.1870538,"lon":24.9624695},{"type":"node","id":1516305506,"lat":60.1865721,"lon":24.9624584},{"type":"node","id":1516305507,"lat":60.1867986,"lon":24.9623031},{"type":"node","id":1516305513,"lat":60.1869191,"lon":24.9625133},{"type":"node","id":1516305514,"lat":60.1865603,"lon":24.9624166},{"type":"node","id":1516305519,"lat":60.1870022,"lon":24.9623565},{"type":"node","id":1516305520,"lat":60.1870068,"lon":24.9623024},{"type":"node","id":1516305524,"lat":60.186968,"lon":24.9624446},{"type":"node","id":1516305526,"lat":60.187033,"lon":24.9623023},{"type":"node","id":1516305527,"lat":60.1868605,"lon":24.9618308},{"type":"node","id":1516305528,"lat":60.1870367,"lon":24.9619476},{"type":"node","id":1516305532,"lat":60.1867786,"lon":24.9625771},{"type":"node","id":1516305534,"lat":60.1865499,"lon":24.9626143},{"type":"node","id":1516305538,"lat":60.1868275,"lon":24.9625333},{"type":"node","id":1516305539,"lat":60.187161,"lon":24.9624566},{"type":"node","id":1516305540,"lat":60.1868163,"lon":24.961964},{"type":"node","id":1516305541,"lat":60.1868251,"lon":24.9622928},{"type":"node","id":1516305544,"lat":60.1869975,"lon":24.9624378},{"type":"node","id":1520888978,"lat":60.186506,"lon":24.9620884},{"type":"node","id":1520888981,"lat":60.1871227,"lon":24.9626378},{"type":"node","id":1520888989,"lat":60.1871061,"lon":24.962608},{"type":"node","id":1520888995,"lat":60.1871198,"lon":24.9624766},{"type":"node","id":1520889007,"lat":60.1870931,"lon":24.9625531},{"type":"node","id":1520889012,"lat":60.1865237,"lon":24.9623968},{"type":"node","id":1520889014,"lat":60.1870064,"lon":24.9624093},{"type":"node","id":1520889016,"lat":60.1864977,"lon":24.9621185},{"type":"node","id":1520889025,"lat":60.1866651,"lon":24.9620592},{"type":"node","id":1520889027,"lat":60.1864952,"lon":24.962164},{"type":"node","id":1520889033,"lat":60.1865931,"lon":24.9620501},{"type":"node","id":1524453264,"lat":60.187089,"lon":24.9616901},{"type":"node","id":1524453286,"lat":60.1864937,"lon":24.9615636},{"type":"node","id":1524453308,"lat":60.1870364,"lon":24.9616792},{"type":"node","id":1524453372,"lat":60.18647,"lon":24.9618579},{"type":"node","id":1524453388,"lat":60.1869045,"lon":24.9616515},{"type":"node","id":1524453401,"lat":60.1865029,"lon":24.9614066},{"type":"node","id":1524453415,"lat":60.1866522,"lon":24.9615996},{"type":"node","id":1526055637,"lat":60.1852918,"lon":24.9608058},{"type":"node","id":1526055743,"lat":60.1861814,"lon":24.9611147},{"type":"node","id":1526055789,"lat":60.1869153,"lon":24.9613238},{"type":"node","id":1528653105,"lat":60.185968,"lon":24.9614502},{"type":"node","id":1528653114,"lat":60.1860401,"lon":24.9614636},{"type":"node","id":1528653140,"lat":60.186534,"lon":24.9625137},{"type":"node","id":1528653152,"lat":60.1867715,"lon":24.9624142},{"type":"node","id":1528653156,"lat":60.1867958,"lon":24.9623561},{"type":"node","id":1528653163,"lat":60.1869686,"lon":24.9624035},{"type":"node","id":1528653165,"lat":60.1870354,"lon":24.9623644},{"type":"node","id":1533278291,"lat":60.1870512,"lon":24.9624398},{"type":"node","id":1533278293,"lat":60.187088,"lon":24.9624848},{"type":"node","id":1533278294,"lat":60.1871019,"lon":24.9625977},{"type":"node","id":1651544565,"lat":60.1875036,"lon":24.9612489},{"type":"node","id":1807728754,"lat":60.1859456,"lon":24.9625509},{"type":"node","id":1810074638,"lat":60.1873601,"lon":24.9602041},{"type":"node","id":1815848569,"lat":60.1870411,"lon":24.9599947},{"type":"node","id":1821634468,"lat":60.1859282,"lon":24.9626207},{"type":"node","id":1840663359,"lat":60.1864979,"lon":24.9614847},{"type":"node","id":2281139574,"lat":60.1873813,"lon":24.9602182},{"type":"node","id":2281139578,"lat":60.1874585,"lon":24.9602668},{"type":"node","id":2281142608,"lat":60.1875015,"lon":24.9612011},{"type":"node","id":3121969516,"lat":60.1863419,"lon":24.9595372},{"type":"node","id":3208429096,"lat":60.1867558,"lon":24.9622988},{"type":"node","id":3208429097,"lat":60.1867566,"lon":24.9623072},{"type":"node","id":3208429098,"lat":60.1867683,"lon":24.9622188},{"type":"node","id":3208429099,"lat":60.1867692,"lon":24.9622002},{"type":"node","id":3208429100,"lat":60.1867705,"lon":24.9621764},{"type":"node","id":3757133378,"lat":60.186607,"lon":24.9612141},{"type":"node","id":6190144650,"lat":60.1852996,"lon":24.9611836},{"type":"node","id":6190144651,"lat":60.1855105,"lon":24.9613054},{"type":"node","id":6190144671,"lat":60.1852221,"lon":24.9611181},{"type":"node","id":6318508344,"lat":60.1861573,"lon":24.9617085},{"type":"node","id":6318508345,"lat":60.1860337,"lon":24.9616744},{"type":"node","id":6331356029,"lat":60.187097,"lon":24.9620021},{"type":"node","id":6331356030,"lat":60.187105,"lon":24.9619528},{"type":"node","id":6331356031,"lat":60.1871667,"lon":24.9615767},{"type":"node","id":6331356047,"lat":60.1854648,"lon":24.9610205},{"type":"node","id":6331356048,"lat":60.1853682,"lon":24.9609593},{"type":"node","id":6331356049,"lat":60.1852558,"lon":24.9608795},{"type":"node","id":6331356050,"lat":60.1851557,"lon":24.9607965},{"type":"node","id":6331356051,"lat":60.1850456,"lon":24.9607},{"type":"node","id":6331356060,"lat":60.1850565,"lon":24.9606524},{"type":"node","id":6331356061,"lat":60.1851637,"lon":24.9607463},{"type":"node","id":6331356062,"lat":60.1852584,"lon":24.9608216},{"type":"node","id":6331356063,"lat":60.1853707,"lon":24.9609027},{"type":"node","id":6331356064,"lat":60.1854545,"lon":24.960958},{"type":"node","id":6331356065,"lat":60.1855432,"lon":24.9610069},{"type":"node","id":6331356066,"lat":60.1856449,"lon":24.961061},{"type":"node","id":6331356067,"lat":60.1857044,"lon":24.9610867},{"type":"node","id":6331356069,"lat":60.1855329,"lon":24.9610604},{"type":"node","id":6331356070,"lat":60.1856136,"lon":24.9611003},{"type":"node","id":6331356071,"lat":60.1856728,"lon":24.9611292},{"type":"node","id":6331356072,"lat":60.1857358,"lon":24.9611562},{"type":"node","id":6331356073,"lat":60.1857934,"lon":24.9611781},{"type":"node","id":6331356074,"lat":60.1858433,"lon":24.9611949},{"type":"node","id":6331356075,"lat":60.1857675,"lon":24.9611125},{"type":"node","id":6331356076,"lat":60.1858407,"lon":24.9611401},{"type":"node","id":6331356077,"lat":60.1858852,"lon":24.961153},{"type":"node","id":6331356078,"lat":60.186015,"lon":24.9612395},{"type":"node","id":6331356081,"lat":60.1860087,"lon":24.9611833},{"type":"node","id":6331356082,"lat":60.1864806,"lon":24.9621912},{"type":"node","id":6331356083,"lat":60.1862063,"lon":24.9615266},{"type":"node","id":6331356084,"lat":60.1864994,"lon":24.9618256},{"type":"node","id":6331356085,"lat":60.1872393,"lon":24.9615636},{"type":"node","id":6331356086,"lat":60.1871957,"lon":24.9615256},{"type":"node","id":6331356087,"lat":60.187133,"lon":24.9614896},{"type":"node","id":6331356088,"lat":60.1870815,"lon":24.9614716},{"type":"node","id":6331356089,"lat":60.1870265,"lon":24.9614568},{"type":"node","id":6331356090,"lat":60.1862041,"lon":24.9612824},{"type":"node","id":6331356097,"lat":60.1870514,"lon":24.9613035},{"type":"node","id":6331356101,"lat":60.1862042,"lon":24.9611872},{"type":"node","id":6331356102,"lat":60.1866,"lon":24.9612743},{"type":"node","id":6331356103,"lat":60.187055,"lon":24.9613722},{"type":"node","id":6331356104,"lat":60.1871053,"lon":24.9613866},{"type":"node","id":6331356105,"lat":60.1871493,"lon":24.9614023},{"type":"node","id":6331356106,"lat":60.1871989,"lon":24.9614251},{"type":"node","id":6331356107,"lat":60.1872381,"lon":24.9614458},{"type":"node","id":6331356108,"lat":60.18729,"lon":24.9614861},{"type":"node","id":6331356110,"lat":60.1873883,"lon":24.9616272},{"type":"node","id":6331356111,"lat":60.1873866,"lon":24.9616344},{"type":"node","id":6331356112,"lat":60.1874094,"lon":24.9615016},{"type":"node","id":6331356113,"lat":60.1873625,"lon":24.9617391},{"type":"node","id":6331356119,"lat":60.1862042,"lon":24.9612251},{"type":"node","id":6331356120,"lat":60.1870271,"lon":24.9614021},{"type":"node","id":6331356121,"lat":60.1870828,"lon":24.9614162},{"type":"node","id":6331356122,"lat":60.1871353,"lon":24.9614355},{"type":"node","id":6331356123,"lat":60.1871932,"lon":24.9614645},{"type":"node","id":6331356124,"lat":60.1872699,"lon":24.9615305},{"type":"node","id":6331356185,"lat":60.1876154,"lon":24.9614451},{"type":"node","id":6331356233,"lat":60.1876865,"lon":24.9622714},{"type":"node","id":6331356235,"lat":60.1877106,"lon":24.9622494},{"type":"node","id":6331356242,"lat":60.1874215,"lon":24.9616454},{"type":"node","id":6331356243,"lat":60.1874414,"lon":24.9616519},{"type":"node","id":6331356244,"lat":60.1874626,"lon":24.9616546},{"type":"node","id":6331356245,"lat":60.1874868,"lon":24.96165},{"type":"node","id":6331356246,"lat":60.1875099,"lon":24.9616381},{"type":"node","id":6331356247,"lat":60.1875292,"lon":24.9616239},{"type":"node","id":6331356248,"lat":60.1875537,"lon":24.9615962},{"type":"node","id":6331356250,"lat":60.1875894,"lon":24.9615327},{"type":"node","id":6331356251,"lat":60.1876089,"lon":24.9614747},{"type":"node","id":6331356252,"lat":60.1876231,"lon":24.9613974},{"type":"node","id":6331356253,"lat":60.1876268,"lon":24.9613577},{"type":"node","id":6331356254,"lat":60.1876284,"lon":24.9613088},{"type":"node","id":6331356262,"lat":60.187498,"lon":24.9617355},{"type":"node","id":6331356266,"lat":60.1873522,"lon":24.9616602},{"type":"node","id":6331356280,"lat":60.1876495,"lon":24.9621293},{"type":"node","id":6331356281,"lat":60.1876298,"lon":24.9620598},{"type":"node","id":6331356282,"lat":60.1876081,"lon":24.9620018},{"type":"node","id":6331356283,"lat":60.1875855,"lon":24.9619499},{"type":"node","id":6331356284,"lat":60.1875561,"lon":24.9618911},{"type":"node","id":6331356285,"lat":60.1875253,"lon":24.9618388},{"type":"node","id":6331356286,"lat":60.1875,"lon":24.9618066},{"type":"node","id":6331356287,"lat":60.187436,"lon":24.9617371},{"type":"node","id":6331356288,"lat":60.187376,"lon":24.9616809},{"type":"node","id":6331356289,"lat":60.1873004,"lon":24.9616148},{"type":"node","id":6331356290,"lat":60.1877134,"lon":24.9623859},{"type":"node","id":6331356293,"lat":60.1876688,"lon":24.962081},{"type":"node","id":6331356298,"lat":60.1873313,"lon":24.9615827},{"type":"node","id":6331356299,"lat":60.1874362,"lon":24.961677},{"type":"node","id":6331356301,"lat":60.1875363,"lon":24.9617803},{"type":"node","id":6331356302,"lat":60.1875631,"lon":24.9618207},{"type":"node","id":6331356303,"lat":60.187581,"lon":24.9618521},{"type":"node","id":6331356304,"lat":60.1876133,"lon":24.9619165},{"type":"node","id":6331356305,"lat":60.1876378,"lon":24.9619762},{"type":"node","id":6331356306,"lat":60.1876559,"lon":24.962035},{"type":"node","id":6331356307,"lat":60.1876829,"lon":24.9621309},{"type":"node","id":6331356308,"lat":60.18775,"lon":24.962415},{"type":"node","id":7474813958,"lat":60.1876701,"lon":24.9622042},{"type":"node","id":7474813962,"lat":60.1874694,"lon":24.9617698},{"type":"node","id":7474813963,"lat":60.1874051,"lon":24.9617085},{"type":"node","id":7477036734,"lat":60.1869047,"lon":24.9611912},{"type":"node","id":7477036735,"lat":60.1868574,"lon":24.961271},{"type":"node","id":7477036736,"lat":60.1869404,"lon":24.9615037},{"type":"node","id":8013075122,"lat":60.1870599,"lon":24.9623973},{"type":"node","id":8219629655,"lat":60.1873294,"lon":24.9618297},{"type":"node","id":8219629656,"lat":60.1873539,"lon":24.9617312},{"type":"node","id":8219629657,"lat":60.1873927,"lon":24.9615734},{"type":"node","id":8219629659,"lat":60.1874233,"lon":24.9614408},{"type":"node","id":8287193331,"lat":60.1868067,"lon":24.9611677},{"type":"node","id":8315807738,"lat":60.1863088,"lon":24.9610632},{"type":"node","id":8315807739,"lat":60.1862297,"lon":24.9611265},{"type":"node","id":8315807740,"lat":60.1871557,"lon":24.9616495},{"type":"node","id":8315807741,"lat":60.1862901,"lon":24.9614483},{"type":"node","id":8315807743,"lat":60.1872336,"lon":24.961701},{"type":"node","id":8315807745,"lat":60.1872792,"lon":24.9617745},{"type":"node","id":8831330406,"lat":60.1874704,"lon":24.9621672},{"type":"node","id":8831555635,"lat":60.1873902,"lon":24.9619691},{"type":"node","id":8831555636,"lat":60.1874028,"lon":24.9619297},{"type":"node","id":8831555637,"lat":60.1873229,"lon":24.9621796},{"type":"node","id":8831555639,"lat":60.1873747,"lon":24.9619486},{"type":"node","id":8831555640,"lat":60.1873073,"lon":24.9618598},{"type":"node","id":8831555642,"lat":60.1868142,"lon":24.9616336},{"type":"node","id":8831555643,"lat":60.1868175,"lon":24.9615513},{"type":"node","id":8831555644,"lat":60.1868119,"lon":24.9616851},{"type":"node","id":8831555645,"lat":60.1867792,"lon":24.9616266},{"type":"node","id":8831555647,"lat":60.1867478,"lon":24.9616199},{"type":"node","id":8831555649,"lat":60.186718,"lon":24.9616138},{"type":"node","id":8831555651,"lat":60.1866833,"lon":24.9616063},{"type":"node","id":8831555653,"lat":60.1866867,"lon":24.9615259},{"type":"node","id":8831555654,"lat":60.1867832,"lon":24.9615444},{"type":"node","id":8831555655,"lat":60.1867527,"lon":24.9615379},{"type":"node","id":8831555656,"lat":60.1867214,"lon":24.9615321},{"type":"node","id":8831555657,"lat":60.1866564,"lon":24.9615186},{"type":"node","id":8831555658,"lat":60.1866279,"lon":24.9615941},{"type":"node","id":8831555660,"lat":60.1865923,"lon":24.9615859},{"type":"node","id":8831555661,"lat":60.1866316,"lon":24.9615122},{"type":"node","id":8831555662,"lat":60.1865962,"lon":24.9615059},{"type":"node","id":8831555663,"lat":60.1864307,"lon":24.96155},{"type":"node","id":8831555665,"lat":60.1863651,"lon":24.9615359},{"type":"node","id":8831555667,"lat":60.1863339,"lon":24.9615291},{"type":"node","id":8831555669,"lat":60.1863228,"lon":24.9615267},{"type":"node","id":8831555670,"lat":60.1862681,"lon":24.961515},{"type":"node","id":8831555672,"lat":60.1862047,"lon":24.9615563},{"type":"node","id":8831616507,"lat":60.1861894,"lon":24.9616216},{"type":"node","id":8831616508,"lat":60.1861199,"lon":24.9618679},{"type":"node","id":8831616510,"lat":60.1861012,"lon":24.9619428},{"type":"node","id":8831616511,"lat":60.1860857,"lon":24.9620033},{"type":"node","id":8831616513,"lat":60.1860766,"lon":24.962039},{"type":"node","id":8831616514,"lat":60.1860628,"lon":24.9620932},{"type":"node","id":8831616516,"lat":60.1860322,"lon":24.9622124},{"type":"node","id":8831657918,"lat":60.1860058,"lon":24.9623158},{"type":"node","id":8831657919,"lat":60.1859846,"lon":24.9623985},{"type":"node","id":8831657921,"lat":60.1859664,"lon":24.9624683},{"type":"node","id":8831657926,"lat":60.186541,"lon":24.9618345},{"type":"node","id":8831657927,"lat":60.1866688,"lon":24.9618617},{"type":"node","id":8831720825,"lat":60.1874964,"lon":24.9610816},{"type":"node","id":8831720827,"lat":60.1874879,"lon":24.9608609},{"type":"node","id":8831720829,"lat":60.187486,"lon":24.9608028},{"type":"node","id":8831720834,"lat":60.1874823,"lon":24.9606921},{"type":"node","id":8831720836,"lat":60.1874753,"lon":24.9605321},{"type":"node","id":8831720840,"lat":60.1874703,"lon":24.9604252},{"type":"node","id":8831720842,"lat":60.1874642,"lon":24.9602979},{"type":"node","id":8831720845,"lat":60.1872512,"lon":24.9601307},{"type":"node","id":8831720849,"lat":60.1871906,"lon":24.9600928},{"type":"node","id":8831720853,"lat":60.1871358,"lon":24.9600565},{"type":"node","id":8831720855,"lat":60.1870978,"lon":24.960031},{"type":"node","id":8831720865,"lat":60.1868551,"lon":24.9598784},{"type":"node","id":8831720867,"lat":60.1867601,"lon":24.9598151},{"type":"node","id":8831720869,"lat":60.1866976,"lon":24.9597729},{"type":"node","id":8831720870,"lat":60.1865829,"lon":24.9596956},{"type":"node","id":8831720872,"lat":60.1864887,"lon":24.9596322},{"type":"node","id":8831720875,"lat":60.1863793,"lon":24.9595636},{"type":"node","id":8831720877,"lat":60.1862802,"lon":24.9594953},{"type":"node","id":8831720880,"lat":60.186082,"lon":24.9593931},{"type":"node","id":8836005047,"lat":60.1870701,"lon":24.9600126},{"type":"node","id":8836005055,"lat":60.1874785,"lon":24.9605993},{"type":"node","id":8861964928,"lat":60.1856279,"lon":24.9613759},{"type":"node","id":9628871097,"lat":60.1867135,"lon":24.9623436},{"type":"node","id":9628871098,"lat":60.186629,"lon":24.9623839},{"type":"node","id":9696732379,"lat":60.186945,"lon":24.9613503},{"type":"node","id":9717264459,"lat":60.1875492,"lon":24.9624433},{"type":"node","id":9717264460,"lat":60.1874883,"lon":24.9621869},{"type":"node","id":9717264461,"lat":60.1874809,"lon":24.9621559},{"type":"node","id":9717264462,"lat":60.1874732,"lon":24.9621233},{"type":"node","id":9717264463,"lat":60.1874306,"lon":24.961978},{"type":"node","id":9717264464,"lat":60.1873857,"lon":24.9619044},{"type":"node","id":9717266746,"lat":60.1873141,"lon":24.9618129},{"type":"node","id":9717269532,"lat":60.1870927,"lon":24.9616204},{"type":"node","id":9717269533,"lat":60.1870398,"lon":24.9616034},{"type":"node","id":9717269534,"lat":60.1868466,"lon":24.9616393},{"type":"node","id":9717269535,"lat":60.1869086,"lon":24.9615706},{"type":"node","id":9720384578,"lat":60.1868268,"lon":24.9618218},{"type":"node","id":9720384579,"lat":60.1868213,"lon":24.961893},{"type":"node","id":9726687697,"lat":60.1863252,"lon":24.9614521},{"type":"node","id":9726687698,"lat":60.1863355,"lon":24.9614516},{"type":"node","id":9726687699,"lat":60.1863646,"lon":24.9614557},{"type":"node","id":9726687700,"lat":60.1864352,"lon":24.9614717},{"type":"node","id":9726761005,"lat":60.1866659,"lon":24.961898},{"type":"node","id":9726761006,"lat":60.186538,"lon":24.9618718},{"type":"node","id":9726785417,"lat":60.1868057,"lon":24.9618902},{"type":"node","id":9929522945,"lat":60.187368,"lon":24.9616739},{"type":"node","id":10690315431,"lat":60.1861167,"lon":24.9602042},{"type":"node","id":10690315432,"lat":60.1861132,"lon":24.9601442},{"type":"node","id":10690315434,"lat":60.1861097,"lon":24.9600833},{"type":"node","id":10716691077,"lat":60.1872508,"lon":24.9613005},{"type":"node","id":10716691078,"lat":60.1871968,"lon":24.9612727},{"type":"node","id":10716691079,"lat":60.1870964,"lon":24.9612354},{"type":"node","id":10716691080,"lat":60.1870179,"lon":24.9612138},{"type":"node","id":10716691101,"lat":60.186883,"lon":24.9609549},{"type":"node","id":10716694611,"lat":60.1868115,"lon":24.961124},{"type":"node","id":10716694612,"lat":60.186795,"lon":24.9612569},{"type":"node","id":10716694616,"lat":60.18613,"lon":24.9604265},{"type":"node","id":10933921838,"lat":60.1873871,"lon":24.961083},{"type":"node","id":11029929458,"lat":60.1871971,"lon":24.962631},{"type":"node","id":11029929459,"lat":60.1871887,"lon":24.962661},{"type":"node","id":11029929461,"lat":60.1870909,"lon":24.9626179},{"type":"node","id":11029929466,"lat":60.1866142,"lon":24.9624801},{"type":"node","id":11029929467,"lat":60.1866124,"lon":24.9625538},{"type":"node","id":11029929468,"lat":60.1866101,"lon":24.9626216},{"type":"node","id":11145790573,"lat":60.1867498,"lon":24.9626058},{"type":"node","id":11766458358,"lat":60.1870883,"lon":24.9600248},{"type":"node","id":11766491861,"lat":60.1875828,"lon":24.9615445},{"type":"node","id":11766491863,"lat":60.1875727,"lon":24.9615624},{"type":"node","id":11766491864,"lat":60.1873794,"lon":24.9616276},{"type":"node","id":11766491865,"lat":60.1861048,"lon":24.9612599},{"type":"node","id":11766491866,"lat":60.1861008,"lon":24.961203},{"type":"node","id":123436360,"lat":60.186619,"lon":24.9661301},{"type":"node","id":179911825,"lat":60.1861915,"lon":24.9631502},{"type":"node","id":179911826,"lat":60.1861228,"lon":24.963409},{"type":"node","id":179911827,"lat":60.1859608,"lon":24.9632477},{"type":"node","id":210482853,"lat":60.1873506,"lon":24.9627079},{"type":"node","id":210483323,"lat":60.1863503,"lon":24.9627049},{"type":"node","id":210489843,"lat":60.186168,"lon":24.9656726},{"type":"node","id":441031900,"lat":60.187397,"lon":24.9631995},{"type":"node","id":441031901,"lat":60.18668,"lon":24.9654192},{"type":"node","id":441031902,"lat":60.1867099,"lon":24.9657951},{"type":"node","id":441031904,"lat":60.1866479,"lon":24.9630225},{"type":"node","id":650381918,"lat":60.1873219,"lon":24.9634199},{"type":"node","id":650381920,"lat":60.1868262,"lon":24.9648526},{"type":"node","id":1502877637,"lat":60.186699,"lon":24.9652228},{"type":"node","id":1502877639,"lat":60.1867032,"lon":24.9653281},{"type":"node","id":1502877644,"lat":60.1870708,"lon":24.9641347},{"type":"node","id":1502877645,"lat":60.1871589,"lon":24.9638179},{"type":"node","id":1502877650,"lat":60.1872683,"lon":24.9634751},{"type":"node","id":1502877653,"lat":60.1873345,"lon":24.9627588},{"type":"node","id":1502877655,"lat":60.1873556,"lon":24.9627245},{"type":"node","id":1502877658,"lat":60.1873754,"lon":24.9630162},{"type":"node","id":1502877660,"lat":60.1873997,"lon":24.963118},{"type":"node","id":1502877730,"lat":60.187607,"lon":24.9626899},{"type":"node","id":1502877981,"lat":60.1873612,"lon":24.9629567},{"type":"node","id":1502877982,"lat":60.187369,"lon":24.9629894},{"type":"node","id":1505146018,"lat":60.1858116,"lon":24.9631014},{"type":"node","id":1505146040,"lat":60.1862709,"lon":24.9628414},{"type":"node","id":1505146103,"lat":60.1870334,"lon":24.9629846},{"type":"node","id":1505146112,"lat":60.18707,"lon":24.9629747},{"type":"node","id":1505146115,"lat":60.1870882,"lon":24.9629777},{"type":"node","id":1505146130,"lat":60.1871247,"lon":24.9630001},{"type":"node","id":1505146136,"lat":60.187142,"lon":24.9630219},{"type":"node","id":1505146168,"lat":60.1872104,"lon":24.9629581},{"type":"node","id":1516305492,"lat":60.1871186,"lon":24.9626656},{"type":"node","id":1516305503,"lat":60.1873316,"lon":24.9627023},{"type":"node","id":1516308013,"lat":60.1867244,"lon":24.9629043},{"type":"node","id":1516308031,"lat":60.1869248,"lon":24.9628298},{"type":"node","id":1516308040,"lat":60.1868061,"lon":24.9626655},{"type":"node","id":1524453455,"lat":60.1867616,"lon":24.9650406},{"type":"node","id":1524453457,"lat":60.1867479,"lon":24.9650806},{"type":"node","id":1528653090,"lat":60.1857937,"lon":24.9631844},{"type":"node","id":1528653120,"lat":60.1861795,"lon":24.9635331},{"type":"node","id":1528653130,"lat":60.1863199,"lon":24.9629726},{"type":"node","id":1528653179,"lat":60.187323,"lon":24.9627965},{"type":"node","id":1530480732,"lat":60.1853753,"lon":24.964822},{"type":"node","id":1533278123,"lat":60.1860648,"lon":24.9633497},{"type":"node","id":1821634470,"lat":60.1859316,"lon":24.9632191},{"type":"node","id":3208429082,"lat":60.1858269,"lon":24.9630382},{"type":"node","id":4844329877,"lat":60.1858282,"lon":24.9653296},{"type":"node","id":6190446030,"lat":60.1868903,"lon":24.9629308},{"type":"node","id":6190446081,"lat":60.1870515,"lon":24.9629771},{"type":"node","id":6190446082,"lat":60.1871055,"lon":24.9629832},{"type":"node","id":8093324522,"lat":60.1857603,"lon":24.9652076},{"type":"node","id":8831657924,"lat":60.186012,"lon":24.9632978},{"type":"node","id":11029929457,"lat":60.187333,"lon":24.9628382},{"type":"node","id":11029929460,"lat":60.1873523,"lon":24.9633306},{"type":"node","id":11029929462,"lat":60.1870698,"lon":24.9626799},{"type":"node","id":11029929463,"lat":60.1870675,"lon":24.9627547},{"type":"node","id":11029929464,"lat":60.1870669,"lon":24.9628939},{"type":"node","id":11029929465,"lat":60.1870785,"lon":24.9629761},{"type":"node","id":11029929469,"lat":60.1866002,"lon":24.9626684},{"type":"node","id":11029929470,"lat":60.1865833,"lon":24.9627456},{"type":"node","id":11029929471,"lat":60.18656,"lon":24.9628263},{"type":"node","id":11029929472,"lat":60.1865548,"lon":24.9629164},{"type":"node","id":11029929473,"lat":60.1865653,"lon":24.9629784},{"type":"node","id":11029929474,"lat":60.1865885,"lon":24.9630181},{"type":"node","id":11029929475,"lat":60.1865996,"lon":24.9630801},{"type":"node","id":11029929476,"lat":60.1865897,"lon":24.963121},{"type":"node","id":11029929477,"lat":60.1865734,"lon":24.9631281},{"type":"node","id":11029929478,"lat":60.1865368,"lon":24.9631047},{"type":"node","id":11029929479,"lat":60.1865257,"lon":24.9631164},{"type":"node","id":11029929480,"lat":60.1864908,"lon":24.9632181},{"type":"node","id":11029929481,"lat":60.1864699,"lon":24.9632707},{"type":"node","id":11029929482,"lat":60.1864699,"lon":24.9633093},{"type":"node","id":11029929483,"lat":60.1864775,"lon":24.9633292},{"type":"node","id":11029929484,"lat":60.1864845,"lon":24.9633608},{"type":"node","id":11029929485,"lat":60.186485,"lon":24.9634123},{"type":"node","id":11029929486,"lat":60.1864722,"lon":24.9634438},{"type":"node","id":11029929487,"lat":60.1864583,"lon":24.9634754},{"type":"node","id":11029929488,"lat":60.1864507,"lon":24.9635175},{"type":"node","id":11029929489,"lat":60.1864501,"lon":24.9635503},{"type":"node","id":11029929490,"lat":60.1864601,"lon":24.9635831},{"type":"node","id":11029929491,"lat":60.1867353,"lon":24.9631308},{"type":"node","id":11029929492,"lat":60.1867825,"lon":24.9629846},{"type":"node","id":11029929493,"lat":60.186977,"lon":24.9630392},{"type":"node","id":11029929579,"lat":60.1872301,"lon":24.9635947},{"type":"node","id":11029929591,"lat":60.1870043,"lon":24.9643298},{"type":"node","id":11029929592,"lat":60.1870627,"lon":24.9641586},{"type":"node","id":11029929658,"lat":60.1857434,"lon":24.9651907},{"type":"node","id":11029929659,"lat":60.1856558,"lon":24.965103},{"type":"node","id":11029929721,"lat":60.1867046,"lon":24.9657283},{"type":"node","id":11145790536,"lat":60.1857558,"lon":24.9633326},{"type":"node","id":11145790537,"lat":60.1854461,"lon":24.9645447},{"type":"node","id":11145790544,"lat":60.1854591,"lon":24.964906},{"type":"node","id":11145790556,"lat":60.1865477,"lon":24.966056},{"type":"node","id":11955870160,"lat":60.1869919,"lon":24.9630156},{"type":"node","id":11955870161,"lat":60.1870116,"lon":24.9629948}]}