{"version":0.6,"generator":"Overpass API 0.7.62.5 1bd436f1","osm3s":{"timestamp_osm_base":"2025-03-12T12:21:00Z","copyright":"The data included in this document is from www.openstreetmap.org. The data is made available under ODbL."},"elements":[{"type":"node","id":34501093,"lat":60.1875476,"lon":24.96014,"tags":{"ele":"21","source:ele":"barometric*1"}},{"type":"node","id":34506866,"lat":60.187664,"lon":24.9602796,"tags":{"crossing":"marked","crossing:markings":"yes","highway":"crossing"}},{"type":"node","id":210475258,"lat":60.1874633,"lon":24.9602788,"tags":{"location":"wall","man_made":"flagpole"}},{"type":"node","id":249344676,"lat":60.1877983,"lon":24.9601076,"tags":{"addr:city":"Helsinki","addr:country":"FI","addr:housenumber":"1","addr:postcode":"00500","addr:street":"Helsinginkatu","amenity":"atm","cash_in":"no","check_date":"2024-10-06","indoor":"no","name":"Otto","opening_hours":"24\/7","operator":"Otto","website":"https:\/\/www.otto.fi\/","wheelchair":"yes"}},{"type":"node","id":249344681,"lat":60.1878943,"lon":24.9601747,"tags":{"addr:city":"Helsinki","addr:country":"FI","addr:floor":"0","addr:housenumber":"1","addr:postcode":"00500","addr:street":"Helsinginkatu","air_conditioning":"yes","branch":"Vaasanhalli","brand":"S-market","brand:wikidata":"Q11891613","check_date":"2025-01-13","diet:halal":"no","diet:kosher":"no","level":"0","name":"S-market","opening_hours":"24\/7","organic":"yes","payment:cash":"yes","payment:credit_cards":"yes","payment:debit_cards":"yes","phone":"+358107663050","self_checkout":"yes","shop":"supermarket","short_name":"S-Market","website":"https:\/\/www.s-kaupat.fi\/myymala\/s-market-vaasanhalli\/536750904","wheelchair":"limited"}},{"type":"node","id":262982618,"lat":60.1874772,"lon":24.9601032,"tags":{"crossing":"marked","crossing:island":"no","crossing:markings":"yes","highway":"crossing"}},{"type":"node","id":289554755,"lat":60.187615,"lon":24.9602866,"tags":{"crossing":"marked","crossing:markings":"yes","highway":"crossing"}},{"type":"node","id":289554756,"lat":60.1875595,"lon":24.9602945,"tags":{"crossing":"marked","crossing:markings":"yes","highway":"crossing"}},{"type":"node","id":309816685,"lat":60.187913,"lon":24.9611466,"tags":{"addr:city":"Helsinki","addr:housenumber":"1","addr:postcode":"00500","addr:street":"Helsinginkatu","amenity":"atm","layer":"-1","name":"Otto. automaatti (ATM)","toilets:wheelchair":"no","website":"https:\/\/otto.fi\/en","wheelchair":"yes"}},{"type":"node","id":313771918,"lat":60.1875877,"lon":24.9602905,"tags":{"crossing":"marked","crossing:markings":"yes","highway":"crossing"}},{"type":"node","id":664754464,"lat":60.1879249,"lon":24.9601038,"tags":{"addr:city":"Helsinki","addr:country":"FI","addr:housenumber":"2","addr:postcode":"00500","addr:street":"Pengerpolku"}},{"type":"node","id":664765075,"lat":60.1879781,"lon":24.9611684,"tags":{"access":"private","addr:unit":"A","barrier":"gate","description":"With buzzer","entrance":"yes"}},{"type":"node","id":667411965,"lat":60.1879507,"lon":24.9612009,"tags":{"amenity":"waste_basket"}},{"type":"node","id":878628878,"lat":60.1874488,"lon":24.9600884,"tags":{"direction":"backward","highway":"give_way"}},{"type":"node","id":878639583,"lat":60.1875702,"lon":24.9599821,"tags":{"crossing":"marked","crossing:markings":"yes","highway":"crossing"}},{"type":"node","id":878639626,"lat":60.1876486,"lon":24.9600047,"tags":{"crossing":"marked","crossing:markings":"yes","highway":"crossing"}},{"type":"node","id":878639693,"lat":60.1875346,"lon":24.9599719,"tags":{"crossing":"marked","crossing:markings":"yes","highway":"crossing"}},{"type":"node","id":878639695,"lat":60.1875987,"lon":24.9599903,"tags":{"crossing":"marked","crossing:markings":"yes","highway":"crossing"}},{"type":"node","id":948449839,"lat":60.1874989,"lon":24.960306,"tags":{"diameter":"400","emergency":"fire_hydrant","location":"underground"}},{"type":"node","id":948455244,"lat":60.1874458,"lon":24.9611528,"tags":{"addr:city":"Helsinki","addr:country":"FI","addr:housenumber":"2a","addr:street":"Helsinginkatu"}},{"type":"node","id":948455261,"lat":60.1875026,"lon":24.9603515,"tags":{"diameter":"400","hole:diameter":"20 cm","man_made":"manhole","manhole":"water","marker:shape":"vertical oval on a rectangle"}},{"type":"node","id":948455291,"lat":60.1874933,"lon":24.9603295,"tags":{"diameter":"300","hole:diameter":"20 cm","man_made":"manhole","manhole":"water","marker:shape":"vertical oval on a rectangle"}},{"type":"node","id":948455372,"lat":60.1875129,"lon":24.9603308,"tags":{"FIXME:pipeline":"keskin\u00e4inen sijainti","diameter":"150","hole:diameter":"20 cm","man_made":"manhole","manhole":"water","marker:shape":"vertical oval on a rectangle"}},{"type":"node","id":1016540071,"lat":60.1874994,"lon":24.9611511,"tags":{"entrance":"staircase","ref":"B"}},{"type":"node","id":1110692340,"lat":60.1878185,"lon":24.9610417,"tags":{"bicycle":"yes","highway":"elevator","wheelchair":"yes"}},{"type":"node","id":1110692347,"lat":60.1877934,"lon":24.961047,"tags":{"bicycle":"yes","highway":"elevator","wheelchair":"yes"}},{"type":"node","id":1503053525,"lat":60.1874098,"lon":24.9598926,"tags":{"amenity":"vending_machine","check_date":"2023-06-16","currency:EUR":"yes","opening_hours":"Mo-Fr 09:00-21:00","operator":"HKR","parking:ticket:zone":"3","payment:coins":"yes","ref":"221","vending":"parking_tickets"}},{"type":"node","id":1526055522,"lat":60.1876571,"lon":24.9607746,"tags":{"addr:city":"Helsinki","addr:postcode":"00500","addr:street":"Helsinginkatu","advertising":"poster_box","bench":"yes","bin":"yes","lit":"yes","local_ref":"11","name":"S\u00f6rn\u00e4inen (M)","name:fi":"S\u00f6rn\u00e4inen (M)","name:sv":"S\u00f6rn\u00e4s (M)","public_transport":"platform","railway":"tram_stop","ref":"H0314","shelter":"yes","tram":"yes","website":"https:\/\/www.hsl.fi","wheelchair":"yes","zone:HSL":"A"}},{"type":"node","id":1810074638,"lat":60.1873601,"lon":24.9602041,"tags":{"entrance":"staircase","ref":"B"}},{"type":"node","id":1990842641,"lat":60.1873636,"lon":24.959936,"tags":{"traffic_sign":"FI:363[30]","traffic_sign:2":"FI:142"}},{"type":"node","id":2052970781,"lat":60.1877445,"lon":24.9602741,"tags":{"traffic_sign":"FI:425"}},{"type":"node","id":2281139576,"lat":60.1874408,"lon":24.9599707,"tags":{"traffic_sign":"FI:372","traffic_sign:2":"FI:855a[9-21]","traffic_sign:3":"FI:871[Vy\u00f6hyke 3 Ei koske P-tunnuksella I]"}},{"type":"node","id":2281139583,"lat":60.187484,"lon":24.9598865,"tags":{"traffic_sign":"FI:511"}},{"type":"node","id":2281140203,"lat":60.1874616,"lon":24.9602707,"tags":{"power":"cable_distribution_cabinet"}},{"type":"node","id":2281140204,"lat":60.1874807,"lon":24.960647,"tags":{"advertising":"sign"}},{"type":"node","id":2281140205,"lat":60.1874881,"lon":24.9608584,"tags":{"advertising":"sign"}},{"type":"node","id":2281142608,"lat":60.1875015,"lon":24.9612011,"tags":{"advertising":"window","man_made":"flagpole"}},{"type":"node","id":4226429808,"lat":60.1874464,"lon":24.9603217,"tags":{"addr:city":"Helsinki","addr:housenumber":"2b","addr:postcode":"00500","addr:street":"Helsinginkatu","brand":"R-Kioski","brand:wikidata":"Q1571400","brand:wikipedia":"en:R-kioski","name":"R-Kioski","opening_hours":"Mo-Fr 06:00-21:00; Sa 07:30-21:00; Su 09:00-21:00","shop":"kiosk","veikkaus":"yes","website":"https:\/\/www.r-kioski.fi","wheelchair":"limited"}},{"type":"node","id":4811091456,"lat":60.1877334,"lon":24.9609043,"tags":{"addr:city":"Helsinki","alt_name":"kaupunkipy\u00f6r\u00e4","alt_name:en":"city bike","alt_name:sv":"stadscykel","amenity":"bicycle_rental","bicycle_rental":"docking_station","capacity":"22","name":"S\u00f6rn\u00e4inen (M)","name:en":"S\u00f6rn\u00e4inen (M)","name:sv":"S\u00f6rn\u00e4s (M)","network":"Helsinki&Espoo","opening_hours":"24\/7","operator":"City Bike Finland","payment:american_express":"yes","payment:cash":"no","payment:mastercard":"yes","payment:visa":"yes","ref":"044","seasonal":"spring;summer;autumn","website":"https:\/\/hsl.fi\/kaupunkipyorat"}},{"type":"node","id":6323267676,"lat":60.1876787,"lon":24.9598939,"tags":{"natural":"tree"}},{"type":"node","id":6784804540,"lat":60.1877571,"lon":24.9600845,"tags":{"name":"Helsingin Pantti","opening_hours":"Mo-Fr 10:00-17:00","shop":"pawnbroker"}},{"type":"node","id":8831720825,"lat":60.1874964,"lon":24.9610816,"tags":{"access":"yes","addr:housenumber":"2a","addr:street":"Helsinginkatu","entrance":"secondary","wheelchair":"no"}},{"type":"node","id":8831720826,"lat":60.1874796,"lon":24.961081,"tags":{"addr:housenumber":"2a","addr:street":"Helsinginkatu","amenity":"pub","name":"Efes","payment:credit_cards":"yes","payment:debit_cards":"yes","website":"https:\/\/www.facebook.com\/Efes-bar-947776042005501\/"}},{"type":"node","id":8831720827,"lat":60.1874879,"lon":24.9608609,"tags":{"access":"private","addr:housenumber":"2a","addr:street":"Helsinginkatu","addr:unit":"C","description":"With buzzer","entrance":"staircase","ref":"C","wheelchair":"no"}},{"type":"node","id":8831720829,"lat":60.187486,"lon":24.9608028,"tags":{"access":"yes","addr:housenumber":"2b","addr:street":"Helsinginkatu","entrance":"secondary","wheelchair":"no"}},{"type":"node","id":8831720831,"lat":60.1874668,"lon":24.9608146,"tags":{"addr:city":"Helsinki","addr:country":"FI","addr:housenumber":"2b","addr:postcode":"00500","addr:street":"Helsinginkatu","name":"Kukkakauppa Lutukka","opening_hours":"Mo-Fr 09:00-18:00; Sa,Su 09:00-14:00","payment:credit_cards":"yes","payment:debit_cards":"yes","shop":"florist","website":"https:\/\/kukkakauppa24.fi\/kukkakauppa-lutukka\/","wheelchair":"no"}},{"type":"node","id":8831720834,"lat":60.1874823,"lon":24.9606921,"tags":{"access":"private","barrier":"gate","entrance":"garage"}},{"type":"node","id":8831720836,"lat":60.1874753,"lon":24.9605321,"tags":{"access":"yes","addr:housenumber":"2b","addr:street":"Helsinginkatu","entrance":"secondary","wheelchair":"no"}},{"type":"node","id":8831720837,"lat":60.1874586,"lon":24.9605561,"tags":{"addr:housenumber":"2b","addr:street":"Helsinginkatu","amenity":"fast_food","name":"S\u00f6rk\u00e4n Pippuri"}},{"type":"node","id":8831720840,"lat":60.1874703,"lon":24.9604252,"tags":{"access":"private","addr:housenumber":"2b","addr:street":"Helsinginkatu","addr:unit":"A","barrier":"gate","note":"Syv\u00e4ll\u00e4 talon uumenissa, mutta lukittu portti kadulle","ref":"A"}},{"type":"node","id":8831720842,"lat":60.1874642,"lon":24.9602979,"tags":{"access":"yes","addr:housenumber":"2","addr:street":"Helsinginkatu","entrance":"shop","wheelchair":"no"}},{"type":"node","id":10870309946,"lat":60.1875365,"lon":24.9610722,"tags":{"access":"yes","amenity":"bicycle_parking","bicycle_parking":"stands","capacity":"18","covered":"no","fee":"no"}},{"type":"node","id":11775636993,"lat":60.187875,"lon":24.9602005,"tags":{"entrance":"yes"}},{"type":"node","id":12045265830,"lat":60.1877877,"lon":24.9606123,"tags":{"addr:city":"Helsinki","addr:housenumber":"1","addr:postcode":"00500","addr:street":"Helsinginkatu","entrance":"yes","name":"Metro S\u00f6rn\u00e4inen A","name:fi":"Metro S\u00f6rn\u00e4inen A","name:sv":"Metro S\u00f6rn\u00e4s A","railway":"subway_entrance","ref":"A","wheelchair":"no"}},{"type":"node","id":12045265841,"lat":60.1878214,"lon":24.9611149,"tags":{"addr:city":"Helsinki","addr:housenumber":"1","addr:postcode":"00500","addr:street":"Helsinginkatu","entrance":"yes","name":"Metro S\u00f6rn\u00e4inen B","name:fi":"Metro S\u00f6rn\u00e4inen B","name:sv":"Metro S\u00f6rn\u00e4s B","railway":"subway_entrance","ref":"B","toilets:wheelchair":"yes","wheelchair":"yes"}},{"type":"node","id":12045265846,"lat":60.1877966,"lon":24.9611192,"tags":{"addr:city":"Helsinki","addr:housenumber":"1","addr:postcode":"00500","addr:street":"Helsinginkatu","entrance":"yes","name":"Metro S\u00f6rn\u00e4inen B","name:fi":"Metro S\u00f6rn\u00e4inen B","name:sv":"Metro S\u00f6rn\u00e4s B","railway":"subway_entrance","ref":"B","wheelchair":"yes"}},{"type":"node","id":12107751094,"lat":60.1877654,"lon":24.9603103,"tags":{"leaf_type":"broadleaved","natural":"tree"}},{"type":"node","id":12107791714,"lat":60.1878783,"lon":24.9603652,"tags":{"leaf_type":"broadleaved","natural":"tree"}},{"type":"node","id":12107791715,"lat":60.1878593,"lon":24.9603921,"tags":{"access":"yes","amenity":"bicycle_parking","bicycle_parking":"stands","capacity":"16","covered":"no","fee":"no"}},{"type":"node","id":12107791730,"lat":60.1880038,"lon":24.9604501,"tags":{"leaf_type":"broadleaved","natural":"tree"}},{"type":"node","id":12107791790,"lat":60.1878871,"lon":24.9611836,"tags":{"leaf_type":"broadleaved","natural":"tree"}},{"type":"node","id":12107791837,"lat":60.1879253,"lon":24.9605707,"tags":{"amenity":"bench","backrest":"yes","material":"metal","seats":"1"}},{"type":"node","id":12107791838,"lat":60.1879373,"lon":24.9605774,"tags":{"amenity":"bench","backrest":"yes","material":"metal","seats":"1"}},{"type":"node","id":12107791839,"lat":60.1879489,"lon":24.9605841,"tags":{"amenity":"bench","backrest":"yes","material":"metal","seats":"1"}},{"type":"node","id":12107791840,"lat":60.1879583,"lon":24.9605915,"tags":{"amenity":"bench","backrest":"yes","material":"metal","seats":"1"}},{"type":"node","id":12107791841,"lat":60.1878683,"lon":24.9603119,"tags":{"man_made":"street_cabinet"}},{"type":"node","id":12107791844,"lat":60.1879684,"lon":24.9607288,"tags":{"artist_name":"Komugi Ando;Teemu Salonen","artwork_type":"sculpture","memorial":"sculpture","name":"Torille!","name:fi":"Torille!","start_date":"2024","tourism":"artwork","website":"https:\/\/www.hamhelsinki.fi\/veistos\/torille\/"}},{"type":"node","id":12441484882,"lat":60.1877232,"lon":24.9609247,"tags":{"amenity":"bicycle_repair_station","service:bicycle:chain_tool":"no","service:bicycle:pump":"yes","service:bicycle:stand":"no","service:bicycle:tools":"no"}}]}