{"version":0.6,"generator":"Overpass API 0.7.62.5 1bd436f1","osm3s":{"timestamp_osm_base":"2025-03-12T12:44:15Z","copyright":"The data included in this document is from www.openstreetmap.org. The data is made available under ODbL."},"elements":[{"type":"node","id":207644258,"lat":60.1850313,"lon":24.9603944,"tags":{"source":"survey"}},{"type":"node","id":283302920,"lat":60.185223,"lon":24.9605128,"tags":{"addr:city":"Helsinki","addr:housenumber":"40","addr:postcode":"00500","addr:street":"H\u00e4meentie","description":"T\u00e4ysin hajusteeton kampaamo","name":"Hiusstudio Naava","payment:credit_cards":"yes","payment:debit_cards":"yes","phone":"+358451675772","shop":"hairdresser","website":"https:\/\/hiusstudionaava.fi"}},{"type":"node","id":283306597,"lat":60.1849206,"lon":24.9602001,"tags":{"addr:city":"Helsinki","addr:housenumber":"38","addr:postcode":"00500","addr:street":"H\u00e4meentie","name":"Salon Capelli","payment:credit_cards":"yes","payment:debit_cards":"yes","phone":"+358 45 238 6356","shop":"hairdresser","website":"https:\/\/www.kampaamoverkko.fi\/kampaamo.php?id=5865"}},{"type":"node","id":313772954,"lat":60.1846609,"lon":24.9600998,"tags":{"crossing":"uncontrolled","highway":"crossing"}},{"type":"node","id":313772968,"lat":60.1846281,"lon":24.960207,"tags":{"fi:hsl:helmi":"yes"}},{"type":"node","id":313772975,"lat":60.1848724,"lon":24.9606453,"tags":{"was:highway":"traffic_signals"}},{"type":"node","id":313772977,"lat":60.185048,"lon":24.9605674,"tags":{"was:highway":"traffic_signals"}},{"type":"node","id":512410282,"lat":60.1849716,"lon":24.9610535,"tags":{"addr:housenumber":"17a","addr:street":"H\u00e4meentie","beauty":"nails","level":"1","name":"Hollywood nails","payment:credit_cards":"yes","payment:debit_cards":"yes","shop":"beauty"}},{"type":"node","id":512410284,"lat":60.1847572,"lon":24.9609432,"tags":{"addr:city":"Helsinki","addr:country":"FI","addr:housenumber":"1","addr:street":"Lintulahdenaukio"}},{"type":"node","id":552935762,"lat":60.1847937,"lon":24.9607952,"tags":{"addr:city":"Helsinki","addr:country":"FI","addr:housenumber":"15b","addr:postcode":"00500","addr:street":"H\u00e4meentie"}},{"type":"node","id":673529781,"lat":60.1851561,"lon":24.9605106,"tags":{"barrier":"gate"}},{"type":"node","id":673529788,"lat":60.1848632,"lon":24.960146,"tags":{"access":"private","barrier":"gate","description":"With keycode"}},{"type":"node","id":685429231,"lat":60.1852174,"lon":24.9603736,"tags":{"access":"private","addr:housenumber":"40","addr:street":"H\u00e4meentie","addr:unit":"B","description":"With keycode","entrance":"staircase"}},{"type":"node","id":948463544,"lat":60.1850514,"lon":24.9604183,"tags":{"location":"wall","man_made":"survey_point","sky_visibility_approx":"25%","survey_point":"nail"}},{"type":"node","id":1526055637,"lat":60.1852918,"lon":24.9608058,"tags":{"diameter":"300","emergency":"fire_hydrant","fire_hydrant:position":"sidewalk","fire_hydrant:type":"underground","location":"underground"}},{"type":"node","id":2131997179,"lat":60.1846296,"lon":24.9603757,"tags":{"layer":"1","location":"overhead","traffic_sign":"FI:541b","traffic_sign:2":"FI:871[Kuorma- ja pakettiautot 9-15, 18-07 (0-24) 0-24]"}},{"type":"node","id":2131997181,"lat":60.1846948,"lon":24.9600811,"tags":{"traffic_signals:foot":"yes","traffic_signals:motor_vehicle":"yes"}},{"type":"node","id":2132012220,"lat":60.1846281,"lon":24.9602853,"tags":{"traffic_signals:foot":"yes"}},{"type":"node","id":2132012223,"lat":60.1848973,"lon":24.9607372,"tags":{"traffic_sign":"FI:511","traffic_signals:foot":"yes","traffic_signals:motor_vehicle":"yes"}},{"type":"node","id":2132012224,"lat":60.1849228,"lon":24.9606424,"tags":{"traffic_signals:foot":"yes","traffic_signals:tram":"yes"}},{"type":"node","id":2132012225,"lat":60.184964,"lon":24.9607058,"tags":{"traffic_signals:foot":"yes","traffic_signals:motor_vehicle":"yes","traffic_signals:tram":"yes"}},{"type":"node","id":2132012226,"lat":60.1850289,"lon":24.9604883,"tags":{"traffic_signals:foot":"yes","traffic_signals:motor_vehicle":"yes"}},{"type":"node","id":2296242987,"lat":60.1846648,"lon":24.9599456,"tags":{"traffic_sign":"FI:372","traffic_sign:2":"FI:855a[9-21]","traffic_sign:3":"FI:871[Vy\u00f6hyke 3 Ei koske P-tunnuksella I]","traffic_sign:4":"FI:871[\u2190 Lippuautomaatti]"}},{"type":"node","id":3119079639,"lat":60.1851854,"lon":24.9605365,"tags":{"traffic_sign":"FI:pelastustie"}},{"type":"node","id":3446672809,"lat":60.1851294,"lon":24.9611803,"tags":{"addr:city":"Helsinki","addr:housenumber":"17a","addr:postcode":"00500","addr:street":"H\u00e4meentie","name":"The Natural Beauty Shop Finland","opening_hours":"Mo-Sa 10:30-18:30","payment:credit_cards":"yes","payment:debit_cards":"yes","phone":"041 7871391","shop":"cosmetics","website":"http:\/\/www.naturalbeautyshopfinland.com\/"}},{"type":"node","id":3454219884,"lat":60.1850241,"lon":24.9611228,"tags":{"addr:housenumber":"17a","addr:postcode":"00500","addr:street":"H\u00e4meentie","name":"Kiinteist\u00f6 Oy Helsingin H\u00e4meentie 17a"}},{"type":"node","id":6331356044,"lat":60.1848767,"lon":24.9605828,"tags":{"bench":"yes","bin":"yes","lit":"yes","name":"Lintulahti","name:fi":"Lintulahti","name:sv":"F\u00e5gelvik","public_transport":"platform","railway":"tram_stop","ref":"H0311","shelter":"no","wheelchair":"yes","zone:HSL":"A"}},{"type":"node","id":6464175227,"lat":60.184733,"lon":24.9606932,"tags":{"addr:city":"Helsinki","addr:housenumber":"15","addr:postcode":"00500","addr:street":"H\u00e4meentie","name":"T\u00e4htisilm\u00e4","payment:credit_cards":"yes","payment:debit_cards":"yes","shop":"hairdresser"}},{"type":"node","id":8831931917,"lat":60.1852427,"lon":24.9611643,"tags":{"access":"yes","addr:housenumber":"17b","addr:street":"H\u00e4meentie","description":"With keycode","entrance":"yes"}},{"type":"node","id":8831931918,"lat":60.1850957,"lon":24.9610435,"tags":{"access":"yes","addr:housenumber":"17a","addr:street":"H\u00e4meentie","entrance":"yes"}},{"type":"node","id":8831931919,"lat":60.1850376,"lon":24.9609948,"tags":{"access":"private","addr:housenumber":"17a","addr:street":"H\u00e4meentie","addr:unit":"A","description":"With buzzer","entrance":"staircase"}},{"type":"node","id":8831931920,"lat":60.1850004,"lon":24.9609625,"tags":{"access":"yes","addr:housenumber":"17a","addr:street":"H\u00e4meentie","description":"With buzzer","entrance":"yes"}},{"type":"node","id":8831931921,"lat":60.184826,"lon":24.9607779,"tags":{"access":"yes","addr:housenumber":"15b","addr:street":"H\u00e4meentie","entrance":"yes"}},{"type":"node","id":8831931922,"lat":60.1848645,"lon":24.9609107,"tags":{"addr:housenumber":"15b","addr:street":"H\u00e4meentie","contact:instagram":"supertouch","level":"1","name":"Super Touch","opening_hours":"Tu-Fr 11:00-19:00;Sa 11:00-15:00","shop":"beauty"}},{"type":"node","id":8831931923,"lat":60.1847886,"lon":24.9607319,"tags":{"access":"yes","addr:city":"Helsinki","addr:housenumber":"15b","addr:postcode":"00500","addr:street":"H\u00e4meentie","description":"With buzzer","entrance":"staircase","level":"0","wheelchair":"yes"}},{"type":"node","id":8831931924,"lat":60.1847585,"lon":24.9606949,"tags":{"access":"yes","addr:housenumber":"15b","addr:street":"H\u00e4meentie","entrance":"yes"}},{"type":"node","id":8831931925,"lat":60.1846714,"lon":24.9605875,"tags":{"access":"private","addr:housenumber":"15a","addr:street":"H\u00e4meentie","description":"takaovi, Pien Brewpub","entrance":"yes"}},{"type":"node","id":8831931944,"lat":60.184756,"lon":24.9609847,"tags":{"access":"private","addr:city":"Helsinki","addr:housenumber":"15b","addr:postcode":"00500","addr:street":"H\u00e4meentie","door":"hinged","entrance":"staircase","level":"0"}},{"type":"node","id":8860167545,"lat":60.1847128,"lon":24.9600001,"tags":{"access":"private","addr:housenumber":"38","addr:street":"H\u00e4meentie","entrance":"yes"}},{"type":"node","id":8860167549,"lat":60.1849031,"lon":24.9602351,"tags":{"access":"yes","addr:housenumber":"38","addr:street":"H\u00e4meentie","entrance":"yes","wheelchair":"no"}},{"type":"node","id":8860167551,"lat":60.1850457,"lon":24.9603411,"tags":{"access":"private","addr:housenumber":"38","addr:street":"H\u00e4meentie","entrance":"secondary","wheelchair":"no"}},{"type":"node","id":8860167554,"lat":60.185272,"lon":24.9601143,"tags":{"access":"private","addr:housenumber":"40","addr:street":"H\u00e4meentie","addr:unit":"A","description":"With keycode","entrance":"staircase","wheelchair":"no"}},{"type":"node","id":8860225928,"lat":60.1852482,"lon":24.9605901,"tags":{"access":"private","addr:housenumber":"40","addr:street":"H\u00e4meentie","entrance":"yes","wheelchair":"no"}},{"type":"node","id":11086819199,"lat":60.1847362,"lon":24.9611104,"tags":{"amenity":"waste_basket"}},{"type":"node","id":11086819200,"lat":60.1847196,"lon":24.9610611,"tags":{"amenity":"bench","backrest":"yes","material":"wood","seats":"3"}},{"type":"node","id":11086819201,"lat":60.1846209,"lon":24.961008,"tags":{"denotation":"urban","genus":"Populus","leaf_cycle":"deciduous","leaf_type":"broadleaved","natural":"tree","species":"Populus tremula 'Erecta'","species:fi":"Pylv\u00e4shaapa"}},{"type":"node","id":11086819202,"lat":60.1846403,"lon":24.9610328,"tags":{"denotation":"urban","genus":"Populus","leaf_cycle":"deciduous","leaf_type":"broadleaved","natural":"tree","species":"Populus tremula 'Erecta'","species:fi":"Pylv\u00e4shaapa"}},{"type":"node","id":11086819203,"lat":60.1846574,"lon":24.9610552,"tags":{"denotation":"urban","genus":"Populus","leaf_cycle":"deciduous","leaf_type":"broadleaved","natural":"tree","species":"Populus tremula 'Erecta'","species:fi":"Pylv\u00e4shaapa"}},{"type":"node","id":11086819204,"lat":60.1846681,"lon":24.9610224,"tags":{"denotation":"urban","genus":"Populus","leaf_cycle":"deciduous","leaf_type":"broadleaved","natural":"tree","species":"Populus tremula 'Erecta'","species:fi":"Pylv\u00e4shaapa"}},{"type":"node","id":11086819405,"lat":60.1846495,"lon":24.9610001,"tags":{"denotation":"urban","genus":"Populus","leaf_cycle":"deciduous","leaf_type":"broadleaved","natural":"tree","species":"Populus tremula 'Erecta'","species:fi":"Pylv\u00e4shaapa"}},{"type":"node","id":11086819406,"lat":60.1846296,"lon":24.9609768,"tags":{"denotation":"urban","genus":"Populus","leaf_cycle":"deciduous","leaf_type":"broadleaved","natural":"tree","species":"Populus tremula 'Erecta'","species:fi":"Pylv\u00e4shaapa"}},{"type":"node","id":11086819408,"lat":60.1846309,"lon":24.9609289,"tags":{"noexit":"yes"}},{"type":"node","id":11086819417,"lat":60.1847854,"lon":24.9611914,"tags":{"denotation":"urban","genus":"Populus","leaf_cycle":"deciduous","leaf_type":"broadleaved","natural":"tree","species":"Populus tremula 'Erecta'","species:fi":"Pylv\u00e4shaapa"}},{"type":"node","id":11086819418,"lat":60.1848058,"lon":24.9611897,"tags":{"denotation":"urban","genus":"Populus","leaf_cycle":"deciduous","leaf_type":"broadleaved","natural":"tree","species":"Populus tremula 'Erecta'","species:fi":"Pylv\u00e4shaapa"}},{"type":"node","id":11086819419,"lat":60.1847975,"lon":24.9611543,"tags":{"denotation":"urban","genus":"Populus","leaf_cycle":"deciduous","leaf_type":"broadleaved","natural":"tree","species":"Populus tremula 'Erecta'","species:fi":"Pylv\u00e4shaapa"}},{"type":"node","id":12633756229,"lat":60.185277,"lon":24.9605658,"tags":{"beauty":"nails","contact:instagram":"naildealer","name":"Naildealer \/ Kynsibaari","shop":"beauty"}}]}