{"version":0.6,"generator":"Overpass API 0.7.62.5 1bd436f1","osm3s":{"timestamp_osm_base":"2025-03-12T12:45:15Z","copyright":"The data included in this document is from www.openstreetmap.org. The data is made available under ODbL."},"elements":[{"type":"node","id":76609838,"lat":60.1848357,"lon":24.9517632,"tags":{"addr:city":"Helsinki","addr:country":"FI","addr:housenumber":"3-5","addr:postcode":"00530","addr:street":"Kaarlenkatu","amenity":"bar","contact:facebook":"https:\/\/www.facebook.com\/helsingbar\/","internet_access":"wlan","lgbtq":"welcome","name":"Helsing Bar","opening_hours":"Mo-Su 15:00-02:00","payment:credit_cards":"yes","payment:debit_cards":"yes","website":"https:\/\/www.helsingbar.fi\/"}},{"type":"node","id":316249025,"lat":60.1852795,"lon":24.9517647,"tags":{"addr:city":"Helsinki","addr:country":"FI","addr:housenumber":"7","addr:street":"Kaarlenkatu"}},{"type":"node","id":316249027,"lat":60.1849109,"lon":24.9518142,"tags":{"addr:city":"Helsinki","addr:country":"FI","addr:housenumber":"5","addr:street":"Kaarlenkatu"}},{"type":"node","id":1526016507,"lat":60.1849923,"lon":24.9527763,"tags":{"addr:city":"Helsinki","addr:country":"FI","addr:housenumber":"6","addr:postcode":"00530","addr:street":"Fleminginkatu","amenity":"pub","indoor_seating":"yes","name":"Hendricks Pub Kallio","outdoor_seating":"yes"}},{"type":"node","id":2505694992,"lat":60.1852015,"lon":24.9528145,"tags":{"traffic_sign":"FI:531"}},{"type":"node","id":2505694993,"lat":60.1852157,"lon":24.9528003,"tags":{"entrance":"shop"}}]}