{"version":0.6,"generator":"Overpass API 0.7.62.5 1bd436f1","osm3s":{"timestamp_osm_base":"2025-03-12T12:17:00Z","copyright":"The data included in this document is from www.openstreetmap.org. The data is made available under ODbL."},"elements":[{"type":"node","id":34508695,"lat":60.1894419,"lon":24.9586635,"tags":{"check_date:crossing":"2022-10-28","crossing":"uncontrolled","highway":"crossing"}},{"type":"node","id":247360448,"lat":60.1893844,"lon":24.9589298,"tags":{"bicycle":"yes","crossing":"uncontrolled","crossing:island":"no","highway":"crossing"}},{"type":"node","id":1396205350,"lat":60.1893713,"lon":24.9594685,"tags":{"diameter":"200","hole:diameter":"40 cm","label":"GAS","man_made":"manhole","manhole":"gas","marker:shape":"rectangle (yellow)","operator":"HK Oy"}},{"type":"node","id":1416509000,"lat":60.1894461,"lon":24.9592105,"tags":{"check_date:crossing":"2022-10-07","crossing":"uncontrolled","highway":"crossing"}},{"type":"node","id":1416509065,"lat":60.1896324,"lon":24.95932,"tags":{"amenity":"bench","backrest":"no","check_date":"2021-06-10"}},{"type":"node","id":1416509075,"lat":60.1896732,"lon":24.9589899,"tags":{"amenity":"bench","backrest":"no","check_date":"2021-06-10"}},{"type":"node","id":1416509077,"lat":60.1896955,"lon":24.9593126,"tags":{"amenity":"bench","backrest":"no","check_date":"2021-06-10"}},{"type":"node","id":1416509079,"lat":60.1897242,"lon":24.9590235,"tags":{"amenity":"bench","backrest":"no","check_date":"2021-06-10"}},{"type":"node","id":1416509082,"lat":60.1897511,"lon":24.9593051,"tags":{"amenity":"bench","backrest":"no","check_date":"2021-06-10"}},{"type":"node","id":1416509084,"lat":60.1897687,"lon":24.9590496,"tags":{"amenity":"bench","backrest":"no","check_date":"2021-06-10"}},{"type":"node","id":1416509086,"lat":60.1898197,"lon":24.9590794,"tags":{"amenity":"bench","backrest":"no","check_date":"2021-06-10"}},{"type":"node","id":1709279126,"lat":60.1897779,"lon":24.9597966,"tags":{"highway":"street_lamp"}},{"type":"node","id":1709279128,"lat":60.1898598,"lon":24.9593386,"tags":{"highway":"street_lamp"}},{"type":"node","id":1709279132,"lat":60.1899522,"lon":24.959032,"tags":{"highway":"street_lamp"}},{"type":"node","id":1709279145,"lat":60.1900411,"lon":24.9586644,"tags":{"highway":"street_lamp"}},{"type":"node","id":1987680930,"lat":60.1896146,"lon":24.9593578,"tags":{"natural":"tree"}},{"type":"node","id":1987680933,"lat":60.1896898,"lon":24.9588353,"tags":{"natural":"tree"}},{"type":"node","id":1987680936,"lat":60.1896732,"lon":24.9593485,"tags":{"leaf_type":"broadleaved","natural":"tree"}},{"type":"node","id":1987680937,"lat":60.1897238,"lon":24.9593311,"tags":{"leaf_type":"broadleaved","natural":"tree"}},{"type":"node","id":1987680939,"lat":60.1897537,"lon":24.9588758,"tags":{"natural":"tree"}},{"type":"node","id":1987680956,"lat":60.1897777,"lon":24.959325,"tags":{"leaf_type":"broadleaved","natural":"tree"}},{"type":"node","id":1987680961,"lat":60.1898032,"lon":24.9585048,"tags":{"natural":"tree"}},{"type":"node","id":1987680967,"lat":60.1898013,"lon":24.9589061,"tags":{"natural":"tree"}},{"type":"node","id":1987680977,"lat":60.1898618,"lon":24.9585348,"tags":{"natural":"tree"}},{"type":"node","id":1987680980,"lat":60.1898646,"lon":24.9589388,"tags":{"natural":"tree"}},{"type":"node","id":1987680985,"lat":60.1899134,"lon":24.9585719,"tags":{"natural":"tree"}},{"type":"node","id":1987680987,"lat":60.189962,"lon":24.9586015,"tags":{"leaf_type":"broadleaved","natural":"tree"}},{"type":"node","id":2060113802,"lat":60.1893965,"lon":24.9587197,"tags":{"traffic_sign":"FI:511"}},{"type":"node","id":2060113805,"lat":60.1894043,"lon":24.9592705,"tags":{"traffic_sign":"FI:511","traffic_sign:2":"FI:331"}},{"type":"node","id":2441926312,"lat":60.1895141,"lon":24.9593186,"tags":{"traffic_sign":"FI:511"}},{"type":"node","id":2459202514,"lat":60.1895029,"lon":24.9590154,"tags":{"diameter":"600","emergency":"fire_hydrant","location":"underground"}},{"type":"node","id":2459202515,"lat":60.1895554,"lon":24.9593123,"tags":{"pipelinemarker":"multiple"}},{"type":"node","id":2459203819,"lat":60.1894843,"lon":24.9594952,"tags":{"traffic_sign":"FI:371","traffic_sign:2":"FI:871[Ei koske City Car Clubin autoja]"}},{"type":"node","id":2460265458,"lat":60.1895095,"lon":24.9586408,"tags":{"traffic_sign":"FI:372","traffic_sign:2":"FI:855a[9-21]","traffic_sign:3":"FI:871[Vy\u00f6hyke 3 Ei koske P-tunnuksella J]"}},{"type":"node","id":2460273313,"lat":60.1895229,"lon":24.9587806,"tags":{"traffic_sign":"FI:425"}},{"type":"node","id":2538821960,"lat":60.1895093,"lon":24.9587525,"tags":{"traffic_sign":"FI:511"}},{"type":"node","id":2668436051,"lat":60.1898332,"lon":24.9590943,"tags":{"traffic_sign":"FI:644[vandalized]","traffic_sign:2":"FI:644[Brahenpuiston koira-aitaus][600m]"}},{"type":"node","id":3461611336,"lat":60.189574,"lon":24.9593123,"tags":{"addr:city":"Helsinki","addr:postcode":"00500","addr:street":"Aleksis Kiven katu","historic":"memorial","memorial":"plaque","name":"Dallap\u00e9-orkesterin muistolaatta","start_date":"2005","wheelchair":"yes","wikidata":"Q11855725","wikimedia_commons":"Category:Dallap\u00e9npuisto","wikipedia":"fi:Dallap\u00e9npuisto"}},{"type":"node","id":3800868561,"lat":60.1893679,"lon":24.9597227,"tags":{"denotation":"street","leaf_cycle":"deciduous","leaf_type":"broadleaved","natural":"tree","species":"Tilia x europaea","species:fi":"Puistolehmus","species:wikidata":"Q163760","species:wikipedia":"fi:Puistolehmus"}},{"type":"node","id":3800868581,"lat":60.1894067,"lon":24.9593542,"tags":{"denotation":"street","leaf_cycle":"deciduous","leaf_type":"broadleaved","natural":"tree","species":"Tilia x europaea","species:fi":"Puistolehmus","species:wikidata":"Q163760","species:wikipedia":"fi:Puistolehmus"}},{"type":"node","id":3800868582,"lat":60.1894086,"lon":24.959629,"tags":{"denotation":"street","leaf_cycle":"deciduous","leaf_type":"broadleaved","natural":"tree","species":"Tilia x europaea","species:fi":"Puistolehmus","species:wikidata":"Q163760","species:wikipedia":"fi:Puistolehmus"}},{"type":"node","id":3800868583,"lat":60.1894091,"lon":24.9594722,"tags":{"denotation":"street","leaf_cycle":"deciduous","leaf_type":"broadleaved","natural":"tree","species":"Tilia x europaea","species:fi":"Puistolehmus","species:wikidata":"Q163760","species:wikipedia":"fi:Puistolehmus"}},{"type":"node","id":3800868584,"lat":60.1894096,"lon":24.9597915,"tags":{"denotation":"street","leaf_cycle":"deciduous","leaf_type":"broadleaved","natural":"tree","species":"Tilia x europaea","species:fi":"Puistolehmus","species:wikidata":"Q163760","species:wikipedia":"fi:Puistolehmus"}},{"type":"node","id":3800868610,"lat":60.1895306,"lon":24.9595267,"tags":{"natural":"tree"}},{"type":"node","id":3800868614,"lat":60.189532,"lon":24.9597115,"tags":{"natural":"tree"}},{"type":"node","id":3800868617,"lat":60.1895335,"lon":24.9598053,"tags":{"natural":"tree"}},{"type":"node","id":3800868625,"lat":60.1895359,"lon":24.9596196,"tags":{"natural":"tree"}},{"type":"node","id":3800868627,"lat":60.1895365,"lon":24.9587454,"tags":{"natural":"tree"}},{"type":"node","id":3800868628,"lat":60.1895707,"lon":24.9585896,"tags":{"natural":"tree"}},{"type":"node","id":3800868629,"lat":60.1895837,"lon":24.9586235,"tags":{"natural":"tree"}},{"type":"node","id":3800868631,"lat":60.189601,"lon":24.958786,"tags":{"natural":"tree"}},{"type":"node","id":3800868632,"lat":60.1896048,"lon":24.9586273,"tags":{"natural":"tree"}},{"type":"node","id":3800868633,"lat":60.1896212,"lon":24.9586128,"tags":{"natural":"tree"}},{"type":"node","id":3800868648,"lat":60.1898804,"lon":24.9598347,"tags":{"denotation":"street","leaf_cycle":"deciduous","leaf_type":"broadleaved","natural":"tree","species":"Tilia x europaea","species:fi":"Puistolehmus","species:wikidata":"Q163760","species:wikipedia":"fi:Puistolehmus"}},{"type":"node","id":3800868651,"lat":60.1899116,"lon":24.959648,"tags":{"denotation":"street","leaf_cycle":"deciduous","leaf_type":"broadleaved","natural":"tree","species":"Tilia x europaea","species:fi":"Puistolehmus","species:wikidata":"Q163760","species:wikipedia":"fi:Puistolehmus"}},{"type":"node","id":3800868653,"lat":60.1899381,"lon":24.9594893,"tags":{"denotation":"street","leaf_cycle":"deciduous","leaf_type":"broadleaved","natural":"tree","species":"Tilia x europaea","species:fi":"Puistolehmus","species:wikidata":"Q163760","species:wikipedia":"fi:Puistolehmus"}},{"type":"node","id":3800868654,"lat":60.1899703,"lon":24.9593152,"tags":{"denotation":"street","leaf_cycle":"deciduous","leaf_type":"broadleaved","natural":"tree","species":"Tilia x europaea","species:fi":"Puistolehmus","species:wikidata":"Q163760","species:wikipedia":"fi:Puistolehmus"}},{"type":"node","id":3800868655,"lat":60.1900016,"lon":24.9591497,"tags":{"denotation":"street","leaf_cycle":"deciduous","leaf_type":"broadleaved","natural":"tree","species":"Tilia x europaea","species:fi":"Puistolehmus","species:wikidata":"Q163760","species:wikipedia":"fi:Puistolehmus"}},{"type":"node","id":3800868656,"lat":60.1900319,"lon":24.9589717,"tags":{"denotation":"street","leaf_cycle":"deciduous","leaf_type":"broadleaved","natural":"tree","species":"Tilia x europaea","species:fi":"Puistolehmus","species:wikidata":"Q163760","species:wikipedia":"fi:Puistolehmus"}},{"type":"node","id":8887345269,"lat":60.1898468,"lon":24.9589977,"tags":{"access":"yes","description":"Ilmainen julkinen yleis\u00f6-WC\nAlm\u00e4nn toalett\nFree public toilet","fee":"no","name":"Dallap\u00e9npuiston yleis\u00f6vessa","note":"Poistettiin paikalta, korjaus joskus: https:\/\/www.hs.fi\/kaupunki\/art-2000009607825.html?","was:amenity":"toilets","wheelchair":"yes"}},{"type":"node","id":9856379693,"lat":60.1895631,"lon":24.9589256,"tags":{"access":"yes","amenity":"bicycle_parking","bicycle_parking":"stands","capacity":"10","covered":"no","fee":"no"}}]}