{"version":0.6,"generator":"Overpass API 0.7.61.5 4133829e","osm3s":{"timestamp_osm_base":"2023-08-13T09:21:25Z","copyright":"The data included in this document is from www.openstreetmap.org. The data is made available under ODbL."},"elements":[{"type":"node","id":299979865,"lat":60.1628846,"lon":24.9480217,"tags":{"crossing":"uncontrolled","highway":"crossing"}},{"type":"node","id":314934598,"lat":60.1629659,"lon":24.9481222,"tags":{"crossing":"uncontrolled","highway":"crossing"}},{"type":"node","id":314934602,"lat":60.1627953,"lon":24.9481424,"tags":{"crossing":"uncontrolled","highway":"crossing"}},{"type":"node","id":317119762,"lat":60.162854,"lon":24.9480237,"tags":{"crossing":"uncontrolled","highway":"crossing"}},{"type":"node","id":438623939,"lat":60.16246,"lon":24.948052,"tags":{"amenity":"vending_machine","currency:EUR":"yes","opening_hours":"Mo-Fr 09:00-19:00","operator":"HKR","parking:ticket:zone":"2","payment:coins":"yes","ref":"273","vending":"parking_tickets"}},{"type":"node","id":438624042,"lat":60.16278,"lon":24.947188,"tags":{"amenity":"vending_machine","currency:EUR":"yes","opening_hours":"Mo-Fr 09:00-19:00; Sa 09:00-18:00","operator":"HKR","parking:ticket:zone":"1","payment:coins":"yes","payment:credit_cards":"yes","ref":"433","vending":"parking_tickets"}},{"type":"node","id":526771273,"lat":60.1623459,"lon":24.9480589,"tags":{"addr:city":"Helsinki","addr:country":"FI","addr:housenumber":"20","addr:street":"Kasarmikatu"}},{"type":"node","id":3083611421,"lat":60.1625515,"lon":24.947975,"tags":{"traffic_sign":"FI:342[2,3 m]"}},{"type":"node","id":3083611423,"lat":60.1627711,"lon":24.9480517,"tags":{"traffic_sign":"FI:372","traffic_sign:2":"FI:855a[9-21]","traffic_sign:3":"FI:871[Vy\u00f6hyke 2 Ei koske P-tunnuksella C]"}},{"type":"node","id":3083611425,"lat":60.1627794,"lon":24.9470328,"tags":{"traffic_sign":"FI:372"}},{"type":"node","id":3083611426,"lat":60.1627868,"lon":24.9472094,"tags":{"traffic_sign":"FI:521","traffic_sign:2":"FI:855b[9-21 (9-18)]","traffic_sign:3":"FI:871[Vy\u00f6hyke 1 Kertamaksu enint. 60 min]","traffic_sign:4":"FI:871[Ei koske P-tunnuksella B\/C]","traffic_sign:5":"FI:521c[right]","traffic_sign:6":"FI:871[Lippuautomaatti]"}},{"type":"node","id":3083611427,"lat":60.1628306,"lon":24.947872,"tags":{"traffic_sign":"FI:521","traffic_sign:2":"FI:855b[9-21 (9-18)]","traffic_sign:3":"FI:871[Vy\u00f6hyke 1 Kertamaksu enint. 60 min]","traffic_sign:4":"FI:871[Ei koske P-tunnuksella B\/C]","traffic_sign:5":"FI:521c[\/]","traffic_sign:6":"FI:871[Lippuautomaatti \u2192]","traffic_sign:7":"FI:826[right]"}},{"type":"node","id":3083611428,"lat":60.1629147,"lon":24.9479739,"tags":{"traffic_sign":"FI:551[left]","traffic_sign:2":"FI:371"}},{"type":"node","id":3339721588,"lat":60.1629673,"lon":24.9479766,"tags":{"traffic_sign":"FI:511"}},{"type":"node","id":4741957916,"lat":60.1623843,"lon":24.9480181,"tags":{"name":"Salon Era","payment:credit_cards":"yes","payment:debit_cards":"yes","phone":"+3589605602","shop":"hairdresser"}},{"type":"node","id":6979844138,"lat":60.1624616,"lon":24.9481869,"tags":{"man_made":"manhole","manhole":"unknown"}},{"type":"node","id":6979844139,"lat":60.1624204,"lon":24.9481885,"tags":{"crossing":"uncontrolled","highway":"crossing"}},{"type":"node","id":6979844140,"lat":60.1624218,"lon":24.9482401,"tags":{"crossing":"uncontrolled","highway":"crossing"}},{"type":"node","id":6979844177,"lat":60.1626854,"lon":24.9482626,"tags":{"label":"Tele","man_made":"manhole","manhole":"telecom"}},{"type":"node","id":6985817699,"lat":60.1628571,"lon":24.9481299,"tags":{"man_made":"manhole","manhole":"water"}},{"type":"node","id":6985817700,"lat":60.1628686,"lon":24.9481293,"tags":{"man_made":"manhole","manhole":"water"}},{"type":"node","id":6985817701,"lat":60.1628683,"lon":24.94812,"tags":{"man_made":"manhole","manhole":"unknown"}},{"type":"node","id":7668786902,"lat":60.1623122,"lon":24.9480711,"tags":{"access":"yes","addr:housenumber":"20","addr:street":"Kasarmikatu","description":"With keycode","entrance":"main","wheelchair":"yes"}},{"type":"node","id":7668786908,"lat":60.1623068,"lon":24.9480718,"tags":{"access":"yes","addr:housenumber":"20","addr:street":"Kasarmikatu","entrance":"staircase","wheelchair":"no"}},{"type":"node","id":7668786916,"lat":60.1623175,"lon":24.9474999,"tags":{"access":"yes","addr:housenumber":"20","addr:street":"Kasarmikatu","addr:unit":"E","entrance":"staircase","wheelchair":"no"}},{"type":"node","id":7668786918,"lat":60.1623235,"lon":24.9474991,"tags":{"access":"yes","addr:housenumber":"20","addr:street":"Kasarmikatu","addr:unit":"F","entrance":"staircase","wheelchair":"no"}},{"type":"node","id":7668786920,"lat":60.1623489,"lon":24.9474959,"tags":{"access":"yes","addr:housenumber":"20","addr:street":"Kasarmikatu","entrance":"secondary","wheelchair":"no"}}]}