{"version":0.6,"generator":"Overpass API 0.7.62.5 1bd436f1","osm3s":{"timestamp_osm_base":"2025-03-12T12:21:00Z","copyright":"The data included in this document is from www.openstreetmap.org. The data is made available under ODbL."},"elements":[{"type":"way","id":19852454,"nodes":[207644420,685429231,8860167554,207644421,207644423,8860167555,207644424,8860225928,3119079639,207644420],"tags":{"addr:city":"Helsinki","addr:country":"FI","addr:housenumber":"40","addr:postcode":"00500","addr:street":"H\u00e4meentie","building":"residential","building:levels":"8"}},{"type":"way","id":19852468,"nodes":[1016087509,8860077745,207645585,8860167567,207645586,673529785,1855956700,8860167563,1855956699,1016086878,1016087509],"tags":{"addr:city":"Helsinki","addr:housenumber":"44","addr:postcode":"00500","addr:street":"H\u00e4meentie","building":"residential","building:levels":"8","building:maintenance:operator":"Huoltoalanen Oy","guard:operator":"Turvatiimi","operator":"Sato Oyj"}},{"type":"way","id":24768668,"nodes":[269160475,8860167561,3119079640,1819102604,8860167557,1819102609,269160477,269160478,673529767,269160475],"tags":{"addr:city":"Helsinki","addr:housenumber":"42","addr:postcode":"00500","addr:street":"H\u00e4meentie","building":"residential","building:levels":"8","guard:operator":"Vartio\u00e4ss\u00e4t","operator":"Sato Oyj","roof:levels":"0","roof:orientation":"along","roof:shape":"pitched"}},{"type":"way","id":24768877,"nodes":[269163805,2437496217,269182775,2437496216,313771947,2437496215,269182776,313771948,269182777,269163806],"tags":{"was:highway":"footway"}},{"type":"way","id":24771097,"nodes":[207645594,3120513488,3120513489,8860077773,8860077770,207645596,685434080,1807598791,1807598795,1807598822,1807598829,1807598835,207645597,8860077762,1807598837,956916408,8860077759,9679275489,8860077757,207645598,3121969499,8860077754,8860077751,8860077750,1807657393,1528618307,1807657394,1807657395,1807658536,1016087509,8860077745,207645585,8860167567,207645586,8860167565,3119079643,673529747,673529796,673529779,3119079641,673529755,269160475,8860167561,3119079640,673529794,673529773,673529782,207644424,8860225928,3119079639,207644420,673529781,673529762,948463544,207644258,207644259,8860167549,673529759,673529770,207645592,8860167545,207645593,3119079638,8860077789,8860077787,1528618304,8860077784,8860077782,8860077779,1806663294,207645594],"tags":{"landuse":"residential"}},{"type":"way","id":28562899,"nodes":[313771946,1016087563,8142260334,313771947],"tags":{"was:highway":"platform"}},{"type":"way","id":36732506,"nodes":[269167197,269162970,8440011425],"tags":{"highway":"residential","lanes":"1","lit":"yes","maxspeed":"40","name":"H\u00e4meentie","name:fi":"H\u00e4meentie","name:sv":"Tavastv\u00e4gen","oneway":"yes","parking:condition:right":"no_stopping","parking:condition:right:time_interval":"Mo-Fr 07:00-18:00;Sa 09:00-15:00","parking:left":"no","parking:left:restriction":"no_stopping","parking:right":"no","parking:right:restriction":"no_parking","sidewalk:left":"no","sidewalk:right":"separate","snowplowing":"yes","surface":"asphalt","taxi":"yes"}},{"type":"way","id":38341712,"nodes":[8831555642,1505146088,8831555645,8831555647,8831555649,8831555651,1524453415,8831555658,8831555660,1505146069,1524453286,8831555663,8831555665,8831555667,8831555669,8831555670,210482882,1505146038,6318508344,6318508345,1528653114,1528653105,8861964928,452815143,6190144651,6190144650,6190144671,6190144674,6190144687,1528652724,3120513480,848590996,5871005967,11595288010,207114319,207114318,1016086997,207113519,1530480659,449728838,449728837],"tags":{"admin_level":"10","boundary":"administrative"}},{"type":"way","id":47215916,"nodes":[1526055789,8315807739,948464658,1526055743,948464681,1526055637,11278785862,948464669,1528652564],"tags":{"diameter":"300","layer":"-1","location":"underground","man_made":"pipeline","substance":"water"}},{"type":"way","id":53214883,"nodes":[673529784,673529779,3119079641,673529755,269160475,673529767,673529758,673529799,673529769,673529784],"tags":{"building":"retail","building:levels":"1","roof:shape":"flat"}},{"type":"way","id":53214884,"nodes":[207644424,673529782,673529773,673529794,3119079640],"tags":{"barrier":"fence"}},{"type":"way","id":53214886,"nodes":[673529779,673529796,673529747],"tags":{"barrier":"gate"}},{"type":"way","id":53214889,"nodes":[207645586,8860167565,3119079643,673529747,673529775,673529785,207645586],"tags":{"building":"yes","building:levels":"1"}},{"type":"way","id":53214890,"nodes":[269162968,269182764,673529794,8860167560,8860167558,3461568514,8860167556,673529777],"tags":{"emergency":"designated","highway":"service","parking:enforcement:operator":"ParkPatrol","pihatie":"yksityisalue","service":"driveway"}},{"type":"way","id":53214892,"nodes":[269162969,673529763,673529796,3461568190,8860167564,673529753],"tags":{"emergency":"designated","highway":"service","pihatie":"yksityisalue","service":"driveway"}},{"type":"way","id":53214894,"nodes":[673529757,673529766,673529782,673529798],"tags":{"highway":"service"}},{"type":"way","id":54395625,"nodes":[685434085,8860189654,685434087,685434088,685434090,685434091,673529754],"tags":{"highway":"footway","lit":"yes","parking:enforcement:operator":"ParkPatrol","pihatie":"yksityisalue","surface":"paved"}},{"type":"way","id":87377262,"nodes":[8440011422,8861964940,8861964939,8861964938,8861964937,269297760,8861964936,8861964935,8861964934,8861964933,269299412,8861964932,8861964931,1016088166,1194335330,269163806],"tags":{"bicycle":"designated","cycleway:surface":"asphalt","foot":"designated","footway:surface":"asphalt","highway":"cycleway","lit":"yes","oneway":"yes","segregated":"yes","snowplowing":"yes","surface":"asphalt"}},{"type":"way","id":87377277,"nodes":[1016087888,1526055697,3121969498,1016087560,1016087319,452815174,8860077756,8860077752,8860077753,9679341979,9679341980,8860077748,8860077749,8860077746,452815173,269182773],"tags":{"bicycle":"no","footway":"sidewalk","highway":"footway","lit":"yes","snowplowing":"yes","surface":"paved"}},{"type":"way","id":87377286,"nodes":[1528618307,1807657394,1807657395,1807658536,1016087509,1016086878,1807657392,1528618306,1528618307],"tags":{"addr:city":"Helsinki","addr:country":"FI","addr:housenumber":"2b","addr:street":"Torkkelinkatu","building":"apartments","building:levels":"8","building:maintenance:operator":"Kanta-Helsingin Kiinteist\u00f6huolto Oy","start_date":"1939"}},{"type":"way","id":139430308,"nodes":[956916408,8860077759,9679275489,8860077757,9679320717,207645598,3121969499,8860077754,8860077751,8860077750,1807657393,1528618307,1528618306,1807657391,9679378191,207645587,956916416,956916408],"tags":{"addr:housenumber":"21","addr:street":"Pengerkatu","building":"yes","building:levels":"8"}},{"type":"way","id":139435835,"nodes":[1528652634,1528652655,1528652697,1528652695,1528652799,1528652839,6190144687,6190144674,6190144671,6190144650,6190144651,452815142,1016087052,1524453376,1524453355,6190144653,6190144652,1870046416,1870046409,1528653080,1528653072,6190144658,1528653067,1528653071,8861960503,1528653056,1016088173,8861960505,1016087553,8075332833,1528653069,426945147,9455302755,1528653054,1533277962,1528653020,10977319366,1528653014,1528652852,1528652803,7732516622,1528652718,1528652721,10977334405,1528652765,8835232383,1528652801,1528652834,1528652844,1528652851,1528652856,10977319403,1528652862,1528652872,10977319404,1528652888,1528652905,1528652903,1528652918,1528652917,1528652915,10977319399,1528652912,10977319398,1528652911,10977319397,1528652892,1528652878,1528652871,1528652858,1528652854,10977319396,1528652848,10977319395,1528652835,1528652820,1528652795,1528652760,1528652720,10977319394,10977319393,1246695239,10977319332,1246695237,179916815,1334714134,179916824,8831931933,8831931931,1528652594,1528652634],"tags":{"landuse":"residential","name":"Lintulahti"}},{"type":"way","id":169602145,"nodes":[1807657393,1807657391],"tags":{"highway":"service","service":"driveway","tunnel":"yes"}},{"type":"way","id":169602146,"nodes":[1807657394,1807657392],"tags":{"highway":"service","service":"driveway","tunnel":"yes"}},{"type":"way","id":170783580,"nodes":[1819274242,1016088125,313772975,269162849,1016088271,6331356039,6331356038,6331356037,269160399,313772974,269182777,269160400],"tags":{"bicycle":"use_sidepath","highway":"residential","lanes":"1","lit":"yes","maxspeed":"40","name":"H\u00e4meentie","name:fi":"H\u00e4meentie","name:sv":"Tavastv\u00e4gen","oneway":"yes","parking:both":"no","parking:both:restriction":"no_stopping","paved:date":"2015","sidewalk:left":"no","sidewalk:right":"separate","smoothness":"good","snowplowing":"yes","surface":"asphalt","taxi":"yes"}},{"type":"way","id":203219811,"nodes":[269162969,1016087048,269182775,269162968,673529757,269162967,313772977,269163629,6331356033,673529761,313772978],"tags":{"bicycle":"use_sidepath","highway":"residential","lanes":"1","lit":"yes","maxspeed":"40","name":"H\u00e4meentie","name:fi":"H\u00e4meentie","name:sv":"Tavastv\u00e4gen","oneway":"yes","parking:condition:right":"no_stopping","parking:condition:right:time_interval":"Mo-Fr 07:00-18:00;Sa 09:00-15:00","parking:left":"no","parking:left:restriction":"no_stopping","parking:right":"no","parking:right:restriction":"no_parking","sidewalk:left":"no","sidewalk:right":"separate","snowplowing":"yes","surface":"asphalt","taxi":"yes"}},{"type":"way","id":203219813,"nodes":[2132012233,2132012234],"tags":{"layer":"1","location":"overhead","man_made":"beam"}},{"type":"way","id":203219817,"nodes":[2132012237,2132012235,2132012232,2132012230],"tags":{"was:barrier":"guard_rail"}},{"type":"way","id":338973635,"nodes":[685434088,3461565968,3461565969,3461568512,3461565970,3461565971,673529777],"tags":{"highway":"footway","pihatie":"yksityisalue","surface":"asphalt"}},{"type":"way","id":338973676,"nodes":[3461565971,3461567583,3461567584,3461567585,3461567586,3461567587,673529753],"tags":{"highway":"footway","pihatie":"yksityisalue","surface":"asphalt"}},{"type":"way","id":338973771,"nodes":[3461567585,3461568188,3461568189,3461568190],"tags":{"highway":"footway","pihatie":"yksityisalue","surface":"asphalt"}},{"type":"way","id":338973797,"nodes":[3461568512,3461568513,3461568514],"tags":{"highway":"footway","pihatie":"yksityisalue","surface":"asphalt"}},{"type":"way","id":462782309,"nodes":[8440011424,8860167568,8860167566,673529763,10716691084,10716691085,8860167562,269163805],"tags":{"bicycle":"designated","cycleway:surface":"asphalt","foot":"designated","footway:surface":"asphalt","highway":"cycleway","lit":"yes","oneway":"yes","segregated":"yes","snowplowing":"yes","surface":"asphalt"}},{"type":"way","id":676058205,"nodes":[313772983,11766458366,6331356055,6331356054,6331356053,6331356052,6331356051,6331356050,6331356049,6331356048,6331356047,6331356069,6331356070,6331356071,6331356072,6331356073,6331356074,6331356078,11766491865,6331356090,6331356089,6331356088,6331356087,6331356086,6331356085,6331356289,6331356266,9929522945,6331356288,7474813963,6331356287,7474813962,6331356286,6331356285,6331356284,6331356283,6331356282,6331356281,6331356280,7474813958,6331356233,6331356290],"tags":{"electrified":"contact_line","frequency":"0","gauge":"1000","oneway":"yes","operator":"HKL-Raitioliikenne","railway":"tram","voltage":"600"}},{"type":"way","id":676058208,"nodes":[6331356308,6331356235,6331356307,6331356293,6331356306,6331356305,6331356304,6331356303,6331356302,6331356301,6331356262,6331356299,6331356111,11766491864,6331356298,6331356124,6331356123,6331356122,6331356121,6331356120,6331356119,11766491866,6331356081,6331356077,6331356076,6331356075,6331356067,6331356066,6331356065,6331356064,6331356063,6331356062,6331356061,6331356060,6331356059,6331356058,6331356057,6331356056,11766458367,313772985],"tags":{"electrified":"contact_line","frequency":"0","gauge":"1000","oneway":"yes","operator":"HKL-Raitioliikenne","railway":"tram","voltage":"600"}},{"type":"way","id":908835884,"nodes":[269163805,269182764,673529766,8860225929,269182765,8860167552,269182766,8860167550,673529749,8440011421],"tags":{"bicycle":"designated","cycleway:surface":"asphalt","foot":"designated","footway:surface":"asphalt","highway":"cycleway","lit":"yes","oneway":"yes","segregated":"yes","snowplowing":"yes","surface":"asphalt"}},{"type":"way","id":908976676,"nodes":[269182773,8440011424],"tags":{"bicycle":"no","footway":"sidewalk","highway":"footway","lit":"yes","snowplowing":"yes","surface":"asphalt"}},{"type":"way","id":908976677,"nodes":[8440011425,8440011424],"tags":{"foot":"no","highway":"cycleway","oneway":"yes","surface":"asphalt"}},{"type":"way","id":957531270,"nodes":[8860077746,8860077745],"tags":{"handrail":"no","highway":"steps","incline":"up","ramp":"no","step_count":"2"}},{"type":"way","id":957531271,"nodes":[1807657395,8860077748],"tags":{"highway":"footway"}},{"type":"way","id":957531272,"nodes":[8860077749,1807658536],"tags":{"handrail":"no","highway":"steps","incline":"up","ramp":"no","step_count":"1"}},{"type":"way","id":957531274,"nodes":[8860077750,8860077753],"tags":{"highway":"footway"}},{"type":"way","id":957538535,"nodes":[8860167555,3461568513],"tags":{"highway":"footway"}},{"type":"way","id":957538536,"nodes":[1819102609,8860167556],"tags":{"handrail":"yes","highway":"steps","ramp":"no","step_count":"3"}},{"type":"way","id":957538537,"nodes":[8860167558,8860167557],"tags":{"highway":"steps","incline":"up","step_count":"1"}},{"type":"way","id":957538538,"nodes":[8860167560,1819102604],"tags":{"handrail":"no","highway":"steps","incline":"up","step_count":"1"}},{"type":"way","id":957538539,"nodes":[8860167561,8860167562],"tags":{"handrail":"no","highway":"steps","incline":"up","ramp":"no","step_count":"2","surface":"paving_stones"}},{"type":"way","id":957538540,"nodes":[1855956699,3461567587],"tags":{"highway":"footway"}},{"type":"way","id":957538541,"nodes":[8860167563,8860167564],"tags":{"highway":"footway"}},{"type":"way","id":957538542,"nodes":[1855956700,8860167563],"tags":{"handrail":"yes","highway":"steps","ramp":"no","step_count":"7"}},{"type":"way","id":957538543,"nodes":[8860167565,8860167566],"tags":{"handrail":"no","highway":"steps","incline":"up","ramp":"no","step_count":"2","surface":"paving_stones"}},{"type":"way","id":957538544,"nodes":[8860167567,8860167568],"tags":{"handrail":"no","highway":"steps","incline":"down","ramp":"no","step_count":"1","surface":"paving_stones"}},{"type":"way","id":957744158,"nodes":[8831910416,8861964932],"tags":{"highway":"footway","lit":"yes","smoothness":"good","surface":"paving_stones"}},{"type":"way","id":1041509573,"nodes":[8440011425,269162969],"tags":{"highway":"residential","lanes":"1","lit":"yes","maxspeed":"40","name":"H\u00e4meentie","name:fi":"H\u00e4meentie","name:sv":"Tavastv\u00e4gen","oneway":"yes","parking:condition:right":"no_stopping","parking:condition:right:time_interval":"Mo-Fr 07:00-18:00;Sa 09:00-15:00","parking:left":"no","parking:left:restriction":"no_stopping","parking:right":"no","parking:right:restriction":"no_parking","sidewalk:left":"no","sidewalk:right":"separate","snowplowing":"yes","surface":"asphalt","taxi":"yes"}},{"type":"way","id":1053253949,"nodes":[9679341978,9679341979,1807657393],"tags":{"highway":"service","service":"driveway"}},{"type":"way","id":1053253950,"nodes":[9679341981,9679341980,1807657394],"tags":{"highway":"service","service":"driveway"}},{"type":"way","id":1053256997,"nodes":[1807657391,9679378192,9679378193,9679378191],"tags":{"highway":"footway"}},{"type":"node","id":179916815,"lat":60.1842837,"lon":24.9618955},{"type":"node","id":179916824,"lat":60.1841295,"lon":24.9616898},{"type":"node","id":207113519,"lat":60.1833154,"lon":24.9587688},{"type":"node","id":207114318,"lat":60.1837302,"lon":24.9593144},{"type":"node","id":207114319,"lat":60.1839174,"lon":24.9595556},{"type":"node","id":207644259,"lat":60.1849222,"lon":24.9602589},{"type":"node","id":207645592,"lat":60.1848028,"lon":24.9601127},{"type":"node","id":207645593,"lat":60.1846919,"lon":24.9599739},{"type":"node","id":269162849,"lat":60.1849301,"lon":24.9607099},{"type":"node","id":269163629,"lat":60.1849877,"lon":24.9605076},{"type":"node","id":269297760,"lat":60.1849115,"lon":24.9607773},{"type":"node","id":313772975,"lat":60.1848724,"lon":24.9606453},{"type":"node","id":313772978,"lat":60.1846918,"lon":24.9601399},{"type":"node","id":313772983,"lat":60.1844793,"lon":24.9600347},{"type":"node","id":313772985,"lat":60.1844948,"lon":24.9599867},{"type":"node","id":449728837,"lat":60.1821407,"lon":24.9564887},{"type":"node","id":449728838,"lat":60.1831068,"lon":24.9583838},{"type":"node","id":673529749,"lat":60.1848448,"lon":24.9602144},{"type":"node","id":673529759,"lat":60.1848956,"lon":24.9602258},{"type":"node","id":673529761,"lat":60.1848173,"lon":24.9603036},{"type":"node","id":673529770,"lat":60.1848307,"lon":24.9601475},{"type":"node","id":848590996,"lat":60.1842548,"lon":24.9599993},{"type":"node","id":948464669,"lat":60.1832159,"lon":24.958123},{"type":"node","id":1016086997,"lat":60.18338,"lon":24.9588456},{"type":"node","id":1016088125,"lat":60.1847468,"lon":24.9604942},{"type":"node","id":1246695237,"lat":60.1844356,"lon":24.9621029},{"type":"node","id":1246695239,"lat":60.1844861,"lon":24.9624059},{"type":"node","id":1334714134,"lat":60.1842629,"lon":24.9618677},{"type":"node","id":1528618304,"lat":60.1848578,"lon":24.959475},{"type":"node","id":1528652564,"lat":60.1824764,"lon":24.9569564},{"type":"node","id":1528652594,"lat":60.1842549,"lon":24.9613095},{"type":"node","id":1528652634,"lat":60.1843883,"lon":24.9614874},{"type":"node","id":1528652655,"lat":60.1844096,"lon":24.9615181},{"type":"node","id":1528652695,"lat":60.1845035,"lon":24.9611811},{"type":"node","id":1528652697,"lat":60.1845155,"lon":24.9611963},{"type":"node","id":1528652720,"lat":60.1845399,"lon":24.9623742},{"type":"node","id":1528652724,"lat":60.1845554,"lon":24.9603993},{"type":"node","id":1528652760,"lat":60.1845675,"lon":24.962365},{"type":"node","id":1528652795,"lat":60.1846044,"lon":24.9623615},{"type":"node","id":1528652799,"lat":60.1846217,"lon":24.9608224},{"type":"node","id":1528652820,"lat":60.1846412,"lon":24.9623638},{"type":"node","id":1528652835,"lat":60.1846729,"lon":24.9623777},{"type":"node","id":1528652839,"lat":60.1846845,"lon":24.960604},{"type":"node","id":1528652848,"lat":60.1847069,"lon":24.9624067},{"type":"node","id":1528652854,"lat":60.1847414,"lon":24.962453},{"type":"node","id":1528652858,"lat":60.1847558,"lon":24.9624843},{"type":"node","id":1528652871,"lat":60.1847806,"lon":24.9625376},{"type":"node","id":1528652878,"lat":60.1848031,"lon":24.9626024},{"type":"node","id":1530480659,"lat":60.1832211,"lon":24.9586263},{"type":"node","id":1806663294,"lat":60.1849368,"lon":24.9592374},{"type":"node","id":1819274242,"lat":60.1846476,"lon":24.9603618},{"type":"node","id":3119079638,"lat":60.1847752,"lon":24.9597233},{"type":"node","id":3120513480,"lat":60.1844233,"lon":24.9602224},{"type":"node","id":5871005967,"lat":60.1841495,"lon":24.9598626},{"type":"node","id":6190144674,"lat":60.1849444,"lon":24.9608787},{"type":"node","id":6190144687,"lat":60.1846945,"lon":24.9605714},{"type":"node","id":6331356033,"lat":60.1849199,"lon":24.9604329},{"type":"node","id":6331356052,"lat":60.184941,"lon":24.9605996},{"type":"node","id":6331356053,"lat":60.1848476,"lon":24.9604979},{"type":"node","id":6331356054,"lat":60.1847653,"lon":24.9604059},{"type":"node","id":6331356055,"lat":60.1846231,"lon":24.9602233},{"type":"node","id":6331356056,"lat":60.1846368,"lon":24.9601786},{"type":"node","id":6331356057,"lat":60.1847423,"lon":24.9603171},{"type":"node","id":6331356058,"lat":60.1848799,"lon":24.9604722},{"type":"node","id":6331356059,"lat":60.1849845,"lon":24.9605809},{"type":"node","id":8440011421,"lat":60.1847794,"lon":24.9601341},{"type":"node","id":8440011422,"lat":60.1846664,"lon":24.9605005},{"type":"node","id":8831931931,"lat":60.1842126,"lon":24.9614377},{"type":"node","id":8831931933,"lat":60.1841667,"lon":24.9615769},{"type":"node","id":8860077779,"lat":60.1849025,"lon":24.9593407},{"type":"node","id":8860077782,"lat":60.1848847,"lon":24.959394},{"type":"node","id":8860077784,"lat":60.1848738,"lon":24.9594261},{"type":"node","id":8860077787,"lat":60.1848323,"lon":24.9595517},{"type":"node","id":8860077789,"lat":60.1848211,"lon":24.9595854},{"type":"node","id":8860167545,"lat":60.1847128,"lon":24.9600001},{"type":"node","id":8860167549,"lat":60.1849031,"lon":24.9602351},{"type":"node","id":8860167550,"lat":60.184892,"lon":24.9602752},{"type":"node","id":8861964937,"lat":60.1848442,"lon":24.9607155},{"type":"node","id":8861964938,"lat":60.1848075,"lon":24.9606712},{"type":"node","id":8861964939,"lat":60.1847766,"lon":24.9606338},{"type":"node","id":8861964940,"lat":60.1846893,"lon":24.9605282},{"type":"node","id":10977319332,"lat":60.1844512,"lon":24.9621962},{"type":"node","id":10977319393,"lat":60.1845036,"lon":24.9623956},{"type":"node","id":10977319394,"lat":60.1845257,"lon":24.9623826},{"type":"node","id":10977319395,"lat":60.1846913,"lon":24.9623934},{"type":"node","id":10977319396,"lat":60.1847148,"lon":24.9624173},{"type":"node","id":11278785862,"lat":60.1846989,"lon":24.9600396},{"type":"node","id":11595288010,"lat":60.1840687,"lon":24.9597558},{"type":"node","id":11766458366,"lat":60.1845492,"lon":24.9601264},{"type":"node","id":11766458367,"lat":60.184563,"lon":24.9600789},{"type":"node","id":1528652718,"lat":60.1845167,"lon":24.963317},{"type":"node","id":1528652721,"lat":60.1845405,"lon":24.9633263},{"type":"node","id":1528652765,"lat":60.184571,"lon":24.9633321},{"type":"node","id":1528652801,"lat":60.1846119,"lon":24.9633321},{"type":"node","id":1528652803,"lat":60.1846045,"lon":24.9638512},{"type":"node","id":1528652834,"lat":60.1846441,"lon":24.9633228},{"type":"node","id":1528652844,"lat":60.1846792,"lon":24.9633008},{"type":"node","id":1528652851,"lat":60.1847069,"lon":24.9632788},{"type":"node","id":1528652852,"lat":60.1847038,"lon":24.964454},{"type":"node","id":1528652856,"lat":60.1847351,"lon":24.9632429},{"type":"node","id":1528652862,"lat":60.1847599,"lon":24.9632035},{"type":"node","id":1528652872,"lat":60.1847794,"lon":24.963163},{"type":"node","id":1528652888,"lat":60.1847985,"lon":24.963112},{"type":"node","id":1528652892,"lat":60.1848209,"lon":24.96268},{"type":"node","id":1528652903,"lat":60.1848221,"lon":24.9630113},{"type":"node","id":1528652905,"lat":60.1848111,"lon":24.9630611},{"type":"node","id":1528652911,"lat":60.1848307,"lon":24.9627379},{"type":"node","id":1528652912,"lat":60.1848353,"lon":24.9628028},{"type":"node","id":1528652915,"lat":60.1848365,"lon":24.9628549},{"type":"node","id":1528652917,"lat":60.1848365,"lon":24.9629059},{"type":"node","id":1528652918,"lat":60.1848324,"lon":24.9629557},{"type":"node","id":7732516622,"lat":60.1845322,"lon":24.9634111},{"type":"node","id":8835232383,"lat":60.1845997,"lon":24.9633321},{"type":"node","id":10977319397,"lat":60.1848247,"lon":24.9627026},{"type":"node","id":10977319398,"lat":60.1848325,"lon":24.9627639},{"type":"node","id":10977319399,"lat":60.1848361,"lon":24.9628359},{"type":"node","id":10977319403,"lat":60.1847539,"lon":24.9632131},{"type":"node","id":10977319404,"lat":60.1847839,"lon":24.9631511},{"type":"node","id":10977334405,"lat":60.1845491,"lon":24.9633279},{"type":"node","id":207644258,"lat":60.1850313,"lon":24.9603944},{"type":"node","id":207644420,"lat":60.1851831,"lon":24.9605345},{"type":"node","id":207644421,"lat":60.1852999,"lon":24.9599815},{"type":"node","id":207644423,"lat":60.1854155,"lon":24.9600803},{"type":"node","id":207644424,"lat":60.1852987,"lon":24.9606333},{"type":"node","id":207645585,"lat":60.1859974,"lon":24.9608873},{"type":"node","id":207645586,"lat":60.1858716,"lon":24.9609188},{"type":"node","id":207645587,"lat":60.1857961,"lon":24.9597246},{"type":"node","id":207645594,"lat":60.1850012,"lon":24.9590437},{"type":"node","id":207645596,"lat":60.185296,"lon":24.9593157},{"type":"node","id":207645597,"lat":60.1855857,"lon":24.9594335},{"type":"node","id":207645598,"lat":60.185912,"lon":24.9594358},{"type":"node","id":210482882,"lat":60.1862108,"lon":24.9615026},{"type":"node","id":269160399,"lat":60.1854211,"lon":24.9610882},{"type":"node","id":269160400,"lat":60.1856749,"lon":24.9612269},{"type":"node","id":269160475,"lat":60.18561,"lon":24.9608225},{"type":"node","id":269160477,"lat":60.1855602,"lon":24.9601698},{"type":"node","id":269160478,"lat":60.1856836,"lon":24.960232},{"type":"node","id":269162967,"lat":60.1851281,"lon":24.960641},{"type":"node","id":269162968,"lat":60.1854479,"lon":24.9608843},{"type":"node","id":269162969,"lat":60.1857887,"lon":24.9610207},{"type":"node","id":269162970,"lat":60.1859962,"lon":24.9610713},{"type":"node","id":269163805,"lat":60.1855766,"lon":24.9608776},{"type":"node","id":269163806,"lat":60.1855361,"lon":24.9612619},{"type":"node","id":269167197,"lat":60.1860932,"lon":24.9610958},{"type":"node","id":269182764,"lat":60.1854567,"lon":24.9607977},{"type":"node","id":269182765,"lat":60.1851428,"lon":24.960573},{"type":"node","id":269182766,"lat":60.1850048,"lon":24.9604459},{"type":"node","id":269182773,"lat":60.1859838,"lon":24.9609406},{"type":"node","id":269182775,"lat":60.1855685,"lon":24.9609444},{"type":"node","id":269182776,"lat":60.1855573,"lon":24.9610523},{"type":"node","id":269182777,"lat":60.1855476,"lon":24.9611695},{"type":"node","id":269299412,"lat":60.1853175,"lon":24.9611263},{"type":"node","id":313771946,"lat":60.1860051,"lon":24.9611513},{"type":"node","id":313771947,"lat":60.1855609,"lon":24.9610219},{"type":"node","id":313771948,"lat":60.1855517,"lon":24.9611071},{"type":"node","id":313772974,"lat":60.1854845,"lon":24.9611303},{"type":"node","id":313772977,"lat":60.185048,"lon":24.9605674},{"type":"node","id":452815142,"lat":60.1855003,"lon":24.9613502},{"type":"node","id":452815143,"lat":60.1856226,"lon":24.961375},{"type":"node","id":452815173,"lat":60.1860105,"lon":24.9608885},{"type":"node","id":452815174,"lat":60.1859193,"lon":24.9594042},{"type":"node","id":673529747,"lat":60.1858095,"lon":24.9609053},{"type":"node","id":673529753,"lat":60.1858091,"lon":24.9606364},{"type":"node","id":673529754,"lat":60.1852372,"lon":24.9600889},{"type":"node","id":673529755,"lat":60.1857227,"lon":24.9608815},{"type":"node","id":673529757,"lat":60.1852997,"lon":24.9607897},{"type":"node","id":673529758,"lat":60.1857073,"lon":24.9606472},{"type":"node","id":673529762,"lat":60.1851035,"lon":24.9604698},{"type":"node","id":673529763,"lat":60.1857912,"lon":24.960965},{"type":"node","id":673529766,"lat":60.1853141,"lon":24.9607126},{"type":"node","id":673529767,"lat":60.1856336,"lon":24.9606333},{"type":"node","id":673529769,"lat":60.1857425,"lon":24.9607372},{"type":"node","id":673529773,"lat":60.1853995,"lon":24.9607018},{"type":"node","id":673529775,"lat":60.1858174,"lon":24.9607866},{"type":"node","id":673529777,"lat":60.1855194,"lon":24.9602608},{"type":"node","id":673529779,"lat":60.1857758,"lon":24.960895},{"type":"node","id":673529781,"lat":60.1851561,"lon":24.9605106},{"type":"node","id":673529782,"lat":60.1853282,"lon":24.9606431},{"type":"node","id":673529784,"lat":60.1857844,"lon":24.9607489},{"type":"node","id":673529785,"lat":60.1858627,"lon":24.960776},{"type":"node","id":673529794,"lat":60.1854629,"lon":24.9607457},{"type":"node","id":673529796,"lat":60.1857957,"lon":24.9608998},{"type":"node","id":673529798,"lat":60.185334,"lon":24.9606116},{"type":"node","id":673529799,"lat":60.1857041,"lon":24.960718},{"type":"node","id":685429231,"lat":60.1852174,"lon":24.9603736},{"type":"node","id":685434080,"lat":60.1853124,"lon":24.9593227},{"type":"node","id":685434085,"lat":60.1852786,"lon":24.9595835},{"type":"node","id":685434087,"lat":60.1853002,"lon":24.9597535},{"type":"node","id":685434088,"lat":60.1853153,"lon":24.9598215},{"type":"node","id":685434090,"lat":60.1853082,"lon":24.9598503},{"type":"node","id":685434091,"lat":60.1852555,"lon":24.9599529},{"type":"node","id":948463544,"lat":60.1850514,"lon":24.9604183},{"type":"node","id":948464658,"lat":60.1862007,"lon":24.9611182},{"type":"node","id":948464681,"lat":60.1861075,"lon":24.9610936},{"type":"node","id":956916408,"lat":60.1857479,"lon":24.9594348},{"type":"node","id":956916416,"lat":60.1857483,"lon":24.9597244},{"type":"node","id":1016086878,"lat":60.1858344,"lon":24.9603199},{"type":"node","id":1016087048,"lat":60.1856743,"lon":24.9609902},{"type":"node","id":1016087052,"lat":60.1854965,"lon":24.9613702},{"type":"node","id":1016087319,"lat":60.1859064,"lon":24.9592667},{"type":"node","id":1016087509,"lat":60.1859602,"lon":24.9602883},{"type":"node","id":1016087560,"lat":60.1859021,"lon":24.9591434},{"type":"node","id":1016087563,"lat":60.1857643,"lon":24.9611016},{"type":"node","id":1016087888,"lat":60.1857667,"lon":24.9588718},{"type":"node","id":1016088166,"lat":60.1854583,"lon":24.9612192},{"type":"node","id":1016088271,"lat":60.1850049,"lon":24.9607917},{"type":"node","id":1194335330,"lat":60.1855033,"lon":24.9612437},{"type":"node","id":1505146038,"lat":60.1862014,"lon":24.9615084},{"type":"node","id":1505146069,"lat":60.1865133,"lon":24.9615679},{"type":"node","id":1505146088,"lat":60.1867987,"lon":24.9616308},{"type":"node","id":1524453286,"lat":60.1864937,"lon":24.9615636},{"type":"node","id":1524453355,"lat":60.1855692,"lon":24.961738},{"type":"node","id":1524453376,"lat":60.1854354,"lon":24.9616103},{"type":"node","id":1524453415,"lat":60.1866522,"lon":24.9615996},{"type":"node","id":1526055637,"lat":60.1852918,"lon":24.9608058},{"type":"node","id":1526055697,"lat":60.1858247,"lon":24.9589987},{"type":"node","id":1526055743,"lat":60.1861814,"lon":24.9611147},{"type":"node","id":1526055789,"lat":60.1869153,"lon":24.9613238},{"type":"node","id":1528618306,"lat":60.1858161,"lon":24.9600243},{"type":"node","id":1528618307,"lat":60.1859419,"lon":24.9599927},{"type":"node","id":1528653067,"lat":60.1853819,"lon":24.9623457},{"type":"node","id":1528653071,"lat":60.1854371,"lon":24.9624021},{"type":"node","id":1528653072,"lat":60.1854596,"lon":24.9620368},{"type":"node","id":1528653080,"lat":60.1855142,"lon":24.9620898},{"type":"node","id":1528653105,"lat":60.185968,"lon":24.9614502},{"type":"node","id":1528653114,"lat":60.1860401,"lon":24.9614636},{"type":"node","id":1807598791,"lat":60.1853803,"lon":24.9593553},{"type":"node","id":1807598795,"lat":60.1854238,"lon":24.9593719},{"type":"node","id":1807598822,"lat":60.1854498,"lon":24.9593817},{"type":"node","id":1807598829,"lat":60.1855109,"lon":24.9594049},{"type":"node","id":1807598835,"lat":60.1855255,"lon":24.9594093},{"type":"node","id":1807598837,"lat":60.1856717,"lon":24.9594375},{"type":"node","id":1807657391,"lat":60.185813,"lon":24.9599941},{"type":"node","id":1807657392,"lat":60.185818,"lon":24.9600546},{"type":"node","id":1807657393,"lat":60.1859409,"lon":24.9599636},{"type":"node","id":1807657394,"lat":60.1859438,"lon":24.960023},{"type":"node","id":1807657395,"lat":60.1859505,"lon":24.9601308},{"type":"node","id":1807658536,"lat":60.185958,"lon":24.960252},{"type":"node","id":1819102604,"lat":60.1855058,"lon":24.9606064},{"type":"node","id":1819102609,"lat":60.1855434,"lon":24.9603048},{"type":"node","id":1855956699,"lat":60.1858461,"lon":24.9605076},{"type":"node","id":1855956700,"lat":60.185861,"lon":24.9607482},{"type":"node","id":1870046409,"lat":60.1855191,"lon":24.9620688},{"type":"node","id":1870046416,"lat":60.1855259,"lon":24.9620413},{"type":"node","id":2132012230,"lat":60.1855824,"lon":24.9610162},{"type":"node","id":2132012232,"lat":60.1856866,"lon":24.9610609},{"type":"node","id":2132012233,"lat":60.185746,"lon":24.9609982},{"type":"node","id":2132012234,"lat":60.1857527,"lon":24.9608998},{"type":"node","id":2132012235,"lat":60.1857668,"lon":24.9610896},{"type":"node","id":2132012237,"lat":60.1859502,"lon":24.9611308},{"type":"node","id":2437496215,"lat":60.185559,"lon":24.9610383},{"type":"node","id":2437496216,"lat":60.1855623,"lon":24.9610075},{"type":"node","id":2437496217,"lat":60.1855733,"lon":24.9608973},{"type":"node","id":3119079639,"lat":60.1851854,"lon":24.9605365},{"type":"node","id":3119079640,"lat":60.185487,"lon":24.9607605},{"type":"node","id":3119079641,"lat":60.1857715,"lon":24.9608944},{"type":"node","id":3119079643,"lat":60.1858116,"lon":24.9609056},{"type":"node","id":3120513488,"lat":60.185005,"lon":24.9590472},{"type":"node","id":3120513489,"lat":60.1850091,"lon":24.9590511},{"type":"node","id":3121969498,"lat":60.1859008,"lon":24.9591205},{"type":"node","id":3121969499,"lat":60.1859129,"lon":24.9594492},{"type":"node","id":3461565968,"lat":60.1853633,"lon":24.9598903},{"type":"node","id":3461565969,"lat":60.1854326,"lon":24.9599976},{"type":"node","id":3461565970,"lat":60.1854927,"lon":24.9600647},{"type":"node","id":3461565971,"lat":60.1855407,"lon":24.9600888},{"type":"node","id":3461567583,"lat":60.1857007,"lon":24.9601961},{"type":"node","id":3461567584,"lat":60.1857074,"lon":24.9603061},{"type":"node","id":3461567585,"lat":60.1857114,"lon":24.9604187},{"type":"node","id":3461567586,"lat":60.1857514,"lon":24.9604724},{"type":"node","id":3461567587,"lat":60.185798,"lon":24.9605045},{"type":"node","id":3461568188,"lat":60.1856767,"lon":24.9605823},{"type":"node","id":3461568189,"lat":60.1857354,"lon":24.9606387},{"type":"node","id":3461568190,"lat":60.1858046,"lon":24.9607221},{"type":"node","id":3461568512,"lat":60.1854467,"lon":24.9600133},{"type":"node","id":3461568513,"lat":60.1854033,"lon":24.9602551},{"type":"node","id":3461568514,"lat":60.1855096,"lon":24.9603447},{"type":"node","id":6190144650,"lat":60.1852996,"lon":24.9611836},{"type":"node","id":6190144651,"lat":60.1855105,"lon":24.9613054},{"type":"node","id":6190144652,"lat":60.1855874,"lon":24.9618006},{"type":"node","id":6190144653,"lat":60.1855619,"lon":24.9617721},{"type":"node","id":6190144658,"lat":60.1854457,"lon":24.9620904},{"type":"node","id":6190144671,"lat":60.1852221,"lon":24.9611181},{"type":"node","id":6318508344,"lat":60.1861573,"lon":24.9617085},{"type":"node","id":6318508345,"lat":60.1860337,"lon":24.9616744},{"type":"node","id":6331356037,"lat":60.1853262,"lon":24.9610196},{"type":"node","id":6331356038,"lat":60.1852452,"lon":24.9609657},{"type":"node","id":6331356039,"lat":60.1851221,"lon":24.9608808},{"type":"node","id":6331356047,"lat":60.1854648,"lon":24.9610205},{"type":"node","id":6331356048,"lat":60.1853682,"lon":24.9609593},{"type":"node","id":6331356049,"lat":60.1852558,"lon":24.9608795},{"type":"node","id":6331356050,"lat":60.1851557,"lon":24.9607965},{"type":"node","id":6331356051,"lat":60.1850456,"lon":24.9607},{"type":"node","id":6331356060,"lat":60.1850565,"lon":24.9606524},{"type":"node","id":6331356061,"lat":60.1851637,"lon":24.9607463},{"type":"node","id":6331356062,"lat":60.1852584,"lon":24.9608216},{"type":"node","id":6331356063,"lat":60.1853707,"lon":24.9609027},{"type":"node","id":6331356064,"lat":60.1854545,"lon":24.960958},{"type":"node","id":6331356065,"lat":60.1855432,"lon":24.9610069},{"type":"node","id":6331356066,"lat":60.1856449,"lon":24.961061},{"type":"node","id":6331356067,"lat":60.1857044,"lon":24.9610867},{"type":"node","id":6331356069,"lat":60.1855329,"lon":24.9610604},{"type":"node","id":6331356070,"lat":60.1856136,"lon":24.9611003},{"type":"node","id":6331356071,"lat":60.1856728,"lon":24.9611292},{"type":"node","id":6331356072,"lat":60.1857358,"lon":24.9611562},{"type":"node","id":6331356073,"lat":60.1857934,"lon":24.9611781},{"type":"node","id":6331356074,"lat":60.1858433,"lon":24.9611949},{"type":"node","id":6331356075,"lat":60.1857675,"lon":24.9611125},{"type":"node","id":6331356076,"lat":60.1858407,"lon":24.9611401},{"type":"node","id":6331356077,"lat":60.1858852,"lon":24.961153},{"type":"node","id":6331356078,"lat":60.186015,"lon":24.9612395},{"type":"node","id":6331356081,"lat":60.1860087,"lon":24.9611833},{"type":"node","id":6331356085,"lat":60.1872393,"lon":24.9615636},{"type":"node","id":6331356086,"lat":60.1871957,"lon":24.9615256},{"type":"node","id":6331356087,"lat":60.187133,"lon":24.9614896},{"type":"node","id":6331356088,"lat":60.1870815,"lon":24.9614716},{"type":"node","id":6331356089,"lat":60.1870265,"lon":24.9614568},{"type":"node","id":6331356090,"lat":60.1862041,"lon":24.9612824},{"type":"node","id":6331356111,"lat":60.1873866,"lon":24.9616344},{"type":"node","id":6331356119,"lat":60.1862042,"lon":24.9612251},{"type":"node","id":6331356120,"lat":60.1870271,"lon":24.9614021},{"type":"node","id":6331356121,"lat":60.1870828,"lon":24.9614162},{"type":"node","id":6331356122,"lat":60.1871353,"lon":24.9614355},{"type":"node","id":6331356123,"lat":60.1871932,"lon":24.9614645},{"type":"node","id":6331356124,"lat":60.1872699,"lon":24.9615305},{"type":"node","id":6331356233,"lat":60.1876865,"lon":24.9622714},{"type":"node","id":6331356235,"lat":60.1877106,"lon":24.9622494},{"type":"node","id":6331356262,"lat":60.187498,"lon":24.9617355},{"type":"node","id":6331356266,"lat":60.1873522,"lon":24.9616602},{"type":"node","id":6331356280,"lat":60.1876495,"lon":24.9621293},{"type":"node","id":6331356281,"lat":60.1876298,"lon":24.9620598},{"type":"node","id":6331356282,"lat":60.1876081,"lon":24.9620018},{"type":"node","id":6331356283,"lat":60.1875855,"lon":24.9619499},{"type":"node","id":6331356284,"lat":60.1875561,"lon":24.9618911},{"type":"node","id":6331356285,"lat":60.1875253,"lon":24.9618388},{"type":"node","id":6331356286,"lat":60.1875,"lon":24.9618066},{"type":"node","id":6331356287,"lat":60.187436,"lon":24.9617371},{"type":"node","id":6331356288,"lat":60.187376,"lon":24.9616809},{"type":"node","id":6331356289,"lat":60.1873004,"lon":24.9616148},{"type":"node","id":6331356290,"lat":60.1877134,"lon":24.9623859},{"type":"node","id":6331356293,"lat":60.1876688,"lon":24.962081},{"type":"node","id":6331356298,"lat":60.1873313,"lon":24.9615827},{"type":"node","id":6331356299,"lat":60.1874362,"lon":24.961677},{"type":"node","id":6331356301,"lat":60.1875363,"lon":24.9617803},{"type":"node","id":6331356302,"lat":60.1875631,"lon":24.9618207},{"type":"node","id":6331356303,"lat":60.187581,"lon":24.9618521},{"type":"node","id":6331356304,"lat":60.1876133,"lon":24.9619165},{"type":"node","id":6331356305,"lat":60.1876378,"lon":24.9619762},{"type":"node","id":6331356306,"lat":60.1876559,"lon":24.962035},{"type":"node","id":6331356307,"lat":60.1876829,"lon":24.9621309},{"type":"node","id":6331356308,"lat":60.18775,"lon":24.962415},{"type":"node","id":7474813958,"lat":60.1876701,"lon":24.9622042},{"type":"node","id":7474813962,"lat":60.1874694,"lon":24.9617698},{"type":"node","id":7474813963,"lat":60.1874051,"lon":24.9617085},{"type":"node","id":8142260334,"lat":60.1856853,"lon":24.9610735},{"type":"node","id":8315807739,"lat":60.1862297,"lon":24.9611265},{"type":"node","id":8440011424,"lat":60.1859044,"lon":24.9609752},{"type":"node","id":8440011425,"lat":60.1859575,"lon":24.9610619},{"type":"node","id":8831555642,"lat":60.1868142,"lon":24.9616336},{"type":"node","id":8831555645,"lat":60.1867792,"lon":24.9616266},{"type":"node","id":8831555647,"lat":60.1867478,"lon":24.9616199},{"type":"node","id":8831555649,"lat":60.186718,"lon":24.9616138},{"type":"node","id":8831555651,"lat":60.1866833,"lon":24.9616063},{"type":"node","id":8831555658,"lat":60.1866279,"lon":24.9615941},{"type":"node","id":8831555660,"lat":60.1865923,"lon":24.9615859},{"type":"node","id":8831555663,"lat":60.1864307,"lon":24.96155},{"type":"node","id":8831555665,"lat":60.1863651,"lon":24.9615359},{"type":"node","id":8831555667,"lat":60.1863339,"lon":24.9615291},{"type":"node","id":8831555669,"lat":60.1863228,"lon":24.9615267},{"type":"node","id":8831555670,"lat":60.1862681,"lon":24.961515},{"type":"node","id":8831910416,"lat":60.1853758,"lon":24.9612716},{"type":"node","id":8860077745,"lat":60.185976,"lon":24.9605429},{"type":"node","id":8860077746,"lat":60.1859958,"lon":24.9605373},{"type":"node","id":8860077748,"lat":60.1859681,"lon":24.9601264},{"type":"node","id":8860077749,"lat":60.1859762,"lon":24.9602465},{"type":"node","id":8860077750,"lat":60.1859363,"lon":24.9598783},{"type":"node","id":8860077751,"lat":60.1859316,"lon":24.9597925},{"type":"node","id":8860077752,"lat":60.1859453,"lon":24.9597908},{"type":"node","id":8860077753,"lat":60.1859511,"lon":24.959876},{"type":"node","id":8860077754,"lat":60.1859172,"lon":24.9595274},{"type":"node","id":8860077756,"lat":60.1859274,"lon":24.9595276},{"type":"node","id":8860077757,"lat":60.1858811,"lon":24.9594356},{"type":"node","id":8860077759,"lat":60.1858138,"lon":24.9594352},{"type":"node","id":8860077762,"lat":60.1856063,"lon":24.9594345},{"type":"node","id":8860077770,"lat":60.1852771,"lon":24.9592983},{"type":"node","id":8860077773,"lat":60.1852007,"lon":24.9592282},{"type":"node","id":8860167552,"lat":60.1850142,"lon":24.9604561},{"type":"node","id":8860167554,"lat":60.185272,"lon":24.9601143},{"type":"node","id":8860167555,"lat":60.1853825,"lon":24.9602369},{"type":"node","id":8860167556,"lat":60.185516,"lon":24.9602903},{"type":"node","id":8860167557,"lat":60.1855111,"lon":24.9605578},{"type":"node","id":8860167558,"lat":60.1854864,"lon":24.9605458},{"type":"node","id":8860167560,"lat":60.1854806,"lon":24.9605955},{"type":"node","id":8860167561,"lat":60.1855999,"lon":24.9608174},{"type":"node","id":8860167562,"lat":60.1855921,"lon":24.9608844},{"type":"node","id":8860167563,"lat":60.1858565,"lon":24.9606753},{"type":"node","id":8860167564,"lat":60.1858065,"lon":24.9606852},{"type":"node","id":8860167565,"lat":60.1858197,"lon":24.9609074},{"type":"node","id":8860167566,"lat":60.1858161,"lon":24.9609691},{"type":"node","id":8860167567,"lat":60.1858787,"lon":24.960917},{"type":"node","id":8860167568,"lat":60.1858764,"lon":24.9609739},{"type":"node","id":8860189654,"lat":60.1852891,"lon":24.9596579},{"type":"node","id":8860225928,"lat":60.1852482,"lon":24.9605901},{"type":"node","id":8860225929,"lat":60.1852365,"lon":24.9606493},{"type":"node","id":8861964928,"lat":60.1856279,"lon":24.9613759},{"type":"node","id":8861964931,"lat":60.185428,"lon":24.9612022},{"type":"node","id":8861964932,"lat":60.1853926,"lon":24.9611805},{"type":"node","id":8861964933,"lat":60.1852619,"lon":24.9610782},{"type":"node","id":8861964934,"lat":60.1851156,"lon":24.9609617},{"type":"node","id":8861964935,"lat":60.1850567,"lon":24.9609102},{"type":"node","id":8861964936,"lat":60.18502,"lon":24.960881},{"type":"node","id":9679275489,"lat":60.185859,"lon":24.9594355},{"type":"node","id":9679320717,"lat":60.1858936,"lon":24.9594357},{"type":"node","id":9679341978,"lat":60.1860201,"lon":24.9599437},{"type":"node","id":9679341979,"lat":60.1859568,"lon":24.9599595},{"type":"node","id":9679341980,"lat":60.1859609,"lon":24.9600202},{"type":"node","id":9679341981,"lat":60.1860239,"lon":24.9600051},{"type":"node","id":9679378191,"lat":60.1858092,"lon":24.9599328},{"type":"node","id":9679378192,"lat":60.1857907,"lon":24.959991},{"type":"node","id":9679378193,"lat":60.1857898,"lon":24.9599379},{"type":"node","id":9929522945,"lat":60.187368,"lon":24.9616739},{"type":"node","id":10716691084,"lat":60.1857366,"lon":24.9609515},{"type":"node","id":10716691085,"lat":60.1856726,"lon":24.9609257},{"type":"node","id":11766491864,"lat":60.1873794,"lon":24.9616276},{"type":"node","id":11766491865,"lat":60.1861048,"lon":24.9612599},{"type":"node","id":11766491866,"lat":60.1861008,"lon":24.961203},{"type":"node","id":426945147,"lat":60.1853752,"lon":24.9634901},{"type":"node","id":1016087553,"lat":60.1851352,"lon":24.9629773},{"type":"node","id":1016088173,"lat":60.1852101,"lon":24.9626755},{"type":"node","id":1528653014,"lat":60.1850915,"lon":24.9646249},{"type":"node","id":1528653020,"lat":60.1851543,"lon":24.9643656},{"type":"node","id":1528653054,"lat":60.1853332,"lon":24.9636551},{"type":"node","id":1528653056,"lat":60.1853354,"lon":24.9627999},{"type":"node","id":1528653069,"lat":60.1854312,"lon":24.9632677},{"type":"node","id":1533277962,"lat":60.1853187,"lon":24.9637135},{"type":"node","id":8075332833,"lat":60.1853882,"lon":24.9632278},{"type":"node","id":8861960503,"lat":60.1853444,"lon":24.9627648},{"type":"node","id":8861960505,"lat":60.1851679,"lon":24.9628455},{"type":"node","id":9455302755,"lat":60.1853625,"lon":24.9635401},{"type":"node","id":10977319366,"lat":60.1851452,"lon":24.964403}]}