{"version":0.6,"generator":"Overpass API 0.7.62.5 1bd436f1","osm3s":{"timestamp_osm_base":"2025-03-12T12:44:15Z","copyright":"The data included in this document is from www.openstreetmap.org. The data is made available under ODbL."},"elements":[{"type":"node","id":878449148,"lat":60.1852041,"lon":24.9556041,"tags":{"addr:city":"Helsinki","addr:country":"FI","addr:housenumber":"1","addr:street":"Torkkelinkuja"}},{"type":"node","id":878449158,"lat":60.1851064,"lon":24.95506,"tags":{"addr:city":"Helsinki","addr:country":"FI","addr:housenumber":"4","addr:street":"Torkkelinkuja"}},{"type":"node","id":878449169,"lat":60.1851839,"lon":24.9548412,"tags":{"addr:city":"Helsinki","addr:country":"FI","addr:housenumber":"8","addr:street":"Torkkelinkuja"}},{"type":"node","id":878604101,"lat":60.1851786,"lon":24.9553088,"tags":{"crossing":"unmarked"}},{"type":"node","id":1016540126,"lat":60.1846519,"lon":24.9548546,"tags":{"addr:city":"Helsinki","addr:country":"FI","addr:housenumber":"2","addr:street":"Agricolankuja"}},{"type":"node","id":1016540579,"lat":60.1848222,"lon":24.9554536,"tags":{"addr:city":"Helsinki","addr:country":"FI","addr:housenumber":"19","addr:street":"Torkkelinkatu"}},{"type":"node","id":1016635396,"lat":60.1847262,"lon":24.9546611,"tags":{"addr:unit":"C","entrance":"yes","ref":"C"}},{"type":"node","id":1526055630,"lat":60.1852345,"lon":24.9551539,"tags":{"crossing":"unmarked"}},{"type":"node","id":3121994761,"lat":60.1848825,"lon":24.9557115,"tags":{"traffic_sign":"FI:372","traffic_sign:2":"FI:855a[9-21]","traffic_sign:3":"FI:871[Vy\u00f6hyke 3 Ei koske P-tunnuksella I]","traffic_sign:4":"FI:871[\u2190 Lippuautomaatti]"}},{"type":"node","id":3121994765,"lat":60.1850771,"lon":24.9556956,"tags":{"traffic_sign":"FI:372"}},{"type":"node","id":3121994766,"lat":60.1851513,"lon":24.9555229,"tags":{"traffic_sign":"FI:372","traffic_sign:2":"FI:855a[9-21]","traffic_sign:3":"FI:871[Vy\u00f6hyke 3 Ei koske P-tunnuksella I]"}},{"type":"node","id":3121994767,"lat":60.1851867,"lon":24.9551843,"tags":{"traffic_sign":"FI:372"}},{"type":"node","id":3121994768,"lat":60.1851937,"lon":24.9553894,"tags":{"traffic_sign":"FI:372"}},{"type":"node","id":3121994769,"lat":60.1852399,"lon":24.9552797,"tags":{"traffic_sign":"FI:551[right]","traffic_sign:2":"FI:372","traffic_sign:3":"FI:855a[9-21]","traffic_sign:4":"FI:871[Vy\u00f6hyke 3 Ei koske P-tunnuksella I]"}},{"type":"node","id":3121994770,"lat":60.185242,"lon":24.9552696,"tags":{"traffic_sign":"FI:372","traffic_sign:2":"FI:855a[9-21]","traffic_sign:3":"FI:871[Vy\u00f6hyke 3 Ei koske P-tunnuksella I]"}},{"type":"node","id":4012290652,"lat":60.1852465,"lon":24.955188,"tags":{"amenity":"waste_basket"}},{"type":"node","id":8198832899,"lat":60.1851285,"lon":24.9551122,"tags":{"addr:housenumber":"4","addr:street":"Torkkelinkuja","entrance":"staircase"}},{"type":"node","id":8198832901,"lat":60.1851862,"lon":24.9551891,"tags":{"barrier":"gate"}},{"type":"node","id":8198832907,"lat":60.185158,"lon":24.9551521,"tags":{"highway":"crossing"}},{"type":"node","id":8198832908,"lat":60.1851375,"lon":24.9553426,"tags":{"highway":"crossing"}},{"type":"node","id":8198832909,"lat":60.1851571,"lon":24.9556411,"tags":{"access":"private","addr:housenumber":"1","addr:street":"Torkkelinkuja","description":"With keycode","entrance":"staircase"}},{"type":"node","id":8844498333,"lat":60.184895,"lon":24.9552852,"tags":{"access":"private","addr:housenumber":"19","addr:street":"Torkkelinkatu","addr:unit":"B","description":"With buzzer","entrance":"staircase","wheelchair":"no"}},{"type":"node","id":8844498337,"lat":60.1851356,"lon":24.9553399,"tags":{"access":"yes","barrier":"gate"}},{"type":"node","id":8844498338,"lat":60.1852164,"lon":24.9548589,"tags":{"access":"private","addr:housenumber":"8","addr:street":"Torkkelinkuja","addr:unit":"A","description":"With keycode","entrance":"staircase","wheelchair":"no"}},{"type":"node","id":8844498340,"lat":60.1852773,"lon":24.9549457,"tags":{"access":"yes","barrier":"gate"}},{"type":"node","id":9732793018,"lat":60.184904,"lon":24.9554425,"tags":{"access":"private","addr:housenumber":"19","addr:street":"Torkkelinkatu","addr:unit":"A","description":"With buzzer","entrance":"staircase","wheelchair":"no"}},{"type":"node","id":10937762301,"lat":60.1848993,"lon":24.9545152,"tags":{"natural":"tree"}}]}