{"version":0.6,"generator":"Overpass API 0.7.61.5 4133829e","osm3s":{"timestamp_osm_base":"2023-08-13T09:19:16Z","copyright":"The data included in this document is from www.openstreetmap.org. The data is made available under ODbL."},"elements":[{"type":"node","id":310985115,"lat":60.1631001,"lon":24.9437304,"tags":{"addr:city":"Helsinki","addr:country":"FI","addr:housenumber":"9","addr:postcode":"00120","addr:street":"Ratakatu"}},{"type":"node","id":310985430,"lat":60.1631918,"lon":24.9439901,"tags":{"addr:city":"Helsinki","addr:country":"FI","addr:housenumber":"7","addr:postcode":"00120","addr:street":"Ratakatu"}},{"type":"node","id":600394439,"lat":60.1631234,"lon":24.9438213,"tags":{"addr:city":"Helsinki","addr:country":"FI","addr:housenumber":"9","addr:postcode":"00120","addr:street":"Ratakatu","amenity":"stripclub","name":"SOHO","opening_hours":"22:00-04:00","url":"http:\/\/www.clubsoho.fi\/","wheelchair":"limited","wheelchair:description":"lift not working"}},{"type":"node","id":648525100,"lat":60.1636148,"lon":24.9430007,"tags":{"addr:city":"Helsinki","addr:country":"FI","addr:housenumber":"10","addr:postcode":"00120","addr:street":"Iso Roobertinkatu","amenity":"nightclub","karaoke":"yes","name":"Karaoke Nighclub Swengi","opening_hours":"We-Sa 19:00-04:00","website":"http:\/\/swengi.fi\/"}},{"type":"node","id":1377895502,"lat":60.163211,"lon":24.9441831,"tags":{"access":"private","barrier":"gate"}},{"type":"node","id":3330871429,"lat":60.1630458,"lon":24.9437052,"tags":{"traffic_sign":"FI:372","traffic_sign:2":"FI:855a[9-21 (9-18)]","traffic_sign:3":"FI:871[Vy\u00f6hyke 1 Ei koske P-tunnuksella B\/C]","traffic_sign:4":"FI:871[\u2190 Lippuautomaatti]"}},{"type":"node","id":3330871431,"lat":60.1631154,"lon":24.9439076,"tags":{"traffic_sign":"FI:372"}},{"type":"node","id":4747221562,"lat":60.1636467,"lon":24.9428821,"tags":{"addr:city":"Helsinki","addr:country":"FI","addr:housenumber":"10","addr:postcode":"00120","addr:street":"Iso Roobertinkatu","email":"popkampaaja@gmail.com","level":"3","name":"Syd\u00e4men Pohjasta","opening_hours":"Mo-Fr 10:00-18:00; Sa 09:00-14:00","payment:credit_cards":"yes","payment:debit_cards":"yes","phone":"+358 10 583 2500","shop":"hairdresser","unisex":"yes","website":"http:\/\/www.sypo.fi\/index.php\/helsinki\/"}},{"type":"node","id":4867707151,"lat":60.1636176,"lon":24.9428805,"tags":{"addr:city":"Helsinki","addr:country":"FI","addr:housenumber":"10","addr:postcode":"00120","addr:street":"Iso Roobertinkatu","name":"Roba Lounge","office":"company"}},{"type":"node","id":4867707153,"lat":60.1636457,"lon":24.94296,"tags":{"addr:city":"Helsinki","addr:country":"FI","addr:housenumber":"10","addr:postcode":"00120","addr:street":"Iso Roobertinkatu","name":"Suomen Funlife Kustannus OY","office":"company"}},{"type":"node","id":4867707154,"lat":60.1636395,"lon":24.9429424,"tags":{"addr:city":"Helsinki","addr:country":"FI","addr:housenumber":"10","addr:postcode":"00120","addr:street":"Iso Roobertinkatu","name":"NOA Bombibre","office":"company"}},{"type":"node","id":4867707155,"lat":60.1636326,"lon":24.942923,"tags":{"addr:city":"Helsinki","addr:country":"FI","addr:housenumber":"10","addr:postcode":"00120","addr:street":"Iso Roobertinkatu","name":"Kryon Division","office":"company"}},{"type":"node","id":4867707156,"lat":60.163626,"lon":24.9429044,"tags":{"addr:city":"Helsinki","addr:country":"FI","addr:housenumber":"10","addr:postcode":"00120","addr:street":"Iso Roobertinkatu","name":"Mucho Mojo","office":"company"}},{"type":"node","id":4867707157,"lat":60.1636371,"lon":24.9429356,"tags":{"addr:city":"Helsinki","addr:country":"FI","addr:housenumber":"10","addr:postcode":"00120","addr:street":"Iso Roobertinkatu","name":"Plusterveys Psykiatriakeskus","office":"company"}},{"type":"node","id":4867707158,"lat":60.1636442,"lon":24.9429558,"tags":{"addr:city":"Helsinki","addr:country":"FI","addr:housenumber":"10","addr:postcode":"00120","addr:street":"Iso Roobertinkatu","name":"Monkey Experience","office":"company"}},{"type":"node","id":4950716951,"lat":60.163108,"lon":24.9437671,"tags":{"addr:city":"Helsinki","addr:country":"FI","addr:housenumber":"9","addr:postcode":"00120","addr:street":"Ratakatu","email":"info@sauna2.fi","leisure":"sauna","name":"Sauna2","phone":"+358207349940","website":"http:\/\/sauna2.fi\/"}},{"type":"node","id":4950716952,"lat":60.1629998,"lon":24.9434464,"tags":{"addr:city":"Helsinki","addr:country":"FI","addr:housenumber":"13","addr:postcode":"00120","addr:street":"Ratakatu","email":"info@ihohoitolalupaus.fi","name":"Ihohoitola Lupaus","payment:credit_cards":"yes","payment:debit_cards":"yes","phone":"+358503041615","shop":"beauty","website":"https:\/\/ihohoitolalupaus.fi\/"}},{"type":"node","id":5523334479,"lat":60.1630652,"lon":24.9436476,"tags":{"addr:housenumber":"9","addr:street":"Ratakatu","amenity":"restaurant","diet:halal":"no","diet:kosher":"no","name":"Eevert","opening_hours":"Tu-Sa 17:00-23:00","payment:credit_cards":"yes","payment:debit_cards":"yes","phone":"020 741 3011"}},{"type":"node","id":7669150788,"lat":60.1631794,"lon":24.9440886,"tags":{"access":"private","addr:housenumber":"7","addr:street":"Ratakatu","description":"With keycode","entrance":"staircase","wheelchair":"no"}},{"type":"node","id":7669516085,"lat":60.1635499,"lon":24.9429211,"tags":{"access":"private","addr:housenumber":"10","addr:street":"Iso Roobertinkatu","entrance":"secondary","wheelchair":"yes"}},{"type":"node","id":7669700697,"lat":60.1635184,"lon":24.9431249,"tags":{"access":"yes","addr:housenumber":"10","addr:street":"Iso Roobertinkatu","entrance":"main","opening_hours":"19:00-02:00","wheelchair":"yes"}},{"type":"node","id":7669700698,"lat":60.1634929,"lon":24.9431372,"tags":{"addr:housenumber":"10","addr:street":"Iso Roobertinkatu","amenity":"bar","opening_hours":"19:00-02:00","payment:credit_cards":"yes","payment:debit_cards":"yes"}},{"type":"node","id":7669700699,"lat":60.1634953,"lon":24.9430588,"tags":{"access":"private","addr:housenumber":"10","addr:street":"Iso Roobertinkatu","addr:unit":"B","description":"With buzzer","entrance":"staircase","wheelchair":"no"}},{"type":"node","id":7669700731,"lat":60.1630075,"lon":24.9435744,"tags":{"access":"private","barrier":"gate","description":"With buzzer","phone":"0503732129"}},{"type":"node","id":7669700733,"lat":60.1629978,"lon":24.9435884,"tags":{"crossing":"unmarked","highway":"crossing"}},{"type":"node","id":7669700736,"lat":60.1630797,"lon":24.9437903,"tags":{"access":"private","barrier":"gate","description":"With keycode"}},{"type":"node","id":7669700737,"lat":60.1630915,"lon":24.9438256,"tags":{"access":"yes","addr:housenumber":"9","addr:street":"Ratakatu","entrance":"main","opening_hours":"Sopimuksen mukaan","wheelchair":"no"}},{"type":"node","id":7669700739,"lat":60.1632474,"lon":24.9442055,"tags":{"addr:housenumber":"5","addr:street":"Ratakatu","name":"Studio rebelicious","opening_hours":"Sopimuksen mukaan","payment:credit_cards":"yes","payment:debit_cards":"yes","shop":"barbershop"}},{"type":"node","id":7977201424,"lat":60.1636316,"lon":24.9429776,"tags":{"addr:city":"Helsinki","addr:country":"FI","addr:housenumber":"10","addr:postcode":"00120","addr:street":"Iso Roobertinkatu"}},{"type":"node","id":9561016634,"lat":60.1634829,"lon":24.9430698,"tags":{"addr:housenumber":"10","addr:street":"Iso Roobertinkatu","addr:unit":"B","healthcare":"psychotherapist","level":"3","name":"Psykoterapiakeskus Sentos"}},{"type":"node","id":9561016635,"lat":60.1634806,"lon":24.9430875,"tags":{"addr:housenumber":"10","addr:street":"Iso Roobertinkatu","addr:unit":"B","amenity":"events_venue","name":"Roba Lounge","phone":"045 1951121","website":"https:\/\/robalounge.fi\/"}},{"type":"node","id":9561027017,"lat":60.1634903,"lon":24.9430835,"tags":{"addr:housenumber":"10","addr:street":"Iso Roobertinkatu","addr:unit":"B","amenity":"theatre","level":"2","name":"Teatteri Ilmi \u00d6","phone":"0408391683"}}]}