{"version":0.6,"generator":"Overpass API 0.7.61.5 4133829e","osm3s":{"timestamp_osm_base":"2023-08-13T09:22:30Z","copyright":"The data included in this document is from www.openstreetmap.org. The data is made available under ODbL."},"elements":[{"type":"node","id":507010515,"lat":60.1620137,"lon":24.9480808,"tags":{"addr:city":"Helsinki","addr:country":"FI","addr:housenumber":"18","addr:street":"Kasarmikatu"}},{"type":"node","id":507010517,"lat":60.1616411,"lon":24.9481084,"tags":{"addr:city":"Helsinki","addr:country":"FI","addr:housenumber":"16","addr:street":"Kasarmikatu"}},{"type":"node","id":738544002,"lat":60.162261,"lon":24.9481906,"tags":{"FIXME:pipeline":"Sijainti liikkuvasta autosta.","hole:diameter":"40cm","man_made":"manhole","manhole":"gas"}},{"type":"node","id":738548390,"lat":60.1617573,"lon":24.9482471,"tags":{"FIXME:pipeline":"Sijainti liikkuvasta autosta.","hole:diameter":"40cm","man_made":"manhole","manhole":"gas"}},{"type":"node","id":1380274059,"lat":60.1618331,"lon":24.9482587,"tags":{"crossing":"marked","highway":"crossing"}},{"type":"node","id":3083611420,"lat":60.1618466,"lon":24.9481395,"tags":{"traffic_sign":"FI:511"}},{"type":"node","id":6979844156,"lat":60.1620909,"lon":24.9482314,"tags":{"man_made":"manhole","manhole":"unknown"}},{"type":"node","id":7668786904,"lat":60.162174,"lon":24.9478532,"tags":{"access":"yes","addr:housenumber":"20","addr:street":"Kasarmikatu","addr:unit":"B","entrance":"staircase","wheelchair":"no"}},{"type":"node","id":7668786909,"lat":60.1622133,"lon":24.9475331,"tags":{"access":"yes","addr:housenumber":"20","addr:street":"Kasarmikatu","addr:unit":"C","entrance":"staircase","wheelchair":"no"}},{"type":"node","id":7668786911,"lat":60.162224,"lon":24.9475318,"tags":{"access":"private","addr:housenumber":"20","addr:street":"Kasarmikatu","addr:unit":"D","entrance":"main","wheelchair":"no"}},{"type":"node","id":7668805921,"lat":60.162032,"lon":24.948106,"tags":{"access":"private","addr:housenumber":"18","addr:street":"Kasarmikatu","addr:unit":"A","description":"With buzzer","entrance":"staircase","wheelchair":"no"}},{"type":"node","id":7668805924,"lat":60.1620091,"lon":24.9481089,"tags":{"access":"private","barrier":"gate","description":"With keycode"}},{"type":"node","id":7668805926,"lat":60.1619731,"lon":24.9481134,"tags":{"access":"private","addr:housenumber":"18","addr:street":"Kasarmikatu","addr:unit":"B","description":"With buzzer","entrance":"staircase","wheelchair":"no"}},{"type":"node","id":7668805929,"lat":60.161849,"lon":24.9481288,"tags":{"access":"yes","addr:housenumber":"16","addr:street":"Kasarmikatu","entrance":"secondary","phone":"050 532 1999"}},{"type":"node","id":7668805930,"lat":60.1618406,"lon":24.9480847,"tags":{"addr:housenumber":"16","addr:street":"Kasarmikatu","name":"Kauneushuone kajo","payment:credit_cards":"yes","payment:debit_cards":"yes","shop":"beauty"}},{"type":"node","id":7668805932,"lat":60.1617728,"lon":24.9481383,"tags":{"access":"private","addr:housenumber":"16","addr:street":"Kasarmikatu","addr:unit":"A","description":"With buzzer","entrance":"staircase","wheelchair":"no"}},{"type":"node","id":7668805935,"lat":60.1616909,"lon":24.9481485,"tags":{"access":"private","barrier":"gate","description":"With keycode"}},{"type":"node","id":7668805937,"lat":60.16164,"lon":24.9481549,"tags":{"access":"no","addr:housenumber":"16","addr:street":"Kasarmikatu","entrance":"secondary","wheelchair":"no"}}]}