{"version":0.6,"generator":"Overpass API 0.7.61.5 4133829e","osm3s":{"timestamp_osm_base":"2023-08-13T09:21:25Z","copyright":"The data included in this document is from www.openstreetmap.org. The data is made available under ODbL."},"elements":[{"type":"node","id":310988217,"lat":60.1642466,"lon":24.9477967,"tags":{"check_date:crossing":"2020-11-21","crossing":"uncontrolled","crossing:island":"no","highway":"crossing"}},{"type":"node","id":310988558,"lat":60.1640211,"lon":24.9478262,"tags":{"addr:city":"Helsinki","addr:country":"FI","addr:housenumber":"28","addr:street":"Kasarmikatu"}},{"type":"node","id":314935170,"lat":60.1641874,"lon":24.9479711,"tags":{"check_date:crossing":"2020-11-21","crossing":"uncontrolled","highway":"crossing"}},{"type":"node","id":438623938,"lat":60.164234,"lon":24.94809,"tags":{"amenity":"vending_machine","currency:EUR":"yes","opening_hours":"Mo-Fr 09:00-19:00; Sa 09:00-18:00","operator":"HKR","parking:ticket:zone":"1","payment:coins":"yes","payment:credit_cards":"yes","ref":"271","vending":"parking_tickets"}},{"type":"node","id":648294900,"lat":60.1641522,"lon":24.9475672,"tags":{"addr:city":"Helsinki","addr:country":"FI","addr:housenumber":"2","addr:street":"Pieni Roobertinkatu","amenity":"restaurant","cuisine":"french","diet:halal":"no","diet:kosher":"no","lunch":"yes","name":"Ravintola Pastis","opening_hours:lunch":"Mo-Fr 11:30-14:00","payment:credit_cards":"yes","payment:debit_cards":"yes","website":"https:\/\/www.pastis.fi\/","wheelchair":"no"}},{"type":"node","id":988162363,"lat":60.1641311,"lon":24.9471461,"tags":{"addr:city":"Helsinki","addr:country":"FI","addr:housenumber":"4-6","addr:street":"Pieni Roobertinkatu"}},{"type":"node","id":988280338,"lat":60.1642559,"lon":24.9479133,"tags":{"diameter":"200","dir_ref":"AK","hole:diameter":"20 cm","man_made":"manhole","manhole":"water","marker:shape":"vertical oval on a rectangle"}},{"type":"node","id":988280342,"lat":60.1642883,"lon":24.9479086,"tags":{"diameter":"300","dir_ref":"AK","hole:diameter":"20 cm","man_made":"manhole","manhole":"water","marker:shape":"vertical oval on a rectangle"}},{"type":"node","id":988280347,"lat":60.164271,"lon":24.9478783,"tags":{"diameter":"200","dir_ref":"AK","hole:diameter":"20 cm","man_made":"manhole","manhole":"water","marker:shape":"vertical oval on a rectangle"}},{"type":"node","id":988280349,"lat":60.1642756,"lon":24.9479226,"tags":{"diameter":"200","emergency":"fire_hydrant","fire_hydrant:type":"underground"}},{"type":"node","id":988551979,"lat":60.1638653,"lon":24.9479716,"tags":{"FIXME:pipeline":"diameter ei ihan varma","diameter":"3\"","hole:diameter":"20 cm","man_made":"manhole","manhole":"gas","marker:shape":"circle"}},{"type":"node","id":988552466,"lat":60.1637397,"lon":24.9478755,"tags":{"heat":"l\u00e4mm\u00f6njakohuone"}},{"type":"node","id":2422351945,"lat":60.1642766,"lon":24.9477625,"tags":{"traffic_sign":"FI:318","traffic_sign:2":"FI:848","traffic_sign:3":"FI:372","traffic_sign:4":"FI:855a[9-21 (9-18)]","traffic_sign:5":"FI:871[Vy\u00f6hyke 1 Kertamaksu enint. 60 min]","traffic_sign:6":"FI:871[Ei koske P-tunnuksella C]"}},{"type":"node","id":2689093180,"lat":60.164152,"lon":24.9478572,"tags":{"traffic_sign":"FI:372","traffic_sign:2":"FI:855a[9-21 (9-18)]","traffic_sign:3":"FI:871[Vy\u00f6hyke 1 Kertamaksu enint. 60 min]","traffic_sign:4":"FI:871[Ei koske P-tunnuksella C]","traffic_sign:5":"FI:871[\u2190 Lippuautomaatti]"}},{"type":"node","id":2689093181,"lat":60.1641809,"lon":24.9473325,"tags":{"fixme":"Peitossa 2012-02","traffic_sign":"FI:372","traffic_sign:2":"FI:855a[9-21 (9-18)]","traffic_sign:3":"FI:871","traffic_sign:4":"FI:871","traffic_sign:5":"FI:871[Lippuautomaatti \u2192]"}},{"type":"node","id":2689093182,"lat":60.1641952,"lon":24.9477686,"tags":{"traffic_sign":"FI:511"}},{"type":"node","id":3340745081,"lat":60.1641735,"lon":24.9469433,"tags":{"traffic_sign":"FI:372","traffic_sign:2":"FI:851[7-18 (9-15)]"}},{"type":"node","id":3340745082,"lat":60.1641949,"lon":24.9481013,"tags":{"fixme":"Tarkista raksan j\u00e4lkeenkin","traffic_sign":"FI:521","traffic_sign:2":"FI:855b[9-21 (9-18)]","traffic_sign:3":"FI:871[Vy\u00f6hyke 1 Kertamaksu enint. 60 min]","traffic_sign:4":"FI:871[Ei koske P-tunnuksella C]"}},{"type":"node","id":3340745083,"lat":60.1642863,"lon":24.9478325,"tags":{"traffic_sign":"FI:511"}},{"type":"node","id":3340745084,"lat":60.1643072,"lon":24.9480899,"tags":{"fixme":"Tarkista raksan j\u00e4lkeenkin","traffic_sign":"FI:521","traffic_sign:2":"FI:855b[9-21 (9-18)]","traffic_sign:3":"FI:871[Vy\u00f6hyke 1 Kertamaksu enint. 60 min]","traffic_sign:4":"FI:871[Ei koske P-tunnuksella C]"}},{"type":"node","id":3900514147,"lat":60.1642899,"lon":24.947028,"tags":{"entrance":"main"}},{"type":"node","id":4741957924,"lat":60.16414,"lon":24.9470455,"tags":{"addr:city":"Helsinki","addr:country":"FI","addr:housenumber":"1","addr:postcode":"00130","addr:street":"Pieni Roobertinkatu","email":"pikkurobans\u00e4hk\u00f6@roba.com","name":"Pikkuroban S\u00e4hk\u00f6","opening_hours":"Mo-Fr 08:00-16:00; Sa 10:00-16:00","payment:credit_cards":"yes","payment:debit_cards":"yes","phone":"+358 9 123 4567","shop":"lighting","website":"http:\/\/www.pikkurobansahko.fi\/"}},{"type":"node","id":4741957926,"lat":60.1641458,"lon":24.9473558,"tags":{"addr:city":"Helsinki","addr:country":"FI","addr:housenumber":"4-6","addr:postcode":"00130","addr:street":"Pieni Roobertinkatu","name":"Delooks","payment:credit_cards":"yes","payment:debit_cards":"yes","shop":"beauty","website":"https:\/\/www.delooks.fi"}},{"type":"node","id":4741957928,"lat":60.1641504,"lon":24.9476764,"tags":{"addr:city":"Helsinki","addr:country":"FI","addr:housenumber":"2","addr:postcode":"00130","addr:street":"Pieni Roobertinkatu","name":"Pikkiroban Parturi","payment:credit_cards":"yes","payment:debit_cards":"yes","shop":"hairdresser"}},{"type":"node","id":6691268418,"lat":60.164081,"lon":24.947811,"tags":{"name":"A2 Galleria","opening_hours":"Tu-Fr 12:00-17:00; Sa-Su 12:00-16:00; PH off","tourism":"gallery"}},{"type":"node","id":6691797498,"lat":60.1641408,"lon":24.947106,"tags":{"addr:city":"Helsinki","addr:country":"FI","addr:housenumber":"4-6","addr:postcode":"00130","addr:street":"Pieni Roobertinkatu","name":"Hiussalonki Lumo Helsinki","opening_hours":"Mo-Fr 9:00-18:00; PH off","payment:credit_cards":"yes","payment:debit_cards":"yes","shop":"hairdresser","website":"https:\/\/lumohelsinki.fi\/"}},{"type":"node","id":7123941966,"lat":60.1639347,"lon":24.947821,"tags":{"addr:city":"Helsinki","addr:housenumber":"28","addr:postcode":"00130","addr:street":"Kasarmikatu","email":"helsiki@bo.fi","name":"Bo LKV","office":"estate_agent","website":"https:\/\/bo.fi\/"}},{"type":"node","id":7615674346,"lat":60.1641542,"lon":24.9469799,"tags":{"access":"private","addr:housenumber":"4-6","addr:street":"Pieni Roobertinkatu","addr:unit":"L","description":"With buzzer","entrance":"main","wheelchair":"no"}},{"type":"node","id":7615674347,"lat":60.1641598,"lon":24.9471815,"tags":{"access":"private","addr:housenumber":"4-6","addr:street":"Pieni Roobertinkatu","entrance":"yes","wheelchair":"yes"}},{"type":"node","id":7615674348,"lat":60.1641701,"lon":24.9475511,"tags":{"access":"yes","addr:housenumber":"2","addr:street":"Pieni Roobertinkatu","entrance":"yes","wheelchair":"no"}},{"type":"node","id":7632144851,"lat":60.1642938,"lon":24.9471586,"tags":{"access":"private","barrier":"gate"}},{"type":"node","id":7702074817,"lat":60.1641562,"lon":24.9478216,"tags":{"access":"yes","addr:housenumber":"28","addr:street":"Kasarmikatu","entrance":"secondary","opening_hours":"Mo-Fr 10:00-18:00; Sa 10:00-15:00","phone":"0458691406","wheelchair":"no"}},{"type":"node","id":7872565496,"lat":60.1641384,"lon":24.947773,"tags":{"addr:housenumber":"28","addr:street":"Kasarmikatu","entrance":"secondary","level":"1","name":"Magnetic head spa","opening_hours":"Mon-fri 10-18    Sat 10-15","payment:credit_cards":"yes","payment:debit_cards":"yes","phone":"0458691406","shop":"hairdresser","wheelchair":"no"}},{"type":"node","id":9719791801,"lat":60.1636776,"lon":24.9482144,"tags":{"addr:housenumber":"17","addr:street":"Kasarmikatu"}},{"type":"node","id":10848482879,"lat":60.1642503,"lon":24.9470962,"tags":{"access":"yes","amenity":"bicycle_parking","bicycle_parking":"stands","capacity":"6","covered":"no","fee":"no"}}]}