{"version":0.6,"generator":"Overpass API 0.7.61.5 4133829e","osm3s":{"timestamp_osm_base":"2023-08-13T09:20:22Z","copyright":"The data included in this document is from www.openstreetmap.org. The data is made available under ODbL."},"elements":[{"type":"node","id":1387035819,"lat":60.1647614,"lon":24.9445669,"tags":{"addr:city":"Helsinki","addr:country":"FI","addr:housenumber":"5","addr:street":"Erottajankatu","amenity":"theatre","name":"Avoimet Ovet","website":"https:\/\/www.avoimetovet.fi\/"}},{"type":"node","id":3340745085,"lat":60.1648619,"lon":24.9442857,"tags":{"addr:city":"Helsinki","addr:housenumber":"7A","addr:postcode":"00130","addr:street":"Erottajankatu","country":"IE","diplomatic":"embassy","embassy":"yes","level":"3","name":"Irlannin suurl\u00e4hetyst\u00f6","name:en":"Embassy of Ireland","name:fr":"Ambassade d'Irlande","name:ga":"Ambas\u00e1id na h\u00c9ireann","name:sv":"Irlands ambassad","office":"diplomatic","target":"FI","website":"https:\/\/www.dfa.ie\/irish-embassy\/finland\/","wikidata":"Q104865297"}},{"type":"node","id":4226460215,"lat":60.164828,"lon":24.9442709,"tags":{"addr:city":"Helsinki","addr:housenumber":"7","addr:postcode":"00130","addr:street":"Erottajankatu","diet:halal":"no","diet:kosher":"no","name":"K-Market Erottaja","opening_hours":"Mo-Fr 07:00-23:00, Sa 09:00-23:00, Su 10:00-23:00","payment:credit_cards":"yes","payment:debit_cards":"yes","shop":"convenience","short_name":"K-Market","website":"https:\/\/www.k-market.fi\/kaupat\/erottaja\/"}},{"type":"node","id":4287087989,"lat":60.1649263,"lon":24.9443153,"tags":{"addr:city":"Helsinki","addr:housenumber":"7 B, sis\u00e4piha","addr:postcode":"00130","addr:street":"Erottajankatu","amenity":"theatre","name":"Nukketeatteri Sampo","website":"http:\/\/www.nukketeatterisampo.fi\/","wheelchair":"no","wheelchair:description":"Puppet theatre, entrance is at the inner yard. There is an elevator at stairway 7 A(5 steps to go before the buzzer and the elevator): just press the buzzer to get in. Teatteriin p\u00e4\u00e4see my\u00f6s hissill\u00e4 soittamalla summeria Erottajankatu 7A:ssa. P\u00e4\u00e4st\u00e4ksesi"}},{"type":"node","id":4370923573,"lat":60.1648909,"lon":24.9443608,"tags":{"addr:city":"Helsinki","addr:housenumber":"7 A, sis\u00e4piha","addr:postcode":"00130","addr:street":"Erottajankatu","amenity":"cafe","diet:halal":"no","diet:kosher":"no","name":"Sampon Satumainen kahvila","opening_hours":"Mo-Fr 10:00-18:00","payment:credit_cards":"yes","payment:debit_cards":"yes","website":"http:\/\/nukketeatterisampo.fi\/","wheelchair":"no","wheelchair:description":"5 steps before elevator. Inner yard. Press a buzzer at stairway 7A to use the elevator. \/ 5 porrasta ennen hissi\u00e4. Kahvilaan p\u00e4\u00e4see my\u00f6s hissill\u00e4 soittamalla summeria Erottajankatu 7A:ssa."}},{"type":"node","id":4691897406,"lat":60.1646619,"lon":24.9442687,"tags":{"addr:city":"Helsinki","addr:country":"FI","addr:housenumber":"5","addr:street":"Erottajankatu","amenity":"bar","name":"Liberty Or Death","opening_hours":"Su, Tu-Th 16:00-01:00; Fr-Sa 16:00-02:00","payment:credit_cards":"yes","payment:debit_cards":"yes","website":"https:\/\/sonofapunch.com\/fi\/ravintolat\/liberty-or-death-suomi\/"}},{"type":"node","id":4741957929,"lat":60.1644101,"lon":24.9450677,"tags":{"addr:city":"Helsinki","leisure":"fitness_centre","name":"Voimalaitos Roba","website":"https:\/\/www.voimalaitos.fi\/etusivu\/"}},{"type":"node","id":5671210340,"lat":60.1643962,"lon":24.9443152,"tags":{"addr:housenumber":"1","addr:street":"Erottajankatu","description":"studio apartment hotel","name":"EasyHomes Erottaja","phone":"+358 50 447 31 84","tourism":"hotel","website":"https:\/\/www.easyhomes.fi\/asunnot\/erottajankatu-1-3-a-4\/"}},{"type":"node","id":5909973794,"lat":60.1645758,"lon":24.9442697,"tags":{"addr:city":"Helsinki","name":"Johanna Gullichsen","payment:credit_cards":"yes","payment:debit_cards":"yes","shop":"yes"}},{"type":"node","id":5909973799,"lat":60.1647729,"lon":24.9442469,"tags":{"addr:city":"Helsinki","name":"Timberwise","payment:credit_cards":"yes","payment:debit_cards":"yes","shop":"yes"}},{"type":"node","id":7615674309,"lat":60.1645932,"lon":24.9442294,"tags":{"access":"yes","addr:housenumber":"1-3","addr:street":"Erottajankatu","description":"With keycode","entrance":"secondary","wheelchair":"no"}},{"type":"node","id":7615674333,"lat":60.1644311,"lon":24.9442493,"tags":{"access":"yes","addr:housenumber":"1","addr:street":"Erottajankatu","entrance":"secondary","wheelchair":"no"}},{"type":"node","id":7615674335,"lat":60.1643918,"lon":24.9442541,"tags":{"access":"yes","addr:housenumber":"1","addr:street":"Erottajankatu","addr:unit":"A","description":"With buzzer","entrance":"staircase","wheelchair":"no"}},{"type":"node","id":9183136521,"lat":60.164367,"lon":24.9454906,"tags":{"access":"delivery","addr:housenumber":"9","addr:street":"Pieni Roobertinkatu","description":"With keycode","entrance":"yes","wheelchair":"yes","width":"1.05"}},{"type":"node","id":9258373078,"lat":60.1643411,"lon":24.9443238,"tags":{"addr:city":"Helsinki","addr:housenumber":"1","addr:postcode":"00120","addr:street":"Erottajankatu","amenity":"place_of_worship","denomination":"baptist","name":"Helsingin baptistiseurakunta, Betel","religion":"christian"}},{"type":"node","id":9697850817,"lat":60.1643449,"lon":24.9442575,"tags":{"addr:housenumber":"1","addr:street":"Erottajankatu","name":"Solid House Helsinki","office":"estate_agent","phone":"044 2820038"}},{"type":"node","id":9699658926,"lat":60.1646219,"lon":24.9442259,"tags":{"barrier":"gate","description":"With keycode","locked":"no","wheelchair":"yes"}},{"type":"node","id":9700528617,"lat":60.1643449,"lon":24.9442599,"tags":{"access":"yes","addr:housenumber":"1","addr:street":"Erottajankatu","entrance":"main","wheelchair":"no"}},{"type":"node","id":9702210117,"lat":60.1644306,"lon":24.9442495,"tags":{"addr:housenumber":"1","addr:street":"Erottajankatu","name":"Erottajan Suutari","payment:credit_cards":"yes","payment:debit_cards":"yes","shop":"shoe_repair"}}]}