{"version":0.6,"generator":"Overpass API 0.7.62.5 1bd436f1","osm3s":{"timestamp_osm_base":"2025-03-12T12:43:15Z","copyright":"The data included in this document is from www.openstreetmap.org. The data is made available under ODbL."},"elements":[{"type":"way","id":5079727,"nodes":[34516830,11415718124,298385062,1934196786,2061382605],"tags":{"highway":"unclassified","lane_markings":"no","lit":"yes","maxspeed":"40","name":"V\u00e4\u00e4ksynkuja","name:fi":"V\u00e4\u00e4ksynkuja","name:sv":"V\u00e4\u00e4ksygr\u00e4nd","parking:both":"yes","parking:both:orientation":"parallel","parking:both:placement":"dedicated","parking:condition:both":"ticket","parking:condition:both:residents":"K","parking:condition:both:time_interval":"Mo-Fr 09:00-19:00","snowplowing":"yes","surface":"paved"}},{"type":"way","id":17182639,"nodes":[178390482,1420808664,1420808665,178390483,178390484,178390485,178390482],"tags":{"addr:city":"Helsinki","addr:country":"FI","addr:housenumber":"7","addr:street":"M\u00e4kel\u00e4nkatu","building":"residential","building:levels":"5","building:maintenance:operator":"Kiinteist\u00f6huolto MAK Oy"}},{"type":"way","id":17182888,"nodes":[178391725,178391727,178391728,178391729,1683106974,178391725],"tags":{"building":"apartments","building:levels":"4.5","building:maintenance:operator":"Eeron Talonmiespalvelu Oy","last_outer_wall_renovation":"2010","roof:orientation":"along","roof:shape":"hipped"}},{"type":"way","id":17182925,"nodes":[631975689,178391869,178391870,633025122,2124949745,633025133,631975689],"tags":{"addr:city":"Helsinki","addr:country":"FI","addr:housenumber":"4b","addr:street":"M\u00e4kel\u00e4nkatu","building":"residential","building:levels":"4.5","building:maintenance:operator":"Huoltojokke Oy"}},{"type":"way","id":24427774,"nodes":[1539765148,317710601],"tags":{"highway":"primary","lanes":"2","lit":"yes","maxlength":"12","maxlength:psv":"no","maxspeed":"40","name":"M\u00e4kel\u00e4nkatu","name:fi":"M\u00e4kel\u00e4nkatu","name:sv":"Backasgatan","oneway":"yes","parking:condition:reason":"junction","parking:left":"no","parking:left:restriction":"no_stopping","priority_road":"yes_unposted","sidewalk:left":"no","sidewalk:right":"separate","surface":"asphalt"}},{"type":"way","id":24445012,"nodes":[1539765149,632024828,551592549,9933537948,404810900],"tags":{"goods:lanes:conditional":"||yes @ (Mo-Fr 09:00-15:00; Mo-Fr 18:00-07:00; Sa-Su 24h)","guideposted_leads_to_ref":"45","hgv:lanes:conditional":"||yes @ (Mo-Fr 09:00-15:00; Mo-Fr 18:00-07:00; Sa-Su 24h)","highway":"primary","lanes":"3","lanes:psv":"1","lit":"yes","maxspeed":"40","name":"M\u00e4kel\u00e4nkatu","name:fi":"M\u00e4kel\u00e4nkatu","name:sv":"Backasgatan","oneway":"yes","parking:left":"no","parking:left:restriction":"no_stopping","parking:right":"no","parking:right:restriction":"no_stopping","priority_road":"yes_unposted","smoothness":"good","snowplowing":"yes","surface":"asphalt"}},{"type":"way","id":24450269,"nodes":[2739275377,2739275381,298183599,317710720,2680390050,11591900001,317710719],"tags":{"destination":"Keskusta","destination:colour":"white","destination:symbol":"ferry","highway":"primary_link","lanes":"1","lit":"yes","maxspeed":"40","name":"V\u00e4\u00e4ksyntie","name:fi":"V\u00e4\u00e4ksyntie","name:sv":"V\u00e4\u00e4ksyv\u00e4gen","oneway":"yes","parking:both":"no","parking:both:restriction":"no_stopping","snowplowing":"yes","surface":"asphalt"}},{"type":"way","id":24450279,"nodes":[2739275377,317710763,265741006,9933537949,1539765149],"tags":{"goods:lanes:conditional":"|yes @ (Mo-Fr 09:00-15:00; Mo-Fr 18:00-07:00; Sa-Su 24h)","hgv:lanes:conditional":"|yes @ (Mo-Fr 09:00-15:00; Mo-Fr 18:00-07:00; Sa-Su 24h)","highway":"primary","lanes":"2","lanes:psv":"1","lit":"yes","maxspeed":"40","name":"M\u00e4kel\u00e4nkatu","name:fi":"M\u00e4kel\u00e4nkatu","name:sv":"Backasgatan","oneway":"yes","parking:left":"no","parking:left:restriction":"no_stopping","parking:right":"no","parking:right:restriction":"no_stopping","priority_road":"designated","smoothness":"good","snowplowing":"yes","surface":"asphalt"}},{"type":"way","id":27191811,"nodes":[298384378,317710600,298183466,298384381,11415718125,633024501,633021964,298385062,471323041,298385064,317710723,1011941621],"tags":{"bicycle":"designated","foot":"designated","highway":"cycleway","lit":"yes","segregated":"yes","snowplowing":"yes","surface":"paved"}},{"type":"way","id":27191827,"nodes":[298384381,632024823,12107632917,11811077258,344402013,298182822,298182825,1406291276,399714141,298182848,471323098,298182819,471323099,298183316,633028911,604829913,298183315,269373943,3858434057,399761236,269373942],"tags":{"bicycle":"no","footway":"sidewalk","highway":"footway","lit":"yes","surface":"asphalt"}},{"type":"way","id":28903698,"nodes":[317710601,11591900002,317710719],"tags":{"guideposted_leads_to_ref":"45","highway":"primary_link","lanes":"1","lit":"yes","maxspeed":"40","name":"V\u00e4\u00e4ksyntie","name:fi":"V\u00e4\u00e4ksyntie","name:sv":"V\u00e4\u00e4ksyv\u00e4gen","oneway":"yes","parking:both":"no","parking:both:restriction":"no_stopping","snowplowing":"yes","surface":"asphalt"}},{"type":"way","id":28903699,"nodes":[1539765148,298183466,765062663],"tags":{"destination":"Keskusta;Kalasatama","destination:colour":"white","destination:symbol":"ferry;","highway":"primary","lanes":"2","lit":"yes","maxspeed":"40","name":"V\u00e4\u00e4ksyntie","name:fi":"V\u00e4\u00e4ksyntie","name:sv":"V\u00e4\u00e4ksyv\u00e4gen","oneway":"yes","parking:lane:both":"no_stopping","snowplowing":"yes","surface":"asphalt"}},{"type":"way","id":30258003,"nodes":[317710719,11591900003,1539765148],"tags":{"destination":"Keskusta","destination:colour":"white","destination:symbol":"ferry","highway":"primary_link","lanes":"1","lit":"yes","maxspeed":"40","name":"V\u00e4\u00e4ksyntie","name:fi":"V\u00e4\u00e4ksyntie","name:sv":"V\u00e4\u00e4ksyv\u00e4gen","oneway":"yes","parking:both":"no","parking:both:restriction":"no_stopping","snowplowing":"yes","surface":"asphalt"}},{"type":"way","id":30258004,"nodes":[317710719,11591900000,317710721,298183600,1539765149],"tags":{"guideposted_leads_to_ref":"45","highway":"primary_link","lanes":"1","lit":"yes","maxspeed":"40","name":"V\u00e4\u00e4ksyntie","name:fi":"V\u00e4\u00e4ksyntie","name:sv":"V\u00e4\u00e4ksyv\u00e4gen","oneway":"yes","parking:both":"no","parking:both:restriction":"no_stopping","snowplowing":"yes","surface":"asphalt"}},{"type":"way","id":30258152,"nodes":[317710601,897310327],"tags":{"highway":"secondary","lanes":"2","lit":"yes","maxlength":"12","maxlength:psv":"no","maxspeed":"40","name":"M\u00e4kel\u00e4nkatu","name:fi":"M\u00e4kel\u00e4nkatu","name:sv":"Backasgatan","oneway":"yes","parking:both":"no","parking:both:restriction":"no_stopping","priority_road":"yes_unposted","sidewalk:left":"no","sidewalk:right":"separate","snowplowing":"yes","surface":"asphalt"}},{"type":"way","id":39341303,"nodes":[471323062,471323061,6074774485,119233688,119233689,119233690,631947735,119233693,119233694,471323041],"tags":{"bicycle":"no","footway":"sidewalk","highway":"footway","lit":"yes","snowplowing":"yes","surface":"asphalt"}},{"type":"way","id":39342193,"nodes":[471323039,485357357,631975688,471323040],"tags":{"barrier":"hedge"}},{"type":"way","id":40253379,"nodes":[485357357,485357358],"tags":{"barrier":"hedge"}},{"type":"way","id":47215612,"nodes":[601596757,601596758,601596760],"tags":{"layer":"-1","location":"underground","man_made":"pipeline","source":"interpolation","type":"heat"}},{"type":"way","id":49728148,"nodes":[631975688,631975689],"tags":{"barrier":"fence"}},{"type":"way","id":49734365,"nodes":[632024823,3398189544,632024824,3398189545,632024825,632024826,3226170146,632024828,3226170147,632024827],"tags":{"footway":"crossing","highway":"footway","lit":"yes","snowplowing":"yes","surface":"paved"}},{"type":"way","id":49734405,"nodes":[178390483,632025333,1539765150,632025348],"tags":{"helpline":"relativeposition"}},{"type":"way","id":49734493,"nodes":[632022106,632023536,1539765150,1539765239],"tags":{"diameter":"300","layer":"-1","location":"underground","man_made":"pipeline","substance":"water"}},{"type":"way","id":49818617,"nodes":[633021534,178391871,633020961,633020962],"tags":{"helpline":"relativeposition"}},{"type":"way","id":49821146,"nodes":[178391871,633021832],"tags":{"helpline":"relativeposition"}},{"type":"way","id":49824108,"nodes":[471323040,12107632914,633024486,633024487,633024488,178391873],"tags":{"barrier":"fence"}},{"type":"way","id":49824109,"nodes":[178391873,633024491,633024489,633024490,178391873],"tags":{"access":"destination","amenity":"parking","lit":"yes","operator":"Jorin pelisali","surface":"paved"}},{"type":"way","id":49824110,"nodes":[633024502,633024499,633024488,633024501,633024500],"tags":{"highway":"footway","motor_vehicle":"private","snowplowing":"yes","surface":"paved"}},{"type":"way","id":49824114,"nodes":[1539765166,178391870],"tags":{"helpline":"relativeposition"}},{"type":"way","id":49824202,"nodes":[631975689,633025133,633025121,178391871,633024491,178391873,633024502,631975689],"tags":{"addr:city":"Helsinki","addr:country":"FI","addr:housenumber":"4a","addr:street":"M\u00e4kel\u00e4nkatu","building":"residential","building:levels":"5","start_date":"1946"}},{"type":"way","id":49824215,"nodes":[633025281,633025282],"tags":{"barrier":"retaining_wall"}},{"type":"way","id":61188120,"nodes":[765062663,633024500,765062662],"tags":{"bicycle":"use_sidepath","highway":"primary","lanes":"2","lit":"yes","maxspeed":"40","name":"V\u00e4\u00e4ksyntie","name:fi":"V\u00e4\u00e4ksyntie","name:sv":"V\u00e4\u00e4ksyv\u00e4gen","oneway":"yes","parking:left":"no","parking:left:restriction":"no_stopping","parking:right":"no","parking:right:restriction":"no_parking","snowplowing":"yes","surface":"asphalt"}},{"type":"way","id":74489912,"nodes":[880450197,880450202],"tags":{"highway":"unclassified","lanes":"1","lit":"yes","maxspeed":"30","name":"V\u00e4\u00e4ksynkuja","name:fi":"V\u00e4\u00e4ksynkuja","name:sv":"V\u00e4\u00e4ksygr\u00e4nd","parking:condition:left":"no_parking","parking:condition:left:default":"free","parking:condition:left:time_interval":"Mo-Fr 08:00-17:00","parking:lane:both":"parallel","snowplowing":"yes","surface":"paved"}},{"type":"way","id":76043670,"nodes":[897313974,632024824,551612815,1539765148],"tags":{"highway":"primary","lanes":"3","lit":"yes","maxspeed":"40","name":"M\u00e4kel\u00e4nkatu","name:fi":"M\u00e4kel\u00e4nkatu","name:sv":"Backasgatan","oneway":"yes","parking:both":"no","parking:both:restriction":"no_stopping","priority_road":"yes_unposted","sidewalk:left":"no","sidewalk:right":"separate","snowplowing":"yes","surface":"asphalt","turn:lanes":"through|through|right"}},{"type":"way","id":126987208,"nodes":[1406256646,1406256663,266225784,317710724,1406256620,5541144750,5541144747,5541144745,5541144744,5541144743,5541144746,5541144748,5541144749,5541144751,1406256635,5541144775,5541144774,5541144776,1406256643,5541144787,5541144788,5541144786,1406256646],"tags":{"addr:city":"Helsinki","addr:housenumber":"4","addr:postcode":"00510","addr:street":"V\u00e4\u00e4ksyntie","building":"office","building:levels":"5"}},{"type":"way","id":128606649,"nodes":[344402011,3448195117,344402009,399737822,551592547,632024827,298183462,298183463,604349073,298183465,288997519],"tags":{"bicycle":"no","footway":"sidewalk","highway":"footway","lit":"yes","snowplowing":"yes","surface":"asphalt"}},{"type":"way","id":195720446,"nodes":[2061382605,880450197],"tags":{"highway":"unclassified","lanes":"1","lit":"yes","maxspeed":"30","name":"V\u00e4\u00e4ksynkuja","name:fi":"V\u00e4\u00e4ksynkuja","name:sv":"V\u00e4\u00e4ksygr\u00e4nd","parking:both":"yes","parking:both:orientation":"parallel","parking:both:placement":"dedicated","parking:condition:both":"ticket","parking:condition:both:residents":"K","parking:condition:both:time_interval":"Mo-Fr 09:00-19:00","snowplowing":"yes","surface":"paved"}},{"type":"way","id":204804511,"nodes":[2147785760,2147785759],"tags":{"layer":"3","man_made":"beam"}},{"type":"way","id":221087703,"nodes":[313774259,3340045408],"tags":{"electrified":"contact_line","frequency":"0","gauge":"1000","oneway":"yes","operator":"HKL-Raitioliikenne","railway":"tram","tram:segregation:physical":"separate","voltage":"600"}},{"type":"way","id":236136703,"nodes":[632024827,2441951996,11255373931,2441952002],"tags":{"highway":"footway","lit":"yes","pihatie":"l\u00e4pikulku_kielletty","snowplowing":"yes","surface":"paved"}},{"type":"way","id":238081191,"nodes":[471323054,4528128505,471323066,471323067,1406256679,266225783,1406256663,266225784,317710724,1406256620,5541144803,4528127330,266225785,6074774181,6074774180,247356993,247356991,266225786,6074774177,247356990,1011941632,11810092810,1011941608,247356986,9526378676,9526378677,9526378678,4528117288,4528117287,4528121925,471323054],"tags":{"landuse":"commercial"}},{"type":"way","id":262373651,"nodes":[2678567387,2681852793,2681852794,2681852795,2680390053],"tags":{"layer":"2","man_made":"wire"}},{"type":"way","id":262518275,"nodes":[2681852796,2681852797,2681852798,2681852799,2681852800],"tags":{"layer":"2","man_made":"beam"}},{"type":"way","id":327275824,"nodes":[3340045409,245005173],"tags":{"electrified":"contact_line","frequency":"0","gauge":"1000","oneway":"yes","operator":"HKL-Raitioliikenne","railway":"tram","tram:segregation:physical":"separate","voltage":"600"}},{"type":"way","id":327275854,"nodes":[3340045408,150920636,11591900001,11591900000,3340045411],"tags":{"electrified":"contact_line","frequency":"0","gauge":"1000","oneway":"yes","operator":"HKL-Raitioliikenne","railway":"tram","tram:segregation:physical":"junction","voltage":"600"}},{"type":"way","id":327275868,"nodes":[3340045410,11591900003,11591900002,313778447,3340045409],"tags":{"electrified":"contact_line","frequency":"0","gauge":"1000","oneway":"yes","operator":"HKL-Raitioliikenne","railway":"tram","tram:segregation:physical":"junction","voltage":"600"}},{"type":"way","id":327275914,"nodes":[3340045412,1539765159,632024825,3340045410],"tags":{"electrified":"contact_line","frequency":"0","gauge":"1000","oneway":"yes","operator":"HKL-Raitioliikenne","railway":"tram","tram:segregation:physical":"separate","voltage":"600"}},{"type":"way","id":327275918,"nodes":[3340045411,632024826,1539765162,3340045413],"tags":{"electrified":"contact_line","frequency":"0","gauge":"1000","oneway":"yes","operator":"HKL-Raitioliikenne","railway":"tram","tram:segregation:physical":"separate","voltage":"600"}},{"type":"way","id":332676694,"nodes":[3398194908,11811077257,12107632916,3398194907],"tags":{"highway":"primary","lanes":"3","lit":"yes","maxspeed":"40","name":"M\u00e4kel\u00e4nkatu","name:fi":"M\u00e4kel\u00e4nkatu","name:sv":"Backasgatan","oneway":"yes","parking:condition:reason:left":"dual_carriage","parking:condition:reason:right":"driveway","parking:left":"no","parking:left:restriction":"no_stopping","parking:right":"no","parking:right:restriction":"no_parking","priority_road":"yes_unposted","sidewalk:left":"no","sidewalk:right":"separate","snowplowing":"yes","surface":"asphalt"}},{"type":"way","id":332676697,"nodes":[3398194907,897313974],"tags":{"highway":"primary","lanes":"3","lit":"yes","maxspeed":"40","name":"M\u00e4kel\u00e4nkatu","name:fi":"M\u00e4kel\u00e4nkatu","name:sv":"Backasgatan","oneway":"yes","parking:condition:reason:left":"dual_carriage","parking:condition:right":"ticket","parking:condition:right:default":"free","parking:condition:right:residents":"K","parking:condition:right:time_interval":"Mo-Fr 09:00-21:00","parking:lane:right:parallel":"on_kerb","parking:left":"no","parking:left:restriction":"no_stopping","parking:right":"yes","parking:right:orientation":"parallel","parking:ticket:zone":"3","priority_road":"yes_unposted","sidewalk:left":"no","sidewalk:right":"separate","smoothness":"good","snowplowing":"yes","surface":"asphalt"}},{"type":"way","id":606108440,"nodes":[317710599,1934196789,317710600,317710601],"tags":{"guideposted_leads_to_ref":"45","highway":"primary","lanes":"2","lit":"yes","maxspeed":"40","name":"V\u00e4\u00e4ksyntie","name:fi":"V\u00e4\u00e4ksyntie","name:sv":"V\u00e4\u00e4ksyv\u00e4gen","oneway":"yes","parking:left":"no","parking:left:restriction":"no_stopping","parking:right":"no","parking:right:restriction":"no_parking","paved:date":"2014-08","snowplowing":"yes","surface":"asphalt","turn:lanes":"left|right"}},{"type":"way","id":1042435390,"nodes":[9595775574,9595775575,9595775576,9595775578,9595775579,9595775580,441223779,441223776,441223775,441223774,9595775581,11728061112,9595775582,9595775583,9595775584,9595775585,9595775586,9595775587,9595775588,9595775589,9595775590,11554344920,11554344919,9595775574],"tags":{"landuse":"residential","residential":"urban"}},{"type":"way","id":1042435572,"nodes":[471323039,485357357,631975688,471323040,12107632914,633024486,9595807665,9595807666,9595807667,9595807668,9595807669,9595807670,1420760652,1420760651,471323039],"tags":{"landuse":"residential"}},{"type":"way","id":1271898018,"nodes":[11811077263,11811077262,11811077261,11811077260,11811077259,12107632915,11811077258,11811077257],"tags":{"access":"destination","highway":"service","service":"driveway"}},{"type":"way","id":1307411276,"nodes":[1420760652,1544144293,1544144291,12107632910,12107632911,633025282,633025281,12107632912,12107632913,12107632914,471323040,631975688,485357357,471323039,1420760651,1420760652],"tags":{"landuse":"grass"}},{"type":"way","id":1307411277,"nodes":[12107632916,12107632917,12107632918,12107632919],"tags":{"access":"destination","highway":"service","service":"driveway"}},{"type":"way","id":1307411282,"nodes":[178390483,12107632936,12107632937,12107632938,12107632939,12107632940,12107632941,12107632942,12107632943,12107632944,12107632945,12107632946,12107632947,12107632948,12107632949,178390484,178390483],"tags":{"landuse":"grass"}},{"type":"node","id":34516830,"lat":60.1906259,"lon":24.9615183},{"type":"node","id":119233688,"lat":60.1908864,"lon":24.957225},{"type":"node","id":119233689,"lat":60.1910443,"lon":24.9580466},{"type":"node","id":119233690,"lat":60.1912223,"lon":24.958938},{"type":"node","id":119233693,"lat":60.1915245,"lon":24.9604875},{"type":"node","id":119233694,"lat":60.1906886,"lon":24.9613571},{"type":"node","id":150920636,"lat":60.1908316,"lon":24.9624933},{"type":"node","id":178390482,"lat":60.1912375,"lon":24.9626224},{"type":"node","id":178390483,"lat":60.1912676,"lon":24.9624287},{"type":"node","id":178391725,"lat":60.1914188,"lon":24.9614089},{"type":"node","id":178391727,"lat":60.1913742,"lon":24.9612068},{"type":"node","id":178391869,"lat":60.191251,"lon":24.9613119},{"type":"node","id":178391870,"lat":60.191306,"lon":24.9615098},{"type":"node","id":178391871,"lat":60.1909208,"lon":24.9619424},{"type":"node","id":178391873,"lat":60.1908658,"lon":24.9617443},{"type":"node","id":247356986,"lat":60.1906702,"lon":24.9570487},{"type":"node","id":247356990,"lat":60.1903544,"lon":24.9585102},{"type":"node","id":247356991,"lat":60.1901502,"lon":24.9596558},{"type":"node","id":247356993,"lat":60.1900422,"lon":24.9605176},{"type":"node","id":266225783,"lat":60.1915091,"lon":24.9604786},{"type":"node","id":266225784,"lat":60.1906944,"lon":24.9613063},{"type":"node","id":266225785,"lat":60.1899918,"lon":24.9609085},{"type":"node","id":266225786,"lat":60.1901589,"lon":24.9595783},{"type":"node","id":298183462,"lat":60.1910271,"lon":24.9626229},{"type":"node","id":298183466,"lat":60.1908125,"lon":24.9620961},{"type":"node","id":298183599,"lat":60.1908091,"lon":24.9626355},{"type":"node","id":298183600,"lat":60.1909684,"lon":24.9624604},{"type":"node","id":298384378,"lat":60.190651,"lon":24.9622666},{"type":"node","id":298384381,"lat":60.1908733,"lon":24.9620387},{"type":"node","id":298385062,"lat":60.1906735,"lon":24.96145},{"type":"node","id":298385064,"lat":60.1905975,"lon":24.9613399},{"type":"node","id":313778447,"lat":60.1908243,"lon":24.9624415},{"type":"node","id":317710599,"lat":60.1906173,"lon":24.9617778},{"type":"node","id":317710600,"lat":60.1907304,"lon":24.9621822},{"type":"node","id":317710601,"lat":60.1907722,"lon":24.9623278},{"type":"node","id":317710719,"lat":60.1908564,"lon":24.9624277},{"type":"node","id":317710720,"lat":60.1908274,"lon":24.9625938},{"type":"node","id":317710721,"lat":60.1909155,"lon":24.9624513},{"type":"node","id":317710723,"lat":60.1905489,"lon":24.9613039},{"type":"node","id":317710724,"lat":60.1905668,"lon":24.96125},{"type":"node","id":471323040,"lat":60.1907376,"lon":24.9614638},{"type":"node","id":471323041,"lat":60.1906478,"lon":24.9614027},{"type":"node","id":471323054,"lat":60.1910006,"lon":24.9580375},{"type":"node","id":471323061,"lat":60.1908326,"lon":24.9570027},{"type":"node","id":471323062,"lat":60.1908029,"lon":24.9569624},{"type":"node","id":471323066,"lat":60.1911944,"lon":24.9589741},{"type":"node","id":471323067,"lat":60.1913481,"lon":24.9597131},{"type":"node","id":485357357,"lat":60.1912393,"lon":24.9609405},{"type":"node","id":485357358,"lat":60.1913501,"lon":24.9614527},{"type":"node","id":551592549,"lat":60.1915202,"lon":24.9619581},{"type":"node","id":551612815,"lat":60.1908893,"lon":24.9621884},{"type":"node","id":601596758,"lat":60.1907315,"lon":24.9624184},{"type":"node","id":631947735,"lat":60.1914613,"lon":24.9601394},{"type":"node","id":631975688,"lat":60.1910011,"lon":24.9611945},{"type":"node","id":631975689,"lat":60.1910849,"lon":24.9614983},{"type":"node","id":632024823,"lat":60.1909636,"lon":24.96195},{"type":"node","id":632024824,"lat":60.1909969,"lon":24.9620677},{"type":"node","id":632024825,"lat":60.191032,"lon":24.9621912},{"type":"node","id":632024826,"lat":60.1910448,"lon":24.9622364},{"type":"node","id":632024827,"lat":60.1911239,"lon":24.9625151},{"type":"node","id":632024828,"lat":60.1910945,"lon":24.9624089},{"type":"node","id":632025333,"lat":60.1912329,"lon":24.9624211},{"type":"node","id":632025348,"lat":60.1912396,"lon":24.9624082},{"type":"node","id":633020961,"lat":60.191018,"lon":24.962496},{"type":"node","id":633020962,"lat":60.1910588,"lon":24.9624499},{"type":"node","id":633021534,"lat":60.1908765,"lon":24.9621322},{"type":"node","id":633021832,"lat":60.1910282,"lon":24.9623473},{"type":"node","id":633021964,"lat":60.1907244,"lon":24.9615771},{"type":"node","id":633024486,"lat":60.1908,"lon":24.961691},{"type":"node","id":633024487,"lat":60.1908314,"lon":24.9616667},{"type":"node","id":633024488,"lat":60.1908456,"lon":24.9617019},{"type":"node","id":633024489,"lat":60.1908534,"lon":24.9619472},{"type":"node","id":633024490,"lat":60.1908135,"lon":24.9618029},{"type":"node","id":633024491,"lat":60.1909057,"lon":24.9618885},{"type":"node","id":633024499,"lat":60.1909494,"lon":24.9615923},{"type":"node","id":633024500,"lat":60.1907379,"lon":24.9618209},{"type":"node","id":633024501,"lat":60.1907818,"lon":24.96177},{"type":"node","id":633024502,"lat":60.1909621,"lon":24.9616363},{"type":"node","id":633025121,"lat":60.1910061,"lon":24.9618465},{"type":"node","id":633025122,"lat":60.1911913,"lon":24.9616386},{"type":"node","id":633025133,"lat":60.1911399,"lon":24.9616963},{"type":"node","id":633025281,"lat":60.1911017,"lon":24.9613695},{"type":"node","id":633025282,"lat":60.1912682,"lon":24.9611861},{"type":"node","id":765062662,"lat":60.1907182,"lon":24.9617486},{"type":"node","id":765062663,"lat":60.1907956,"lon":24.9620357},{"type":"node","id":880450197,"lat":60.1908946,"lon":24.9612226},{"type":"node","id":880450202,"lat":60.1911142,"lon":24.9610044},{"type":"node","id":897310327,"lat":60.1906176,"lon":24.9625225},{"type":"node","id":897313974,"lat":60.1911732,"lon":24.9618756},{"type":"node","id":1011941608,"lat":60.1905814,"lon":24.9574676},{"type":"node","id":1011941621,"lat":60.1901772,"lon":24.9611413},{"type":"node","id":1011941632,"lat":60.1905426,"lon":24.9576461},{"type":"node","id":1406256620,"lat":60.1905441,"lon":24.9612413},{"type":"node","id":1406256635,"lat":60.1906654,"lon":24.960269},{"type":"node","id":1406256643,"lat":60.1908304,"lon":24.9604265},{"type":"node","id":1406256646,"lat":60.1909448,"lon":24.9602804},{"type":"node","id":1406256663,"lat":60.1911008,"lon":24.9608946},{"type":"node","id":1406256679,"lat":60.1913906,"lon":24.9599063},{"type":"node","id":1420808664,"lat":60.1912444,"lon":24.9625048},{"type":"node","id":1420808665,"lat":60.1912629,"lon":24.9625092},{"type":"node","id":1539765148,"lat":60.1908488,"lon":24.9622338},{"type":"node","id":1539765149,"lat":60.191071,"lon":24.9624353},{"type":"node","id":1539765150,"lat":60.1912358,"lon":24.9623701},{"type":"node","id":1539765159,"lat":60.191322,"lon":24.9618884},{"type":"node","id":1539765162,"lat":60.1913329,"lon":24.9619331},{"type":"node","id":1539765166,"lat":60.1913484,"lon":24.9616654},{"type":"node","id":1544144291,"lat":60.1913042,"lon":24.9611714},{"type":"node","id":1934196786,"lat":60.1907049,"lon":24.9614177},{"type":"node","id":1934196789,"lat":60.1907158,"lon":24.9621312},{"type":"node","id":2061382605,"lat":60.1907573,"lon":24.9613638},{"type":"node","id":2124949745,"lat":60.1911818,"lon":24.9616493},{"type":"node","id":2147785759,"lat":60.1911394,"lon":24.9624486},{"type":"node","id":2147785760,"lat":60.1911563,"lon":24.9625072},{"type":"node","id":2678567387,"lat":60.1910432,"lon":24.9618968},{"type":"node","id":2680390050,"lat":60.1908398,"lon":24.962532},{"type":"node","id":2680390053,"lat":60.1910944,"lon":24.9620833},{"type":"node","id":2681852793,"lat":60.1910546,"lon":24.9619384},{"type":"node","id":2681852794,"lat":60.1910673,"lon":24.9619843},{"type":"node","id":2681852795,"lat":60.1910799,"lon":24.9620303},{"type":"node","id":2681852796,"lat":60.1912865,"lon":24.9616502},{"type":"node","id":2681852797,"lat":60.1912949,"lon":24.9616817},{"type":"node","id":2681852798,"lat":60.1913064,"lon":24.9617247},{"type":"node","id":2681852799,"lat":60.1913179,"lon":24.9617678},{"type":"node","id":2681852800,"lat":60.1913304,"lon":24.9618145},{"type":"node","id":3226170146,"lat":60.1910727,"lon":24.9623348},{"type":"node","id":3226170147,"lat":60.1911173,"lon":24.9624919},{"type":"node","id":3340045408,"lat":60.1907946,"lon":24.9625436},{"type":"node","id":3340045409,"lat":60.1908016,"lon":24.9624728},{"type":"node","id":3340045410,"lat":60.1908942,"lon":24.9623573},{"type":"node","id":3340045411,"lat":60.1909354,"lon":24.9623682},{"type":"node","id":3398189544,"lat":60.1909724,"lon":24.9619811},{"type":"node","id":3398189545,"lat":60.1910225,"lon":24.9621579},{"type":"node","id":3398194907,"lat":60.1913117,"lon":24.9617312},{"type":"node","id":3398194908,"lat":60.1914611,"lon":24.9615755},{"type":"node","id":4528117287,"lat":60.1908722,"lon":24.9570766},{"type":"node","id":4528117288,"lat":60.190837,"lon":24.9569569},{"type":"node","id":4528121925,"lat":60.1908891,"lon":24.9573668},{"type":"node","id":4528127330,"lat":60.190086,"lon":24.9610351},{"type":"node","id":4528128505,"lat":60.1911431,"lon":24.958724},{"type":"node","id":5541144743,"lat":60.1907568,"lon":24.9607377},{"type":"node","id":5541144744,"lat":60.1908788,"lon":24.9606076},{"type":"node","id":5541144745,"lat":60.1909201,"lon":24.9607739},{"type":"node","id":5541144746,"lat":60.1907481,"lon":24.9607967},{"type":"node","id":5541144747,"lat":60.1906821,"lon":24.96103},{"type":"node","id":5541144748,"lat":60.1906954,"lon":24.9607645},{"type":"node","id":5541144749,"lat":60.1907074,"lon":24.9606679},{"type":"node","id":5541144750,"lat":60.1905741,"lon":24.9609725},{"type":"node","id":5541144751,"lat":60.190617,"lon":24.9606122},{"type":"node","id":5541144774,"lat":60.1907132,"lon":24.9602512},{"type":"node","id":5541144775,"lat":60.1906712,"lon":24.9602278},{"type":"node","id":5541144776,"lat":60.1906991,"lon":24.9603534},{"type":"node","id":5541144786,"lat":60.1909374,"lon":24.960275},{"type":"node","id":5541144787,"lat":60.1909448,"lon":24.9603112},{"type":"node","id":5541144788,"lat":60.1909384,"lon":24.9602844},{"type":"node","id":5541144803,"lat":60.1902517,"lon":24.9611025},{"type":"node","id":6074774177,"lat":60.1903005,"lon":24.9587418},{"type":"node","id":6074774180,"lat":60.1900116,"lon":24.9607433},{"type":"node","id":6074774181,"lat":60.1900078,"lon":24.9607744},{"type":"node","id":6074774485,"lat":60.1908492,"lon":24.9570659},{"type":"node","id":9526378676,"lat":60.190705,"lon":24.9569586},{"type":"node","id":9526378677,"lat":60.1907414,"lon":24.9569027},{"type":"node","id":9526378678,"lat":60.1907941,"lon":24.9568994},{"type":"node","id":9595775579,"lat":60.1914187,"lon":24.9622558},{"type":"node","id":9595775580,"lat":60.1910344,"lon":24.9626499},{"type":"node","id":9595807665,"lat":60.1908084,"lon":24.9618127},{"type":"node","id":9595807666,"lat":60.1908678,"lon":24.9620146},{"type":"node","id":9595807667,"lat":60.1911047,"lon":24.961768},{"type":"node","id":9595807668,"lat":60.1913749,"lon":24.9614885},{"type":"node","id":9933537949,"lat":60.1909737,"lon":24.9625713},{"type":"node","id":11415718124,"lat":60.1906574,"lon":24.9614731},{"type":"node","id":11415718125,"lat":60.1908536,"lon":24.9620004},{"type":"node","id":11591900000,"lat":60.1908787,"lon":24.9624366},{"type":"node","id":11591900001,"lat":60.1908494,"lon":24.9624719},{"type":"node","id":11591900002,"lat":60.190846,"lon":24.9624154},{"type":"node","id":11591900003,"lat":60.1908555,"lon":24.962404},{"type":"node","id":11810092810,"lat":60.1905672,"lon":24.957534},{"type":"node","id":11811077257,"lat":60.191427,"lon":24.9616065},{"type":"node","id":11811077258,"lat":60.1914053,"lon":24.9614975},{"type":"node","id":11811077259,"lat":60.1913451,"lon":24.9612044},{"type":"node","id":11811077260,"lat":60.1913548,"lon":24.9611695},{"type":"node","id":11811077261,"lat":60.1913818,"lon":24.961144},{"type":"node","id":12107632910,"lat":60.1913694,"lon":24.9614632},{"type":"node","id":12107632911,"lat":60.1913426,"lon":24.9614925},{"type":"node","id":12107632912,"lat":60.1908529,"lon":24.9616411},{"type":"node","id":12107632913,"lat":60.1908215,"lon":24.9615202},{"type":"node","id":12107632914,"lat":60.1907684,"lon":24.9615759},{"type":"node","id":12107632915,"lat":60.1913636,"lon":24.9613017},{"type":"node","id":12107632916,"lat":60.1913721,"lon":24.9616658},{"type":"node","id":12107632917,"lat":60.1913437,"lon":24.9615631},{"type":"node","id":12107632918,"lat":60.1912608,"lon":24.9612543},{"type":"node","id":12107632919,"lat":60.1911214,"lon":24.9613994},{"type":"node","id":245005173,"lat":60.1901723,"lon":24.9633054},{"type":"node","id":265741006,"lat":60.1907811,"lon":24.962801},{"type":"node","id":288997519,"lat":60.1900035,"lon":24.9640671},{"type":"node","id":298183463,"lat":60.190719,"lon":24.962993},{"type":"node","id":298183465,"lat":60.1902274,"lon":24.9636975},{"type":"node","id":313774259,"lat":60.1901879,"lon":24.9633506},{"type":"node","id":317710763,"lat":60.190695,"lon":24.9629136},{"type":"node","id":441223774,"lat":60.1906189,"lon":24.9631717},{"type":"node","id":441223775,"lat":60.1907227,"lon":24.9630202},{"type":"node","id":441223776,"lat":60.1907567,"lon":24.9629728},{"type":"node","id":441223779,"lat":60.1907927,"lon":24.9629238},{"type":"node","id":601596757,"lat":60.1901706,"lon":24.963235},{"type":"node","id":604349073,"lat":60.1903694,"lon":24.9634844},{"type":"node","id":632022106,"lat":60.189806,"lon":24.9642283},{"type":"node","id":632023536,"lat":60.1904314,"lon":24.9633759},{"type":"node","id":2441951996,"lat":60.1912266,"lon":24.9626989},{"type":"node","id":2739275377,"lat":60.1905247,"lon":24.9631478},{"type":"node","id":2739275381,"lat":60.1906498,"lon":24.9628574},{"type":"node","id":9595775581,"lat":60.1905131,"lon":24.9633067},{"type":"node","id":9595775582,"lat":60.1901708,"lon":24.963828},{"type":"node","id":9595775583,"lat":60.1901268,"lon":24.9639317},{"type":"node","id":9595775584,"lat":60.1901044,"lon":24.9640623},{"type":"node","id":9595775585,"lat":60.1901403,"lon":24.9641835},{"type":"node","id":9595775586,"lat":60.1905477,"lon":24.9642687},{"type":"node","id":9595775587,"lat":60.1907082,"lon":24.9642973},{"type":"node","id":9595775588,"lat":60.1912081,"lon":24.9643204},{"type":"node","id":11255373931,"lat":60.1913133,"lon":24.9627197},{"type":"node","id":11728061112,"lat":60.1903394,"lon":24.963562},{"type":"node","id":178390484,"lat":60.1916627,"lon":24.9625233},{"type":"node","id":178391728,"lat":60.1917934,"lon":24.9608325},{"type":"node","id":178391729,"lat":60.191838,"lon":24.9610347},{"type":"node","id":269373942,"lat":60.1942752,"lon":24.9568417},{"type":"node","id":269373943,"lat":60.1934881,"lon":24.9585338},{"type":"node","id":298182819,"lat":60.192321,"lon":24.9605878},{"type":"node","id":298182822,"lat":60.1918957,"lon":24.9609861},{"type":"node","id":298182825,"lat":60.1919318,"lon":24.9609417},{"type":"node","id":298182848,"lat":60.1922717,"lon":24.9606334},{"type":"node","id":298183315,"lat":60.1934514,"lon":24.9586118},{"type":"node","id":298183316,"lat":60.192549,"lon":24.9604039},{"type":"node","id":344402009,"lat":60.1918055,"lon":24.9618571},{"type":"node","id":344402011,"lat":60.1919326,"lon":24.9617302},{"type":"node","id":344402013,"lat":60.1917974,"lon":24.9610994},{"type":"node","id":399714141,"lat":60.1920109,"lon":24.9608745},{"type":"node","id":399737822,"lat":60.1917322,"lon":24.9619301},{"type":"node","id":399761236,"lat":60.1941819,"lon":24.9571706},{"type":"node","id":404810900,"lat":60.1917748,"lon":24.9617305},{"type":"node","id":471323039,"lat":60.1917029,"lon":24.9604745},{"type":"node","id":471323098,"lat":60.1922784,"lon":24.9606208},{"type":"node","id":471323099,"lat":60.1923658,"lon":24.9605779},{"type":"node","id":551592547,"lat":60.1915658,"lon":24.9620856},{"type":"node","id":601596760,"lat":60.1919256,"lon":24.9611101},{"type":"node","id":604829913,"lat":60.1934233,"lon":24.9586715},{"type":"node","id":633028911,"lat":60.1929251,"lon":24.9596712},{"type":"node","id":1406291276,"lat":60.1919652,"lon":24.9609124},{"type":"node","id":1420760651,"lat":60.191758,"lon":24.960505},{"type":"node","id":1420760652,"lat":60.191797,"lon":24.9607165},{"type":"node","id":1539765239,"lat":60.1923758,"lon":24.9612057},{"type":"node","id":1544144293,"lat":60.191553,"lon":24.9609368},{"type":"node","id":1683106974,"lat":60.1917503,"lon":24.9611129},{"type":"node","id":3340045412,"lat":60.1918397,"lon":24.9614113},{"type":"node","id":3340045413,"lat":60.1918475,"lon":24.9614547},{"type":"node","id":3448195117,"lat":60.191857,"lon":24.9618056},{"type":"node","id":3858434057,"lat":60.1937108,"lon":24.9581076},{"type":"node","id":9595775574,"lat":60.1919521,"lon":24.9618551},{"type":"node","id":9595775575,"lat":60.1919466,"lon":24.9617667},{"type":"node","id":9595775576,"lat":60.1919206,"lon":24.9617686},{"type":"node","id":9595775578,"lat":60.1915787,"lon":24.9620859},{"type":"node","id":9595807669,"lat":60.1918025,"lon":24.9610849},{"type":"node","id":9595807670,"lat":60.1918604,"lon":24.9610091},{"type":"node","id":9933537948,"lat":60.1915972,"lon":24.9618848},{"type":"node","id":11554344919,"lat":60.1919521,"lon":24.9620509},{"type":"node","id":11554344920,"lat":60.1919532,"lon":24.9622189},{"type":"node","id":11811077262,"lat":60.1917504,"lon":24.9608128},{"type":"node","id":11811077263,"lat":60.1918409,"lon":24.9607317},{"type":"node","id":12107632936,"lat":60.1915612,"lon":24.9621279},{"type":"node","id":12107632937,"lat":60.1915969,"lon":24.9622394},{"type":"node","id":12107632938,"lat":60.1916294,"lon":24.9622925},{"type":"node","id":12107632939,"lat":60.1916787,"lon":24.9623526},{"type":"node","id":12107632940,"lat":60.1917187,"lon":24.9624039},{"type":"node","id":12107632941,"lat":60.1917486,"lon":24.9624818},{"type":"node","id":12107632942,"lat":60.1917556,"lon":24.9625738},{"type":"node","id":12107632943,"lat":60.1917534,"lon":24.9626605},{"type":"node","id":12107632949,"lat":60.1916844,"lon":24.9625278},{"type":"node","id":178390485,"lat":60.1916509,"lon":24.9627213},{"type":"node","id":2441952002,"lat":60.1917641,"lon":24.9627995},{"type":"node","id":9595775589,"lat":60.1916034,"lon":24.9643374},{"type":"node","id":9595775590,"lat":60.1919407,"lon":24.9643502},{"type":"node","id":12107632944,"lat":60.191742,"lon":24.9627287},{"type":"node","id":12107632945,"lat":60.1917152,"lon":24.9627499},{"type":"node","id":12107632946,"lat":60.1916923,"lon":24.9627552},{"type":"node","id":12107632947,"lat":60.1916804,"lon":24.9627455},{"type":"node","id":12107632948,"lat":60.191676,"lon":24.9626915}]}