{"version":0.6,"generator":"Overpass API 0.7.62.5 1bd436f1","osm3s":{"timestamp_osm_base":"2025-03-12T12:43:15Z","copyright":"The data included in this document is from www.openstreetmap.org. The data is made available under ODbL."},"elements":[{"type":"way","id":4281134,"nodes":[317710595,2390208433,317710596],"tags":{"bicycle":"use_sidepath","highway":"primary","lanes":"1","lit":"yes","maxspeed":"50","name":"V\u00e4\u00e4ksyntie","name:fi":"V\u00e4\u00e4ksyntie","name:sv":"V\u00e4\u00e4ksyv\u00e4gen","oneway":"yes","parking:lane:both":"no_stopping","smoothness":"good","snowplowing":"yes","source:maxspeed":"FI:urban","surface":"asphalt"}},{"type":"way","id":19836000,"nodes":[289554570,115276743,289554580,115276745,289554579,115276746,115276750,2109581931,3224662568,207240633,765555357,12170421954,765555360,3224662574,115279855,115279857,2678567381],"tags":{"bicycle":"designated","cycleway:surface":"asphalt","foot":"designated","footway:surface":"asphalt","highway":"cycleway","lit":"yes","segregated":"yes","snowplowing":"yes","surface":"asphalt"}},{"type":"way","id":28903494,"nodes":[317710595,60539387],"tags":{"bicycle":"use_sidepath","fi:hkr:kunnossapitoluokka":"I","guideposted_leads_to_ref":"170","highway":"primary","lanes":"2","lit":"yes","maxspeed":"50","name":"Junatie","name:fi":"Junatie","name:sv":"T\u00e5gv\u00e4gen","oneway":"yes","paved:date:lanes":"2016|","priority_road":"yes_unposted","smoothness":"good","source:maxspeed":"FI:urban","surface":"asphalt"}},{"type":"way","id":28903495,"nodes":[317710596,34516802],"tags":{"bicycle":"use_sidepath","fi:hkr:kunnossapitoluokka":"I","guideposted_leads_to_ref":"1;3;45;51","highway":"primary","lanes":"3","lit":"yes","maxspeed":"50","name":"Teollisuuskatu","name:fi":"Teollisuuskatu","name:sv":"Industrigatan","oneway":"yes","parking:lane:both":"no_stopping","priority_road":"yes_unposted","psv:lanes":"||designated","smoothness":"good","snowplowing":"yes","surface":"asphalt"}},{"type":"way","id":28903675,"nodes":[765555376,317710590],"tags":{"bicycle":"use_sidepath","check_date":"2024-03-21","destination:lanes":"|Tuusula;Pasila|Tuusula;Pasila|M\u00e4kel\u00e4nkatu","fi:hkr:kunnossapitoluokka":"I","guideposted_leads_to_ref":"1;3;45;51","highway":"primary","lanes":"4","lit":"yes","maxspeed":"50","motor_vehicle:lanes":"no|||","name":"Junatie","name:fi":"Junatie","name:sv":"T\u00e5gv\u00e4gen","oneway":"yes","parking:both":"no","parking:both:restriction":"no_stopping","paved:date:lanes":"|||2014-08","priority_road":"yes_unposted","psv:lanes":"designated|||designated","snowplowing":"yes","surface":"asphalt","turn:lanes":"left|through|through|right"}},{"type":"way","id":28903676,"nodes":[317710590,9933537928,5154769548,5154769549,60539387],"tags":{"access":"no","construction":"service","highway":"construction","lanes":"1","maxspeed":"50","note":"merkki 311, joten ei motor_vehicle=no vaan vehicle=no","oneway":"yes","psv":"yes","snowplowing":"yes","source:maxspeed":"FI:urban","surface":"asphalt"}},{"type":"way","id":28903697,"nodes":[317710590,6087236434,317710596],"tags":{"bicycle":"use_sidepath","fi:hkr:kunnossapitoluokka":"I","guideposted_leads_to_ref":"1;3;45;51","highway":"primary","lanes":"3","lit":"yes","maxspeed":"50","name":"Junatie","name:fi":"Junatie","name:sv":"T\u00e5gv\u00e4gen","oneway":"yes","parking:both":"no","parking:both:restriction":"no_stopping","paved:date:lanes":"||2014-08","priority_road":"yes_unposted","psv:lanes":"||designated","snowplowing":"yes","surface":"asphalt"}},{"type":"way","id":28903700,"nodes":[317710596,317710597,10762049488,2692365854],"tags":{"bicycle":"use_sidepath","highway":"primary","lanes":"2","lit":"yes","maxspeed":"40","name":"V\u00e4\u00e4ksyntie","name:fi":"V\u00e4\u00e4ksyntie","name:sv":"V\u00e4\u00e4ksyv\u00e4gen","oneway":"yes","parking:both":"no","parking:both:restriction":"no_stopping","parking:condition:reason":"junction","paved:date":"2014-08","snowplowing":"yes","surface":"asphalt"}},{"type":"way","id":30471397,"nodes":[60539387,3037829303,460381308],"tags":{"bicycle":"use_sidepath","cycleway:right":"no","fi:hkr:kunnossapitoluokka":"I","foot":"no","guideposted_leads_to_ref":"170","highway":"primary","lanes":"2","lit":"yes","maxspeed":"50","name":"Junatie","name:fi":"Junatie","name:sv":"T\u00e5gv\u00e4gen","oneway":"yes","parking:both":"no","parking:both:restriction":"no_stopping","parking:condition:reason":"junction","priority_road":"yes_unposted","smoothness":"good","source:maxspeed":"FI:urban","surface":"asphalt"}},{"type":"way","id":30471893,"nodes":[460381306,460393511,933210003],"tags":{"bicycle":"use_sidepath","construction":"residential","highway":"construction","lanes":"1","lit":"yes","maxspeed":"30","name":"Aleksis Kiven katu","name:fi":"Aleksis Kiven katu","name:sv":"Aleksis Kivis Gata","oneway":"yes","parking:lane:left":"no_stopping","parking:lane:right":"no_parking","snowplowing":"yes","surface":"asphalt"}},{"type":"way","id":31889950,"nodes":[298384386,10762074018,12107632817,12107632814,298185812,298185821,289552753],"tags":{"bicycle":"designated","foot":"designated","highway":"cycleway","lit":"yes","name":"Teollisuuspolku","name:fi":"Teollisuuspolku","name:sv":"Industristigen","segregated":"no","snowplowing":"yes","source:name:sv":"Digiroad.fi","surface":"asphalt"}},{"type":"way","id":31889955,"nodes":[357134897,765555382,357134899,765555361,765555384],"tags":{"barrier":"retaining_wall"}},{"type":"way","id":35271110,"nodes":[266225728,12107632827,266225743,12107632828,317710731,12107632821,266225764,266225774,413450512,12107632822,266225671,266225672,12107632823,413450513,266225674,266225675,413450514,266225713,12107631675,12107631674,12107632825,266225728],"tags":{"landuse":"commercial"}},{"type":"way","id":38807155,"nodes":[247359014,460381306],"tags":{"access":"no","construction":"service","highway":"construction","lanes":"1","maxspeed":"30","note":"merkki 311, joten ei motor_vehicle=no vaan vehicle=no","psv":"yes","snowplowing":"yes","surface":"asphalt"}},{"type":"way","id":38807157,"nodes":[460381308,6321329739,765555378],"tags":{"bicycle":"use_sidepath","cycleway:right":"no","fi:hkr:kunnossapitoluokka":"I","foot":"no","guideposted_leads_to_ref":"170","highway":"primary","lanes":"2","lit":"yes","maxspeed":"50","name":"Junatie","name:fi":"Junatie","name:sv":"T\u00e5gv\u00e4gen","oneway":"yes","parking:condition:right:reason":"bus_stop","parking:left":"no","parking:left:restriction":"no_stopping","parking:right":"no","parking:right:restriction":"no_parking","paved:date:lanes":"2016|2014","smoothness":"good","surface":"asphalt"}},{"type":"way","id":38807310,"nodes":[460382255,460382256,9763943481,1297121365],"tags":{"highway":"footway","lit":"yes","snowplowing":"yes","surface":"asphalt"}},{"type":"way","id":50982439,"nodes":[667348433,948540512,650100096,650336333,650054680,650052961,650052966,650047639,650375822,650375823,650046298],"tags":{"diameter":"600","layer":"-1","location":"underground","man_made":"pipeline","substance":"water"}},{"type":"way","id":61269614,"nodes":[765555379,765555362,765555387,1011941624,765555366,765555356,765555380,765555379],"tags":{"natural":"scrub"}},{"type":"way","id":61269615,"nodes":[765555388,452815146,765555373,289552756,1071698290,289552747,1071698289,313773610,289552748,765555368,289552750,765555356,765555380,765555379,765555367,2683224405,2151612814,765555363],"tags":{"barrier":"retaining_wall"}},{"type":"way","id":61269619,"nodes":[7474847494,289552743,7474847493,288025569,4452315986,288025561],"tags":{"bicycle":"no","footway":"sidewalk","highway":"footway","lit":"yes","paved:date":"2016","snowplowing":"yes","surface":"asphalt"}},{"type":"way","id":79240628,"nodes":[288025561,4452316689,288025576,4452315983,4452315982,288025582,4452315981,1071695920],"tags":{"bicycle":"yes","construction":"footway","footway":"crossing","highway":"construction","lit":"yes","snowplowing":"yes","surface":"asphalt"}},{"type":"way","id":86163950,"nodes":[1000082158,631988009,1000082141],"tags":{"layer":"-1","location":"underground","man_made":"pipeline","source":"survey","type":"heat"}},{"type":"way","id":114522063,"nodes":[1297121365,460382258,460382257],"tags":{"bench":"yes","bin":"yes","highway":"platform","lit":"yes","public_transport":"platform","shelter":"yes","snowplowing":"yes","surface":"paved"}},{"type":"way","id":126991896,"nodes":[1406291252,1406291250,1406291246,1406291244,1406291242,1406291245,1406291243,1406291240,1406291237,1406291241,1406291248,1406291249,1406291247,266225764,266225774,1406291261,1406291260,1406291264,266225671,266225672,1406291269,1406291267,1406291270,1406291265,1406291263,1406291258,1406291262,1406291259,1406291256,1406291255,1406291254,1406291253,1406291252],"tags":{"building":"commercial","building:levels":"8","building:maintenance:operator":"Tegimen kiinteist\u00f6palvelu Oy","name":"L\u00e4\u00e4k\u00e4ritalo"}},{"type":"way","id":201010296,"nodes":[2109581949,2109581948],"tags":{"man_made":"beam"}},{"type":"way","id":201010300,"nodes":[2109581959,2109581958,2109581957,2109581956,2538642798,2109581954],"tags":{"layer":"3","man_made":"beam"}},{"type":"way","id":225660675,"nodes":[2109581962,2344184740],"tags":{"man_made":"beam"}},{"type":"way","id":262197287,"nodes":[460381307,6087236435,115279857],"tags":{"was:foot":"yes","was:footway":"crossing","was:highway":"cycleway","was:lit":"yes","was:segregated":"yes","was:surface":"paved"}},{"type":"way","id":263613335,"nodes":[2692365854,9933537947,317710722,317710598,317710727,317710599],"tags":{"bicycle":"use_sidepath","guideposted_leads_to_ref":"45","highway":"primary","lanes":"2","lit":"yes","maxspeed":"40","name":"V\u00e4\u00e4ksyntie","name:fi":"V\u00e4\u00e4ksyntie","name:sv":"V\u00e4\u00e4ksyv\u00e4gen","oneway":"yes","parking:left":"no","parking:left:restriction":"no_stopping","parking:right":"no","parking:right:restriction":"no_parking","paved:date":"2014-08","snowplowing":"yes","surface":"asphalt"}},{"type":"way","id":316358463,"nodes":[60539387,1937238808,12377119174,460381307,460381306],"tags":{"access":"no","construction":"service","highway":"construction","lanes":"2","maxspeed":"30","note":"merkki 311, joten ei motor_vehicle=no vaan vehicle=no","oneway":"no","psv":"yes","snowplowing":"yes","surface":"asphalt"}},{"type":"way","id":448195914,"nodes":[34506878,4452315984],"tags":{"construction":"residential","cycleway:both":"no","highway":"construction","lit":"yes","maxspeed":"30","name":"Aleksis Kiven katu","name:fi":"Aleksis Kiven katu","name:sv":"Aleksis Kivis Gata","oneway":"yes","parking:lane:left":"no_stopping","parking:lane:right":"no_parking","paved:date":"2016","placement":"transition","snowplowing":"yes","surface":"asphalt"}},{"type":"way","id":448195915,"nodes":[4452315984,288025576,4452315987,460381306],"tags":{"construction":"residential","cycleway:both":"no","highway":"construction","lanes":"1","lit":"yes","maxspeed":"30","name":"Aleksis Kiven katu","name:fi":"Aleksis Kiven katu","name:sv":"Aleksis Kivis Gata","oneway":"yes","parking:lane:left":"no_stopping","parking:lane:right":"no_parking","paved:date":"2016","snowplowing":"yes","surface":"asphalt"}},{"type":"way","id":448195918,"nodes":[10762049461,460382255,9763943480,288025561],"tags":{"highway":"footway","lit":"yes","snowplowing":"yes","surface":"asphalt"}},{"type":"way","id":985509665,"nodes":[9110890393,9110890394,9110890395,9110890396,9110890397,7804159986,9110890398,9110890399,9110890400,9110890401,9110890402,9110890403,9110890404,9110890405,9110890406,9110890407,9110890408,9110890409,9110890410,9110890411,9110890412,9110890413,9110890414,9110890415,9110890416,9110906817,9110906818,9110906819,9110906820,9110906821,9110906822,9110906823,9110906824,9110906825,9110906826,9110906827,9110906828,9110906829,9110906830,9110906831,9110906832,9110906833,9110906834,9110906835,9110906836,9110906837,9110906838,9110906839,9110906840,9110906841,9110906842,10967559392,9110906843,9110906844,9110906845,11434931245,10968284186,9110906846,9110906847,6857815932,9110906848,9110906849,9110906850,9110906851,9110906852,9110906853,11310609171,9110906854,9110906855,9110906856,9110906857,9110906858,9110906859,9110906860,9110906861,9110906862,9110906863,9110906864,9110906865,9110906866,9110890393],"tags":{"area":"yes","boundary":"legal","description":"Raskaan liikenteen rajoitusalue Helsingiss\u00e4"}},{"type":"way","id":1083993104,"nodes":[9933537946,9526342614,9526342615,9526342616,9933537941,9933537942,9933537943,9526378617,9933537944,9526378618,9526378619,9933537939,9933537940,9933537946],"tags":{"landuse":"grass"}},{"type":"way","id":1157273983,"nodes":[10762049459,10762049458,10762049460],"tags":{"construction":"footway","crossing":"uncontrolled","crossing:markings":"zebra","footway":"crossing","highway":"construction","lit":"yes","surface":"asphalt"}},{"type":"way","id":1157273984,"nodes":[10762049461,460381307,10762049462],"tags":{"check_date:lit":"2023-06-16","construction":"footway","crossing":"uncontrolled","crossing:markings":"zebra","footway":"crossing","highway":"construction","lit":"yes","surface":"asphalt"}},{"type":"way","id":1157273985,"nodes":[10762049462,10762049460],"tags":{"construction":"footway","footway":"sidewalk","highway":"construction","lit":"yes","surface":"asphalt"}},{"type":"way","id":1157273995,"nodes":[10762049485,10762049487,10762049488,10762049486],"tags":{"crossing":"traffic_signals","crossing:markings":"yes","footway":"crossing","highway":"footway"}},{"type":"way","id":1157274013,"nodes":[10762074017,317710597,115279878,10762049489],"tags":{"crossing":"traffic_signals","cycleway":"crossing","cycleway:surface":"asphalt","footway:surface":"asphalt","highway":"cycleway","lit":"yes","segregated":"yes","snowplowing":"yes","surface":"paved"}},{"type":"way","id":1157274014,"nodes":[2678567381,115279859,298384386,10762074017],"tags":{"bicycle":"designated","cycleway:surface":"asphalt","foot":"designated","footway:surface":"asphalt","highway":"cycleway","lit":"yes","segregated":"yes","snowplowing":"yes","surface":"asphalt"}},{"type":"way","id":1157274015,"nodes":[298384386,10762074020,10762074019,1011941626,1011941636],"tags":{"bicycle":"designated","foot":"designated","highway":"cycleway","lit":"yes","segregated":"yes","snowplowing":"yes","surface":"asphalt"}},{"type":"way","id":1157274016,"nodes":[10762049486,10762074019],"tags":{"highway":"footway","surface":"paved"}},{"type":"way","id":1157274017,"nodes":[10762074019,10762074021],"tags":{"crossing:markings":"zebra","highway":"footway","surface":"paved"}},{"type":"way","id":1157274018,"nodes":[10762074021,10762074018,10762074024,2678567381],"tags":{"highway":"footway","surface":"paved"}},{"type":"way","id":1230952870,"nodes":[1011941636,317710766,317710767],"tags":{"bicycle":"designated","cycleway:surface":"asphalt","cycleway:width":"2.3","foot":"designated","footway:surface":"asphalt","highway":"cycleway","lit":"yes","segregated":"yes","snowplowing":"yes","source:cycleway:width":"ARCore","surface":"asphalt"}},{"type":"way","id":1307411270,"nodes":[1406291237,12107632827,12107632828,12107632829,12107632830,1406291241,1406291237],"tags":{"landuse":"grass"}},{"type":"way","id":1317001922,"nodes":[12188892877,12379424237,12379424238,12379424239,12188892878,12188892879,12379424240,12379424241,12188892880,12188892881,12559393449,12559393451,12559393452,12559393454,12559393455,12559393456,12559393453,12559393450,12559393447,12559393448,12188892882,12188892883,12188892884,12188892885,12377119165,12188892877],"tags":{"landuse":"construction"}},{"type":"way","id":1338099038,"nodes":[12377119162,12377119163,12377119164,12377119174,10762049461],"tags":{"highway":"footway","lit":"yes","temporary":"yes"}},{"type":"way","id":1338099039,"nodes":[12377119166,12377119167,12377119168,12377119169,12377119170,12377119171,12377119172,12377119173,12377119166],"tags":{"area:highway":"traffic_island"}},{"type":"node","id":9110906864,"lat":60.1778629,"lon":24.8786913},{"type":"node","id":9110906862,"lat":60.167146,"lon":24.9015515},{"type":"node","id":9110906863,"lat":60.1667876,"lon":24.897899},{"type":"node","id":9110906865,"lat":60.1825536,"lon":24.8774179},{"type":"node","id":9110906866,"lat":60.190492,"lon":24.8808861},{"type":"node","id":9110890396,"lat":60.1914535,"lon":24.8994341},{"type":"node","id":9110890397,"lat":60.1913286,"lon":24.9000333},{"type":"node","id":9110890393,"lat":60.1919033,"lon":24.8822775},{"type":"node","id":9110890394,"lat":60.1959007,"lon":24.8871363},{"type":"node","id":9110890395,"lat":60.1953012,"lon":24.88975},{"type":"node","id":9110906858,"lat":60.1645288,"lon":24.9131682},{"type":"node","id":9110906856,"lat":60.1633534,"lon":24.9215337},{"type":"node","id":9110906857,"lat":60.1648455,"lon":24.9213829},{"type":"node","id":9110906850,"lat":60.1610527,"lon":24.9296596},{"type":"node","id":9110906851,"lat":60.1618029,"lon":24.9298272},{"type":"node","id":9110906852,"lat":60.1619613,"lon":24.9287046},{"type":"node","id":9110906853,"lat":60.1611062,"lon":24.9260986},{"type":"node","id":9110906854,"lat":60.1613102,"lon":24.9246545},{"type":"node","id":9110906855,"lat":60.1618696,"lon":24.9235275},{"type":"node","id":11310609171,"lat":60.161176,"lon":24.9253518},{"type":"node","id":9110906860,"lat":60.1666876,"lon":24.9088456},{"type":"node","id":9110906861,"lat":60.1671794,"lon":24.9041652},{"type":"node","id":9110906859,"lat":60.1660375,"lon":24.9114593},{"type":"node","id":6857815932,"lat":60.1551438,"lon":24.9352916},{"type":"node","id":9110906847,"lat":60.1549915,"lon":24.9353896},{"type":"node","id":9110906846,"lat":60.1532322,"lon":24.9373499},{"type":"node","id":10968284186,"lat":60.1537675,"lon":24.9415562},{"type":"node","id":11434931245,"lat":60.1538163,"lon":24.9419395},{"type":"node","id":9110906848,"lat":60.1597522,"lon":24.9321895},{"type":"node","id":9110906849,"lat":60.1604441,"lon":24.9307151},{"type":"node","id":9110906845,"lat":60.1549077,"lon":24.9505155},{"type":"node","id":9110906836,"lat":60.1646034,"lon":24.9528778},{"type":"node","id":9110906837,"lat":60.1639782,"lon":24.9532632},{"type":"node","id":9110906838,"lat":60.1619943,"lon":24.9560779},{"type":"node","id":9110906834,"lat":60.1678207,"lon":24.9524422},{"type":"node","id":9110906835,"lat":60.165637,"lon":24.952593},{"type":"node","id":7804159986,"lat":60.1910693,"lon":24.9127788},{"type":"node","id":9110890398,"lat":60.1910621,"lon":24.9131018},{"type":"node","id":9110890399,"lat":60.1896878,"lon":24.9163492},{"type":"node","id":9110890400,"lat":60.1898627,"lon":24.9209902},{"type":"node","id":9110890401,"lat":60.1908872,"lon":24.9233359},{"type":"node","id":9110890402,"lat":60.19177,"lon":24.9265758},{"type":"node","id":9110890403,"lat":60.1922947,"lon":24.9293905},{"type":"node","id":9110890416,"lat":60.1911454,"lon":24.9545737},{"type":"node","id":12188892881,"lat":60.1892826,"lon":24.9559407},{"type":"node","id":12559393447,"lat":60.1894015,"lon":24.9554252},{"type":"node","id":12559393448,"lat":60.189409,"lon":24.9559528},{"type":"node","id":12559393449,"lat":60.1892818,"lon":24.9551161},{"type":"node","id":12559393450,"lat":60.189415,"lon":24.9546993},{"type":"node","id":12559393451,"lat":60.1892844,"lon":24.9546878},{"type":"node","id":12559393452,"lat":60.1893284,"lon":24.953972},{"type":"node","id":12559393453,"lat":60.1894517,"lon":24.9539441},{"type":"node","id":12559393454,"lat":60.1893594,"lon":24.9536657},{"type":"node","id":12559393455,"lat":60.1894394,"lon":24.9529899},{"type":"node","id":12559393456,"lat":60.1895497,"lon":24.9531319},{"type":"node","id":9110890404,"lat":60.1931858,"lon":24.9345341},{"type":"node","id":9110890405,"lat":60.1935106,"lon":24.9354556},{"type":"node","id":9110890406,"lat":60.194077,"lon":24.9358075},{"type":"node","id":9110890407,"lat":60.1953678,"lon":24.9360588},{"type":"node","id":9110890408,"lat":60.195576,"lon":24.9360756},{"type":"node","id":9110890409,"lat":60.1962838,"lon":24.9360756},{"type":"node","id":9110890410,"lat":60.195959,"lon":24.9416213},{"type":"node","id":9110890411,"lat":60.1958924,"lon":24.9424423},{"type":"node","id":9110890412,"lat":60.1956259,"lon":24.9438329},{"type":"node","id":9110890413,"lat":60.1951263,"lon":24.9450057},{"type":"node","id":9110890414,"lat":60.1921448,"lon":24.9519432},{"type":"node","id":9110890415,"lat":60.1915535,"lon":24.9533338},{"type":"node","id":9110906843,"lat":60.1544992,"lon":24.960853},{"type":"node","id":9110906844,"lat":60.1530567,"lon":24.9569827},{"type":"node","id":10967559392,"lat":60.1547594,"lon":24.9613499},{"type":"node","id":9110906842,"lat":60.1561751,"lon":24.9640531},{"type":"node","id":9110906839,"lat":60.1610523,"lon":24.9568654},{"type":"node","id":9110906840,"lat":60.160427,"lon":24.9579377},{"type":"node","id":9110906841,"lat":60.1607105,"lon":24.9612048},{"type":"node","id":9110906829,"lat":60.1697543,"lon":24.9596467},{"type":"node","id":9110906830,"lat":60.1696793,"lon":24.9586916},{"type":"node","id":9110906831,"lat":60.1694543,"lon":24.9584571},{"type":"node","id":9110906832,"lat":60.1689042,"lon":24.9584738},{"type":"node","id":9110906833,"lat":60.1680208,"lon":24.9570497},{"type":"node","id":9110906823,"lat":60.1767417,"lon":24.9575188},{"type":"node","id":9110906824,"lat":60.1763251,"lon":24.957988},{"type":"node","id":9110906825,"lat":60.1762418,"lon":24.9589597},{"type":"node","id":9110906826,"lat":60.1762334,"lon":24.9604676},{"type":"node","id":9110906827,"lat":60.1756918,"lon":24.9615064},{"type":"node","id":9110906828,"lat":60.1741919,"lon":24.9618415},{"type":"node","id":9110906822,"lat":60.1790997,"lon":24.9572843},{"type":"node","id":9110906821,"lat":60.1845566,"lon":24.9659481},{"type":"node","id":34506878,"lat":60.1893504,"lon":24.9622459},{"type":"node","id":34516802,"lat":60.1898375,"lon":24.9610832},{"type":"node","id":60539387,"lat":60.1896308,"lon":24.9615609},{"type":"node","id":115279855,"lat":60.1897496,"lon":24.9622751},{"type":"node","id":115279857,"lat":60.1898255,"lon":24.9617103},{"type":"node","id":115279859,"lat":60.1898596,"lon":24.9615874},{"type":"node","id":115279878,"lat":60.1899472,"lon":24.9611436},{"type":"node","id":247359014,"lat":60.1893276,"lon":24.9614029},{"type":"node","id":266225671,"lat":60.1905584,"lon":24.9618838},{"type":"node","id":266225672,"lat":60.1906108,"lon":24.9620365},{"type":"node","id":266225674,"lat":60.1906033,"lon":24.9623031},{"type":"node","id":266225743,"lat":60.1898521,"lon":24.9622131},{"type":"node","id":266225764,"lat":60.1900407,"lon":24.9614893},{"type":"node","id":266225774,"lat":60.1902334,"lon":24.9615934},{"type":"node","id":288025561,"lat":60.1894465,"lon":24.962029},{"type":"node","id":288025569,"lat":60.1894066,"lon":24.9625065},{"type":"node","id":288025576,"lat":60.1894079,"lon":24.962021},{"type":"node","id":288025582,"lat":60.1893258,"lon":24.9620123},{"type":"node","id":298384386,"lat":60.1899112,"lon":24.9614911},{"type":"node","id":317710590,"lat":60.1896865,"lon":24.9621301},{"type":"node","id":317710595,"lat":60.1897071,"lon":24.9611098},{"type":"node","id":317710596,"lat":60.1898129,"lon":24.9612467},{"type":"node","id":317710597,"lat":60.1899304,"lon":24.9613044},{"type":"node","id":317710598,"lat":60.1905461,"lon":24.9616416},{"type":"node","id":317710599,"lat":60.1906173,"lon":24.9617778},{"type":"node","id":317710722,"lat":60.1904905,"lon":24.9615832},{"type":"node","id":317710727,"lat":60.1905847,"lon":24.9617003},{"type":"node","id":317710731,"lat":60.1899396,"lon":24.9615863},{"type":"node","id":317710766,"lat":60.190497,"lon":24.9617191},{"type":"node","id":317710767,"lat":60.1905339,"lon":24.9617691},{"type":"node","id":357134897,"lat":60.1898707,"lon":24.9617258},{"type":"node","id":413450512,"lat":60.1904932,"lon":24.9617413},{"type":"node","id":413450513,"lat":60.1906408,"lon":24.9622424},{"type":"node","id":460381306,"lat":60.1894509,"lon":24.9614534},{"type":"node","id":460381307,"lat":60.1894995,"lon":24.9614781},{"type":"node","id":460381308,"lat":60.1895964,"lon":24.9618097},{"type":"node","id":460382255,"lat":60.1894854,"lon":24.9616153},{"type":"node","id":460382256,"lat":60.1895029,"lon":24.9616525},{"type":"node","id":460382257,"lat":60.1894557,"lon":24.9624126},{"type":"node","id":460382258,"lat":60.1894629,"lon":24.9623157},{"type":"node","id":460393511,"lat":60.1894572,"lon":24.9611828},{"type":"node","id":631988009,"lat":60.1900114,"lon":24.9612705},{"type":"node","id":667348433,"lat":60.1894751,"lon":24.9616311},{"type":"node","id":765555362,"lat":60.1894564,"lon":24.9623428},{"type":"node","id":765555363,"lat":60.1894835,"lon":24.9616713},{"type":"node","id":765555367,"lat":60.1894496,"lon":24.9622196},{"type":"node","id":765555379,"lat":60.1894419,"lon":24.9623392},{"type":"node","id":933210003,"lat":60.1894529,"lon":24.9604886},{"type":"node","id":1000082141,"lat":60.1900333,"lon":24.9611118},{"type":"node","id":1000082158,"lat":60.1899934,"lon":24.9614004},{"type":"node","id":1011941626,"lat":60.1899777,"lon":24.961463},{"type":"node","id":1011941636,"lat":60.1900181,"lon":24.9614665},{"type":"node","id":1071695920,"lat":60.1892728,"lon":24.9620256},{"type":"node","id":1297121365,"lat":60.1895035,"lon":24.961785},{"type":"node","id":1406291241,"lat":60.1899177,"lon":24.9621025},{"type":"node","id":1406291247,"lat":60.1899796,"lon":24.9619332},{"type":"node","id":1406291248,"lat":60.1899872,"lon":24.9620507},{"type":"node","id":1406291249,"lat":60.1900004,"lon":24.9619443},{"type":"node","id":1406291252,"lat":60.1900741,"lon":24.9624494},{"type":"node","id":1406291253,"lat":60.190135,"lon":24.9624042},{"type":"node","id":1406291254,"lat":60.190142,"lon":24.9623687},{"type":"node","id":1406291255,"lat":60.1901985,"lon":24.9623289},{"type":"node","id":1406291256,"lat":60.1902132,"lon":24.9622895},{"type":"node","id":1406291258,"lat":60.1902697,"lon":24.9625489},{"type":"node","id":1406291259,"lat":60.190273,"lon":24.9622381},{"type":"node","id":1406291260,"lat":60.1902887,"lon":24.9618023},{"type":"node","id":1406291261,"lat":60.1902907,"lon":24.9617663},{"type":"node","id":1406291262,"lat":60.1903021,"lon":24.9623297},{"type":"node","id":1406291264,"lat":60.1903902,"lon":24.9621083},{"type":"node","id":1406291265,"lat":60.1904969,"lon":24.9624318},{"type":"node","id":1406291267,"lat":60.19059,"lon":24.9621702},{"type":"node","id":1406291269,"lat":60.1906145,"lon":24.9621415},{"type":"node","id":1406291270,"lat":60.1906184,"lon":24.9622637},{"type":"node","id":1937238808,"lat":60.1895539,"lon":24.9615045},{"type":"node","id":2109581948,"lat":60.1895469,"lon":24.9612211},{"type":"node","id":2109581949,"lat":60.1895561,"lon":24.9611907},{"type":"node","id":2109581954,"lat":60.1896119,"lon":24.9620036},{"type":"node","id":2109581956,"lat":60.1896636,"lon":24.9620354},{"type":"node","id":2109581957,"lat":60.1896952,"lon":24.9620549},{"type":"node","id":2109581958,"lat":60.1897216,"lon":24.9620712},{"type":"node","id":2109581959,"lat":60.189739,"lon":24.9620819},{"type":"node","id":2109581962,"lat":60.1897939,"lon":24.9617517},{"type":"node","id":2151612814,"lat":60.1894745,"lon":24.9618166},{"type":"node","id":2344184740,"lat":60.1897973,"lon":24.9617542},{"type":"node","id":2390208433,"lat":60.1897583,"lon":24.9612113},{"type":"node","id":2538642798,"lat":60.1896299,"lon":24.9620147},{"type":"node","id":2678567381,"lat":60.1898397,"lon":24.9616477},{"type":"node","id":2683224405,"lat":60.1894635,"lon":24.9619982},{"type":"node","id":2692365854,"lat":60.1899773,"lon":24.9613239},{"type":"node","id":3037829303,"lat":60.189616,"lon":24.9616628},{"type":"node","id":4452315981,"lat":60.1892795,"lon":24.9620239},{"type":"node","id":4452315982,"lat":60.1893532,"lon":24.9620152},{"type":"node","id":4452315983,"lat":60.1893761,"lon":24.9620176},{"type":"node","id":4452315984,"lat":60.1893995,"lon":24.9620861},{"type":"node","id":4452315986,"lat":60.1894195,"lon":24.9623624},{"type":"node","id":4452315987,"lat":60.1894124,"lon":24.9619726},{"type":"node","id":4452316689,"lat":60.189437,"lon":24.9620271},{"type":"node","id":5154769548,"lat":60.1896802,"lon":24.9617076},{"type":"node","id":5154769549,"lat":60.1896677,"lon":24.9616193},{"type":"node","id":6087236434,"lat":60.189777,"lon":24.9615077},{"type":"node","id":6087236435,"lat":60.1896212,"lon":24.9615823},{"type":"node","id":6321329739,"lat":60.1895331,"lon":24.9623473},{"type":"node","id":9110906817,"lat":60.1904124,"lon":24.9574554},{"type":"node","id":9110906818,"lat":60.1899543,"lon":24.9600524},{"type":"node","id":9526342614,"lat":60.1895883,"lon":24.9609691},{"type":"node","id":9526342615,"lat":60.1895558,"lon":24.9611715},{"type":"node","id":9526342616,"lat":60.189531,"lon":24.9613962},{"type":"node","id":9526378617,"lat":60.1896085,"lon":24.9613651},{"type":"node","id":9526378618,"lat":60.1896313,"lon":24.9613134},{"type":"node","id":9526378619,"lat":60.1896467,"lon":24.9612379},{"type":"node","id":9763943480,"lat":60.1894734,"lon":24.9616744},{"type":"node","id":9763943481,"lat":60.1895064,"lon":24.961714},{"type":"node","id":9933537928,"lat":60.1896491,"lon":24.9619342},{"type":"node","id":9933537939,"lat":60.1897242,"lon":24.9608242},{"type":"node","id":9933537940,"lat":60.1896224,"lon":24.9607627},{"type":"node","id":9933537941,"lat":60.1895501,"lon":24.9614038},{"type":"node","id":9933537942,"lat":60.1895743,"lon":24.961399},{"type":"node","id":9933537943,"lat":60.1895931,"lon":24.9613833},{"type":"node","id":9933537944,"lat":60.1896211,"lon":24.9613423},{"type":"node","id":9933537946,"lat":60.1896127,"lon":24.9607939},{"type":"node","id":9933537947,"lat":60.1901477,"lon":24.9614163},{"type":"node","id":10762049458,"lat":60.1895126,"lon":24.9611916},{"type":"node","id":10762049459,"lat":60.1895117,"lon":24.9611687},{"type":"node","id":10762049460,"lat":60.1895135,"lon":24.9612155},{"type":"node","id":10762049461,"lat":60.1894882,"lon":24.9615851},{"type":"node","id":10762049462,"lat":60.1895117,"lon":24.9613628},{"type":"node","id":10762049485,"lat":60.1899948,"lon":24.9610957},{"type":"node","id":10762049486,"lat":60.1899575,"lon":24.9613956},{"type":"node","id":10762049487,"lat":60.189987,"lon":24.9611589},{"type":"node","id":10762049488,"lat":60.189967,"lon":24.9613196},{"type":"node","id":10762049489,"lat":60.1899563,"lon":24.961056},{"type":"node","id":10762074017,"lat":60.1899194,"lon":24.9614112},{"type":"node","id":10762074018,"lat":60.1899157,"lon":24.9615946},{"type":"node","id":10762074019,"lat":60.1899509,"lon":24.9614706},{"type":"node","id":10762074020,"lat":60.1899249,"lon":24.961478},{"type":"node","id":10762074021,"lat":60.1899462,"lon":24.961504},{"type":"node","id":10762074024,"lat":60.1898766,"lon":24.9616512},{"type":"node","id":12107632821,"lat":60.1899511,"lon":24.9615497},{"type":"node","id":12107632822,"lat":60.1905281,"lon":24.9617951},{"type":"node","id":12107632823,"lat":60.1906315,"lon":24.9621126},{"type":"node","id":12107632828,"lat":60.1899327,"lon":24.9616361},{"type":"node","id":12107632829,"lat":60.1899678,"lon":24.9616056},{"type":"node","id":12107632830,"lat":60.1899886,"lon":24.9616178},{"type":"node","id":12188892877,"lat":60.1894169,"lon":24.962254},{"type":"node","id":12188892878,"lat":60.189237,"lon":24.9625085},{"type":"node","id":12188892879,"lat":60.1891614,"lon":24.9623328},{"type":"node","id":12188892880,"lat":60.1892953,"lon":24.9589096},{"type":"node","id":12188892882,"lat":60.1895274,"lon":24.9561134},{"type":"node","id":12188892883,"lat":60.1895078,"lon":24.9589696},{"type":"node","id":12188892884,"lat":60.1895278,"lon":24.9606699},{"type":"node","id":12188892885,"lat":60.1896596,"lon":24.9607636},{"type":"node","id":12377119162,"lat":60.1896878,"lon":24.9606716},{"type":"node","id":12377119163,"lat":60.1896756,"lon":24.9607507},{"type":"node","id":12377119164,"lat":60.1896402,"lon":24.9609625},{"type":"node","id":12377119165,"lat":60.1894554,"lon":24.9617183},{"type":"node","id":12377119166,"lat":60.1897637,"lon":24.9612851},{"type":"node","id":12377119167,"lat":60.1897617,"lon":24.9612693},{"type":"node","id":12377119168,"lat":60.1897523,"lon":24.9612643},{"type":"node","id":12377119169,"lat":60.1897417,"lon":24.9612786},{"type":"node","id":12377119170,"lat":60.1897062,"lon":24.9613868},{"type":"node","id":12377119171,"lat":60.1896768,"lon":24.9615218},{"type":"node","id":12377119172,"lat":60.1896938,"lon":24.9615632},{"type":"node","id":12377119173,"lat":60.1897055,"lon":24.9616447},{"type":"node","id":12377119174,"lat":60.189524,"lon":24.96149},{"type":"node","id":12379424240,"lat":60.1892644,"lon":24.961054},{"type":"node","id":12379424241,"lat":60.189254,"lon":24.9591293},{"type":"node","id":115276743,"lat":60.1893251,"lon":24.9661842},{"type":"node","id":115276745,"lat":60.1892556,"lon":24.966018},{"type":"node","id":115276746,"lat":60.1892383,"lon":24.9658145},{"type":"node","id":115276750,"lat":60.1892577,"lon":24.9656512},{"type":"node","id":207240633,"lat":60.1895189,"lon":24.9638026},{"type":"node","id":266225675,"lat":60.1903023,"lon":24.9627105},{"type":"node","id":266225713,"lat":60.1898766,"lon":24.963167},{"type":"node","id":266225728,"lat":60.1897319,"lon":24.9630782},{"type":"node","id":289552743,"lat":60.1892449,"lon":24.9637923},{"type":"node","id":289552747,"lat":60.1892687,"lon":24.9642103},{"type":"node","id":289552748,"lat":60.1892887,"lon":24.9640658},{"type":"node","id":289552750,"lat":60.1893135,"lon":24.9638772},{"type":"node","id":289552753,"lat":60.1896185,"lon":24.9638444},{"type":"node","id":289552756,"lat":60.1892561,"lon":24.9643044},{"type":"node","id":289554570,"lat":60.1893678,"lon":24.9662341},{"type":"node","id":289554579,"lat":60.1892396,"lon":24.9658901},{"type":"node","id":289554580,"lat":60.1892916,"lon":24.9661236},{"type":"node","id":298185812,"lat":60.1896609,"lon":24.9634551},{"type":"node","id":298185821,"lat":60.1896202,"lon":24.9637779},{"type":"node","id":313773610,"lat":60.1892813,"lon":24.9641192},{"type":"node","id":357134899,"lat":60.1896387,"lon":24.963426},{"type":"node","id":413450514,"lat":60.1899515,"lon":24.9632101},{"type":"node","id":452815146,"lat":60.1892054,"lon":24.9643402},{"type":"node","id":650100096,"lat":60.1891017,"lon":24.9642387},{"type":"node","id":650336333,"lat":60.1887112,"lon":24.9677703},{"type":"node","id":765555356,"lat":60.1893211,"lon":24.9638132},{"type":"node","id":765555357,"lat":60.1895836,"lon":24.9633943},{"type":"node","id":765555360,"lat":60.1896111,"lon":24.9632823},{"type":"node","id":765555361,"lat":60.1896069,"lon":24.9634064},{"type":"node","id":765555366,"lat":60.1893314,"lon":24.9636944},{"type":"node","id":765555368,"lat":60.1892987,"lon":24.9639864},{"type":"node","id":765555373,"lat":60.1892483,"lon":24.9643583},{"type":"node","id":765555376,"lat":60.1895817,"lon":24.9628353},{"type":"node","id":765555378,"lat":60.1894957,"lon":24.9626848},{"type":"node","id":765555380,"lat":60.1892759,"lon":24.9637919},{"type":"node","id":765555382,"lat":60.1896546,"lon":24.9633072},{"type":"node","id":765555384,"lat":60.1895568,"lon":24.9637717},{"type":"node","id":765555387,"lat":60.189443,"lon":24.9627004},{"type":"node","id":765555388,"lat":60.1889649,"lon":24.9660743},{"type":"node","id":948540512,"lat":60.1892483,"lon":24.9633947},{"type":"node","id":1011941624,"lat":60.1894123,"lon":24.9630033},{"type":"node","id":1071698289,"lat":60.1892762,"lon":24.964156},{"type":"node","id":1071698290,"lat":60.1892603,"lon":24.9642708},{"type":"node","id":1406291237,"lat":60.1897911,"lon":24.9629803},{"type":"node","id":1406291240,"lat":60.1898903,"lon":24.9630398},{"type":"node","id":1406291242,"lat":60.1899662,"lon":24.9629429},{"type":"node","id":1406291243,"lat":60.1899682,"lon":24.962996},{"type":"node","id":1406291244,"lat":60.18997,"lon":24.9629095},{"type":"node","id":1406291245,"lat":60.1899738,"lon":24.9629464},{"type":"node","id":1406291246,"lat":60.1899776,"lon":24.962913},{"type":"node","id":1406291250,"lat":60.1900151,"lon":24.9628954},{"type":"node","id":1406291263,"lat":60.190315,"lon":24.9626803},{"type":"node","id":2109581931,"lat":60.1893008,"lon":24.9653363},{"type":"node","id":3224662568,"lat":60.1895034,"lon":24.9638435},{"type":"node","id":3224662574,"lat":60.1896423,"lon":24.9630643},{"type":"node","id":7474847493,"lat":60.1893263,"lon":24.9631885},{"type":"node","id":7474847494,"lat":60.1892804,"lon":24.9638613},{"type":"node","id":9110906820,"lat":60.1858978,"lon":24.9676906},{"type":"node","id":12107631674,"lat":60.1898222,"lon":24.963125},{"type":"node","id":12107631675,"lat":60.1898622,"lon":24.9631446},{"type":"node","id":12107632814,"lat":60.1896868,"lon":24.9632522},{"type":"node","id":12107632817,"lat":60.1897223,"lon":24.9629958},{"type":"node","id":12107632825,"lat":60.1897875,"lon":24.9631081},{"type":"node","id":12107632827,"lat":60.1897488,"lon":24.9629565},{"type":"node","id":12170421954,"lat":60.1896027,"lon":24.9633267},{"type":"node","id":12379424237,"lat":60.1892293,"lon":24.9637599},{"type":"node","id":12379424238,"lat":60.1891307,"lon":24.9636986},{"type":"node","id":12379424239,"lat":60.1892373,"lon":24.9627528},{"type":"node","id":650046298,"lat":60.1887413,"lon":24.9709548},{"type":"node","id":650047639,"lat":60.1883138,"lon":24.9702511},{"type":"node","id":650052961,"lat":60.1882687,"lon":24.9700348},{"type":"node","id":650052966,"lat":60.1882722,"lon":24.970098},{"type":"node","id":650054680,"lat":60.1882749,"lon":24.969873},{"type":"node","id":650375822,"lat":60.188748,"lon":24.9707612},{"type":"node","id":650375823,"lat":60.1887478,"lon":24.9708084},{"type":"node","id":9110906819,"lat":60.1883967,"lon":24.970254}]}