{"version":0.6,"generator":"Overpass API 0.7.61.5 4133829e","osm3s":{"timestamp_osm_base":"2023-08-13T09:19:16Z","copyright":"The data included in this document is from www.openstreetmap.org. The data is made available under ODbL."},"elements":[{"type":"node","id":25291549,"lat":60.1633789,"lon":24.9418041,"tags":{"crossing":"uncontrolled","crossing:island":"no","highway":"crossing","traffic_calming":"table"}},{"type":"node","id":247321734,"lat":60.1633529,"lon":24.9419999,"tags":{"access":"private","addr:housenumber":"3","addr:street":"Annankatu","entrance":"main","wheelchair":"no"}},{"type":"node","id":310149431,"lat":60.1630499,"lon":24.9420336,"tags":{"addr:city":"Helsinki","addr:country":"FI","addr:housenumber":"4","addr:street":"Annankatu"}},{"type":"node","id":319709212,"lat":60.1635692,"lon":24.941778,"tags":{"addr:city":"Helsinki","addr:country":"FI","addr:housenumber":"5","addr:postcode":"00120","addr:street":"Annankatu"}},{"type":"node","id":439784834,"lat":60.1633284,"lon":24.9419914,"tags":{"addr:city":"Helsinki","addr:country":"FI","addr:housenumber":"3","addr:street":"Annankatu","fixme":"Pit\u00e4is olla siirretty Annankatu 11 eteen","was:amenity":"taxi"}},{"type":"node","id":439784836,"lat":60.1631809,"lon":24.9423082,"tags":{"addr:city":"Helsinki","addr:country":"FI","addr:housenumber":"3","addr:postcode":"00120","addr:street":"Annankatu","amenity":"bar","email":"rooperin.hopstop@momentinrestaurants.com","facebook":"https:\/\/www.facebook.com\/rooperinhopstop\/","name":"R\u00f6\u00f6perin Hopstop","note":"Advertises itself as a beer shop, but category on Facebook is \"Beer bar\" - which is probably the dominant function in practice.","opening_hours":"We-Sa 12:00-02:00, Su-Tu 12:00-01:00","operator":"Momentin Group","outdoor_seating":"no","payment:credit_cards":"yes","payment:debit_cards":"yes","phone":"+358 40 4869008","start_date":"2019-09-05","website":"https:\/\/hopstop.fi\/"}},{"type":"node","id":600388161,"lat":60.1632279,"lon":24.9417447,"tags":{"addr:city":"Helsinki","addr:country":"FI","addr:housenumber":"18","addr:postcode":"00120","addr:street":"Iso Roobertinkatu","amenity":"restaurant","cuisine":"asian;sushi","diet:halal":"no","diet:kosher":"no","email":"moshimoshi2017@hotmail.com","name":"Moshi Moshi","opening_hours":"Mo-Th 10:30-21:00; Fr 10:30-22:00; Sa 12:00-22:00; Su 12:00-21:00","payment:credit_cards":"yes","payment:debit_cards":"yes","phone":"+358451252468","website":"https:\/\/www.moshimoshi-restaurant.com\/"}},{"type":"node","id":648525095,"lat":60.1633943,"lon":24.9415542,"tags":{"addr:city":"Helsinki","addr:country":"FI","addr:housenumber":"13","addr:postcode":"00120","addr:street":"Iso Roobertinkatu","amenity":"fast_food","brand":"Kotipizza","brand:wikidata":"Q1628625","brand:wikipedia":"en:Kotipizza","cuisine":"pizza","diet:halal":"no","diet:kosher":"no","diet:vegan":"yes","diet:vegetarian":"yes","name":"Kotipizza","phone":"+3589648150","smoking":"no","takeaway":"yes","website":"https:\/\/www.kotipizza.fi\/index\/20?kotipizzaID=FI00020159","wheelchair":"yes"}},{"type":"node","id":648525099,"lat":60.1635579,"lon":24.9420659,"tags":{"addr:city":"Helsinki","addr:country":"FI","addr:housenumber":"11","addr:street":"Iso Roobertinkatu","brand":"R-Kioski","brand:wikidata":"Q1571400","brand:wikipedia":"en:R-kioski","name":"R-Kioski","opening_hours":"Mo-Fr 6:30-21:00; Sa 9:00-21:00; Su 10:00-20:00","shop":"kiosk","wheelchair":"limited"}},{"type":"node","id":1011432502,"lat":60.1630705,"lon":24.9420071,"tags":{"addr:city":"Helsinki","addr:country":"FI","addr:housenumber":"4","addr:street":"Annankatu","amenity":"restaurant","cuisine":"indian","diet:halal":"no","diet:kosher":"no","email":"info@ravintolamonal.fi","name":"Monal","opening_hours":"Mo-Fr 10:30-23:00; Sa 12:00-23:00; Su 12:00-20:00","opening_hours:lunch_buffet":"Mo-Fr 10:30-15:00","payment:credit_cards":"yes","payment:debit_cards":"yes","phone":"+358505969316","website":"https:\/\/www.ravintolamonal.fi\/"}},{"type":"node","id":2247984027,"lat":60.1636399,"lon":24.9422917,"tags":{"addr:city":"Helsinki","addr:country":"FI","addr:housenumber":"11","addr:street":"Iso Roobertinkatu","amenity":"restaurant","cuisine":"finedining","diet:halal":"no","diet:kosher":"no","name":"Natura Restaurant","opening_hours":"We-Su 17:00-24:00","payment:credit_cards":"yes","payment:debit_cards":"yes","website":"https:\/\/www.restaurantnatura.com\/","wheelchair":"no"}},{"type":"node","id":2384123171,"lat":60.1634647,"lon":24.9418379,"tags":{"traffic_sign":"FI:371","traffic_sign:2":"FI:851[7-18 (9-15)]","traffic_sign:3":"FI:871[Ei koske kuormaavia eik\u00e4 purkavia kuorma- ja pakettiautoja]"}},{"type":"node","id":2384123172,"lat":60.1635853,"lon":24.9416617,"tags":{"fixme":"Oli FI:851:na mutta se lienee v\u00e4\u00e4rin?","traffic_sign":"FI:372","traffic_sign:2":"FI:855a[9-21 (9-18)]","traffic_sign:3":"FI:871[Vy\u00f6hyke 1 Kertamaksu enint. 60 min]","traffic_sign:4":"FI:871[Ei koske P-tunnuksella B]"}},{"type":"node","id":2384123176,"lat":60.1633962,"lon":24.9417002,"tags":{"traffic_sign":"FI:575;FI:576","traffic_sign:2":"FI:871[K\u00e4velykadun yli ajaminen sallittu]","traffic_sign:3":"FI:871[Huoltoajo Isolla Roobertinkadulla sallittu 19\u201311 (19\u201311) 19\u201311]"}},{"type":"node","id":3329276115,"lat":60.1630046,"lon":24.9424751,"tags":{"traffic_sign":"FI:121"}},{"type":"node","id":3329276117,"lat":60.163087,"lon":24.942365,"tags":{"traffic_sign":"FI:372","traffic_sign:2":"FI:851[7-18 (9-15)]"}},{"type":"node","id":3329276119,"lat":60.1632125,"lon":24.942186,"tags":{"traffic_sign":"FI:372","traffic_sign:2":"FI:855a[9-21 (9-18)]","traffic_sign:3":"FI:871[Vy\u00f6hyke 1 Ei koske P-tunnuksella B]"}},{"type":"node","id":3329276122,"lat":60.1632788,"lon":24.9418004,"tags":{"traffic_sign":"FI:372","traffic_sign:2":"FI:855a[9-21 (9-18)]","traffic_sign:3":"FI:871[Vy\u00f6hyke 1 Ei koske P-tunnuksella B]","traffic_sign:4":"FI:871[\u2190 Lippuautomaatti]"}},{"type":"node","id":3329276123,"lat":60.1633347,"lon":24.9416564,"tags":{"traffic_sign":"FI:575;FI:576","traffic_sign:2":"FI:871[Huoltoajo sallittu 19-11 (19-11) 19-11]"}},{"type":"node","id":3329276124,"lat":60.1633395,"lon":24.9419455,"tags":{"traffic_sign":"FI:575;FI:576","traffic_sign:2":"FI:871[K\u00e4velykadun yli ajaminen sallittu]","traffic_sign:3":"FI:871[Huoltoajo Isolla Roobertinkadulla sallittu 19\u201311 (19\u201311) 19\u201311]"}},{"type":"node","id":3329276125,"lat":60.1633816,"lon":24.9419678,"tags":{"traffic_sign":"FI:575;FI:576","traffic_sign:2":"FI:871[Huoltoajo sallittu 19-11 (19-11) 19-11]"}},{"type":"node","id":3329844772,"lat":60.1630945,"lon":24.9424259,"tags":{"addr:city":"Helsinki","addr:country":"FI","addr:housenumber":"3","addr:postcode":"00120","addr:street":"Annankatu"}},{"type":"node","id":4226460213,"lat":60.1634571,"lon":24.9424265,"tags":{"addr:city":"Helsinki","addr:country":"FI","addr:housenumber":"14","addr:postcode":"00120","addr:street":"Iso Roobertinkatu","amenity":"bar","cuisine":"spanish","name":"Paloma","payment:credit_cards":"yes","payment:debit_cards":"yes"}},{"type":"node","id":4688904890,"lat":60.1631521,"lon":24.9419027,"tags":{"addr:city":"Helsinki","addr:country":"FI","addr:housenumber":"4","addr:street":"Annankatu","amenity":"bar","name":"Classic Bar","name:fi":"Classic Bar","opening_hours":"Mo-Th 17:00-24:00; Fr-Sa 17:00-02:00; Su 17:00-22:00; Jul Su-Th 17:00-22:00; Jul Fr-Sa 17:00-02:00; PH off","payment:credit_cards":"yes","payment:debit_cards":"yes"}},{"type":"node","id":4692325017,"lat":60.1633391,"lon":24.9420756,"tags":{"addr:housenumber":"3","addr:street":"Annankatu","amenity":"arts_centre","name":"Sinne","website":"http:\/\/sinne.proartibus.fi\/fi\/sinnesta\/"}},{"type":"node","id":4754875470,"lat":60.1634736,"lon":24.9424298,"tags":{"addr:city":"Helsinki","addr:country":"FI","addr:housenumber":"14","addr:postcode":"00120","addr:street":"Iso Roobertinkatu","name":"Astoria"}},{"type":"node","id":4754875480,"lat":60.1633935,"lon":24.9422464,"tags":{"addr:city":"Helsinki","addr:country":"FI","addr:housenumber":"16","addr:postcode":"00120","addr:street":"Iso Roobertinkatu"}},{"type":"node","id":4754875497,"lat":60.163541,"lon":24.9426638,"tags":{"addr:city":"Helsinki","addr:country":"FI","addr:housenumber":"12","addr:postcode":"00120","addr:street":"Iso Roobertinkatu","email":"helsinki@bukowskis.com","name":"Bukowskis (Auction House)","payment:credit_cards":"yes","payment:debit_cards":"yes","phone":"+35896689110","shop":"art","website":"http:\/\/bukowskis.com\/"}},{"type":"node","id":4754875504,"lat":60.1631048,"lon":24.9419631,"tags":{"addr:city":"Helsinki","addr:country":"FI","addr:housenumber":"4","addr:street":"Annankatu","amenity":"cafe","diet:halal":"no","diet:kosher":"no","name":"Bumi","payment:credit_cards":"yes","payment:debit_cards":"yes"}},{"type":"node","id":4754875508,"lat":60.1635879,"lon":24.9427965,"tags":{"addr:city":"Helsinki","addr:country":"FI","addr:housenumber":"12","addr:postcode":"00120","addr:street":"Iso Roobertinkatu","name":"Arvokoru","payment:credit_cards":"yes","payment:debit_cards":"yes","shop":"jewelry"}},{"type":"node","id":4754876121,"lat":60.1635193,"lon":24.9418506,"tags":{"addr:city":"Helsinki","addr:country":"FI","addr:housenumber":"5","addr:postcode":"00120","addr:street":"Annankatu","name":"Formverk","opening_hours":"Sa 11:00-15:00; Mo-Fr 10:30-18:00","payment:credit_cards":"yes","payment:debit_cards":"yes","shop":"furniture"}},{"type":"node","id":4866386133,"lat":60.1635863,"lon":24.9421025,"tags":{"addr:city":"Helsinki","addr:country":"FI","addr:housenumber":"11","addr:postcode":"00120","addr:street":"Iso Roobertinkatu"}},{"type":"node","id":4867707149,"lat":60.1630777,"lon":24.9415525,"tags":{"addr:city":"Helsinki","addr:country":"FI","addr:housenumber":"20-22","addr:postcode":"00120","addr:street":"Iso Roobertinkatu"}},{"type":"node","id":5521980835,"lat":60.1634501,"lon":24.9417698,"tags":{"addr:city":"Helsinki","alt_name":"kaupunkipy\u00f6r\u00e4","alt_name:en":"city bike","alt_name:sv":"stadscykel","amenity":"bicycle_rental","bicycle_rental":"docking_station","capacity":"16","name":"Annankatu","name:en":"Annankatu","name:fi":"Annankatu","name:sv":"Annankatu","network":"Helsinki&Espoo","note":"New city bike station 2018","opening_hours":"24\/7","operator":"City Bike Finland","payment:american_express":"yes","payment:cash":"no","payment:mastercard":"yes","payment:visa":"yes","ref":"049","seasonal":"spring;summer;autumn","website":"https:\/\/hsl.fi\/kaupunkipyorat"}},{"type":"node","id":7669134955,"lat":60.1636371,"lon":24.9428124,"tags":{"access":"private","addr:housenumber":"10","addr:street":"Iso Roobertinkatu","addr:unit":"A","description":"With buzzer","entrance":"staircase","wheelchair":"no"}},{"type":"node","id":7669134958,"lat":60.1636328,"lon":24.9428001,"tags":{"access":"private","addr:housenumber":"10","addr:street":"Iso Roobertinkatu","entrance":"secondary","wheelchair":"no"}},{"type":"node","id":7669134961,"lat":60.163525,"lon":24.9424915,"tags":{"access":"private","barrier":"gate","description":"With keycode"}},{"type":"node","id":7669134964,"lat":60.1635134,"lon":24.9424588,"tags":{"access":"private","addr:housenumber":"14","addr:street":"Iso Roobertinkatu","description":"With buzzer","entrance":"yes","wheelchair":"no"}},{"type":"node","id":7669134967,"lat":60.1634955,"lon":24.9424795,"tags":{"addr:housenumber":"14","addr:street":"Iso Roobertinkatu","level":"1","name":"Asumaan.fi","office":"estate_agent"}},{"type":"node","id":7669134968,"lat":60.1634829,"lon":24.9423715,"tags":{"access":"yes","addr:housenumber":"14","addr:street":"Iso Roobertinkatu","entrance":"secondary","wheelchair":"no"}},{"type":"node","id":7669134971,"lat":60.1634565,"lon":24.9424003,"tags":{"addr:housenumber":"14","addr:street":"Iso Roobertinkatu","amenity":"bar","level":"1","name":"Bar Llamas","payment:credit_cards":"yes","payment:debit_cards":"yes"}},{"type":"node","id":7669134972,"lat":60.163436,"lon":24.9422374,"tags":{"access":"yes","addr:housenumber":"16","addr:street":"Iso Roobertinkatu","entrance":"secondary","phone":"09 626 044","wheelchair":"no"}},{"type":"node","id":7669134974,"lat":60.163163,"lon":24.9422683,"tags":{"access":"yes","addr:housenumber":"3","addr:street":"Annankatu","entrance":"secondary","opening_hours":"Mo-Tu 14:00-01:00; We-Fr 14:00-02:00; Sa 12:00-02:00; Su 14:00-22:00","wheelchair":"no"}},{"type":"node","id":7669516091,"lat":60.1631269,"lon":24.942003,"tags":{"access":"yes","addr:housenumber":"4","addr:street":"Annankatu","entrance":"secondary","wheelchair":"no"}},{"type":"node","id":7669516093,"lat":60.1630907,"lon":24.9419812,"tags":{"addr:housenumber":"4","addr:street":"Annankatu","amenity":"restaurant","diet:halal":"no","diet:kosher":"no","level":"1","name":"Salajar","payment:credit_cards":"yes","payment:debit_cards":"yes"}},{"type":"node","id":7669516094,"lat":60.1631303,"lon":24.9418623,"tags":{"access":"private","addr:housenumber":"4","addr:street":"Annankatu","description":"With keycode","entrance":"secondary","wheelchair":"no"}},{"type":"node","id":7669516097,"lat":60.1631615,"lon":24.9419542,"tags":{"access":"private","barrier":"gate","description":"With keycode"}},{"type":"node","id":7669516101,"lat":60.1631066,"lon":24.9417394,"tags":{"access":"private","addr:housenumber":"4","addr:street":"Annankatu","entrance":"secondary","wheelchair":"yes"}},{"type":"node","id":7669516103,"lat":60.1631964,"lon":24.9419052,"tags":{"access":"yes","addr:housenumber":"4","addr:street":"Annankatu","entrance":"secondary","opening_hours":"Mo-Su 15:00-01:00","wheelchair":"yes"}},{"type":"node","id":7669516105,"lat":60.1631853,"lon":24.9418602,"tags":{"addr:housenumber":"4","addr:street":"Annankatu","amenity":"bar","level":"1","name":"Rodbergs","opening_hours":"ma-su 15-01","payment:credit_cards":"yes","payment:debit_cards":"yes"}},{"type":"node","id":7669516106,"lat":60.1632641,"lon":24.94181,"tags":{"access":"no","addr:housenumber":"18","addr:street":"Iso Roobertinkatu","entrance":"secondary","opening_hours":"Mo-Th 10:30-21:00; Fr 10:30-22:00; Sa 12:00-22:00; Su 12:00-21:00","wheelchair":"no"}},{"type":"node","id":7669516108,"lat":60.1632515,"lon":24.9416603,"tags":{"access":"no","addr:housenumber":"18","addr:street":"Iso Roobertinkatu","entrance":"secondary","opening_hours":"ma-to 10.30-21 pe 10.30-22 la 12-22 su 12-21","wheelchair":"no"}},{"type":"node","id":7669700700,"lat":60.163619,"lon":24.9427605,"tags":{"access":"private","addr:housenumber":"12","addr:street":"Iso Roobertinkatu","addr:unit":"A-B","description":"With buzzer","entrance":"staircase","wheelchair":"yes"}},{"type":"node","id":7669700701,"lat":60.1635957,"lon":24.942694,"tags":{"access":"yes","addr:housenumber":"12","addr:street":"Iso Roobertinkatu","entrance":"yes","opening_hours":"Mo-Fr 10:00-19:00; Sa 10:00-17:00","wheelchair":"yes"}},{"type":"node","id":7669700702,"lat":60.163585,"lon":24.9427104,"tags":{"addr:housenumber":"12","addr:street":"Iso Roobertinkatu","name":"Tempur","opening_hours":"Ma-pe 10-19 la 10-17","payment:credit_cards":"yes","payment:debit_cards":"yes","shop":"yes"}},{"type":"node","id":7669700703,"lat":60.1635579,"lon":24.9425858,"tags":{"access":"private","addr:housenumber":"12","addr:street":"Iso Roobertinkatu","description":"With buzzer","entrance":"yes","wheelchair":"no"}},{"type":"node","id":7669700708,"lat":60.1633943,"lon":24.9421182,"tags":{"access":"private","addr:housenumber":"16a","addr:street":"Iso Roobertinkatu","description":"With buzzer","entrance":"staircase","wheelchair":"no"}},{"type":"node","id":7669700711,"lat":60.1631053,"lon":24.9423499,"tags":{"access":"private","barrier":"gate","description":"With buzzer"}},{"type":"node","id":7669700713,"lat":60.1630949,"lon":24.9423203,"tags":{"highway":"crossing"}},{"type":"node","id":7669700715,"lat":60.1632553,"lon":24.9423517,"tags":{"access":"private","addr:housenumber":"3","addr:street":"Annankatu","addr:unit":"A","entrance":"staircase","wheelchair":"no"}},{"type":"node","id":7669700716,"lat":60.1631518,"lon":24.9424773,"tags":{"access":"private","addr:housenumber":"3","addr:street":"Annankatu","addr:unit":"B","entrance":"staircase","wheelchair":"yes"}},{"type":"node","id":7680128429,"lat":60.1632703,"lon":24.9417143,"tags":{"access":"yes","addr:housenumber":"18","addr:street":"Iso Roobertinkatu","entrance":"main","wheelchair":"no"}},{"type":"node","id":7680128431,"lat":60.1632874,"lon":24.9417632,"tags":{"access":"no","addr:housenumber":"18","addr:street":"Iso Roobertinkatu","entrance":"secondary","wheelchair":"yes"}},{"type":"node","id":7680128432,"lat":60.163234,"lon":24.9418524,"tags":{"access":"private","addr:housenumber":"4","addr:street":"Annankatu","addr:unit":"A","description":"With buzzer","entrance":"staircase","wheelchair":"no"}},{"type":"node","id":7680128434,"lat":60.1630835,"lon":24.9416729,"tags":{"access":"delivery","addr:housenumber":"18","addr:street":"Iso Roobertinkatu","entrance":"service","wheelchair":"yes"}},{"type":"node","id":7680128437,"lat":60.1630884,"lon":24.9420571,"tags":{"access":"yes","addr:housenumber":"4","addr:street":"Annankatu","entrance":"main","wheelchair":"no"}},{"type":"node","id":8299393481,"lat":60.1635319,"lon":24.9419711,"tags":{"addr:housenumber":"11","addr:street":"Iso Roobertinkatu","name":"Flea Second Hand","opening_hours":"Mo-Fr 11:00-19:00; Sa 11:00-18:00; Su 12:00-17:00","payment:credit_cards":"yes","payment:debit_cards":"yes","second_hand":"only","shop":"clothes"}},{"type":"node","id":9352229763,"lat":60.1635566,"lon":24.9417819,"tags":{"addr:city":"Helsinki","addr:housenumber":"5","addr:street":"Annankatu","name":"Hakola","payment:credit_cards":"yes","payment:debit_cards":"yes","shop":"furniture","website":"https:\/\/hakola.fi\/"}},{"type":"node","id":9352229764,"lat":60.1633965,"lon":24.9422003,"tags":{"addr:city":"Helsinki","addr:housenumber":"16","addr:postcode":"00120","addr:street":"Iso Roobertinkatu","addr:unit":"A","amenity":"cafe","brand":"Round","cuisine":"coffee_shop;donut;dessert;brunch;breakfast;bagel","delivery":"yes","diet:halal":"no","diet:kosher":"no","diet:vegan":"yes","email":"vegaanisiadonitseja@round.fi","internet_access":"yes","internet_access:fee":"no","name":"Round Punavuori","outdoor_seating":"yes","phone":"+358 40 1299339","website":"https:\/\/www.round.fi\/"}},{"type":"node","id":9909450371,"lat":60.1634004,"lon":24.9421091,"tags":{"barrier":"step"}},{"type":"node","id":10181313477,"lat":60.1633165,"lon":24.9415967,"tags":{"access":"yes","amenity":"bicycle_parking","bicycle_parking":"stands","capacity":"12","covered":"no","fee":"no"}},{"type":"node","id":10181313482,"lat":60.1635023,"lon":24.9421515,"tags":{"access":"yes","amenity":"bicycle_parking","bicycle_parking":"stands","capacity":"10","covered":"no","fee":"no"}}]}