{"version":0.6,"generator":"Overpass API 0.7.62.5 1bd436f1","osm3s":{"timestamp_osm_base":"2025-03-12T12:19:57Z","copyright":"The data included in this document is from www.openstreetmap.org. The data is made available under ODbL."},"elements":[{"type":"node","id":249344718,"lat":60.1883563,"lon":24.9604248,"tags":{"addr:city":"Helsinki","addr:country":"FI","amenity":"pub","name":"Iltakoulu","opening_hours":"Mo-Su 12:00-02:00"}},{"type":"node","id":266225622,"lat":60.1883645,"lon":24.9605564,"tags":{"access":"private","addr:city":"Helsinki","addr:housenumber":"2","addr:postcode":"00500","addr:street":"Kinaporinkatu","addr:unit":"E","description":"With buzzer","entrance":"staircase"}},{"type":"node","id":266225633,"lat":60.1885838,"lon":24.9606936,"tags":{"created_by":"JOSM"}},{"type":"node","id":266225634,"lat":60.1886648,"lon":24.9605654,"tags":{"created_by":"JOSM"}},{"type":"node","id":266225635,"lat":60.1886197,"lon":24.9604523,"tags":{"created_by":"JOSM"}},{"type":"node","id":266225636,"lat":60.1885136,"lon":24.9603574,"tags":{"created_by":"JOSM"}},{"type":"node","id":288025621,"lat":60.1882348,"lon":24.9603969,"tags":{"crossing":"uncontrolled","crossing:island":"no","highway":"crossing"}},{"type":"node","id":664754466,"lat":60.1884734,"lon":24.960674,"tags":{"addr:city":"Helsinki","addr:country":"FI","addr:housenumber":"2","addr:postcode":"00500","addr:street":"Kinaporinkatu"}},{"type":"node","id":664754469,"lat":60.1880946,"lon":24.9611128,"tags":{"addr:country":"FI","addr:housenumber":"3","addr:postcode":"00500","addr:street":"Vaasanpolku"}},{"type":"node","id":664754472,"lat":60.1882747,"lon":24.9611289,"tags":{"addr:city":"Helsinki","addr:country":"FI","addr:housenumber":"1","addr:postcode":"00500","addr:street":"Kinaporinkatu"}},{"type":"node","id":664765073,"lat":60.1884868,"lon":24.9607989,"tags":{"access":"private","addr:housenumber":"2","addr:street":"Kinaporinkatu","addr:unit":"A","description":"With buzzer","entrance":"staircase"}},{"type":"node","id":664765077,"lat":60.1883447,"lon":24.9610588,"tags":{"access":"private","addr:housenumber":"1","addr:street":"Kinaporinkatu","entrance":"yes","wheelchair":"no"}},{"type":"node","id":664765078,"lat":60.1886715,"lon":24.9610478,"tags":{"access":"private","addr:housenumber":"4","addr:street":"Kinaporinkatu","description":"With buzzer","entrance":"staircase"}},{"type":"node","id":667347995,"lat":60.1882752,"lon":24.9605718,"tags":{"label":"kaukol\u00e4mp\u00f6","man_made":"manhole","manhole":"heat"}},{"type":"node","id":667349057,"lat":60.1882957,"lon":24.9607039,"tags":{"diameter":"200","hole:diameter":"unknown","man_made":"manhole","manhole":"gas","marker:shape":"rectangle (plastic)","operator":"HK Oy","pipeline":"valve"}},{"type":"node","id":828455127,"lat":60.1885158,"lon":24.9607617,"tags":{"amenity":"closed:restaurant","cuisine":"chinese","diet:halal":"no","diet:kosher":"no","diet:vegan":"yes","diet:vegetarian":"yes","name":"Happy Garden","opening_hours":"Sa, Su 12:00-21:00; Tu-Fr 11:00-21:00"}},{"type":"node","id":925604354,"lat":60.188246,"lon":24.9599793,"tags":{"diameter":"100","man_made":"manhole","manhole":"water","marker:shape":"vertical oval (older)","ref":"647"}},{"type":"node","id":925604360,"lat":60.1882603,"lon":24.9606112,"tags":{"hole:diameter":"60 cm","label":"HKV","man_made":"manhole","manhole":"water"}},{"type":"node","id":925604375,"lat":60.1882707,"lon":24.9599389,"tags":{"dir_ref":"AK","manhole":"suspected_water","marker:label":"TH","marker:shape":"horizontal oval on a rectangle"}},{"type":"node","id":925604376,"lat":60.188272,"lon":24.9599211,"tags":{"diameter":"1.0\"","manhole":"missing_gas","marker:label":"Liit.joht.","marker:shape":"circular (old)"}},{"type":"node","id":925604406,"lat":60.1883461,"lon":24.9602847,"tags":{"heat":"l\u00e4mm\u00f6njakohuone"}},{"type":"node","id":925604419,"lat":60.18834,"lon":24.9602442,"tags":{"man_made":"surveillance"}},{"type":"node","id":925604421,"lat":60.1883039,"lon":24.9599193,"tags":{"diameter":"4\"","manhole":"missing_gas","marker:label":"Liit.hana","marker:shape":"circular (old)"}},{"type":"node","id":925604437,"lat":60.1882419,"lon":24.9599759,"tags":{"diameter":"300","emergency":"fire_hydrant","location":"underground"}},{"type":"node","id":1406349478,"lat":60.1881026,"lon":24.9602829,"tags":{"addr:city":"Helsinki","addr:country":"FI","addr:housenumber":"4","addr:postcode":"00500","addr:street":"Pengerpolku"}},{"type":"node","id":1555285278,"lat":60.1883816,"lon":24.9601942,"tags":{"addr:city":"Helsinki","addr:country":"FI","addr:housenumber":"5","addr:street":"Vaasankatu"}},{"type":"node","id":1810068815,"lat":60.188099,"lon":24.9609754,"tags":{"access":"private","addr:housenumber":"3","addr:street":"Vaasanpolku","addr:unit":"B","description":"With buzzer","entrance":"staircase"}},{"type":"node","id":1815854714,"lat":60.1885449,"lon":24.9608422,"tags":{"addr:city":"Helsinki","addr:housenumber":"2A","addr:postcode":"00500","addr:street":"Kinaporinkatu","lgbtq":"primary","name":"Nurja tattoo","shop":"tattoo"}},{"type":"node","id":2479544972,"lat":60.1882808,"lon":24.9603284,"tags":{"traffic_sign":"FI:372","traffic_sign:2":"FI:855a[9-21]","traffic_sign:3":"FI:871[Vy\u00f6hyke 3 Ei koske P-tunnuksella J]"}},{"type":"node","id":2678567368,"lat":60.1881624,"lon":24.9607725,"tags":{"traffic_sign":"FI:312","traffic_sign:2":"FI:871[Ei koske -huoltoajoa -tontilleajoa]","traffic_sign:3":"FI:373;FI:374"}},{"type":"node","id":2678567371,"lat":60.1882078,"lon":24.9603888,"tags":{"barrier":"bollard","bicycle":"yes","foot":"yes","kerb":"lowered"}},{"type":"node","id":2678567372,"lat":60.1882037,"lon":24.9603084,"tags":{"traffic_sign":"FI:511"}},{"type":"node","id":2678567374,"lat":60.1882678,"lon":24.960805,"tags":{"traffic_sign":"FI:521","traffic_sign:2":"FI:855b[9-21]","traffic_sign:3":"FI:871[Vy\u00f6hyke 3 Ei koske P-tunnuksella J]","traffic_sign:4":"FI:521c[left]","traffic_sign:5":"FI:871[\u2190 Lippuautomaatti]"}},{"type":"node","id":2678567375,"lat":60.1882649,"lon":24.9607649,"tags":{"was:traffic_sign":"FI:424"}},{"type":"node","id":2678567376,"lat":60.1882876,"lon":24.9605493,"tags":{"traffic_sign":"FI:511"}},{"type":"node","id":2678567377,"lat":60.1883146,"lon":24.9606492,"tags":{"was:traffic_sign":"FI:425"}},{"type":"node","id":3220062466,"lat":60.1882232,"lon":24.9606303,"tags":{"traffic_sign":"FI:372"}},{"type":"node","id":3469313007,"lat":60.1882591,"lon":24.9604042,"tags":{"barrier":"kerb","kerb":"lowered"}},{"type":"node","id":3800990073,"lat":60.1882971,"lon":24.9602595,"tags":{"natural":"tree"}},{"type":"node","id":3800990074,"lat":60.1883018,"lon":24.9601611,"tags":{"natural":"tree"}},{"type":"node","id":3800990075,"lat":60.1883089,"lon":24.9600437,"tags":{"natural":"tree"}},{"type":"node","id":3800990076,"lat":60.1883124,"lon":24.9599405,"tags":{"natural":"tree"}},{"type":"node","id":5760597371,"lat":60.1884311,"lon":24.9605143,"tags":{"addr:city":"Helsinki","addr:housenumber":"2","addr:postcode":"00500","addr:street":"Kinaporinkatu","addr:unit":"E 41","name":"Sexpo-s\u00e4\u00e4ti\u00f6","office":"association","website":"https:\/\/www.sexpo.fi\/"}},{"type":"node","id":6321049010,"lat":60.1882454,"lon":24.9605813,"tags":{"crossing":"uncontrolled","crossing:island":"no","highway":"crossing"}},{"type":"node","id":6569248420,"lat":60.1884334,"lon":24.9606292,"tags":{"addr:housenumber":"2","addr:street":"Kinaporinkatu","closed:shop":"bicycle","email":"ybb.helsinki@gmail.com","name":"YBB-py\u00f6r\u00e4huolto Oy","opening_hours":"Mo-Th 10:00-18:00; Fr 10:00-16:00","phone":"+358400905770","website":"https:\/\/www.youthbehindbars.fi\/"}},{"type":"node","id":8828336399,"lat":60.1883523,"lon":24.9605254,"tags":{"camera:type":"fixed","man_made":"surveillance","surveillance:type":"camera"}},{"type":"node","id":8828337788,"lat":60.1885001,"lon":24.9608523,"tags":{"camera:type":"fixed","man_made":"surveillance","surveillance:type":"camera"}},{"type":"node","id":8831791604,"lat":60.1884157,"lon":24.9612013,"tags":{"access":"yes","addr:housenumber":"1","addr:street":"Kinaporinkatu","entrance":"yes"}},{"type":"node","id":8831791606,"lat":60.1883995,"lon":24.9611687,"tags":{"addr:housenumber":"1","addr:street":"Kinaporinkatu","addr:unit":"D","description":"With buzzer","entrance":"staircase","wheelchair":"no"}},{"type":"node","id":8831791607,"lat":60.188208,"lon":24.9608599,"tags":{"access":"yes","addr:housenumber":"3","addr:street":"Vaasanpolku","entrance":"yes"}},{"type":"node","id":8831791608,"lat":60.1881965,"lon":24.9609654,"tags":{"addr:housenumber":"3","addr:street":"Vaasanpolku","level":"1","name":"Ekohius ekokampaamo","opening_hours":"sopimuksen mukaan","payment:credit_cards":"yes","payment:debit_cards":"yes","phone":"+358 44 799 2992","shop":"hairdresser"}},{"type":"node","id":8831958030,"lat":60.1883117,"lon":24.960993,"tags":{"access":"yes","addr:housenumber":"1","addr:street":"Kinaporinkatu","entrance":"yes","wheelchair":"no"}},{"type":"node","id":8831958031,"lat":60.1882645,"lon":24.9609855,"tags":{"addr:housenumber":"1","addr:street":"Kinaporinkatu","name":"Sam-Sam","payment:credit_cards":"yes","payment:debit_cards":"yes","phone":"040 777 2478","shop":"shoe_repair"}},{"type":"node","id":8831958032,"lat":60.1880186,"lon":24.9611038,"tags":{"access":"yes","addr:housenumber":"3","addr:street":"Vaasanpolku","entrance":"yes","wheelchair":"no"}},{"type":"node","id":8831958034,"lat":60.1880274,"lon":24.9611365,"tags":{"addr:housenumber":"3","addr:street":"Vaasanpolku","name":"Rolling Records","payment:credit_cards":"yes","payment:debit_cards":"yes","phone":"+358 50 344 5539","shop":"music"}},{"type":"node","id":8859530852,"lat":60.1885906,"lon":24.9609928,"tags":{"access":"yes","addr:housenumber":"4","addr:street":"Kinaporinkatu","description":"With buzzer","entrance":"yes"}},{"type":"node","id":8859530854,"lat":60.1886022,"lon":24.9609479,"tags":{"addr:housenumber":"4","addr:street":"Kinaporinkatu","closed:shop":"massage","name":"Chiratchaya"}},{"type":"node","id":8859530855,"lat":60.1885621,"lon":24.9609362,"tags":{"access":"private","addr:housenumber":"2","addr:street":"Kinaporinkatu","entrance":"yes"}},{"type":"node","id":8859530857,"lat":60.1885153,"lon":24.9608506,"tags":{"access":"yes","addr:housenumber":"2","addr:street":"Kinaporinkatu","entrance":"yes","wheelchair":"yes"}},{"type":"node","id":8859530860,"lat":60.1884624,"lon":24.9607506,"tags":{"access":"private","barrier":"gate","description":"With buzzer"}},{"type":"node","id":8859530863,"lat":60.1884467,"lon":24.9607195,"tags":{"access":"yes","addr:housenumber":"2","addr:street":"Kinaporinkatu","entrance":"yes"}},{"type":"node","id":8859530865,"lat":60.1883341,"lon":24.9603739,"tags":{"access":"yes","addr:housenumber":"5","addr:street":"Vaasankatu","entrance":"yes","wheelchair":"no"}},{"type":"node","id":8859530867,"lat":60.1883486,"lon":24.9601382,"tags":{"access":"private","addr:housenumber":"5","addr:street":"Vaasankatu","description":"With buzzer","entrance":"staircase","wheelchair":"no"}},{"type":"node","id":8859530869,"lat":60.1883601,"lon":24.9599507,"tags":{"access":"private","addr:housenumber":"5","addr:street":"Vaasankatu","addr:unit":"F","entrance":"yes","wheelchair":"no"}},{"type":"node","id":8859530871,"lat":60.1883653,"lon":24.959877,"tags":{"access":"private","barrier":"gate"}},{"type":"node","id":9726020017,"lat":60.1883257,"lon":24.9610209,"tags":{"access":"private","addr:unit":"C","description":"With buzzer","entrance":"staircase"}},{"type":"node","id":9726035517,"lat":60.1883756,"lon":24.9611207,"tags":{"access":"private","description":"With buzzer","entrance":"yes"}},{"type":"node","id":9921350870,"lat":60.1881332,"lon":24.9601808,"tags":{"addr:city":"Helsinki","addr:housenumber":"2","addr:postcode":"00500","addr:street":"Vaasankatu","branch":"Helsinki S\u00f6rn\u00e4inen","brand":"Fitness24Seven","brand:wikidata":"Q61112447","leisure":"fitness_centre","name":"Fitness24Seven","opening_hours":"24\/7","website":"https:\/\/fi.fitness24seven.com\/kuntokeskuksemme\/etsi-salisi\/helsinki-sornainen\/"}},{"type":"node","id":11741753799,"lat":60.1881529,"lon":24.9598551,"tags":{"name":"Kauneuspalvelu Magdalena","shop":"beauty","website":"https:\/\/www.kauneuspalvelumagdalena.com\/"}},{"type":"node","id":12107791731,"lat":60.1881201,"lon":24.9605085,"tags":{"leaf_type":"broadleaved","natural":"tree"}},{"type":"node","id":12107791751,"lat":60.1881032,"lon":24.9605439,"tags":{"access":"yes","amenity":"bicycle_parking","bicycle_parking":"stands","capacity":"16","covered":"no","fee":"no"}},{"type":"node","id":12107791792,"lat":60.1880682,"lon":24.960867,"tags":{"leaf_type":"broadleaved","natural":"tree"}},{"type":"node","id":12107791793,"lat":60.1881421,"lon":24.9607576,"tags":{"leaf_type":"broadleaved","natural":"tree"}},{"type":"node","id":12107791832,"lat":60.188117,"lon":24.9607256,"tags":{"amenity":"bench","backrest":"yes","material":"metal","seats":"1"}},{"type":"node","id":12107791833,"lat":60.188115,"lon":24.960743,"tags":{"amenity":"bench","backrest":"yes","material":"metal","seats":"1"}},{"type":"node","id":12107791834,"lat":60.188112,"lon":24.9607612,"tags":{"amenity":"bench","backrest":"yes","material":"metal","seats":"1"}},{"type":"node","id":12107791835,"lat":60.1880689,"lon":24.9608222,"tags":{"amenity":"bench","backrest":"yes","material":"metal","seats":"1"}},{"type":"node","id":12107791836,"lat":60.1880589,"lon":24.9608275,"tags":{"amenity":"bench","backrest":"yes","material":"metal","seats":"1"}},{"type":"node","id":12107791842,"lat":60.1881043,"lon":24.9604768,"tags":{"amenity":"waste_disposal"}},{"type":"node","id":12107791843,"lat":60.1880516,"lon":24.9609013,"tags":{"amenity":"waste_disposal"}},{"type":"node","id":12588474097,"lat":60.188209,"lon":24.9601663,"tags":{"amenity":"charging_station","authentication:app":"yes","authentication:contactless":"yes","capacity":"2","network":"Helen","opening_hours":"24\/7","ref":"181402; 181403","socket:type2":"2","socket:type2:output":"22 kW"}}]}