{"version":0.6,"generator":"Overpass API 0.7.62.5 1bd436f1","osm3s":{"timestamp_osm_base":"2025-03-12T12:17:00Z","copyright":"The data included in this document is from www.openstreetmap.org. The data is made available under ODbL."},"elements":[{"type":"way","id":16371669,"nodes":[1525450348,670260843,12655706315,670260845,670260844,354875373,11741860019,354875374,492008660,1642939011,1642939024,2538835668,354875834,670262277,1406192235,354875365,354875366,408616010,408616011,1525434638,1525434640,1525450347,354875371,1401125500,1525450348],"tags":{"landuse":"residential"}},{"type":"way","id":22957492,"nodes":[34500694,354874140,247358579],"tags":{"bicycle":"use_sidepath","embedded_rails":"tram","fi:hkr:kunnossapitoluokka":"I","highway":"secondary","lanes":"1","lit":"yes","maxspeed":"40","name":"Aleksis Kiven katu","name:fi":"Aleksis Kiven katu","name:sv":"Aleksis Kivis Gata","oneway":"yes","parking:condition:reason":"junction","parking:lane:both":"no_stopping","paved:date":"2008","psv":"yes","snowplowing":"yes","surface":"asphalt"}},{"type":"way","id":22957493,"nodes":[247358580,957015408,894104722,2451383793],"tags":{"construction":"secondary","highway":"construction","lanes":"1","lit":"yes","maxspeed":"40","name":"Aleksis Kiven katu","name:fi":"Aleksis Kiven katu","name:sv":"Aleksis Kivis Gata","oneway":"yes","parking:condition:reason":"bus_stop","parking:lane:left":"no_stopping","parking:lane:right":"no_parking","snowplowing":"yes","surface":"asphalt"}},{"type":"way","id":23480796,"nodes":[254286138,254286139,254286140,1416497498,1416497493,254286141,254286138],"tags":{"building":"yes","building:levels":"1"}},{"type":"way","id":23480799,"nodes":[254286139,878449173,7884421668,7884421666,7884421662,7884421660,254286153,254286154,7884421658,7884421659,7884421661,9732966618,7884421665,7884421667,7884421671,254286140,254286139],"tags":{"addr:city":"Helsinki","addr:country":"FI","addr:housenumber":"1","addr:street":"Porvoonkatu","building":"apartments","building:levels":"9","building:maintenance:operator":"Kiinteist\u00f6huolto Varonen Oy","last_fire":"2012-03-10"}},{"type":"way","id":23480819,"nodes":[878449135,254286288,7884446105,7884446101,7884446097,7884446093,254286289,254286290,7884446089,7884446092,7884446096,7884446100,7884446104,7884446111,12124822001,878449135],"tags":{"addr:city":"Helsinki","addr:country":"FI","addr:housenumber":"3","addr:street":"Porvoonkatu","building":"apartments","building:levels":"10","building:maintenance:operator":"Kiinteist\u00f6huolto Varonen Oy"}},{"type":"way","id":23786022,"nodes":[257725161,257725162],"tags":{"access":"destination","handrail":"yes","highway":"steps","incline":"up","lit":"yes","ramp":"no","surface":"concrete"}},{"type":"way","id":24450146,"nodes":[247358579,12108640187,12108640188,408616020],"tags":{"bicycle":"use_sidepath","embedded_rails":"tram","fi:hkr:kunnossapitoluokka":"I","highway":"secondary","lanes":"1","lit":"yes","maxspeed":"40","name":"Aleksis Kiven katu","name:fi":"Aleksis Kiven katu","name:sv":"Aleksis Kivis Gata","oneway":"yes","parking:condition:left:reason":"dual_carriage","parking:condition:right:reason":"bus_stop","parking:lane:left":"no_stopping","parking:lane:right":"no_parking","paved:date":"2008","psv":"yes","snowplowing":"yes","surface":"asphalt"}},{"type":"way","id":24450174,"nodes":[247358580,247360445,34500694],"tags":{"bicycle":"yes","embedded_rails":"tram","fi:hkr:kunnossapitoluokka":"II","highway":"tertiary","lit":"yes","loc_name":"Flemari","maxspeed":"40","name":"Fleminginkatu","name:fi":"Fleminginkatu","name:sv":"Flemingsgatan","parking:lane:both":"no_stopping","snowplowing":"yes","surface":"asphalt"}},{"type":"way","id":28582674,"nodes":[314301379,1435317977],"tags":{"bicycle":"no","footway":"sidewalk","highway":"footway","lit":"yes","surface":"asphalt"}},{"type":"way","id":30690515,"nodes":[34500694,354876481,5899975932,1401125486],"tags":{"bicycle":"yes","fi:hkr:kunnossapitoluokka":"II","highway":"residential","lane_markings":"no","lit":"yes","loc_name":"Flemari","maxspeed":"40","name":"Fleminginkatu","name:fi":"Fleminginkatu","name:sv":"Flemingsgatan","parking:condition:reason":"junction","parking:lane:right":"no_parking","smoothness":"good","surface":"asphalt"}},{"type":"way","id":34861411,"nodes":[254286288,408616261,408616260,408616259,408616258,408616257,254286154,254286290,254286275,254286282,1525434525,2460245864,670255660,1525434542,1525434544,254286283,7884483626,6051965130,6051965125,670264136,670264137,1525434607,3198988095,670262268,257725023,257725024,670262269,678167679,11591899991,408616015,670262272,670262270,408616014,1525434600,254286285,408616016,254286288],"tags":{"landuse":"residential"}},{"type":"way","id":37296674,"nodes":[434619445,1011920694,445358630,670262275,434619443,434619441,3014992293,3014992286,1525434593,3014992283,434619439,1396829648,434619438,434619436,354874132,5812412888,314301379,672967930,354874142,354874144,314301385,957015411,392411393,434619426,10916708681,1416497487,434619427,11775429618,11811086914,434619504,434619429,434619513,667349554,11775429631,11775429625,11775429638,398461641,434619476,434619432,434619491,1416508989],"tags":{"bicycle":"no","footway":"sidewalk","highway":"footway","lit":"yes","snowplowing":"yes","surface":"asphalt"}},{"type":"way","id":37296675,"nodes":[354874140,12108640191,12108640186,354874133,5899975933,354875272,12655706316,2434827950,10603475558,1401125496,354877919,11105928162,2825040202,354876452],"tags":{"bicycle":"no","footway":"sidewalk","highway":"footway","lit":"yes","surface":"asphalt"}},{"type":"way","id":37296706,"nodes":[434619581,1406167893,434619583,12291998311,2694514280,2694514281,2694514282,2694514283,9496724095,9496724096,2694514286,1859016941,1406167845,2694514287,354875160,2434823952,1525434564,670255667,2694506863,1406167901,1406168022,354875147,2539553902,354876473,354875148,354875149,670255670,1401125492,434619585,1406167954,434619581],"tags":{"landuse":"commercial"}},{"type":"way","id":37296707,"nodes":[354875273,343390406,1401125494,434619586],"tags":{"bicycle":"no","footway":"sidewalk","highway":"footway","surface":"asphalt"}},{"type":"way","id":38341701,"nodes":[452815150,257725024,670262269,678167679,11591899991,408616015,670262272,670262270,408616014,1525434600,254286285,408616016,254286288,408616261,408616260,408616259,257724169,257724615,1416497485,434619424,11828159439,11775429619,257724620,257725423,266220831,11775429630,1416508985,11775429628,11775429627,1416508986,11775429621,11775429622,11775429624,1416508988,11775429639,1820609495,1820609496,266220825,266225597,8859786064,1820609494,8859786066,1820609497,1411003301,8859786071],"tags":{"admin_level":"10","boundary":"administrative"}},{"type":"way","id":40545359,"nodes":[354874133,492008654,12108640184,3014992294,492008656,492008658,10603475573,492008657,257325434],"tags":{"bicycle":"no","footway":"sidewalk","highway":"footway","lit":"yes","surface":"asphalt"}},{"type":"way","id":44660539,"nodes":[34507891,354874130,957015404,34500694],"tags":{"cycleway:both":"no","highway":"secondary","lanes":"2","lit":"yes","maxspeed":"40","name":"Aleksis Kiven katu","name:fi":"Aleksis Kiven katu","name:sv":"Aleksis Kivis Gata","parking:lane:both":"no_stopping","snowplowing":"yes","surface":"asphalt","was:oneway":"yes"}},{"type":"way","id":74332928,"nodes":[878716706,354874142,247358580],"tags":{"bicycle":"yes","embedded_rails":"tram","fi:hkr:kunnossapitoluokka":"II","highway":"tertiary","lanes":"2","lit":"yes","loc_name":"Flemari","maxspeed":"40","motor_vehicle":"destination","name":"Fleminginkatu","name:fi":"Fleminginkatu","name:sv":"Flemingsgatan","paved:date":"2008","snowplowing":"yes","surface":"asphalt","tram:lanes:backward":"yes","tram:lanes:forward":"yes"}},{"type":"way","id":82198457,"nodes":[408616020,3014992291,3014992292,313788814,313788835],"tags":{"bicycle":"use_sidepath","embedded_rails":"tram","fi:hkr:kunnossapitoluokka":"I","highway":"secondary","lanes":"1","lit":"yes","maxspeed":"40","name":"Aleksis Kiven katu","name:fi":"Aleksis Kiven katu","name:sv":"Aleksis Kivis Gata","oneway":"yes","parking:condition:left:reason":"dual_carriage","parking:lane:left":"no_stopping","parking:lane:right":"no_parking","paved:date":"2008","psv":"yes","smoothness":"good","snowplowing":"yes","surface":"asphalt","tram:lanes:forward":"yes"}},{"type":"way","id":125862212,"nodes":[1396829654,313788824,157489187,354874141,354874136,270993943,247358580],"tags":{"bicycle":"use_sidepath","embedded_rails":"tram","fi:hkr:kunnossapitoluokka":"I","highway":"secondary","lanes":"2","lit":"yes","maxspeed":"40","name":"Aleksis Kiven katu","name:fi":"Aleksis Kiven katu","name:sv":"Aleksis Kivis Gata","oneway":"yes","parking:condition:reason":"turning_lane","parking:lane:both":"no_stopping","parking:ticket:zone":"3","paved:date":"2008","surface":"asphalt"}},{"type":"way","id":125864230,"nodes":[1396850327,1396850322],"tags":{"diameter":"150","layer":"-1","location":"underground","man_made":"pipeline","substance":"water"}},{"type":"way","id":125864232,"nodes":[1396850327,1396850325],"tags":{"diameter":"300","layer":"-1","location":"underground","man_made":"pipeline","substance":"water"}},{"type":"way","id":125864233,"nodes":[1396850323,1396850320],"tags":{"diameter":"150","layer":"-1","location":"underground","man_made":"pipeline","substance":"water"}},{"type":"way","id":125864236,"nodes":[1396850318,1396850323,1396850327,1396850326],"tags":{"diameter":"300","layer":"-1","location":"underground","man_made":"pipeline","substance":"water"}},{"type":"way","id":126380651,"nodes":[1401125486,12655706314,2434827951,1401125488],"tags":{"bicycle":"yes","construction":"residential","fi:hkr:kunnossapitoluokka":"II","highway":"construction","lane_markings":"no","lit":"yes","loc_name":"Flemari","maxspeed":"30","name":"Fleminginkatu","name:fi":"Fleminginkatu","name:sv":"Flemingsgatan","parking:condition:both":"ticket","parking:condition:both:default":"free","parking:condition:both:maxstay":"4 h","parking:condition:both:time_interval":"Mo-Fr 09:00-21:00","parking:condition:right:residents":"K","parking:lane:both":"parallel","parking:ticket:zone":"3","surface":"asphalt"}},{"type":"way","id":126977575,"nodes":[354875160,2434823952,1525434564,670255667,2694506863,1406167901,1406167905,1406167883,1406167888,354875160],"tags":{"addr:city":"Helsinki","addr:country":"FI","addr:housenumber":"9","addr:postcode":"00510","addr:street":"Aleksis Kiven katu","building":"office","building:levels":"7","roof:levels":"0"}},{"type":"way","id":126980209,"nodes":[354875834,1406192233,2538835670,1406192211,1406192213,1406192215,1406192226,1406192224,1406192230,1406192228,1406192253,1406192255,1406192259,1406192257,1406192261,1406192262,1406192268,1406192270,1406192273,1525450348,670260843,12655706315,670260845,670260844,354875373,11741860019,354875374,492008660,1642939011,1642939024,2538835668,354875834],"tags":{"building":"apartments","building:maintenance:operator":"Lassila&Tikanoja"}},{"type":"way","id":126980210,"nodes":[354875834,670262277,1406192235,1406192238,1406192236,1406192233,354875834],"tags":{"building":"apartments"}},{"type":"way","id":128116963,"nodes":[646464811,11741753834,314301385],"tags":{"bicycle":"no","footway":"sidewalk","highway":"footway","lit":"yes","surface":"asphalt"}},{"type":"way","id":139189575,"nodes":[265483288,408616017,3014992298,408616018,3014992296,265483293,3014992290,3014992287,313788836,313788847,265483294,354874137,313788830,247360445],"tags":{"foot":"no","highway":"cycleway","lit":"yes","paved:date":"2008","snowplowing":"yes","source":"survey","surface":"asphalt"}},{"type":"way","id":151474567,"nodes":[1642939024,1642939011],"tags":{"advertising":"sign","lit":"yes","sign":"wall"}},{"type":"way","id":237191499,"nodes":[157489180,266152845,3014992295,157489184,3014992288,3014992284,313788842,313788846,1396829654],"tags":{"bicycle":"use_sidepath","embedded_rails":"tram","fi:hkr:kunnossapitoluokka":"I","highway":"secondary","lanes":"1","lit":"yes","maxspeed":"40","name":"Aleksis Kiven katu","name:fi":"Aleksis Kiven katu","name:sv":"Aleksis Kivis Gata","oneway":"yes","parking:right":"lane","parking:right:fee:conditional":"yes @ (Mo-Fr 09:00-21:00)","parking:right:fee:zone":"3","parking:right:orientation":"parallel","parking:right:zone":"J","paved:date":"2008","surface":"asphalt","tram:lanes:forward":"yes"}},{"type":"way","id":238171965,"nodes":[2460259437,878716706],"tags":{"bicycle":"yes","cycleway:both":"no","divider":"solid_line","embedded_rails":"tram","fi:hkr:kunnossapitoluokka":"II","highway":"tertiary","lanes":"2","lit":"yes","loc_name":"Flemari","maxspeed":"40","motor_vehicle":"destination","name":"Fleminginkatu","name:fi":"Fleminginkatu","name:sv":"Flemingsgatan","parking:condition:left":"ticket","parking:condition:left:residents":"J","parking:condition:left:time_interval":"Mo-Fr 09:00-21:00","parking:lane:left":"parallel","parking:lane:left:parallel":"lay_by","parking:ticket:zone":"3","paved:date":"2008","sidewalk":"separate","smoothness":"good","surface":"asphalt","tram:lanes:backward":"yes","tram:lanes:forward":"yes"}},{"type":"way","id":238172418,"nodes":[354875273,354876481,354875272],"tags":{"footway":"crossing","highway":"footway","lit":"yes","snowplowing":"yes","surface":"asphalt"}},{"type":"way","id":238172420,"nodes":[434619601,1416497503,1859016939,434619450,434619448,957015357,11741860018,5899975934,354875273],"tags":{"bicycle":"no","footway":"sidewalk","highway":"footway","lit":"yes","snowplowing":"yes","surface":"asphalt"}},{"type":"way","id":297603476,"nodes":[3014992294,3014992292,3014992290,3014992289,3014992288,3014992286],"tags":{"highway":"path","informal":"yes","surface":"asphalt"}},{"type":"way","id":297603477,"nodes":[3014992294,3014992291,3014992287,3014992285,3014992284,3014992283],"tags":{"highway":"path","informal":"yes","surface":"asphalt"}},{"type":"way","id":327265015,"nodes":[313788834,313788815,313788848,408616021,12108640190,12108640189,313788835,11821194313,34507892,266152844,1876917795,566834097,6889402738,1876917801,3339913294],"tags":{"electrified":"contact_line","frequency":"0","gauge":"1000","oneway":"yes","operator":"HKL-Raitioliikenne","railway":"tram","start_date":"2008-07","tram:segregation:physical":"in_lane","voltage":"600"}},{"type":"way","id":327265043,"nodes":[1876917790,672968098,672967997,878716714,6461232597,878716703,6461232594,354872582,1876917789,6321049062,1011920928,1876917783],"tags":{"electrified":"contact_line","frequency":"0","gauge":"1000","oneway":"yes","operator":"HKL-Raitioliikenne","railway":"tram","start_date":"2008-07","tram:segregation:physical":"in_lane","voltage":"600"}},{"type":"way","id":327265045,"nodes":[3339910292,1876917799,1876917797,1396618877,670262273,3014992297,6051965114,157489180,266152845,3014992295,157489184,3014992288,3014992284,313788842,313788846,1396829654,313788824,157489187,354874141],"tags":{"electrified":"contact_line","frequency":"0","gauge":"1000","oneway":"yes","operator":"HKL-Raitioliikenne","railway":"tram","start_date":"2008-07","tram:segregation:physical":"in_lane","voltage":"600"}},{"type":"way","id":327265263,"nodes":[354874141,354874136,313788826,270993944,270993948,314065987,313788827,672967930,1876917790],"tags":{"electrified":"contact_line","frequency":"0","gauge":"1000","oneway":"yes","operator":"HKL-Raitioliikenne","railway":"tram","start_date":"2008-07","tram:segregation:physical":"junction","voltage":"600"}},{"type":"way","id":327265264,"nodes":[3339910282,354874144,313788828,313788829,313788830,313788833,1876917793,6889402735,12108640191,313788834],"tags":{"electrified":"contact_line","frequency":"0","gauge":"1000","oneway":"yes","operator":"HKL-Raitioliikenne","railway":"tram","start_date":"2008-07","tram:segregation:physical":"junction","voltage":"600"}},{"type":"way","id":614475595,"nodes":[257725161,5812412888],"tags":{"highway":"footway","lit":"yes","surface":"asphalt"}},{"type":"way","id":614475597,"nodes":[1396829648,257725163],"tags":{"highway":"footway","lit":"yes","surface":"asphalt"}},{"type":"way","id":614475599,"nodes":[1396829648,257725161],"tags":{"highway":"footway","lit":"yes","surface":"asphalt"}},{"type":"way","id":845106920,"nodes":[7884421679,7884421684,7884421683,7884421682,7884421681,7884421680],"tags":{"highway":"footway","lit":"yes","surface":"asphalt"}},{"type":"way","id":1263820081,"nodes":[354874133,11741860020,11741860019],"tags":{"highway":"footway","lit":"yes","surface":"asphalt"}},{"type":"way","id":1263820082,"nodes":[354875272,11741860020],"tags":{"highway":"footway","lit":"yes","surface":"asphalt"}},{"type":"way","id":1307542549,"nodes":[12108640184,12108640185],"tags":{"bicycle":"no","footway":"sidewalk","highway":"footway","lit":"yes","surface":"asphalt"}},{"type":"way","id":1307542550,"nodes":[12108640186,314065988,12108640185],"tags":{"bench":"yes","bin":"yes","bus":"yes","highway":"platform","kerb":"raised","kerb:approach_aid":"no","lit":"yes","passenger_information_display":"yes","passenger_information_display:speech_output":"no","public_transport":"platform","shelter":"yes","surface":"paving_stones","tactile_paving":"no","tram":"yes"}},{"type":"way","id":1317001922,"nodes":[12188892877,12379424237,12379424238,12379424239,12188892878,12188892879,12379424240,12379424241,12188892880,12188892881,12559393449,12559393451,12559393452,12559393454,12559393455,12559393456,12559393453,12559393450,12559393447,12559393448,12188892882,12188892883,12188892884,12188892885,12377119165,12188892877],"tags":{"landuse":"construction"}},{"type":"way","id":1317001923,"nodes":[247360445,957015396,247360446,1416508991,1416508993,289555219,1416497500,247360447],"tags":{"construction":"footway","highway":"construction","lit":"yes","snowplowing":"yes","source":"survey","surface":"asphalt","was:foot":"no","was:highway":"cycleway","width":"2.5"}},{"type":"way","id":1356973684,"nodes":[354874132,354874136],"tags":{"bicycle":"no","footway":"crossing","highway":"footway","lit":"yes","surface":"asphalt"}},{"type":"way","id":1356973685,"nodes":[354874136,354874137,354874140],"tags":{"bicycle":"yes","footway":"crossing","highway":"footway","lit":"yes","surface":"asphalt"}},{"type":"node","id":257725023,"lat":60.1902072,"lon":24.9494811},{"type":"node","id":265483288,"lat":60.190577,"lon":24.9494787},{"type":"node","id":434619445,"lat":60.190424,"lon":24.9493002},{"type":"node","id":452815150,"lat":60.1904579,"lon":24.9493615},{"type":"node","id":670262268,"lat":60.1901759,"lon":24.9494838},{"type":"node","id":670264136,"lat":60.1896701,"lon":24.9495397},{"type":"node","id":670264137,"lat":60.1899001,"lon":24.9495118},{"type":"node","id":1011920694,"lat":60.1904114,"lon":24.9494606},{"type":"node","id":1525434607,"lat":60.1899432,"lon":24.9495065},{"type":"node","id":3198988095,"lat":60.190143,"lon":24.9494871},{"type":"node","id":3339910292,"lat":60.1905057,"lon":24.949515},{"type":"node","id":6051965125,"lat":60.189651,"lon":24.949542},{"type":"node","id":6051965130,"lat":60.189638,"lon":24.9495436},{"type":"node","id":7884483626,"lat":60.1895785,"lon":24.9495504},{"type":"node","id":34500694,"lat":60.1896053,"lon":24.9528811},{"type":"node","id":34507891,"lat":60.189488,"lon":24.9538511},{"type":"node","id":34507892,"lat":60.1900825,"lon":24.9509217},{"type":"node","id":157489180,"lat":60.1901039,"lon":24.9504753},{"type":"node","id":157489184,"lat":60.1898828,"lon":24.951136},{"type":"node","id":157489187,"lat":60.1895902,"lon":24.9523208},{"type":"node","id":247358579,"lat":60.1896783,"lon":24.9525113},{"type":"node","id":247358580,"lat":60.1894976,"lon":24.9528886},{"type":"node","id":247360445,"lat":60.1895453,"lon":24.952886},{"type":"node","id":247360446,"lat":60.1894311,"lon":24.9538579},{"type":"node","id":247360447,"lat":60.1893762,"lon":24.9558742},{"type":"node","id":254286138,"lat":60.1894157,"lon":24.9519897},{"type":"node","id":254286139,"lat":60.1894202,"lon":24.9523248},{"type":"node","id":254286140,"lat":60.189371,"lon":24.9523298},{"type":"node","id":254286141,"lat":60.1893405,"lon":24.9519958},{"type":"node","id":254286153,"lat":60.1884549,"lon":24.9526884},{"type":"node","id":254286154,"lat":60.1884483,"lon":24.9524231},{"type":"node","id":254286275,"lat":60.1889569,"lon":24.9509012},{"type":"node","id":254286282,"lat":60.189197,"lon":24.9502033},{"type":"node","id":254286283,"lat":60.1894295,"lon":24.9495673},{"type":"node","id":254286285,"lat":60.1898006,"lon":24.9510883},{"type":"node","id":254286288,"lat":60.1895929,"lon":24.9518274},{"type":"node","id":254286289,"lat":60.1887114,"lon":24.9519186},{"type":"node","id":254286290,"lat":60.1887051,"lon":24.9516721},{"type":"node","id":257325434,"lat":60.1906861,"lon":24.9495933},{"type":"node","id":257724169,"lat":60.1893665,"lon":24.9531747},{"type":"node","id":257724615,"lat":60.189312,"lon":24.9537224},{"type":"node","id":257724620,"lat":60.1892444,"lon":24.9554473},{"type":"node","id":257725024,"lat":60.1903252,"lon":24.9496767},{"type":"node","id":257725161,"lat":60.1894311,"lon":24.9518953},{"type":"node","id":257725162,"lat":60.1893305,"lon":24.9519009},{"type":"node","id":257725163,"lat":60.1896062,"lon":24.9515518},{"type":"node","id":257725423,"lat":60.1892429,"lon":24.9556667},{"type":"node","id":265483293,"lat":60.189915,"lon":24.9512535},{"type":"node","id":265483294,"lat":60.189606,"lon":24.9525386},{"type":"node","id":266152844,"lat":60.1901839,"lon":24.9506354},{"type":"node","id":266152845,"lat":60.1899903,"lon":24.9507981},{"type":"node","id":266220831,"lat":60.1892404,"lon":24.9559858},{"type":"node","id":270993943,"lat":60.1895154,"lon":24.9527404},{"type":"node","id":270993944,"lat":60.1894957,"lon":24.9527424},{"type":"node","id":270993948,"lat":60.1894758,"lon":24.9527836},{"type":"node","id":289555219,"lat":60.1893748,"lon":24.9552362},{"type":"node","id":313788814,"lat":60.1899069,"lon":24.9515165},{"type":"node","id":313788815,"lat":60.1897088,"lon":24.9524569},{"type":"node","id":313788824,"lat":60.1896314,"lon":24.9521123},{"type":"node","id":313788826,"lat":60.189517,"lon":24.9526812},{"type":"node","id":313788827,"lat":60.1894322,"lon":24.952842},{"type":"node","id":313788828,"lat":60.1894451,"lon":24.952925},{"type":"node","id":313788829,"lat":60.1894929,"lon":24.9529051},{"type":"node","id":313788830,"lat":60.1895482,"lon":24.9528646},{"type":"node","id":313788833,"lat":60.1895967,"lon":24.9527959},{"type":"node","id":313788834,"lat":60.1896778,"lon":24.9525921},{"type":"node","id":313788835,"lat":60.1899903,"lon":24.9512279},{"type":"node","id":313788836,"lat":60.1897841,"lon":24.9517082},{"type":"node","id":313788842,"lat":60.1897986,"lon":24.9514303},{"type":"node","id":313788846,"lat":60.1897371,"lon":24.9516617},{"type":"node","id":313788847,"lat":60.1896943,"lon":24.9521098},{"type":"node","id":313788848,"lat":60.1898241,"lon":24.9519329},{"type":"node","id":314065987,"lat":60.1894531,"lon":24.9528159},{"type":"node","id":314065988,"lat":60.1898449,"lon":24.9519533},{"type":"node","id":314301379,"lat":60.1894276,"lon":24.9527345},{"type":"node","id":314301385,"lat":60.1893684,"lon":24.953067},{"type":"node","id":343390406,"lat":60.1898537,"lon":24.9529736},{"type":"node","id":354872582,"lat":60.1875999,"lon":24.9530764},{"type":"node","id":354874130,"lat":60.1895676,"lon":24.9532138},{"type":"node","id":354874132,"lat":60.1894857,"lon":24.9526215},{"type":"node","id":354874133,"lat":60.1897188,"lon":24.9526397},{"type":"node","id":354874136,"lat":60.1895324,"lon":24.9526317},{"type":"node","id":354874137,"lat":60.1895856,"lon":24.9526377},{"type":"node","id":354874140,"lat":60.1896528,"lon":24.9526395},{"type":"node","id":354874141,"lat":60.1895474,"lon":24.9525547},{"type":"node","id":354874142,"lat":60.1893966,"lon":24.952918},{"type":"node","id":354874144,"lat":60.189393,"lon":24.9529385},{"type":"node","id":354875147,"lat":60.1910252,"lon":24.9528913},{"type":"node","id":354875148,"lat":60.1912204,"lon":24.952979},{"type":"node","id":354875149,"lat":60.190889,"lon":24.9538242},{"type":"node","id":354875160,"lat":60.1895593,"lon":24.9539994},{"type":"node","id":354875272,"lat":60.1897391,"lon":24.9527401},{"type":"node","id":354875273,"lat":60.1897037,"lon":24.9529807},{"type":"node","id":354875365,"lat":60.190129,"lon":24.9510874},{"type":"node","id":354875366,"lat":60.1902994,"lon":24.9513754},{"type":"node","id":354875371,"lat":60.190444,"lon":24.9522655},{"type":"node","id":354875373,"lat":60.1898531,"lon":24.9526694},{"type":"node","id":354875374,"lat":60.1897755,"lon":24.952454},{"type":"node","id":354875834,"lat":60.1899585,"lon":24.9516241},{"type":"node","id":354876452,"lat":60.1914288,"lon":24.9525386},{"type":"node","id":354876473,"lat":60.1911943,"lon":24.9528782},{"type":"node","id":354876481,"lat":60.1897221,"lon":24.9528642},{"type":"node","id":354877919,"lat":60.1912327,"lon":24.9525826},{"type":"node","id":392411393,"lat":60.1893489,"lon":24.9535365},{"type":"node","id":408616010,"lat":60.1903017,"lon":24.9514315},{"type":"node","id":408616011,"lat":60.1903105,"lon":24.9515244},{"type":"node","id":408616014,"lat":60.1898878,"lon":24.9508189},{"type":"node","id":408616015,"lat":60.1900703,"lon":24.9502919},{"type":"node","id":408616016,"lat":60.1897248,"lon":24.9513411},{"type":"node","id":408616017,"lat":60.1903342,"lon":24.9500725},{"type":"node","id":408616018,"lat":60.1900465,"lon":24.9508389},{"type":"node","id":408616020,"lat":60.1898549,"lon":24.9517169},{"type":"node","id":408616021,"lat":60.18988,"lon":24.9516899},{"type":"node","id":408616257,"lat":60.1884338,"lon":24.9524652},{"type":"node","id":408616258,"lat":60.1884352,"lon":24.9528237},{"type":"node","id":408616259,"lat":60.1894179,"lon":24.9527088},{"type":"node","id":408616260,"lat":60.1894785,"lon":24.9523966},{"type":"node","id":408616261,"lat":60.1895331,"lon":24.9520613},{"type":"node","id":434619424,"lat":60.1892463,"lon":24.9547302},{"type":"node","id":434619426,"lat":60.1893292,"lon":24.953729},{"type":"node","id":434619427,"lat":60.1892651,"lon":24.9547301},{"type":"node","id":434619429,"lat":60.1892591,"lon":24.9558346},{"type":"node","id":434619436,"lat":60.1895516,"lon":24.9522174},{"type":"node","id":434619438,"lat":60.1895889,"lon":24.9520152},{"type":"node","id":434619439,"lat":60.1896783,"lon":24.9516499},{"type":"node","id":434619441,"lat":60.1899049,"lon":24.9508511},{"type":"node","id":434619443,"lat":60.1900813,"lon":24.9503422},{"type":"node","id":434619448,"lat":60.1895432,"lon":24.9539926},{"type":"node","id":434619450,"lat":60.1895031,"lon":24.9546642},{"type":"node","id":434619504,"lat":60.1892592,"lon":24.9556952},{"type":"node","id":434619513,"lat":60.1892605,"lon":24.9559584},{"type":"node","id":434619583,"lat":60.1895115,"lon":24.9558213},{"type":"node","id":434619585,"lat":60.1903515,"lon":24.955499},{"type":"node","id":434619586,"lat":60.1912328,"lon":24.95299},{"type":"node","id":434619601,"lat":60.1894979,"lon":24.9558455},{"type":"node","id":445358630,"lat":60.1903581,"lon":24.9496441},{"type":"node","id":492008654,"lat":60.1897511,"lon":24.9524816},{"type":"node","id":492008656,"lat":60.189951,"lon":24.9515837},{"type":"node","id":492008657,"lat":60.1902366,"lon":24.9506859},{"type":"node","id":492008658,"lat":60.1900943,"lon":24.9510982},{"type":"node","id":492008660,"lat":60.1897846,"lon":24.9524033},{"type":"node","id":566834097,"lat":60.1903785,"lon":24.9501438},{"type":"node","id":646464811,"lat":60.1884183,"lon":24.9531596},{"type":"node","id":670255660,"lat":60.1893792,"lon":24.949666},{"type":"node","id":670255667,"lat":60.1897014,"lon":24.9530202},{"type":"node","id":670255670,"lat":60.1908133,"lon":24.9540184},{"type":"node","id":670260843,"lat":60.1903958,"lon":24.9526306},{"type":"node","id":670260844,"lat":60.1901151,"lon":24.952651},{"type":"node","id":670260845,"lat":60.1902578,"lon":24.9526404},{"type":"node","id":670262269,"lat":60.1902446,"lon":24.9498736},{"type":"node","id":670262270,"lat":60.1899384,"lon":24.9506741},{"type":"node","id":670262272,"lat":60.1900196,"lon":24.950442},{"type":"node","id":670262273,"lat":60.1902257,"lon":24.9501619},{"type":"node","id":670262275,"lat":60.1901833,"lon":24.9500882},{"type":"node","id":670262277,"lat":60.1900719,"lon":24.9512242},{"type":"node","id":672967930,"lat":60.1894039,"lon":24.9528629},{"type":"node","id":672967997,"lat":60.189151,"lon":24.9529056},{"type":"node","id":672968098,"lat":60.189338,"lon":24.9528869},{"type":"node","id":678167679,"lat":60.1901639,"lon":24.9500561},{"type":"node","id":878449135,"lat":60.1895866,"lon":24.9515809},{"type":"node","id":878449173,"lat":60.1894268,"lon":24.95259},{"type":"node","id":878716703,"lat":60.1882728,"lon":24.952999},{"type":"node","id":878716706,"lat":60.1893837,"lon":24.9529177},{"type":"node","id":878716714,"lat":60.188419,"lon":24.952989},{"type":"node","id":894104722,"lat":60.1894026,"lon":24.9535469},{"type":"node","id":957015357,"lat":60.1896506,"lon":24.9530732},{"type":"node","id":957015396,"lat":60.1895119,"lon":24.9531111},{"type":"node","id":957015404,"lat":60.1895806,"lon":24.9530923},{"type":"node","id":957015408,"lat":60.1894475,"lon":24.9531259},{"type":"node","id":957015411,"lat":60.1893951,"lon":24.9531362},{"type":"node","id":1011920928,"lat":60.1871721,"lon":24.953098},{"type":"node","id":1396618877,"lat":60.1902366,"lon":24.9501359},{"type":"node","id":1396829648,"lat":60.1896141,"lon":24.9519009},{"type":"node","id":1396829654,"lat":60.1896789,"lon":24.951898},{"type":"node","id":1396850318,"lat":60.1895064,"lon":24.9529486},{"type":"node","id":1396850320,"lat":60.1895172,"lon":24.952948},{"type":"node","id":1396850322,"lat":60.1895148,"lon":24.9529102},{"type":"node","id":1396850323,"lat":60.1895108,"lon":24.9529375},{"type":"node","id":1396850325,"lat":60.1895241,"lon":24.9529145},{"type":"node","id":1396850326,"lat":60.1895215,"lon":24.9529111},{"type":"node","id":1396850327,"lat":60.1895193,"lon":24.9529165},{"type":"node","id":1401125486,"lat":60.1897731,"lon":24.9528574},{"type":"node","id":1401125488,"lat":60.1911652,"lon":24.9527209},{"type":"node","id":1401125492,"lat":60.1906684,"lon":24.9544468},{"type":"node","id":1401125494,"lat":60.1911945,"lon":24.9528377},{"type":"node","id":1401125496,"lat":60.1911891,"lon":24.9525876},{"type":"node","id":1401125500,"lat":60.1904451,"lon":24.9523751},{"type":"node","id":1406167845,"lat":60.1895149,"lon":24.9546714},{"type":"node","id":1406167883,"lat":60.1897929,"lon":24.9533351},{"type":"node","id":1406167888,"lat":60.1898098,"lon":24.9539643},{"type":"node","id":1406167901,"lat":60.190023,"lon":24.9529894},{"type":"node","id":1406167905,"lat":60.1900318,"lon":24.9533139},{"type":"node","id":1406167954,"lat":60.1902012,"lon":24.95602},{"type":"node","id":1406168022,"lat":60.1909797,"lon":24.9528922},{"type":"node","id":1406192211,"lat":60.1898981,"lon":24.9524065},{"type":"node","id":1406192213,"lat":60.1899012,"lon":24.9524238},{"type":"node","id":1406192215,"lat":60.1899083,"lon":24.9524306},{"type":"node","id":1406192224,"lat":60.1899574,"lon":24.9523909},{"type":"node","id":1406192226,"lat":60.1899582,"lon":24.9524254},{"type":"node","id":1406192228,"lat":60.1900123,"lon":24.9523563},{"type":"node","id":1406192230,"lat":60.1900129,"lon":24.9523859},{"type":"node","id":1406192233,"lat":60.1900523,"lon":24.9517322},{"type":"node","id":1406192235,"lat":60.1900867,"lon":24.9511767},{"type":"node","id":1406192236,"lat":60.1900666,"lon":24.9517484},{"type":"node","id":1406192238,"lat":60.1901934,"lon":24.951298},{"type":"node","id":1406192253,"lat":60.1903173,"lon":24.9523287},{"type":"node","id":1406192255,"lat":60.1903219,"lon":24.9523265},{"type":"node","id":1406192257,"lat":60.1903361,"lon":24.9522214},{"type":"node","id":1406192259,"lat":60.1903376,"lon":24.9523256},{"type":"node","id":1406192261,"lat":60.190365,"lon":24.9522198},{"type":"node","id":1406192262,"lat":60.1903654,"lon":24.9522484},{"type":"node","id":1406192268,"lat":60.1904121,"lon":24.9522458},{"type":"node","id":1406192270,"lat":60.1904174,"lon":24.9523565},{"type":"node","id":1406192273,"lat":60.1904429,"lon":24.9523557},{"type":"node","id":1416497485,"lat":60.1892737,"lon":24.9542102},{"type":"node","id":1416497487,"lat":60.1892943,"lon":24.9541989},{"type":"node","id":1416497493,"lat":60.1893442,"lon":24.9521805},{"type":"node","id":1416497498,"lat":60.189368,"lon":24.9521786},{"type":"node","id":1416497500,"lat":60.1893749,"lon":24.9556867},{"type":"node","id":1416497503,"lat":60.1894977,"lon":24.9556844},{"type":"node","id":1416508991,"lat":60.1893882,"lon":24.9544889},{"type":"node","id":1416508993,"lat":60.1893775,"lon":24.9548554},{"type":"node","id":1435317977,"lat":60.1891946,"lon":24.9527638},{"type":"node","id":1525434525,"lat":60.1892611,"lon":24.950013},{"type":"node","id":1525434542,"lat":60.1894007,"lon":24.9496045},{"type":"node","id":1525434544,"lat":60.1894102,"lon":24.9495733},{"type":"node","id":1525434564,"lat":60.1896615,"lon":24.9531022},{"type":"node","id":1525434593,"lat":60.1898027,"lon":24.9511769},{"type":"node","id":1525434600,"lat":60.1898614,"lon":24.9509007},{"type":"node","id":1525434638,"lat":60.1904073,"lon":24.9517096},{"type":"node","id":1525434640,"lat":60.1904218,"lon":24.9517595},{"type":"node","id":1525450347,"lat":60.1904294,"lon":24.9518322},{"type":"node","id":1525450348,"lat":60.1904532,"lon":24.9526274},{"type":"node","id":1642939011,"lat":60.1898397,"lon":24.9521389},{"type":"node","id":1642939024,"lat":60.1898596,"lon":24.9520434},{"type":"node","id":1859016939,"lat":60.1895028,"lon":24.9547185},{"type":"node","id":1859016941,"lat":60.1895148,"lon":24.9547185},{"type":"node","id":1876917783,"lat":60.187146,"lon":24.953084},{"type":"node","id":1876917789,"lat":60.1872308,"lon":24.9531059},{"type":"node","id":1876917790,"lat":60.1893758,"lon":24.9528759},{"type":"node","id":1876917793,"lat":60.1896257,"lon":24.952742},{"type":"node","id":1876917795,"lat":60.1902903,"lon":24.950366},{"type":"node","id":1876917797,"lat":60.190377,"lon":24.9497958},{"type":"node","id":1876917799,"lat":60.1904533,"lon":24.9496244},{"type":"node","id":1876917801,"lat":60.1905193,"lon":24.9497893},{"type":"node","id":2434823952,"lat":60.1895939,"lon":24.9536956},{"type":"node","id":2434827950,"lat":60.1904922,"lon":24.9526619},{"type":"node","id":2434827951,"lat":60.1904953,"lon":24.9527877},{"type":"node","id":2451383793,"lat":60.1893825,"lon":24.9537586},{"type":"node","id":2460245864,"lat":60.1893246,"lon":24.9498268},{"type":"node","id":2460259437,"lat":60.1892967,"lon":24.9529273},{"type":"node","id":2538835668,"lat":60.1898696,"lon":24.9519985},{"type":"node","id":2538835670,"lat":60.1899742,"lon":24.9520471},{"type":"node","id":2539553902,"lat":60.1911687,"lon":24.9528802},{"type":"node","id":2694506863,"lat":60.1900108,"lon":24.9529906},{"type":"node","id":2694514280,"lat":60.189512,"lon":24.9556426},{"type":"node","id":2694514281,"lat":60.1895123,"lon":24.9555459},{"type":"node","id":2694514282,"lat":60.1895128,"lon":24.9553928},{"type":"node","id":2694514283,"lat":60.189513,"lon":24.9553126},{"type":"node","id":2694514286,"lat":60.1895147,"lon":24.9547576},{"type":"node","id":2694514287,"lat":60.1895536,"lon":24.9540855},{"type":"node","id":2825040202,"lat":60.1914043,"lon":24.952553},{"type":"node","id":3014992283,"lat":60.1897843,"lon":24.9512413},{"type":"node","id":3014992284,"lat":60.1898138,"lon":24.9513756},{"type":"node","id":3014992285,"lat":60.1898186,"lon":24.9514181},{"type":"node","id":3014992286,"lat":60.189819,"lon":24.951125},{"type":"node","id":3014992287,"lat":60.1898394,"lon":24.9515161},{"type":"node","id":3014992288,"lat":60.1898459,"lon":24.9512605},{"type":"node","id":3014992289,"lat":60.1898586,"lon":24.951351},{"type":"node","id":3014992290,"lat":60.1898636,"lon":24.9514321},{"type":"node","id":3014992291,"lat":60.1898757,"lon":24.9516353},{"type":"node","id":3014992292,"lat":60.1898995,"lon":24.9515449},{"type":"node","id":3014992293,"lat":60.1899003,"lon":24.9508657},{"type":"node","id":3014992294,"lat":60.189915,"lon":24.9517244},{"type":"node","id":3014992295,"lat":60.1899257,"lon":24.9509966},{"type":"node","id":3014992296,"lat":60.1899556,"lon":24.9511186},{"type":"node","id":3014992297,"lat":60.1902056,"lon":24.9502125},{"type":"node","id":3014992298,"lat":60.1902157,"lon":24.9503737},{"type":"node","id":3339910282,"lat":60.1893546,"lon":24.952942},{"type":"node","id":3339913294,"lat":60.1905886,"lon":24.9495997},{"type":"node","id":5812412888,"lat":60.1894443,"lon":24.9527209},{"type":"node","id":5899975932,"lat":60.189749,"lon":24.9528612},{"type":"node","id":5899975933,"lat":60.1897185,"lon":24.9527055},{"type":"node","id":5899975934,"lat":60.18967,"lon":24.9529899},{"type":"node","id":6051965114,"lat":60.1901287,"lon":24.9504116},{"type":"node","id":6321049062,"lat":60.1871978,"lon":24.9531047},{"type":"node","id":6461232594,"lat":60.1876441,"lon":24.9530713},{"type":"node","id":6461232597,"lat":60.1883403,"lon":24.9529944},{"type":"node","id":6889402735,"lat":60.1896464,"lon":24.952693},{"type":"node","id":6889402738,"lat":60.1904525,"lon":24.9499721},{"type":"node","id":7884421658,"lat":60.1885406,"lon":24.9524138},{"type":"node","id":7884421659,"lat":60.1886841,"lon":24.9523993},{"type":"node","id":7884421660,"lat":60.1886906,"lon":24.9526645},{"type":"node","id":7884421661,"lat":60.1887187,"lon":24.9523958},{"type":"node","id":7884421662,"lat":60.1887255,"lon":24.952661},{"type":"node","id":7884421665,"lat":60.189154,"lon":24.9523517},{"type":"node","id":7884421666,"lat":60.18916,"lon":24.952617},{"type":"node","id":7884421667,"lat":60.1891928,"lon":24.9523478},{"type":"node","id":7884421668,"lat":60.1891987,"lon":24.9526131},{"type":"node","id":7884421671,"lat":60.1892867,"lon":24.9523383},{"type":"node","id":7884421679,"lat":60.18842,"lon":24.9527643},{"type":"node","id":7884421680,"lat":60.189382,"lon":24.952654},{"type":"node","id":7884421681,"lat":60.189201,"lon":24.9526748},{"type":"node","id":7884421682,"lat":60.1891613,"lon":24.9526793},{"type":"node","id":7884421683,"lat":60.1887268,"lon":24.9527292},{"type":"node","id":7884421684,"lat":60.1886916,"lon":24.9527332},{"type":"node","id":7884446089,"lat":60.1887995,"lon":24.9516623},{"type":"node","id":7884446092,"lat":60.1889477,"lon":24.951647},{"type":"node","id":7884446093,"lat":60.1889525,"lon":24.9518937},{"type":"node","id":7884446096,"lat":60.1889776,"lon":24.9516439},{"type":"node","id":7884446097,"lat":60.1889819,"lon":24.9518906},{"type":"node","id":7884446100,"lat":60.1892386,"lon":24.9516169},{"type":"node","id":7884446101,"lat":60.189245,"lon":24.9518634},{"type":"node","id":7884446104,"lat":60.1892711,"lon":24.9516135},{"type":"node","id":7884446105,"lat":60.189276,"lon":24.9518601},{"type":"node","id":7884446111,"lat":60.1894463,"lon":24.9515954},{"type":"node","id":9496724095,"lat":60.1895141,"lon":24.9549644},{"type":"node","id":9496724096,"lat":60.1895145,"lon":24.9548331},{"type":"node","id":9732966618,"lat":60.1889237,"lon":24.952375},{"type":"node","id":10603475558,"lat":60.190596,"lon":24.9526508},{"type":"node","id":10603475573,"lat":60.1901368,"lon":24.9509684},{"type":"node","id":10916708681,"lat":60.1892965,"lon":24.9541699},{"type":"node","id":11105928162,"lat":60.1912973,"lon":24.9525715},{"type":"node","id":11591899991,"lat":60.1901432,"lon":24.9501083},{"type":"node","id":11741753834,"lat":60.1885839,"lon":24.953142},{"type":"node","id":11741860018,"lat":60.1896564,"lon":24.9530246},{"type":"node","id":11741860019,"lat":60.1898249,"lon":24.9525907},{"type":"node","id":11741860020,"lat":60.1897634,"lon":24.9526307},{"type":"node","id":11775429618,"lat":60.189262,"lon":24.9552324},{"type":"node","id":11775429619,"lat":60.1892444,"lon":24.9552323},{"type":"node","id":11811086914,"lat":60.189261,"lon":24.9553988},{"type":"node","id":11821194313,"lat":60.19005,"lon":24.9510298},{"type":"node","id":11828159439,"lat":60.1892444,"lon":24.9552094},{"type":"node","id":12108640184,"lat":60.1898925,"lon":24.9518284},{"type":"node","id":12108640185,"lat":60.1898728,"lon":24.9518263},{"type":"node","id":12108640186,"lat":60.1896936,"lon":24.9526409},{"type":"node","id":12108640187,"lat":60.1897485,"lon":24.9521735},{"type":"node","id":12108640188,"lat":60.1898093,"lon":24.9519078},{"type":"node","id":12108640189,"lat":60.1899383,"lon":24.9514346},{"type":"node","id":12108640190,"lat":60.1899115,"lon":24.9515432},{"type":"node","id":12108640191,"lat":60.1896645,"lon":24.9526422},{"type":"node","id":12124822001,"lat":60.1894791,"lon":24.951592},{"type":"node","id":12188892881,"lat":60.1892826,"lon":24.9559407},{"type":"node","id":12291998311,"lat":60.1895116,"lon":24.9557971},{"type":"node","id":12559393447,"lat":60.1894015,"lon":24.9554252},{"type":"node","id":12559393448,"lat":60.189409,"lon":24.9559528},{"type":"node","id":12559393449,"lat":60.1892818,"lon":24.9551161},{"type":"node","id":12559393450,"lat":60.189415,"lon":24.9546993},{"type":"node","id":12559393451,"lat":60.1892844,"lon":24.9546878},{"type":"node","id":12559393452,"lat":60.1893284,"lon":24.953972},{"type":"node","id":12559393453,"lat":60.1894517,"lon":24.9539441},{"type":"node","id":12559393454,"lat":60.1893594,"lon":24.9536657},{"type":"node","id":12559393455,"lat":60.1894394,"lon":24.9529899},{"type":"node","id":12559393456,"lat":60.1895497,"lon":24.9531319},{"type":"node","id":12655706314,"lat":60.1903855,"lon":24.9527983},{"type":"node","id":12655706315,"lat":60.1903814,"lon":24.9526316},{"type":"node","id":12655706316,"lat":60.1903824,"lon":24.9526733},{"type":"node","id":266220825,"lat":60.189246,"lon":24.9585327},{"type":"node","id":266225597,"lat":60.189244,"lon":24.9589904},{"type":"node","id":398461641,"lat":60.1892697,"lon":24.9581511},{"type":"node","id":434619432,"lat":60.1892547,"lon":24.9588249},{"type":"node","id":434619476,"lat":60.1892695,"lon":24.9586581},{"type":"node","id":434619491,"lat":60.1892536,"lon":24.9589651},{"type":"node","id":434619581,"lat":60.1900786,"lon":24.9564689},{"type":"node","id":667349554,"lat":60.1892645,"lon":24.9561128},{"type":"node","id":1406167893,"lat":60.1900456,"lon":24.956475},{"type":"node","id":1411003301,"lat":60.1892527,"lon":24.9594715},{"type":"node","id":1416508985,"lat":60.1892427,"lon":24.9564789},{"type":"node","id":1416508986,"lat":60.1892436,"lon":24.9570995},{"type":"node","id":1416508988,"lat":60.1892454,"lon":24.9578027},{"type":"node","id":1416508989,"lat":60.1892605,"lon":24.9590819},{"type":"node","id":1820609494,"lat":60.1892486,"lon":24.9592461},{"type":"node","id":1820609495,"lat":60.1892465,"lon":24.9581697},{"type":"node","id":1820609496,"lat":60.1892468,"lon":24.9583799},{"type":"node","id":1820609497,"lat":60.1892518,"lon":24.9594229},{"type":"node","id":8859786064,"lat":60.1892477,"lon":24.9591947},{"type":"node","id":8859786066,"lat":60.1892506,"lon":24.9593571},{"type":"node","id":8859786071,"lat":60.1892526,"lon":24.9594995},{"type":"node","id":11775429621,"lat":60.189244,"lon":24.9573093},{"type":"node","id":11775429622,"lat":60.1892441,"lon":24.9576462},{"type":"node","id":11775429624,"lat":60.1892449,"lon":24.9577409},{"type":"node","id":11775429625,"lat":60.1892693,"lon":24.9577395},{"type":"node","id":11775429627,"lat":60.1892432,"lon":24.9569689},{"type":"node","id":11775429628,"lat":60.1892429,"lon":24.9566588},{"type":"node","id":11775429630,"lat":60.1892424,"lon":24.9564221},{"type":"node","id":11775429631,"lat":60.1892679,"lon":24.956422},{"type":"node","id":11775429638,"lat":60.1892694,"lon":24.9578883},{"type":"node","id":11775429639,"lat":60.1892457,"lon":24.9578895},{"type":"node","id":12188892877,"lat":60.1894169,"lon":24.962254},{"type":"node","id":12188892878,"lat":60.189237,"lon":24.9625085},{"type":"node","id":12188892879,"lat":60.1891614,"lon":24.9623328},{"type":"node","id":12188892880,"lat":60.1892953,"lon":24.9589096},{"type":"node","id":12188892882,"lat":60.1895274,"lon":24.9561134},{"type":"node","id":12188892883,"lat":60.1895078,"lon":24.9589696},{"type":"node","id":12188892884,"lat":60.1895278,"lon":24.9606699},{"type":"node","id":12188892885,"lat":60.1896596,"lon":24.9607636},{"type":"node","id":12377119165,"lat":60.1894554,"lon":24.9617183},{"type":"node","id":12379424240,"lat":60.1892644,"lon":24.961054},{"type":"node","id":12379424241,"lat":60.189254,"lon":24.9591293},{"type":"node","id":12379424237,"lat":60.1892293,"lon":24.9637599},{"type":"node","id":12379424238,"lat":60.1891307,"lon":24.9636986},{"type":"node","id":12379424239,"lat":60.1892373,"lon":24.9627528}]}