{"version":0.6,"generator":"Overpass API 0.7.61.5 4133829e","osm3s":{"timestamp_osm_base":"2023-08-16T10:11:00Z","copyright":"The data included in this document is from www.openstreetmap.org. The data is made available under ODbL."},"elements":[{"type":"node","id":151006260,"lat":60.1672949,"lon":24.9365563,"tags":{"addr:city":"Helsinki","addr:country":"FI","addr:housenumber":"25","addr:postcode":"00100","addr:street":"Annankatu","amenity":"restaurant","diet:halal":"no","diet:kosher":"no","diet:vegetarian":"yes","fixme":"Website (http:\/\/www.ravintolachina.fi) doesn't work. Is this place still working?","name":"Ravintola China","name:fi":"Ravintola China","name:zh":"\u4e2d\u570b\u6a13\u9152\u5bb6","opening_hours":"Mo-Fr 11:00-23:00; Sa-Su 12:00-23:00; PH off","payment:credit_cards":"yes","payment:debit_cards":"yes","short_name":"China","wheelchair":"limited"}},{"type":"node","id":151006269,"lat":60.1672061,"lon":24.9366771,"tags":{"addr:city":"Helsinki","addr:country":"FI","addr:housenumber":"23","addr:postcode":"00100","addr:street":"Annankatu","amenity":"pub","indoor_seating":"yes","karaoke":"yes","name":"Anna.K","opening_hours":"Mo-Th 17:00-03:00; Fr-Su 15:00-03:00","outdoor_seating":"yes","payment:credit_cards":"yes","payment:debit_cards":"yes","website":"https:\/\/www.karaokebar.net\/"}},{"type":"node","id":247155970,"lat":60.1677068,"lon":24.9363589,"tags":{"addr:city":"Helsinki","addr:country":"FI","addr:housenumber":"3","addr:postcode":"00100","addr:street":"Eerikinkatu","address":"Eerikinkatu 3","amenity":"nightclub","check_date":"2023-07-11","erotic":"yes","name":"Alcatraz Club","website":"http:\/\/alcatraz.fi\/"}},{"type":"node","id":298137948,"lat":60.1674381,"lon":24.9359705,"tags":{"check_date:crossing":"2021-09-14","crossing":"uncontrolled","highway":"crossing"}},{"type":"node","id":298275983,"lat":60.1675123,"lon":24.9361992,"tags":{"crossing":"uncontrolled","ele":"21","highway":"crossing","source:ele":"barometric*1"}},{"type":"node","id":298275993,"lat":60.1674204,"lon":24.9361468,"tags":{"crossing":"uncontrolled","crossing:island":"no","ele":"21","highway":"crossing","source:ele":"barometric*1"}},{"type":"node","id":298278778,"lat":60.1675242,"lon":24.9360022,"tags":{"crossing":"uncontrolled","crossing:island":"no","highway":"crossing"}},{"type":"node","id":311747782,"lat":60.1673971,"lon":24.9364265,"tags":{"addr:city":"Helsinki","addr:country":"FI","addr:housenumber":"25","addr:postcode":"00100","addr:street":"Annankatu"}},{"type":"node","id":311747785,"lat":60.1672311,"lon":24.9361894,"tags":{"addr:city":"Helsinki","addr:country":"FI","addr:housenumber":"26","addr:postcode":"00100","addr:street":"Annankatu"}},{"type":"node","id":311747787,"lat":60.167703,"lon":24.9360309,"tags":{"addr:city":"Helsinki","addr:country":"FI","addr:housenumber":"27","addr:postcode":"00100","addr:street":"Annankatu"}},{"type":"node","id":311747853,"lat":60.1675834,"lon":24.9356223,"tags":{"addr:city":"Helsinki","addr:country":"FI","addr:housenumber":"28","addr:postcode":"00100","addr:street":"Annankatu"}},{"type":"node","id":312271850,"lat":60.1674522,"lon":24.9356068,"tags":{"addr:city":"Helsinki","addr:country":"FI","addr:housenumber":"5","addr:postcode":"00100","addr:street":"Eerikinkatu"}},{"type":"node","id":312271851,"lat":60.1672732,"lon":24.9359253,"tags":{"addr:city":"Helsinki","addr:country":"FI","addr:housenumber":"8","addr:postcode":"00100","addr:street":"Eerikinkatu"}},{"type":"node","id":312271853,"lat":60.1675197,"lon":24.9365504,"tags":{"addr:city":"Helsinki","addr:country":"FI","addr:housenumber":"6","addr:postcode":"00100","addr:street":"Eerikinkatu"}},{"type":"node","id":1378007271,"lat":60.1673257,"lon":24.9360473,"tags":{"addr:city":"Helsinki","addr:country":"FI","addr:housenumber":"26","addr:postcode":"00100","addr:street":"Annankatu","amenity":"restaurant","diet:halal":"no","diet:kosher":"no","diet:vegetarian":"yes","name":"Long Wall","opening_hours":"Mo-Fr 11:00-23:00, Sa-Su 12:00-23:00; PH off","phone":"+3589676131","wheelchair":"no"}},{"type":"node","id":1378007287,"lat":60.1676457,"lon":24.936119,"tags":{"addr:city":"Helsinki","addr:country":"FI","addr:housenumber":"27","addr:postcode":"00100","addr:street":"Annankatu","amenity":"pub","description":"Entinen Hostina on muutettua Tsekkil\u00e4isest\u00e4 mestasta pohjoimaalaiseksi paikaksi.","diet:kosher":"no","food":"yes","name":"\u00d8lhus Stockholm","opening_hours":"Mo,Tu 15:00-23:00; We,Th 15:00-01:00; Fr,Sa 15:00-02:00; PH off","payment:credit_cards":"yes","payment:debit_cards":"yes","website":"http:\/\/www.oluthuone.fi\/oluthuoneet\/olhus-stockholm\/","wheelchair":"no"}},{"type":"node","id":2967995058,"lat":60.1677513,"lon":24.9364661,"tags":{"addr:housenumber":"3","addr:postcode":"00100","addr:street":"Eerikinkatu"}},{"type":"node","id":3216400376,"lat":60.1673663,"lon":24.9360803,"tags":{"traffic_sign":"FI:372","traffic_sign:2":"FI:855a[9-21 (9-18)]","traffic_sign:3":"FI:871[Vy\u00f6hyke 1 Kertamaksu enint. 60 min]","traffic_sign:4":"FI:871[Ei koske P-tunnuksella A]"}},{"type":"node","id":3216400379,"lat":60.1673846,"lon":24.9360177,"tags":{"fixme":"Miss\u00e4 kohtaa suhteessa nurkkaan?","traffic_sign":"FI:511"}},{"type":"node","id":3216400380,"lat":60.1674236,"lon":24.936258,"tags":{"traffic_sign":"FI:511"}},{"type":"node","id":3216400382,"lat":60.1675101,"lon":24.9358854,"tags":{"traffic_sign":"FI:511"}},{"type":"node","id":3216400390,"lat":60.167589,"lon":24.9360899,"tags":{"traffic_sign":"FI:372","traffic_sign:2":"FI:855a[9-21 (9-18)]","traffic_sign:3":"FI:871[Vy\u00f6hyke 1 Kertamaksu enint. 60 min]","traffic_sign:4":"FI:871[Ei koske P-tunnuksella A]"}},{"type":"node","id":3216453392,"lat":60.1673923,"lon":24.9359092,"tags":{"traffic_sign":"FI:551[right]","traffic_sign:2":"FI:372"}},{"type":"node","id":3216453394,"lat":60.1674777,"lon":24.9358612,"tags":{"traffic_sign":"FI:551[left]","traffic_sign:2":"FI:521","traffic_sign:3":"FI:855b[9-21 (9-18)]","traffic_sign:4":"FI:871[Vy\u00f6hyke 1 Kertamaksu enint. 60 min]","traffic_sign:5":"FI:871[Ei koske P-tunnuksella A]"}},{"type":"node","id":3216453396,"lat":60.1675085,"lon":24.9362723,"tags":{"traffic_sign":"FI:551[left]","traffic_sign:2":"FI:521","traffic_sign:3":"FI:855b[9-21 (9-18)]","traffic_sign:4":"FI:871[Vy\u00f6hyke 1 Kertamaksu enint. 60 min]","traffic_sign:5":"FI:871[Ei koske P-tunnuksella A]"}},{"type":"node","id":3216453398,"lat":60.1675512,"lon":24.9362167,"tags":{"traffic_sign":"FI:551[right]","traffic_sign:2":"FI:372"}},{"type":"node","id":3227176346,"lat":60.1672138,"lon":24.9365727,"tags":{"traffic_sign":"FI:371","traffic_sign:2":"FI:871[Ei koske CD-autoja]"}},{"type":"node","id":3227176347,"lat":60.1672936,"lon":24.9364476,"tags":{"traffic_sign":"FI:372","traffic_sign:2":"FI:851[7-18 (9-15)]"}},{"type":"node","id":4689094127,"lat":60.1674806,"lon":24.9357253,"tags":{"addr:city":"Helsinki","addr:country":"FI","addr:housenumber":"5","addr:postcode":"00120","addr:street":"Eerikinkatu","disused:amenity":"bar","name":"Why join the navy when you can be a pirate","opening_hours":"Mo 09:00-20:00, Tu-Th 09:00-22:00, Fr 09:00-02:00, Sa 12:00-02:00","payment:credit_cards":"yes","payment:debit_cards":"yes","website":"https:\/\/whyjoin.fi\/","wheelchair":"limited"}},{"type":"node","id":4751244131,"lat":60.1674566,"lon":24.9363484,"tags":{"addr:city":"Helsinki","addr:country":"FI","addr:housenumber":"25","addr:postcode":"00100","addr:street":"Annankatu","name":"Veps\u00e4l\u00e4inen","opening_hours":"Mo-Fr 10:00-18:00; Sa 10:00-15:00; PH off","payment:credit_cards":"yes","payment:debit_cards":"yes","shop":"bed"}},{"type":"node","id":4811014436,"lat":60.1677074,"lon":24.9366429,"tags":{"addr:city":"Helsinki","alt_name":"kaupunkipy\u00f6r\u00e4","alt_name:en":"city bike","alt_name:sv":"stadscykel","amenity":"bicycle_rental","bicycle_rental":"docking_station","capacity":"14","name":"Eerikinkatu","name:en":"Eerikinkatu","name:sv":"Eriksgatan","network":"Helsinki&Espoo","opening_hours":"24\/7","operator":"City Bike Finland","payment:american_express":"yes","payment:cash":"no","payment:mastercard":"yes","payment:visa":"yes","ref":"027","seasonal":"spring;summer;autumn","website":"https:\/\/hsl.fi\/kaupunkipyorat","wheelchair":"yes"}},{"type":"node","id":4989964827,"lat":60.1675647,"lon":24.9356925,"tags":{"addr:city":"Helsinki","addr:country":"FI","addr:housenumber":"28","addr:postcode":"00100","addr:street":"Annankatu","name":"Beauty Studio Chelsea","opening_hours":"Mo-Fr 10:00-20:00; Sa 10:00-15:00; PH off","opening_hours:note":"Opening hours on the store front and on website conflict","payment:credit_cards":"yes","payment:debit_cards":"yes","shop":"beauty","wheelchair":"limited"}},{"type":"node","id":4989964828,"lat":60.1672725,"lon":24.9361499,"tags":{"addr:city":"Helsinki","addr:country":"FI","addr:housenumber":"26","addr:postcode":"00100","addr:street":"Annankatu","name":"Arbetets v\u00e4nner huvudf\u00f6reningen","office":"ngo"}},{"type":"node","id":4989964829,"lat":60.1672658,"lon":24.9361244,"tags":{"addr:city":"Helsinki","addr:country":"FI","addr:housenumber":"26","addr:postcode":"00100","addr:street":"Annankatu","name":"Luontoliitto","office":"ngo"}},{"type":"node","id":4989964830,"lat":60.1672561,"lon":24.9361492,"tags":{"addr:city":"Helsinki","addr:country":"FI","addr:housenumber":"26","addr:postcode":"00100","addr:street":"Annankatu","name":"Barnav\u00e5rdsf\u00f6reningen i Finland rf","office":"ngo"}},{"type":"node","id":4989964831,"lat":60.1672131,"lon":24.9362154,"tags":{"addr:city":"Helsinki","addr:country":"FI","addr:housenumber":"26","addr:postcode":"00100","addr:street":"Annankatu","name":"Hola","phone":"+358 09 676131","shop":"beauty","website":"http:\/\/www.salonpacifique.fi\/en\/"}},{"type":"node","id":4989964832,"lat":60.1671819,"lon":24.936237,"tags":{"addr:city":"Helsinki","addr:country":"FI","addr:housenumber":"26","addr:postcode":"00100","addr:street":"Annankatu","name":"New Face","opening_hours":"Mo-Fr 10:00-19:00; Sa 10:00-18:00; Su 12:00-16:00; PH off","payment:credit_cards":"yes","payment:debit_cards":"yes","phone":"+358452161975","shop":"hairdresser","wheelchair":"no"}},{"type":"node","id":5011281330,"lat":60.1677484,"lon":24.935961,"tags":{"addr:city":"Helsinki","addr:country":"FI","addr:housenumber":"27","addr:postcode":"00100","addr:street":"Annankatu","name":"Xtreme lashes","payment:credit_cards":"yes","payment:debit_cards":"yes","shop":"beauty","wheelchair":"no"}},{"type":"node","id":5011281331,"lat":60.1676725,"lon":24.9360778,"tags":{"addr:city":"Helsinki","addr:country":"FI","addr:housenumber":"27","addr:postcode":"00100","addr:street":"Annankatu","name":"Salomaa yhti\u00f6t","office":"company"}},{"type":"node","id":5011281332,"lat":60.1673782,"lon":24.9364513,"tags":{"addr:city":"Helsinki","addr:country":"FI","addr:housenumber":"25","addr:postcode":"00100","addr:street":"Annankatu","name":"Kiinteist\u00f6ty\u00f6nantajat ry","office":"ngo"}},{"type":"node","id":5011281333,"lat":60.1673785,"lon":24.936451,"tags":{"addr:city":"Helsinki","addr:country":"FI","addr:housenumber":"25","addr:postcode":"00100","addr:street":"Annankatu","name":"Svenska Pension\u00e4rsf\u00f6rbundet rf","office":"ngo"}},{"type":"node","id":5011281334,"lat":60.1673787,"lon":24.9364506,"tags":{"addr:city":"Helsinki","addr:country":"FI","addr:housenumber":"25","addr:postcode":"00100","addr:street":"Annankatu","name":"Patricia Sepp\u00e4l\u00e4n s\u00e4\u00e4ti\u00f6","office":"ngo"}},{"type":"node","id":5011281335,"lat":60.1673787,"lon":24.9364507,"tags":{"addr:city":"Helsinki","addr:country":"FI","addr:housenumber":"25","addr:postcode":"00100","addr:street":"Annankatu","name":"Asianajotoimisto Pertti Niemitalo oy","office":"company"}},{"type":"node","id":5011281336,"lat":60.1673781,"lon":24.9364515,"tags":{"addr:city":"Helsinki","addr:country":"FI","addr:housenumber":"25","addr:postcode":"00100","addr:street":"Annankatu","name":"Sose oy","office":"company"}},{"type":"node","id":5011281337,"lat":60.1673779,"lon":24.9364517,"tags":{"addr:city":"Helsinki","addr:country":"FI","addr:housenumber":"25","addr:postcode":"00100","addr:street":"Annankatu","name":"Apprix oy","office":"company"}},{"type":"node","id":5011281338,"lat":60.1673779,"lon":24.9364517,"tags":{"addr:city":"Helsinki","addr:country":"FI","addr:housenumber":"25","addr:postcode":"00100","addr:street":"Annankatu","name":"Horkon International","office":"company"}},{"type":"node","id":5011281339,"lat":60.1673783,"lon":24.9364512,"tags":{"addr:city":"Helsinki","addr:country":"FI","addr:housenumber":"25","addr:postcode":"00100","addr:street":"Annankatu","name":"Stelecta Search oy ab","office":"company"}},{"type":"node","id":5011281340,"lat":60.1673782,"lon":24.9364514,"tags":{"addr:city":"Helsinki","addr:country":"FI","addr:housenumber":"25","addr:postcode":"00100","addr:street":"Annankatu","name":"Sempercum oy","office":"company"}},{"type":"node","id":5011281341,"lat":60.1673858,"lon":24.9364413,"tags":{"addr:city":"Helsinki","addr:country":"FI","addr:housenumber":"25","addr:postcode":"00100","addr:street":"Annankatu","name":"Eligo Search oy","office":"company"}},{"type":"node","id":5011281342,"lat":60.1673856,"lon":24.9364416,"tags":{"addr:city":"Helsinki","addr:country":"FI","addr:housenumber":"25","addr:postcode":"00100","addr:street":"Annankatu","name":"Altitude","office":"company"}},{"type":"node","id":5011281343,"lat":60.1673855,"lon":24.9364417,"tags":{"addr:city":"Helsinki","addr:country":"FI","addr:housenumber":"25","addr:postcode":"00100","addr:street":"Annankatu","name":"Air China","office":"company"}},{"type":"node","id":5011281344,"lat":60.167385,"lon":24.9364424,"tags":{"addr:city":"Helsinki","addr:country":"FI","addr:housenumber":"25","addr:postcode":"00100","addr:street":"Annankatu","name":"Refiner","office":"company"}},{"type":"node","id":5011281345,"lat":60.1673857,"lon":24.9364415,"tags":{"addr:city":"Helsinki","addr:country":"FI","addr:housenumber":"25","addr:postcode":"00100","addr:street":"Annankatu","name":"Estlander & Co","office":"company"}},{"type":"node","id":5011281346,"lat":60.1673853,"lon":24.936442,"tags":{"addr:city":"Helsinki","addr:country":"FI","addr:housenumber":"25","addr:postcode":"00100","addr:street":"Annankatu","name":"Talso oy","office":"company"}},{"type":"node","id":5011281347,"lat":60.1673853,"lon":24.936442,"tags":{"addr:city":"Helsinki","addr:country":"FI","addr:housenumber":"25","addr:postcode":"00100","addr:street":"Annankatu","name":"Netum","office":"company"}},{"type":"node","id":5011281348,"lat":60.1673857,"lon":24.9364414,"tags":{"addr:city":"Helsinki","addr:country":"FI","addr:housenumber":"25","addr:postcode":"00100","addr:street":"Annankatu","name":"Esmes Digital","office":"company"}},{"type":"node","id":5011281349,"lat":60.167386,"lon":24.9364411,"tags":{"addr:city":"Helsinki","addr:country":"FI","addr:housenumber":"25","addr:postcode":"00100","addr:street":"Annankatu","name":"Lingoner","office":"company"}},{"type":"node","id":5011281350,"lat":60.1673857,"lon":24.9364415,"tags":{"addr:city":"Helsinki","addr:country":"FI","addr:housenumber":"25","addr:postcode":"00100","addr:street":"Annankatu","name":"Paikallisvoima","office":"company"}},{"type":"node","id":5011281351,"lat":60.1673901,"lon":24.9364357,"tags":{"addr:city":"Helsinki","addr:country":"FI","addr:housenumber":"25","addr:postcode":"00100","addr:street":"Annankatu","name":"Pirkanmaa","office":"company"}},{"type":"node","id":5011281352,"lat":60.167391,"lon":24.9364346,"tags":{"addr:city":"Helsinki","addr:country":"FI","addr:housenumber":"25","addr:postcode":"00100","addr:street":"Annankatu","name":"Persona Global","office":"company"}},{"type":"node","id":5011281353,"lat":60.1673913,"lon":24.9364341,"tags":{"addr:city":"Helsinki","addr:country":"FI","addr:housenumber":"25","addr:postcode":"00100","addr:street":"Annankatu","name":"Aula","office":"company"}},{"type":"node","id":5011281354,"lat":60.1673915,"lon":24.9364339,"tags":{"addr:city":"Helsinki","addr:country":"FI","addr:housenumber":"25","addr:postcode":"00100","addr:street":"Annankatu","name":"IT Interasco","office":"company"}},{"type":"node","id":5011281355,"lat":60.1673917,"lon":24.9364335,"tags":{"addr:city":"Helsinki","addr:country":"FI","addr:housenumber":"25","addr:postcode":"00100","addr:street":"Annankatu","name":"IT Interasco","office":"company"}},{"type":"node","id":5011281356,"lat":60.1673909,"lon":24.9364346,"tags":{"addr:city":"Helsinki","addr:country":"FI","addr:housenumber":"25","addr:postcode":"00100","addr:street":"Annankatu","name":"Medihanska","office":"company"}},{"type":"node","id":5011281357,"lat":60.167391,"lon":24.9364345,"tags":{"addr:city":"Helsinki","addr:country":"FI","addr:housenumber":"25","addr:postcode":"00100","addr:street":"Annankatu","name":"Work Power oy","office":"company"}},{"type":"node","id":5011281358,"lat":60.1673912,"lon":24.9364343,"tags":{"addr:city":"Helsinki","addr:country":"FI","addr:housenumber":"25","addr:postcode":"00100","addr:street":"Annankatu","name":"Nordic Henkil\u00f6st\u00f6palvelut","office":"company"}},{"type":"node","id":5011281359,"lat":60.167392,"lon":24.9364332,"tags":{"addr:city":"Helsinki","addr:country":"FI","addr:housenumber":"25","addr:postcode":"00100","addr:street":"Annankatu","email":"mad@mad.fi","name":"M. A. D: Micro Aided Design","office":"company","website":"https:\/\/mad.fi\/"}},{"type":"node","id":5011281360,"lat":60.1673929,"lon":24.936432,"tags":{"addr:city":"Helsinki","addr:country":"FI","addr:housenumber":"25","addr:postcode":"00100","addr:street":"Annankatu","name":"Kasvusaari oy","office":"company"}},{"type":"node","id":5149252774,"lat":60.1677312,"lon":24.9355614,"tags":{"barrier":"kerb","kerb":"flush"}},{"type":"node","id":6265368758,"lat":60.1674069,"lon":24.9355101,"tags":{"addr:city":"Helsinki","addr:housenumber":"5","addr:postcode":"00100","addr:street":"Eerikinkatu","name":"Columbia Road","office":"Digital_Growth_Consultancy","website":"https:\/\/www.columbiaroad.com"}},{"type":"node","id":7687786214,"lat":60.1675707,"lon":24.9361276,"tags":{"access":"yes","addr:housenumber":"27","addr:street":"Annankatu","door":"hinged","entrance":"shop","opening_hours":"Ma 15-23 ti-to 15-01 pe-la 13-02 su","wheelchair":"no"}},{"type":"node","id":7690598266,"lat":60.1671972,"lon":24.9366308,"tags":{"access":"yes","addr:housenumber":"23","addr:street":"Annankatu","entrance":"secondary","wheelchair":"no"}},{"type":"node","id":7690598268,"lat":60.1671621,"lon":24.9366794,"tags":{"access":"yes","addr:housenumber":"23","addr:street":"Annankatu","entrance":"secondary","wheelchair":"no"}},{"type":"node","id":7694456395,"lat":60.1675717,"lon":24.9365595,"tags":{"access":"yes","barrier":"lift_gate","height":"2.6"}},{"type":"node","id":7694456397,"lat":60.1675277,"lon":24.9364303,"tags":{"addr:housenumber":"6","addr:street":"Eerikinkatu","entrance":"secondary","wheelchair":"no"}},{"type":"node","id":7694456400,"lat":60.1675132,"lon":24.9364445,"tags":{"addr:housenumber":"6","addr:street":"Eerikinkatu","name":"Tempur","shop":"furniture"}},{"type":"node","id":7694456401,"lat":60.1674928,"lon":24.9363277,"tags":{"access":"yes","addr:housenumber":"6","addr:street":"Eerikinkatu","entrance":"secondary"}},{"type":"node","id":7694456404,"lat":60.1674014,"lon":24.9363493,"tags":{"access":"private","addr:housenumber":"25","addr:street":"Annankatu","description":"With buzzer","entrance":"staircase","wheelchair":"no"}},{"type":"node","id":7694456406,"lat":60.1673551,"lon":24.936413,"tags":{"access":"yes","addr:housenumber":"25","addr:street":"Annankatu","entrance":"secondary","wheelchair":"yes"}},{"type":"node","id":7694456408,"lat":60.1672634,"lon":24.9365394,"tags":{"access":"yes","addr:housenumber":"25","addr:street":"Annankatu","entrance":"secondary","wheelchair":"yes"}},{"type":"node","id":7698669741,"lat":60.1674777,"lon":24.9366909,"tags":{"access":"private","barrier":"lift_gate"}},{"type":"node","id":7698669742,"lat":60.1674661,"lon":24.9366349,"tags":{"access":"private","addr:street":"Eerikinkatu","description":"With keycode","entrance":"service","wheelchair":"no"}},{"type":"node","id":7698669743,"lat":60.1674677,"lon":24.9366187,"tags":{"access":"private","addr:street":"Eerikinkatu","description":"With keycode","entrance":"service","wheelchair":"no"}},{"type":"node","id":7698669755,"lat":60.1677681,"lon":24.9366994,"tags":{"addr:housenumber":"3","addr:street":"Eerikinkatu","addr:unit":"B","description":"With buzzer","entrance":"yes","wheelchair":"no"}},{"type":"node","id":7698792290,"lat":60.1678001,"lon":24.9358059,"tags":{"access":"yes","barrier":"gate","description":"With keycode"}},{"type":"node","id":7698792295,"lat":60.167648,"lon":24.9360194,"tags":{"access":"private","addr:housenumber":"27","addr:street":"Annankatu","addr:unit":"A","description":"With buzzer","entrance":"staircase","wheelchair":"no"}},{"type":"node","id":8856750683,"lat":60.1671784,"lon":24.9354318,"tags":{"access":"yes","addr:housenumber":"10","addr:street":"Eerikinkatu","entrance":"yes","wheelchair":"no"}},{"type":"node","id":8856750685,"lat":60.1671651,"lon":24.9354762,"tags":{"addr:housenumber":"10","addr:street":"Eerikinkatu","name":"Sari Kaurahalme","phone":"(09) 604 671","shop":"hairdresser","wheelchair":"no"}},{"type":"node","id":8856750686,"lat":60.1671542,"lon":24.9354455,"tags":{"addr:housenumber":"10","addr:street":"Eerikinkatu","name":"Niina Halonen","shop":"jewelry","wheelchair":"limited"}},{"type":"node","id":8856750687,"lat":60.1672051,"lon":24.9355103,"tags":{"access":"yes","addr:housenumber":"10","addr:street":"Eerikinkatu","entrance":"yes","wheelchair":"no"}},{"type":"node","id":8856750689,"lat":60.1671822,"lon":24.9355412,"tags":{"addr:housenumber":"10","addr:street":"Eerikinkatu","name":"Seraphin\u00e9","shop":"jewelry","wheelchair":"no"}},{"type":"node","id":8856750690,"lat":60.16723,"lon":24.9355834,"tags":{"access":"private","barrier":"gate","description":"With buzzer"}},{"type":"node","id":8856750694,"lat":60.1672504,"lon":24.9356431,"tags":{"access":"yes","addr:housenumber":"8","addr:street":"Eerikinkatu","description":"With keycode","entrance":"garage","wheelchair":"yes"}},{"type":"node","id":8856750696,"lat":60.1672764,"lon":24.9357187,"tags":{"access":"private","addr:housenumber":"8","addr:street":"Eerikinkatu","description":"With buzzer","entrance":"staircase","wheelchair":"no"}},{"type":"node","id":8856750698,"lat":60.1672626,"lon":24.935727,"tags":{"addr:housenumber":"8","addr:street":"Eerikinkatu","name":"Finnish Water Forum","office":"company"}},{"type":"node","id":8856750699,"lat":60.1672507,"lon":24.9357664,"tags":{"addr:housenumber":"8","addr:street":"Eerikinkatu","name":"innovoice","office":"company"}},{"type":"node","id":8856750700,"lat":60.1672468,"lon":24.9358114,"tags":{"addr:housenumber":"8","addr:street":"Eerikinkatu","name":"Koivula & Tuominen","office":"company"}},{"type":"node","id":8856750701,"lat":60.1672336,"lon":24.935752,"tags":{"addr:housenumber":"8","addr:street":"Eerikinkatu","name":"KT-Shelter","office":"company"}},{"type":"node","id":8856750702,"lat":60.1672346,"lon":24.9357924,"tags":{"addr:housenumber":"8","addr:street":"Eerikinkatu","name":"Sympati FSPC","office":"company"}},{"type":"node","id":8856750703,"lat":60.1673174,"lon":24.9358381,"tags":{"access":"yes","addr:housenumber":"8","addr:street":"Eerikinkatu","entrance":"yes","wheelchair":"no"}},{"type":"node","id":8856750704,"lat":60.167293,"lon":24.9358702,"tags":{"addr:housenumber":"8","addr:street":"Eerikinkatu","name":"Interflora","payment:credit_cards":"yes","payment:debit_cards":"yes","shop":"florist","wheelchair":"no"}},{"type":"node","id":8856802614,"lat":60.1673297,"lon":24.9361207,"tags":{"access":"yes","addr:housenumber":"26","addr:street":"Annankatu","entrance":"yes","wheelchair":"no"}},{"type":"node","id":8856802616,"lat":60.1672765,"lon":24.9361946,"tags":{"access":"private","addr:housenumber":"26","addr:street":"Annankatu","description":"With buzzer","entrance":"staircase","wheelchair":"no"}},{"type":"node","id":8856831418,"lat":60.1672549,"lon":24.9361248,"tags":{"addr:housenumber":"26","addr:street":"Annankatu","name":"Natur och Milj\u00f6","office":"association"}},{"type":"node","id":8856831419,"lat":60.1672485,"lon":24.9361366,"tags":{"addr:housenumber":"26","addr:street":"Annankatu","level":"5","name":"Aseman lapset RY","office":"association"}},{"type":"node","id":8856831420,"lat":60.167248,"lon":24.9361132,"tags":{"addr:housenumber":"26","addr:street":"Annankatu","amenity":"kindergarten","level":"4:e","name":"Arbetets v\u00e4nners daghem"}},{"type":"node","id":8856831421,"lat":60.1672229,"lon":24.9362689,"tags":{"access":"yes","addr:housenumber":"26","addr:street":"Annankatu","entrance":"yes","wheelchair":"no"}},{"type":"node","id":8856831423,"lat":60.1671772,"lon":24.9363324,"tags":{"access":"yes","addr:housenumber":"26","addr:street":"Annankatu","entrance":"yes","wheelchair":"no"}},{"type":"node","id":8856831425,"lat":60.1671707,"lon":24.9363115,"tags":{"addr:housenumber":"26","addr:street":"Annankatu","name":"I Love Beards","shop":"hairdresser"}},{"type":"node","id":9782069086,"lat":60.167626,"lon":24.9362878,"tags":{"entrance":"staircase"}},{"type":"node","id":9983679729,"lat":60.1675886,"lon":24.9363046,"tags":{"access":"yes","amenity":"bicycle_parking","bicycle_parking":"stands","capacity":"6","covered":"no","fee":"no"}},{"type":"node","id":10155224266,"lat":60.167441,"lon":24.9356569,"tags":{"addr:city":"Helsinki","addr:housenumber":"5","addr:postcode":"00100","addr:street":"Eerikinkatu","amenity":"bar","brewery":"various;yes","description":"SalamaNation focuses on craft beer. We have 20 taps and a good selection of cans & bottles. Besides Salama Brewing & collaboration beers, our tap list rotates and there will be plenty of beers around the world.","facebook":"https:\/\/www.facebook.com\/SalamaNation","min_age":"18","name":"SalamaNation","website":"https:\/\/salamanation.com\/"}},{"type":"node","id":10709117707,"lat":60.1674951,"lon":24.9357932,"tags":{"addr:housenumber":"28","addr:street":"Annankatu","amenity":"cafe","name":"Fazer Caf\u00e9","opening_hours":"Mo-Fr 07:30-19:00; Sa 09:00-19:00","website":"https:\/\/www.fazer.fi\/fazer-cafe\/kahvilat\/fazer-cafe-annankatu\/"}}]}