{"version":0.6,"generator":"Overpass API 0.7.62.5 1bd436f1","osm3s":{"timestamp_osm_base":"2025-03-12T12:21:59Z","copyright":"The data included in this document is from www.openstreetmap.org. The data is made available under ODbL."},"elements":[{"type":"node","id":257715594,"lat":60.1857107,"lon":24.9513163,"tags":{"crossing":"marked","crossing:island":"no","crossing:markings":"yes","highway":"crossing"}},{"type":"node","id":257715596,"lat":60.1857992,"lon":24.9514484,"tags":{"crossing":"marked","crossing:island":"no","crossing:markings":"yes","highway":"crossing"}},{"type":"node","id":257715597,"lat":60.1855744,"lon":24.9514652,"tags":{"crossing":"marked","crossing:island":"no","crossing:markings":"yes","highway":"crossing"}},{"type":"node","id":257715599,"lat":60.1854925,"lon":24.9516301,"tags":{"crossing":"uncontrolled","crossing:island":"no","highway":"crossing"}},{"type":"node","id":313783649,"lat":60.1853153,"lon":24.9514083,"tags":{"was:railway":"tram_stop","was:ref":"H0258"}},{"type":"node","id":316249016,"lat":60.1858207,"lon":24.9510714,"tags":{"addr:city":"Helsinki","addr:country":"FI","addr:housenumber":"30","addr:street":"Castr\u00e9ninkatu"}},{"type":"node","id":316249018,"lat":60.1856741,"lon":24.9506305,"tags":{"addr:city":"Helsinki","addr:country":"FI","addr:housenumber":"28","addr:street":"Castr\u00e9ninkatu"}},{"type":"node","id":316250689,"lat":60.1855741,"lon":24.9514367,"tags":{"crossing":"marked","crossing:markings":"yes","highway":"crossing"}},{"type":"node","id":316250691,"lat":60.1855745,"lon":24.9514881,"tags":{"crossing":"marked","crossing:markings":"yes","highway":"crossing"}},{"type":"node","id":316258304,"lat":60.1857988,"lon":24.9514248,"tags":{"crossing":"marked","crossing:markings":"yes","highway":"crossing"}},{"type":"node","id":316258305,"lat":60.1857995,"lon":24.9514707,"tags":{"crossing":"marked","crossing:markings":"yes","highway":"crossing"}},{"type":"node","id":431459613,"lat":60.1854088,"lon":24.9504327,"tags":{"crossing":"marked","crossing:island":"no","crossing:markings":"yes","highway":"crossing","traffic_calming":"table"}},{"type":"node","id":445368115,"lat":60.1854011,"lon":24.9516555,"tags":{"amenity":"vending_machine","currency:EUR":"yes","opening_hours":"Mo-Fr 09:00-19:00","operator":"HKR","parking:ticket:zone":"3","payment:coins":"yes","ref":"353","vending":"parking_tickets"}},{"type":"node","id":1525997557,"lat":60.1854887,"lon":24.9514716,"tags":{"source":"survey"}},{"type":"node","id":1526016551,"lat":60.185537,"lon":24.95117,"tags":{"entrance":"garage"}},{"type":"node","id":2059748303,"lat":60.185595,"lon":24.9514126,"tags":{"traffic_sign":"FI:511"}},{"type":"node","id":2059748307,"lat":60.1857783,"lon":24.9515085,"tags":{"traffic_sign":"FI:511"}},{"type":"node","id":2075419600,"lat":60.1856523,"lon":24.9512763,"tags":{"was:traffic_sign":"FI:511"}},{"type":"node","id":2075419603,"lat":60.1857628,"lon":24.9512677,"tags":{"traffic_sign":"FI:511","traffic_sign:2":"FI:372","traffic_sign:3":"FI:855a[9-21]","traffic_sign:4":"FI:871[Vy\u00f6hyke 3 Ei koske P-tunnuksella I]","traffic_sign:5":"FI:871[\u2190 Lippuautomaatti]"}},{"type":"node","id":2434572050,"lat":60.1855953,"lon":24.9515855,"tags":{"traffic_sign":"FI:521","traffic_sign:2":"FI:855b[9-21]","traffic_sign:3":"FI:871[Vy\u00f6hyke 3 Ei koske P-tunnuksella I]","traffic_sign:4":"FI:871[Lippuautomaatti \u2192]"}},{"type":"node","id":2434572381,"lat":60.1854523,"lon":24.9516331,"tags":{"kerb":"sloped"}},{"type":"node","id":2434572384,"lat":60.1855378,"lon":24.9516264,"tags":{"kerb":"sloped"}},{"type":"node","id":2434572844,"lat":60.185574,"lon":24.9514152,"tags":{"kerb":"lowered"}},{"type":"node","id":2434572845,"lat":60.1855751,"lon":24.951582,"tags":{"kerb":"lowered"}},{"type":"node","id":2434870671,"lat":60.1858112,"lon":24.9513344,"tags":{"traffic_sign":"FI:511"}},{"type":"node","id":3036558648,"lat":60.185571,"lon":24.9516732,"tags":{"traffic_sign":"FI:511"}},{"type":"node","id":3036582626,"lat":60.1854158,"lon":24.951671,"tags":{"traffic_sign":"FI:372","traffic_sign:2":"FI:855a[9-21]","traffic_sign:3":"FI:871[Vy\u00f6hyke 3 Ei koske P-tunnuksella I]","traffic_sign:4":"FI:871[Lippuautomaatti \u2192]"}},{"type":"node","id":3036844356,"lat":60.1853166,"lon":24.9516152,"tags":{"traffic_sign":"FI:372"}},{"type":"node","id":3036844359,"lat":60.1857299,"lon":24.9509983,"tags":{"traffic_sign":"FI:152"}},{"type":"node","id":3090471599,"lat":60.185358,"lon":24.9504603,"tags":{"traffic_sign":"FI:511"}},{"type":"node","id":3090471602,"lat":60.1854682,"lon":24.9504163,"tags":{"traffic_sign":"FI:511"}},{"type":"node","id":6663370190,"lat":60.1858486,"lon":24.9511833,"tags":{"addr:housenumber":"10","addr:street":"Kaarlenkatu","check_date":"2024-09-17","name":"Frida Marina","opening_hours":"Mo,Su off; Tu-Fr 12:00-18:00; Sa 12:00-16:00","phone":"+358503810418","second_hand":"yes","shop":"second_hand","website":"https:\/\/www.facebook.com\/fridamarinahelsinki\/","wheelchair":"no"}},{"type":"node","id":8852722318,"lat":60.1858848,"lon":24.9516195,"tags":{"access":"private","addr:housenumber":"11","addr:street":"Kaarlenkatu","addr:unit":"A","entrance":"staircase","wheelchair":"no"}},{"type":"node","id":8852722320,"lat":60.1858873,"lon":24.9516584,"tags":{"addr:city":"Helsinki","addr:housenumber":"11","addr:postcode":"00530","addr:street":"Kaarlenkatu","amenity":"restaurant","cuisine":"italian","name":"Segreto","website":"https:\/\/www.segreto.fi\/"}},{"type":"node","id":11434587214,"lat":60.1853366,"lon":24.9505442,"tags":{"barrier":"gate"}},{"type":"node","id":12182141434,"lat":60.1855567,"lon":24.9504612,"tags":{"addr:housenumber":"28","addr:street":"Castr\u00e9ninkatu","check_date":"2024-09-17","shop":"vacant"}},{"type":"node","id":12182147529,"lat":60.1859291,"lon":24.9512266,"tags":{"addr:housenumber":"10","addr:street":"Kaarlenkatu","check_date":"2024-09-17","name":"Parturi-kampaamo Pinpimon","opening_hours":"Mo-Fr 10:00-18:00; Sa 10:00-17:00; Su off","phone":"+358 40 5152046","shop":"hairdresser","website":"https:\/\/www.pinpimon.fi"}},{"type":"node","id":12182147697,"lat":60.1856348,"lon":24.9506534,"tags":{"addr:housenumber":"28","addr:street":"Castr\u00e9ninkatu","amenity":"childcare","check_date":"2024-09-17","name":"P\u00e4iv\u00e4koti Alppimaja"}},{"type":"node","id":12182153634,"lat":60.1856855,"lon":24.950807,"tags":{"addr:housenumber":"28","addr:street":"Castr\u00e9ninkatu","check_date":"2024-09-17","shop":"vacant"}},{"type":"node","id":12182156056,"lat":60.185886,"lon":24.9512301,"tags":{"check_date":"2024-09-17","contact:instagram":"https:\/\/www.instagram.com\/pienisydansecondhand","name":"Pieni Syd\u00e4n","shop":"second_hand"}}]}