{"version":0.6,"generator":"Overpass API 0.7.62.5 1bd436f1","osm3s":{"timestamp_osm_base":"2025-03-12T12:21:00Z","copyright":"The data included in this document is from www.openstreetmap.org. The data is made available under ODbL."},"elements":[{"type":"node","id":878449129,"lat":60.1872852,"lon":24.9603867,"tags":{"addr:city":"Helsinki","addr:country":"FI","addr:housenumber":"29","addr:street":"Pengerkatu"}},{"type":"node","id":1503053521,"lat":60.1868976,"lon":24.9599063,"tags":{"access":"private","addr:housenumber":"27","addr:street":"Pengerkatu","addr:unit":"C","entrance":"staircase","wheelchair":"no"}},{"type":"node","id":1514488893,"lat":60.1871107,"lon":24.9611889,"tags":{"entrance":"staircase","ref":"B"}},{"type":"node","id":1815848569,"lat":60.1870411,"lon":24.9599947,"tags":{"location":"wall","man_made":"flagpole"}},{"type":"node","id":1815848576,"lat":60.1870883,"lon":24.9600248,"tags":{"advertising":"sign","sign":"wall"}},{"type":"node","id":2703784725,"lat":60.1870486,"lon":24.9611381,"tags":{"addr:city":"Helsinki","addr:housenumber":"50","addr:postcode":"00500","addr:street":"H\u00e4meentie","amenity":"pub","diet:kosher":"no","diet:vegan":"yes","diet:vegetarian":"yes","food":"yes","lunch":"yes","name":"Bar Loosister","outdoor_seating":"no","payment:credit_cards":"yes","payment:debit_cards":"yes","smoking":"outside","website":"https:\/\/barloosister.fi\/"}},{"type":"node","id":3801973897,"lat":60.1872593,"lon":24.9607303,"tags":{"natural":"tree"}},{"type":"node","id":5028954030,"lat":60.186764,"lon":24.9610768,"tags":{"was:name":"Vegekauppa","was:shop":"convenience"}},{"type":"node","id":5403081699,"lat":60.1869231,"lon":24.9600336,"tags":{"name":"S\u00f6rn\u00e4inen","name:fi":"S\u00f6rn\u00e4inen","name:sv":"S\u00f6rn\u00e4s","operator":"Kaupunkiliikenne Oy","public_transport":"stop_position","railway":"stop","ref":"H0025","shelter":"yes","subway":"yes"}},{"type":"node","id":5594717619,"lat":60.1873113,"lon":24.9601981,"tags":{"addr:housenumber":"29","addr:postcode":"00500","addr:street":"Pengerkatu","name":"Newroz Parturi","opening_hours":"Mo-Fr 10:00-20:00; Sa 10:00-18:00","phone":"+358447720004","shop":"hairdresser","website":"https:\/\/www.facebook.com\/pg\/NewrozParturi\/"}},{"type":"node","id":8831720845,"lat":60.1872512,"lon":24.9601307,"tags":{"access":"private","addr:housenumber":"29","addr:street":"Pengerkatu","addr:unit":"C","entrance":"staircase","ref":"C","wheelchair":"no"}},{"type":"node","id":8831720849,"lat":60.1871906,"lon":24.9600928,"tags":{"access":"private","barrier":"gate","description":"With keycode"}},{"type":"node","id":8831720853,"lat":60.1871358,"lon":24.9600565,"tags":{"access":"private","addr:housenumber":"27","addr:street":"Pengerkatu","entrance":"garage","wheelchair":"no"}},{"type":"node","id":8831720855,"lat":60.1870978,"lon":24.960031,"tags":{"access":"yes","addr:housenumber":"27","addr:street":"Pengerkatu","entrance":"yes","wheelchair":"no"}},{"type":"node","id":8831720856,"lat":60.1870856,"lon":24.9601013,"tags":{"addr:housenumber":"27","addr:street":"Pengerkatu","craft":"locksmith","name":"Kallion Lukko","shop":"locksmith"}},{"type":"node","id":8831720865,"lat":60.1868551,"lon":24.9598784,"tags":{"access":"private","addr:housenumber":"27","addr:street":"Pengerkatu","entrance":"secondary","wheelchair":"no"}},{"type":"node","id":8831720868,"lat":60.186752,"lon":24.9598692,"tags":{"addr:housenumber":"25","addr:street":"Pengerkatu","name":"Tattoo studio Ink room","phone":"+358 40 932 2660","shop":"tattoo"}},{"type":"node","id":8836005047,"lat":60.1870701,"lon":24.9600126,"tags":{"access":"private","barrier":"gate"}},{"type":"node","id":12036678203,"lat":60.1872367,"lon":24.9611861,"tags":{"name":"Kiinalainen Kauppa","shop":"convenience"}},{"type":"node","id":12463353201,"lat":60.1872068,"lon":24.9601413,"tags":{"addr:city":"Helsinki","addr:housenumber":"29","addr:postcode":"00500","addr:street":"Pengerkatu","amenity":"restaurant","capacity":"15","cuisine":"vietnamese","diet:vegan":"yes","diet:vegetarian":"yes","email":"luuvanthinhhp@gmail.com","name":"Pho Viet Khang","phone":"+358449789995"}},{"type":"node","id":12629878761,"lat":60.1871625,"lon":24.9611523,"tags":{"amenity":"fast_food","cuisine":"sandwich","name":"Subway","website":"https:\/\/restaurants.subway.com\/finland\/helsinki\/hameentie-50-b"}}]}