{"version":0.6,"generator":"Overpass API 0.7.61.5 4133829e","osm3s":{"timestamp_osm_base":"2023-08-13T09:19:16Z","copyright":"The data included in this document is from www.openstreetmap.org. The data is made available under ODbL."},"elements":[{"type":"way","id":22954653,"nodes":[1377260725,3329276129,3329276126,247321471,1377260712,1377260715,247321485,247321486,247321487,1377260723,1377260725],"tags":{"building":"apartments"}},{"type":"way","id":22954674,"nodes":[1377883199,7669516117,7680128423,7669516115,7669516113,7669516110,7680128425,1377883206,1377883201,7680128427,247321713,247321714,247321715,247321716,247321717,1377883199],"tags":{"addr:housenumber":"20-22","addr:street":"Iso Roobertinkatu","building":"yes"}},{"type":"way","id":22954680,"nodes":[1377895495,247321746,247321747,247321748,7669700722,247321743,1377895494,1377895492,7669134984,7669134982,3329107181,247321729,7669700724,3329107183,7608083787,7669134976,7669134978,7669700718,7669134980,3329276114,3329276116,1377895495],"tags":{"building":"yes"}},{"type":"way","id":22954681,"nodes":[1377895516,1377895511,7669134963,247321749,1377895510,1377895509,247321750,1377895504,1377895501,247321745,247321746,247321731,247321732,1377895512,7669134968,7669134964,7669134961,1377895516],"tags":{"building":"yes"}},{"type":"way","id":23088209,"nodes":[247321746,1377895495,3329276118,7669700711,247321730,1377895499,1377895498,7669700716,247321731,247321746],"tags":{"building":"apartments","building:levels":"5","roof:levels":"0"}},{"type":"way","id":34031507,"nodes":[310148889,7631766088,7631766086,7631746483,7631746482,7631746479,7631746476,7631746474,7631538916,7631746472,315385111,310148890,315385112,9195353325,310148891,9195353326,7669516107,7680128433,7669516104,7669516096,8289797396,7680128438,7669516092,7669516090,7680128441,7669516088,310149273],"tags":{"bicycle":"no","footway":"sidewalk","highway":"footway","lit":"yes","surface":"paved"}},{"type":"way","id":36729008,"nodes":[426911740,25291549,426911741],"tags":{"bicycle":"yes","highway":"pedestrian","lit":"yes","maxspeed":"20","motor_vehicle":"yes","name":"Annankatu","name:fi":"Annankatu","name:sv":"Annegatan","parking:lane:both":"no_stopping","snowplowing":"yes","surface":"paving_stones"}},{"type":"way","id":36729009,"nodes":[426911741,3515249604],"tags":{"highway":"residential","lit":"yes","maxspeed":"30","name":"Annankatu","name:fi":"Annankatu","name:sv":"Annegatan","parking:condition:left":"wheelchair","parking:condition:right":"no_stopping","parking:condition:right:default":"free","parking:condition:right:except":"loading","parking:condition:right:except:vehicles":"goods;hgv","parking:condition:right:time_interval":"Mo-Fr 07:00-18:00; Sa 09:00-15:00","parking:lane:both":"parallel","parking:lane:both:parallel":"on_street","paved:date":"2014","snowplowing":"yes","start_date":"before 1815","surface":"paving_stones"}},{"type":"way","id":37264743,"nodes":[434153011,1377394498,434153012,247321532,3329276128,1377394495,434153010,247321543,1011446784,247321546,247321551,434153011],"tags":{"landuse":"civil"}},{"type":"way","id":37264747,"nodes":[434153017,249217726,434153019,1377394514,247321555,247321556,247321566,247321567,434153015,3232013787,10961559266,1377394534,3232013793,3232013799,247321530,2524250178,3330896634,3330896633,1377394532,7615674340,7615674339,7615674337,1377394527,247321531,3336810244,9699667417,1377394501,9699741724,1377394497,1377394496,434153012,1377394498,434153011,247321551,247321546,1011446784,247321543,434153010,3329276136,1377394500,247321533,3232013774,434153018,247321536,247321535,247321541,434153016,434153017],"tags":{"landuse":"residential"}},{"type":"way","id":37264752,"nodes":[434153033,434153032,434153031,434153030,249226297,249226294,434153034,7669700731,7977135159,7669700726,1377895492,7669134984,7669134982,3329107181,247321729,7669700724,3329107183,7608083787,7669134976,7669134978,7669700718,7669134980,3329276114,3329276116,1377895495,3329276118,7669700711,247321730,7669134974,247321733,3329276120,247321734,7669700708,7669134972,1377895512,7669134968,7669134964,7669134961,1377895516,7669700703,7669700701,7669700700,1377895517,7669134958,7669134955,7977201426,7669134952,1377895518,9561212417,9561214017,7669134949,434153021,247321741,247321742,1005526389,434153028,247321762,247321761,434153026,434153027,1555281116,1377895502,7669150788,3330871432,434153033],"tags":{"landuse":"residential"}},{"type":"way","id":37290648,"nodes":[434499271,25291549,434499273],"tags":{"bicycle":"yes","highway":"pedestrian","loc_name":"Iso-Roba; Iso Roba","maxspeed":"20","motorcar":"no","name":"Iso Roobertinkatu","name:sv":"Stora Robertsgatan","surface":"paving_stones"}},{"type":"way","id":37290649,"nodes":[434499273,310148896,7669700709,7669134973,3528461722],"tags":{"bicycle":"yes","filming:location:movie:wikidata":"Q19850232","highway":"pedestrian","loc_name":"Iso-Roba;Iso Roba","maxspeed":"20","motorcar":"no","name":"Iso Roobertinkatu","name:sv":"Stora Robertsgatan","railway":"razed","razed:railway":"tram","surface":"paving_stones"}},{"type":"way","id":37290654,"nodes":[247321682,436223312,1377883158,436223316,7149090611,1377883138,247321687,7149090612,7149090613,247321688,436223321,7669516127,7680128408,1377883188,7669516124,7680128410,1377883191,1377883186,247321698,4059084875,247321718,1377883199,7669516117,7680128423,7669516115,7669516113,7669516110,7680128425,1377883206,7669516108,7680128429,7680128431,247321683,3329276121,7669516106,7680128432,7669516103,8289797391,7669516097,8289797392,7680128437,8289797394,1377883193,7669516089,7680128439,7669516087,3329107178,247321684,3329107177,3329107176,3329107172,1377883176,7669516158,1377883151,7680128454,1377883141,7669516152,7680128456,1377883136,7669516150,1377883119,3329107148,7680128458,1377883113,7669516148,3327614851,247321685,3327614853,7669516146,3327614856,3327614858,7680128463,7669516144,3327614860,8629534237,7669516142,7680128465,436223323,7669516140,7149090592,7962864487,7669516138,3327614862,7680128470,7669516135,3327614864,7149090614,3327488356,7669516133,7893295320,3240937311,247321682],"tags":{"landuse":"residential"}},{"type":"way","id":37374320,"nodes":[436223292,247321518,247321519,436223300,436223297,436223302,1011415114,436223295,1377260725,3329276129,3329276126,247321471,1377260712,319804352,436223279,436223277,436223281,247321515,247321516,436223292],"tags":{"landuse":"residential"}},{"type":"way","id":37547142,"nodes":[247321730,7669134974,247321733,1377895500,1377895499,247321730],"tags":{"building":"yes","building:levels":"1"}},{"type":"way","id":86943008,"nodes":[1011446822,1377394506,1377394502,247321622,247321616,1011446769,1011446794,247321617,1011446798,1011446773,1377394496,434153012,1377394498,434153011,247321552,1011446782,1011446822],"tags":{"addr:city":"Helsinki","addr:country":"FI","addr:housenumber":"9","addr:street":"Iso Roobertinkatu","building":"yes","wikidata":"Q98413236"}},{"type":"way","id":122950929,"nodes":[310148419,3240937313,7669516130,7680128407,7669516128,7680128409,7669516125,7680128411,7680128416,7669516120,7680128419,7680128422,7669516118,7680128424,7669516116,7669516114,7669516111,7680128426,7669516109,7680128430,4867707164,310148891,434499271],"tags":{"bicycle":"yes","highway":"pedestrian","loc_name":"Iso-Roba;Iso Roba","maxspeed":"20","motorcar":"no","name":"Iso Roobertinkatu","name:sv":"Stora Robertsgatan","railway":"razed","razed:railway":"tram","surface":"paving_stones"}},{"type":"way","id":123625880,"nodes":[1377883206,7669516108,7680128429,7680128431,247321683,3329276121,7669516106,7680128432,7669516103,8289797391,7669516097,8289797392,7680128437,8289797395,1377883193,247321709,247321710,7680128435,247321711,8289797393,7669516098,247321712,7669516101,7680128434,1377883201,1377883206],"tags":{"building":"apartments"}},{"type":"way","id":123629610,"nodes":[1377895517,247321774,1005526397,1005526437,247321767,1377895515,249226297,249226289,1377895501,1377895504,1377895506,247321751,247321752,1377895511,1377895516,7669700703,7669700701,7669700700,1377895517],"tags":{"building":"yes"}},{"type":"way","id":123629613,"nodes":[1377895518,1005526422,7669700695,7977201427,7669516085,247321774,1377895517,7669134958,7669134955,7977201426,7669134952,1377895518],"tags":{"building":"yes","wikidata":"Q98413217"}},{"type":"way","id":123629615,"nodes":[1377895512,247321732,1377895505,1377895507,7669700715,1377895503,1377895500,247321733,3329276120,247321734,7669700708,7669134972,1377895512],"tags":{"building":"apartments","building:levels":"5","building:maintenance:operator":"Housetek Oy","roof:levels":"1","roof:shape":"quadruple_saltbox"}},{"type":"way","id":235221146,"nodes":[310149272,7669700725,7608083788,7669134977,7669134979,7669700720,7669134981,7669700713,7669134975,439784834,9195353327,7669700710,310148896,9195353328,9699696317,315385109,310148894,315385110,7631766094,7908376921,7631766092,7631766091,7631766089,9561954668,310148893],"tags":{"bicycle":"no","footway":"sidewalk","highway":"footway","lit":"yes","surface":"paved"}},{"type":"way","id":326302787,"nodes":[2384123172,3329276128],"tags":{"man_made":"beam"}},{"type":"way","id":326302790,"nodes":[3329276116,3329276115],"tags":{"man_made":"beam"}},{"type":"way","id":326302791,"nodes":[3329276118,3329276117],"tags":{"man_made":"beam"}},{"type":"way","id":326302794,"nodes":[3329276120,3329276119],"tags":{"man_made":"beam"}},{"type":"way","id":326302795,"nodes":[3329276121,3329276122],"tags":{"man_made":"beam"}},{"type":"way","id":344789070,"nodes":[3515249602,7669700712,3515249603],"tags":{"highway":"residential","lanes":"2","lit":"yes","maxspeed":"30","name":"Annankatu","name:fi":"Annankatu","name:sv":"Annegatan","parking:condition:both:default":"free","parking:condition:left":"ticket","parking:condition:left:residents":"B","parking:condition:left:time_interval":"Mo-Fr 09:00-21:00; Sa 09:00-18:00","parking:condition:right":"no_parking","parking:condition:right:time_interval":"Mo-Fr 07:00-18:00; Sa 09:00-15:00","parking:lane:both":"parallel","parking:lane:both:parallel":"on_street","parking:ticket:zone":"1","paved:date":"2014","snowplowing":"yes","surface":"paved"}},{"type":"way","id":344789086,"nodes":[3515249601,7680128440,3515249602],"tags":{"highway":"residential","lanes":"2","lit":"yes","maxspeed":"30","name":"Annankatu","name:fi":"Annankatu","name:sv":"Annegatan","parking:condition:both":"ticket","parking:condition:both:default":"free","parking:condition:both:residents":"B","parking:condition:both:time_interval":"Mo-Fr 09:00-21:00; Sa 09:00-18:00","parking:lane:both":"parallel","parking:lane:both:parallel":"on_street","parking:ticket:zone":"1","paved:date":"2014","snowplowing":"yes","surface":"paved"}},{"type":"way","id":344789092,"nodes":[3515249603,7669516095,426911740],"tags":{"highway":"residential","lanes":"2","lit":"yes","maxspeed":"30","name":"Annankatu","name:fi":"Annankatu","name:sv":"Annegatan","parking:condition:both":"ticket","parking:condition:both:default":"free","parking:condition:both:residents":"B","parking:condition:both:time_interval":"Mo-Fr 09:00-21:00; Sa 09:00-18:00","parking:lane:both":"parallel","parking:lane:both:parallel":"on_street","parking:ticket:zone":"1","paved:date":"2014","snowplowing":"yes","surface":"paved"}},{"type":"way","id":344789098,"nodes":[3515249604,3515249605],"tags":{"highway":"residential","lit":"yes","maxspeed":"30","name":"Annankatu","name:fi":"Annankatu","name:sv":"Annegatan","parking:condition:left":"wheelchair","parking:condition:right":"ticket","parking:condition:right:default":"free","parking:condition:right:maxstay":"60 min","parking:condition:right:residents":"B","parking:condition:right:time_interval":"Mo-Fr 09:00-21:00; Sa 09:00-18:00","parking:lane:both":"parallel","parking:lane:both:parallel":"on_street","parking:ticket:zone":"1","paved:date":"2014","snowplowing":"yes","start_date":"before 1815","surface":"paved"}},{"type":"way","id":346308453,"nodes":[3528461722,7669134969,7669134965,7669134962,7669700704,7669700706,7669700707,7669134959,7669134956,7977201425,7669700694,7669134953,9561212419,9561134363,7669134950,9699741726,7669700691,9570221283,7669700692,9568040465,9568040468,9568040470,7669700687,9568040471,7669134942,9699829113,7669134940,3336810243,311091792],"tags":{"bicycle":"yes","highway":"pedestrian","lit":"yes","loc_name":"Iso-Roba;Iso Roba","maxspeed":"20","motor_vehicle":"no","name":"Iso Roobertinkatu","name:sv":"Stora Robertsgatan","railway":"razed","razed:railway":"tram","surface":"paving_stones"}},{"type":"way","id":821375287,"nodes":[7669134956,7669134957],"tags":{"highway":"pedestrian","surface":"paving_stones"}},{"type":"way","id":821375288,"nodes":[7669134957,7669134955],"tags":{"handrail":"no","highway":"steps","incline":"up","ramp":"no","step_count":"3"}},{"type":"way","id":821375289,"nodes":[7669134959,7669134960],"tags":{"highway":"pedestrian","surface":"paving_stones"}},{"type":"way","id":821375290,"nodes":[7669134960,7669134958],"tags":{"handrail":"no","highway":"steps","incline":"up","ramp":"no","step_count":"2"}},{"type":"way","id":821375291,"nodes":[7669134962,7669134961],"tags":{"highway":"pedestrian"}},{"type":"way","id":821375292,"nodes":[7669134961,7669134963],"tags":{"highway":"service","tunnel":"building_passage"}},{"type":"way","id":821375293,"nodes":[7669134965,7669134966],"tags":{"highway":"pedestrian"}},{"type":"way","id":821375294,"nodes":[7669134966,7669134964],"tags":{"handrail":"no","highway":"steps","incline":"up","ramp":"no","step_count":"3"}},{"type":"way","id":821375295,"nodes":[7669134969,7669134970],"tags":{"highway":"pedestrian"}},{"type":"way","id":821375296,"nodes":[7669134970,7669134968],"tags":{"handrail":"no","highway":"steps","incline":"up","ramp":"no","step_count":"3"}},{"type":"way","id":821375297,"nodes":[7669134973,7669134972],"tags":{"highway":"pedestrian"}},{"type":"way","id":821375298,"nodes":[7669134975,7669134974],"tags":{"highway":"footway"}},{"type":"way","id":821417755,"nodes":[8289797396,7669516091],"tags":{"handrail":"no","highway":"steps","incline":"up","ramp":"no","step_count":"3"}},{"type":"way","id":821417756,"nodes":[7669516095,7669516096,7669516097],"tags":{"highway":"service"}},{"type":"way","id":821417757,"nodes":[7669516097,7669516094,7669516098],"tags":{"highway":"service","layer":"0","tunnel":"building_passage"}},{"type":"way","id":821417758,"nodes":[7669516098,7669516099,8289797390],"tags":{"highway":"service"}},{"type":"way","id":821417759,"nodes":[7669516099,7669516101],"tags":{"highway":"footway"}},{"type":"way","id":821417760,"nodes":[7669516104,7669516103],"tags":{"highway":"footway"}},{"type":"way","id":821417761,"nodes":[7669516107,7669516106],"tags":{"highway":"footway"}},{"type":"way","id":821417762,"nodes":[7669516109,7669516108],"tags":{"highway":"pedestrian","surface":"paving_stones"}},{"type":"way","id":821439129,"nodes":[7669700703,10259260122],"tags":{"handrail":"no","highway":"steps","incline":"down","ramp":"no","step_count":"4"}},{"type":"way","id":821439130,"nodes":[7669700701,7669700706],"tags":{"highway":"pedestrian"}},{"type":"way","id":821439131,"nodes":[7669700700,7669700707],"tags":{"highway":"pedestrian"}},{"type":"way","id":821439132,"nodes":[7669700708,9909450371,7669700709],"tags":{"highway":"pedestrian"}},{"type":"way","id":821439133,"nodes":[247321734,7669700710],"tags":{"highway":"footway"}},{"type":"way","id":821439134,"nodes":[7669700711,7669700713,7669700712],"tags":{"highway":"service"}},{"type":"way","id":821439135,"nodes":[7669700711,1377895498],"tags":{"highway":"service","incline":"up","tunnel":"building_passage"}},{"type":"way","id":821439136,"nodes":[1377895498,7669700717,7673510102,7669700714],"tags":{"highway":"service"}},{"type":"way","id":821439137,"nodes":[7669700714,7669700715],"tags":{"handrail":"yes","highway":"steps","ramp":"no","step_count":"5"}},{"type":"way","id":821439138,"nodes":[7669700717,7669700716],"tags":{"highway":"footway"}},{"type":"way","id":822523894,"nodes":[7680128425,7680128427],"tags":{"highway":"service","layer":"0","tunnel":"building_passage"}},{"type":"way","id":822523895,"nodes":[7680128427,7680128428],"tags":{"highway":"service"}},{"type":"way","id":822523896,"nodes":[7680128429,7680128430],"tags":{"highway":"pedestrian"}},{"type":"way","id":822523898,"nodes":[7680128432,7680128433],"tags":{"highway":"footway"}},{"type":"way","id":822523901,"nodes":[7680128436,7669516099],"tags":{"highway":"service"}},{"type":"way","id":822523902,"nodes":[7680128437,7680128438],"tags":{"highway":"footway"}},{"type":"way","id":846049024,"nodes":[247321469,247321472,1377260709,319804357,436223279,1377260712,247321471,247321470,247321469],"tags":{"name":"P\u00f6ll\u00f6","name:fi":"P\u00f6ll\u00f6","place":"city_block","ref":"89"}},{"type":"way","id":846049025,"nodes":[7893295320,247321685,247321684,247321683,7680128431,7680128429,7669516108,1377883206,7669516113,7669516115,7680128423,7669516117,1377883199,9338778472,9338778473,9338778474,9338778475,1377883191,7680128410,7669516124,1377883188,7680128408,7669516127,436223321,7149090606,7669516129,436223313,247321682,7893295320],"tags":{"name":"Korppi","name:fi":"Korppi","place":"city_block","ref":"93"}},{"type":"way","id":846049028,"nodes":[247321533,247321532,434153012,1377394496,1377394497,1377394501,9699667417,3336810244,247321531,1377394527,247321530,247321533],"tags":{"name":"Fasaani","name:fi":"Fasaani","place":"city_block","ref":"88"}},{"type":"way","id":891927856,"nodes":[8289797390,7680128434],"tags":{"highway":"footway"}},{"type":"way","id":891927857,"nodes":[247321712,8289797391,7669516091,8289797392,8289797393,247321712],"tags":{"building:levels":"3","building:part":"yes"}},{"type":"way","id":1118006154,"nodes":[247321734,3329276120,247321733,7669134974,247321730,7669700711,1377895495,3329276116,3329276114,7669134980,7669700718,7669134978,7669134976,7608083787,3329107183,7669700724,247321729,3329107181,7669134982,7669134984,1377895492,7669700726,7977135159,7669700731,434153034,3330871430,7669700736,7669700737,434153033,3330871432,7669150788,1377895502,1555281116,434153027,7977135155,3330871443,7608083794,2524210106,247321728,2524210107,7669134926,247321727,434153029,247321721,7669668876,7669134932,247321720,247321736,2524210112,7669134937,247321735,7669134939,7669134941,9568040466,7669700685,9568040469,7669134945,7669134947,7669700689,9570233917,7669700690,434153021,7669134949,9561214017,9561212417,1377895518,7669134952,7977201426,7669134955,7669134958,1377895517,7669700700,7669700701,7669700703,1377895516,7669134961,7669134964,7669134968,1377895512,7669134972,7669700708,247321734],"tags":{"area":"yes","name":"Harakka","place":"city_block","ref":"94"}},{"type":"way","id":1121672827,"nodes":[10259260122,7669700704],"tags":{"highway":"pedestrian"}},{"type":"node","id":25291549,"lat":60.1633789,"lon":24.9418041},{"type":"node","id":247321469,"lat":60.16352,"lon":24.9382918},{"type":"node","id":247321470,"lat":60.164255,"lon":24.9404056},{"type":"node","id":247321471,"lat":60.1633922,"lon":24.9416177},{"type":"node","id":247321472,"lat":60.1626572,"lon":24.9395039},{"type":"node","id":247321485,"lat":60.163468,"lon":24.9413654},{"type":"node","id":247321486,"lat":60.1635862,"lon":24.9411993},{"type":"node","id":247321487,"lat":60.1635497,"lon":24.9410945},{"type":"node","id":247321515,"lat":60.163332,"lon":24.9401346},{"type":"node","id":247321516,"lat":60.1633736,"lon":24.9400761},{"type":"node","id":247321518,"lat":60.1635051,"lon":24.9400871},{"type":"node","id":247321519,"lat":60.1635947,"lon":24.9403446},{"type":"node","id":247321530,"lat":60.1650734,"lon":24.9427369},{"type":"node","id":247321532,"lat":60.1634589,"lon":24.9418551},{"type":"node","id":247321533,"lat":60.1643392,"lon":24.940621},{"type":"node","id":247321535,"lat":60.1641745,"lon":24.941243},{"type":"node","id":247321536,"lat":60.1643365,"lon":24.9410159},{"type":"node","id":247321541,"lat":60.164105,"lon":24.9413404},{"type":"node","id":247321543,"lat":60.1639235,"lon":24.9414769},{"type":"node","id":247321546,"lat":60.1639573,"lon":24.9415742},{"type":"node","id":247321551,"lat":60.1640073,"lon":24.9417184},{"type":"node","id":247321552,"lat":60.1640748,"lon":24.9417704},{"type":"node","id":247321555,"lat":60.1642172,"lon":24.9421342},{"type":"node","id":247321556,"lat":60.164239,"lon":24.9421969},{"type":"node","id":247321566,"lat":60.1642693,"lon":24.9422842},{"type":"node","id":247321567,"lat":60.1644871,"lon":24.9419789},{"type":"node","id":247321616,"lat":60.164032,"lon":24.9421517},{"type":"node","id":247321617,"lat":60.1638311,"lon":24.9423738},{"type":"node","id":247321622,"lat":60.1640463,"lon":24.9421928},{"type":"node","id":247321682,"lat":60.1626222,"lon":24.9399664},{"type":"node","id":247321683,"lat":60.1632907,"lon":24.9417727},{"type":"node","id":247321684,"lat":60.1626922,"lon":24.9426142},{"type":"node","id":247321685,"lat":60.1619562,"lon":24.9404992},{"type":"node","id":247321687,"lat":60.1624053,"lon":24.9406618},{"type":"node","id":247321688,"lat":60.1626187,"lon":24.9403619},{"type":"node","id":247321698,"lat":60.1627399,"lon":24.9409565},{"type":"node","id":247321709,"lat":60.1628586,"lon":24.9419643},{"type":"node","id":247321710,"lat":60.1629263,"lon":24.9418691},{"type":"node","id":247321711,"lat":60.1629633,"lon":24.9419754},{"type":"node","id":247321712,"lat":60.1631147,"lon":24.9417625},{"type":"node","id":247321713,"lat":60.1630471,"lon":24.9415686},{"type":"node","id":247321714,"lat":60.1628714,"lon":24.9418157},{"type":"node","id":247321715,"lat":60.1627614,"lon":24.9414996},{"type":"node","id":247321716,"lat":60.1629234,"lon":24.9412719},{"type":"node","id":247321717,"lat":60.162883,"lon":24.9411557},{"type":"node","id":247321718,"lat":60.1627984,"lon":24.9412709},{"type":"node","id":247321729,"lat":60.1627608,"lon":24.9428368},{"type":"node","id":247321730,"lat":60.1631245,"lon":24.9423227},{"type":"node","id":247321731,"lat":60.163197,"lon":24.9426064},{"type":"node","id":247321732,"lat":60.1632841,"lon":24.9424833},{"type":"node","id":247321733,"lat":60.1631853,"lon":24.9422368},{"type":"node","id":247321734,"lat":60.1633529,"lon":24.9419999},{"type":"node","id":247321743,"lat":60.1629184,"lon":24.9427915},{"type":"node","id":247321745,"lat":60.1631911,"lon":24.9428778},{"type":"node","id":247321746,"lat":60.1631295,"lon":24.9427017},{"type":"node","id":247321747,"lat":60.1630665,"lon":24.9427907},{"type":"node","id":247321748,"lat":60.1630177,"lon":24.9426512},{"type":"node","id":247321749,"lat":60.1634198,"lon":24.9426211},{"type":"node","id":247321750,"lat":60.1632293,"lon":24.9428457},{"type":"node","id":247321751,"lat":60.1632899,"lon":24.942978},{"type":"node","id":247321752,"lat":60.1634604,"lon":24.942737},{"type":"node","id":247321767,"lat":60.1634667,"lon":24.9429772},{"type":"node","id":247321774,"lat":60.1635459,"lon":24.9429097},{"type":"node","id":249217726,"lat":60.1641434,"lon":24.9416742},{"type":"node","id":310148419,"lat":60.1625933,"lon":24.9395614},{"type":"node","id":310148889,"lat":60.1650484,"lon":24.9393326},{"type":"node","id":310148890,"lat":60.1643183,"lon":24.9403373},{"type":"node","id":310148891,"lat":60.1633548,"lon":24.9417335},{"type":"node","id":310148893,"lat":60.1651114,"lon":24.939514},{"type":"node","id":310148894,"lat":60.1643832,"lon":24.940522},{"type":"node","id":310148896,"lat":60.1634057,"lon":24.9418841},{"type":"node","id":310149272,"lat":60.1627412,"lon":24.9428188},{"type":"node","id":310149273,"lat":60.1626826,"lon":24.9426419},{"type":"node","id":315385109,"lat":60.1643389,"lon":24.9405849},{"type":"node","id":315385110,"lat":60.1644247,"lon":24.9404653},{"type":"node","id":315385111,"lat":60.1643622,"lon":24.9402824},{"type":"node","id":315385112,"lat":60.1642712,"lon":24.9404045},{"type":"node","id":319804352,"lat":60.16304,"lon":24.9406047},{"type":"node","id":319804357,"lat":60.1629833,"lon":24.9404418},{"type":"node","id":426911740,"lat":60.1633211,"lon":24.9418837},{"type":"node","id":426911741,"lat":60.1634276,"lon":24.9417372},{"type":"node","id":434153010,"lat":60.1638598,"lon":24.9412931},{"type":"node","id":434153011,"lat":60.1640415,"lon":24.941817},{"type":"node","id":434153012,"lat":60.1636409,"lon":24.9423786},{"type":"node","id":434153015,"lat":60.1647046,"lon":24.941674},{"type":"node","id":434153016,"lat":60.1640854,"lon":24.9413679},{"type":"node","id":434153017,"lat":60.1641759,"lon":24.9416287},{"type":"node","id":434153018,"lat":60.1644305,"lon":24.9408841},{"type":"node","id":434153019,"lat":60.1640857,"lon":24.9417551},{"type":"node","id":434499271,"lat":60.1633647,"lon":24.9417615},{"type":"node","id":434499273,"lat":60.1633916,"lon":24.9418428},{"type":"node","id":436223277,"lat":60.1631487,"lon":24.9403921},{"type":"node","id":436223279,"lat":60.163026,"lon":24.9405645},{"type":"node","id":436223281,"lat":60.1632703,"lon":24.9402213},{"type":"node","id":436223292,"lat":60.1634594,"lon":24.9399556},{"type":"node","id":436223295,"lat":60.1639961,"lon":24.9407693},{"type":"node","id":436223297,"lat":60.1638164,"lon":24.9402523},{"type":"node","id":436223300,"lat":60.1636459,"lon":24.9404918},{"type":"node","id":436223302,"lat":60.16392,"lon":24.9405503},{"type":"node","id":436223312,"lat":60.1625454,"lon":24.9400745},{"type":"node","id":436223313,"lat":60.1626491,"lon":24.9399287},{"type":"node","id":436223316,"lat":60.1623141,"lon":24.9403996},{"type":"node","id":436223321,"lat":60.1627403,"lon":24.9401909},{"type":"node","id":436223323,"lat":60.1622198,"lon":24.9401287},{"type":"node","id":439784834,"lat":60.1633284,"lon":24.9419914},{"type":"node","id":1005526397,"lat":60.1635294,"lon":24.942933},{"type":"node","id":1005526437,"lat":60.163519,"lon":24.9429033},{"type":"node","id":1011415114,"lat":60.1639256,"lon":24.9405665},{"type":"node","id":1011446769,"lat":60.1639344,"lon":24.9422885},{"type":"node","id":1011446773,"lat":60.1638443,"lon":24.9424759},{"type":"node","id":1011446782,"lat":60.1641641,"lon":24.9420277},{"type":"node","id":1011446784,"lat":60.1639351,"lon":24.9415103},{"type":"node","id":1011446794,"lat":60.1639205,"lon":24.9422485},{"type":"node","id":1011446798,"lat":60.1638593,"lon":24.942455},{"type":"node","id":1011446822,"lat":60.1641514,"lon":24.9420454},{"type":"node","id":1377260709,"lat":60.1629379,"lon":24.9403112},{"type":"node","id":1377260712,"lat":60.1632125,"lon":24.9411007},{"type":"node","id":1377260715,"lat":60.1633223,"lon":24.9409464},{"type":"node","id":1377260723,"lat":60.1635941,"lon":24.9410323},{"type":"node","id":1377260725,"lat":60.1636646,"lon":24.9412351},{"type":"node","id":1377394495,"lat":60.1637279,"lon":24.941478},{"type":"node","id":1377394496,"lat":60.1637299,"lon":24.9426363},{"type":"node","id":1377394497,"lat":60.1638242,"lon":24.9429081},{"type":"node","id":1377394498,"lat":60.1639096,"lon":24.9420019},{"type":"node","id":1377394500,"lat":60.1639751,"lon":24.9411314},{"type":"node","id":1377394502,"lat":60.1640612,"lon":24.9421718},{"type":"node","id":1377394506,"lat":60.1640902,"lon":24.9421312},{"type":"node","id":1377394514,"lat":60.164175,"lon":24.9420124},{"type":"node","id":1377394534,"lat":60.1648871,"lon":24.9422002},{"type":"node","id":1377883113,"lat":60.1621277,"lon":24.9409919},{"type":"node","id":1377883119,"lat":60.1622372,"lon":24.9413066},{"type":"node","id":1377883136,"lat":60.1623229,"lon":24.9415529},{"type":"node","id":1377883138,"lat":60.1623913,"lon":24.9406214},{"type":"node","id":1377883141,"lat":60.1624136,"lon":24.9418138},{"type":"node","id":1377883151,"lat":60.1625056,"lon":24.9420781},{"type":"node","id":1377883158,"lat":60.1625257,"lon":24.9401021},{"type":"node","id":1377883176,"lat":60.162595,"lon":24.9423349},{"type":"node","id":1377883186,"lat":60.162805,"lon":24.9408597},{"type":"node","id":1377883188,"lat":60.1628306,"lon":24.9404594},{"type":"node","id":1377883191,"lat":60.1629147,"lon":24.9407012},{"type":"node","id":1377883193,"lat":60.1629558,"lon":24.9422436},{"type":"node","id":1377883199,"lat":60.1630134,"lon":24.940984},{"type":"node","id":1377883201,"lat":60.1630777,"lon":24.9416563},{"type":"node","id":1377883206,"lat":60.1631934,"lon":24.9414935},{"type":"node","id":1377895494,"lat":60.1629672,"lon":24.9429311},{"type":"node","id":1377895495,"lat":60.1630391,"lon":24.9424434},{"type":"node","id":1377895498,"lat":60.1631451,"lon":24.9424583},{"type":"node","id":1377895499,"lat":60.1631631,"lon":24.9424329},{"type":"node","id":1377895500,"lat":60.1632238,"lon":24.9423471},{"type":"node","id":1377895501,"lat":60.1632199,"lon":24.94296},{"type":"node","id":1377895503,"lat":60.1632438,"lon":24.9423189},{"type":"node","id":1377895504,"lat":60.1632529,"lon":24.9429132},{"type":"node","id":1377895505,"lat":60.1632642,"lon":24.9424265},{"type":"node","id":1377895506,"lat":60.1632625,"lon":24.9428997},{"type":"node","id":1377895507,"lat":60.1632757,"lon":24.9424102},{"type":"node","id":1377895509,"lat":60.1633623,"lon":24.9426577},{"type":"node","id":1377895510,"lat":60.1633727,"lon":24.9426877},{"type":"node","id":1377895511,"lat":60.163433,"lon":24.9426588},{"type":"node","id":1377895512,"lat":60.1634433,"lon":24.9422583},{"type":"node","id":1377895516,"lat":60.1635336,"lon":24.9425165},{"type":"node","id":1377895517,"lat":60.1636297,"lon":24.9427912},{"type":"node","id":2384123172,"lat":60.1635853,"lon":24.9416617},{"type":"node","id":2524250178,"lat":60.1650034,"lon":24.942835},{"type":"node","id":3232013774,"lat":60.1643592,"lon":24.9406787},{"type":"node","id":3232013787,"lat":60.1647076,"lon":24.9416828},{"type":"node","id":3232013793,"lat":60.1649042,"lon":24.9422495},{"type":"node","id":3232013799,"lat":60.1650354,"lon":24.9426274},{"type":"node","id":3240937311,"lat":60.1625401,"lon":24.9397303},{"type":"node","id":3240937313,"lat":60.1626155,"lon":24.9396246},{"type":"node","id":3327488356,"lat":60.1625196,"lon":24.9397073},{"type":"node","id":3327614851,"lat":60.1619624,"lon":24.9405171},{"type":"node","id":3327614853,"lat":60.1619803,"lon":24.9404653},{"type":"node","id":3327614856,"lat":60.1620607,"lon":24.9403523},{"type":"node","id":3327614858,"lat":60.162083,"lon":24.940321},{"type":"node","id":3327614860,"lat":60.1621293,"lon":24.9402559},{"type":"node","id":3327614862,"lat":60.1622974,"lon":24.9400197},{"type":"node","id":3327614864,"lat":60.1624359,"lon":24.9398249},{"type":"node","id":3329107148,"lat":60.1621833,"lon":24.9411518},{"type":"node","id":3329107172,"lat":60.1626415,"lon":24.9424684},{"type":"node","id":3329107176,"lat":60.1626909,"lon":24.9426105},{"type":"node","id":3329107177,"lat":60.1626916,"lon":24.9426124},{"type":"node","id":3329107178,"lat":60.1626957,"lon":24.9426092},{"type":"node","id":3329107181,"lat":60.16277,"lon":24.9428643},{"type":"node","id":3329107183,"lat":60.162774,"lon":24.9428181},{"type":"node","id":3329276114,"lat":60.1629592,"lon":24.9425563},{"type":"node","id":3329276115,"lat":60.1630046,"lon":24.9424751},{"type":"node","id":3329276116,"lat":60.1630079,"lon":24.9424875},{"type":"node","id":3329276117,"lat":60.163087,"lon":24.942365},{"type":"node","id":3329276118,"lat":60.1630898,"lon":24.9423717},{"type":"node","id":3329276119,"lat":60.1632125,"lon":24.942186},{"type":"node","id":3329276120,"lat":60.1632149,"lon":24.942195},{"type":"node","id":3329276121,"lat":60.1632762,"lon":24.941793},{"type":"node","id":3329276122,"lat":60.1632788,"lon":24.9418004},{"type":"node","id":3329276126,"lat":60.1635479,"lon":24.941399},{"type":"node","id":3329276128,"lat":60.1635887,"lon":24.9416732},{"type":"node","id":3329276129,"lat":60.1636598,"lon":24.9412418},{"type":"node","id":3329276136,"lat":60.1639703,"lon":24.9411381},{"type":"node","id":3330896634,"lat":60.1649499,"lon":24.9429099},{"type":"node","id":3515249601,"lat":60.1629211,"lon":24.9424431},{"type":"node","id":3515249602,"lat":60.1630513,"lon":24.9422609},{"type":"node","id":3515249603,"lat":60.1631788,"lon":24.9420825},{"type":"node","id":3515249604,"lat":60.1635491,"lon":24.9415644},{"type":"node","id":3515249605,"lat":60.1635848,"lon":24.9415133},{"type":"node","id":3528461722,"lat":60.1635372,"lon":24.9422704},{"type":"node","id":4059084875,"lat":60.162708,"lon":24.9410041},{"type":"node","id":4867707164,"lat":60.1633403,"lon":24.9416921},{"type":"node","id":7149090592,"lat":60.1622619,"lon":24.9400695},{"type":"node","id":7149090606,"lat":60.1627237,"lon":24.9401433},{"type":"node","id":7149090611,"lat":60.1623875,"lon":24.9406131},{"type":"node","id":7149090612,"lat":60.1624284,"lon":24.9406293},{"type":"node","id":7149090613,"lat":60.1624534,"lon":24.9405942},{"type":"node","id":7149090614,"lat":60.1624769,"lon":24.9397673},{"type":"node","id":7608083787,"lat":60.1628077,"lon":24.9427705},{"type":"node","id":7608083788,"lat":60.1628005,"lon":24.9427352},{"type":"node","id":7631538916,"lat":60.1645853,"lon":24.939974},{"type":"node","id":7631746472,"lat":60.1645483,"lon":24.9400251},{"type":"node","id":7631746474,"lat":60.1645945,"lon":24.9399613},{"type":"node","id":7631746476,"lat":60.1646209,"lon":24.9399248},{"type":"node","id":7631746479,"lat":60.1646511,"lon":24.9398831},{"type":"node","id":7631746482,"lat":60.1646846,"lon":24.9398368},{"type":"node","id":7631746483,"lat":60.1647055,"lon":24.9398079},{"type":"node","id":7631766086,"lat":60.1647433,"lon":24.9397557},{"type":"node","id":7631766088,"lat":60.1648334,"lon":24.9396311},{"type":"node","id":7631766089,"lat":60.1646422,"lon":24.940164},{"type":"node","id":7631766091,"lat":60.1646298,"lon":24.9401819},{"type":"node","id":7631766092,"lat":60.164607,"lon":24.9402127},{"type":"node","id":7631766094,"lat":60.1645625,"lon":24.9402744},{"type":"node","id":7669134953,"lat":60.1637692,"lon":24.9429519},{"type":"node","id":7669134955,"lat":60.1636371,"lon":24.9428124},{"type":"node","id":7669134956,"lat":60.1636956,"lon":24.9427358},{"type":"node","id":7669134957,"lat":60.1636483,"lon":24.9427978},{"type":"node","id":7669134958,"lat":60.1636328,"lon":24.9428001},{"type":"node","id":7669134959,"lat":60.1636901,"lon":24.9427194},{"type":"node","id":7669134960,"lat":60.1636442,"lon":24.942784},{"type":"node","id":7669134961,"lat":60.163525,"lon":24.9424915},{"type":"node","id":7669134962,"lat":60.163584,"lon":24.942408},{"type":"node","id":7669134963,"lat":60.1634243,"lon":24.9426339},{"type":"node","id":7669134964,"lat":60.1635134,"lon":24.9424588},{"type":"node","id":7669134965,"lat":60.1635728,"lon":24.9423751},{"type":"node","id":7669134966,"lat":60.1635288,"lon":24.9424373},{"type":"node","id":7669134968,"lat":60.1634829,"lon":24.9423715},{"type":"node","id":7669134969,"lat":60.1635428,"lon":24.9422868},{"type":"node","id":7669134970,"lat":60.1634982,"lon":24.9423499},{"type":"node","id":7669134972,"lat":60.163436,"lon":24.9422374},{"type":"node","id":7669134973,"lat":60.1634967,"lon":24.9421516},{"type":"node","id":7669134974,"lat":60.163163,"lon":24.9422683},{"type":"node","id":7669134975,"lat":60.1631569,"lon":24.942233},{"type":"node","id":7669134976,"lat":60.16286,"lon":24.9426966},{"type":"node","id":7669134977,"lat":60.1628507,"lon":24.9426645},{"type":"node","id":7669134978,"lat":60.1628763,"lon":24.9426735},{"type":"node","id":7669134979,"lat":60.1628666,"lon":24.942642},{"type":"node","id":7669134980,"lat":60.1629174,"lon":24.9426154},{"type":"node","id":7669134981,"lat":60.1629083,"lon":24.9425833},{"type":"node","id":7669134982,"lat":60.1628077,"lon":24.942977},{"type":"node","id":7669134984,"lat":60.1628151,"lon":24.9429993},{"type":"node","id":7669516085,"lat":60.1635499,"lon":24.9429211},{"type":"node","id":7669516087,"lat":60.1628211,"lon":24.9424329},{"type":"node","id":7669516088,"lat":60.1628269,"lon":24.9424469},{"type":"node","id":7669516089,"lat":60.1629403,"lon":24.9422654},{"type":"node","id":7669516090,"lat":60.1629491,"lon":24.9422818},{"type":"node","id":7669516091,"lat":60.1631269,"lon":24.942003},{"type":"node","id":7669516092,"lat":60.1630538,"lon":24.9421403},{"type":"node","id":7669516094,"lat":60.1631303,"lon":24.9418623},{"type":"node","id":7669516095,"lat":60.1631966,"lon":24.9420576},{"type":"node","id":7669516096,"lat":60.163171,"lon":24.9419821},{"type":"node","id":7669516097,"lat":60.1631615,"lon":24.9419542},{"type":"node","id":7669516098,"lat":60.1631023,"lon":24.9417798},{"type":"node","id":7669516099,"lat":60.1630938,"lon":24.9417547},{"type":"node","id":7669516101,"lat":60.1631066,"lon":24.9417394},{"type":"node","id":7669516103,"lat":60.1631964,"lon":24.9419052},{"type":"node","id":7669516104,"lat":60.1632074,"lon":24.9419327},{"type":"node","id":7669516106,"lat":60.1632641,"lon":24.94181},{"type":"node","id":7669516107,"lat":60.1632758,"lon":24.9418403},{"type":"node","id":7669516108,"lat":60.1632515,"lon":24.9416603},{"type":"node","id":7669516109,"lat":60.1633036,"lon":24.9415871},{"type":"node","id":7669516110,"lat":60.1631813,"lon":24.941459},{"type":"node","id":7669516111,"lat":60.1632319,"lon":24.9413828},{"type":"node","id":7669516113,"lat":60.1631302,"lon":24.9413163},{"type":"node","id":7669516114,"lat":60.1631831,"lon":24.9412438},{"type":"node","id":7669516115,"lat":60.1631068,"lon":24.9412497},{"type":"node","id":7669516116,"lat":60.1631577,"lon":24.9411711},{"type":"node","id":7669516117,"lat":60.1630595,"lon":24.9411152},{"type":"node","id":7669516118,"lat":60.1631129,"lon":24.9410435},{"type":"node","id":7669516120,"lat":60.1629747,"lon":24.9406492},{"type":"node","id":7669516124,"lat":60.1628708,"lon":24.9405773},{"type":"node","id":7669516125,"lat":60.162924,"lon":24.9405046},{"type":"node","id":7669516127,"lat":60.1627483,"lon":24.9402146},{"type":"node","id":7669516128,"lat":60.1627999,"lon":24.9401505},{"type":"node","id":7669516129,"lat":60.162671,"lon":24.9399917},{"type":"node","id":7669516130,"lat":60.1627225,"lon":24.9399297},{"type":"node","id":7669516133,"lat":60.1625226,"lon":24.9397031},{"type":"node","id":7669516135,"lat":60.1623549,"lon":24.9399388},{"type":"node","id":7669516138,"lat":60.1622939,"lon":24.9400246},{"type":"node","id":7669516140,"lat":60.1622362,"lon":24.9401056},{"type":"node","id":7669516142,"lat":60.1621628,"lon":24.9402088},{"type":"node","id":7669516144,"lat":60.1621059,"lon":24.9402888},{"type":"node","id":7669516146,"lat":60.1619997,"lon":24.940438},{"type":"node","id":7669516148,"lat":60.1620522,"lon":24.940775},{"type":"node","id":7669516150,"lat":60.1623062,"lon":24.9415049},{"type":"node","id":7669516152,"lat":60.1624066,"lon":24.9417937},{"type":"node","id":7669516158,"lat":60.1625906,"lon":24.9423219},{"type":"node","id":7669700694,"lat":60.1637649,"lon":24.9429394},{"type":"node","id":7669700700,"lat":60.163619,"lon":24.9427605},{"type":"node","id":7669700701,"lat":60.1635957,"lon":24.942694},{"type":"node","id":7669700703,"lat":60.1635579,"lon":24.9425858},{"type":"node","id":7669700704,"lat":60.1636164,"lon":24.9425032},{"type":"node","id":7669700706,"lat":60.1636525,"lon":24.9426092},{"type":"node","id":7669700707,"lat":60.1636773,"lon":24.942682},{"type":"node","id":7669700708,"lat":60.1633943,"lon":24.9421182},{"type":"node","id":7669700709,"lat":60.1634547,"lon":24.942028},{"type":"node","id":7669700710,"lat":60.1633582,"lon":24.94195},{"type":"node","id":7669700711,"lat":60.1631053,"lon":24.9423499},{"type":"node","id":7669700712,"lat":60.1630667,"lon":24.9422393},{"type":"node","id":7669700713,"lat":60.1630949,"lon":24.9423203},{"type":"node","id":7669700714,"lat":60.1632372,"lon":24.9423742},{"type":"node","id":7669700715,"lat":60.1632553,"lon":24.9423517},{"type":"node","id":7669700716,"lat":60.1631518,"lon":24.9424773},{"type":"node","id":7669700717,"lat":60.1631621,"lon":24.942463},{"type":"node","id":7669700718,"lat":60.1628912,"lon":24.9426524},{"type":"node","id":7669700720,"lat":60.1628803,"lon":24.9426227},{"type":"node","id":7669700722,"lat":60.1629331,"lon":24.9427704},{"type":"node","id":7669700724,"lat":60.1627695,"lon":24.9428245},{"type":"node","id":7669700725,"lat":60.1627592,"lon":24.9427934},{"type":"node","id":7673510102,"lat":60.163169,"lon":24.9424636},{"type":"node","id":7680128407,"lat":60.1627713,"lon":24.9400688},{"type":"node","id":7680128408,"lat":60.1627887,"lon":24.9403348},{"type":"node","id":7680128409,"lat":60.1628391,"lon":24.9402622},{"type":"node","id":7680128410,"lat":60.162907,"lon":24.9406788},{"type":"node","id":7680128411,"lat":60.1629593,"lon":24.9406032},{"type":"node","id":7680128416,"lat":60.1629698,"lon":24.9406352},{"type":"node","id":7680128419,"lat":60.1630124,"lon":24.9407567},{"type":"node","id":7680128422,"lat":60.1630549,"lon":24.9408779},{"type":"node","id":7680128423,"lat":60.1630844,"lon":24.9411859},{"type":"node","id":7680128424,"lat":60.1631363,"lon":24.9411101},{"type":"node","id":7680128425,"lat":60.1631869,"lon":24.9414747},{"type":"node","id":7680128426,"lat":60.1632388,"lon":24.9414024},{"type":"node","id":7680128427,"lat":60.1630714,"lon":24.9416383},{"type":"node","id":7680128428,"lat":60.1630137,"lon":24.9417179},{"type":"node","id":7680128429,"lat":60.1632703,"lon":24.9417143},{"type":"node","id":7680128430,"lat":60.1633206,"lon":24.9416357},{"type":"node","id":7680128431,"lat":60.1632874,"lon":24.9417632},{"type":"node","id":7680128432,"lat":60.163234,"lon":24.9418524},{"type":"node","id":7680128433,"lat":60.1632444,"lon":24.9418828},{"type":"node","id":7680128434,"lat":60.1630835,"lon":24.9416729},{"type":"node","id":7680128435,"lat":60.1629558,"lon":24.9419538},{"type":"node","id":7680128436,"lat":60.1629641,"lon":24.9419436},{"type":"node","id":7680128437,"lat":60.1630884,"lon":24.9420571},{"type":"node","id":7680128438,"lat":60.1630963,"lon":24.9420829},{"type":"node","id":7680128439,"lat":60.1629043,"lon":24.942316},{"type":"node","id":7680128440,"lat":60.1629416,"lon":24.9424144},{"type":"node","id":7680128441,"lat":60.1629109,"lon":24.9423334},{"type":"node","id":7680128454,"lat":60.1624547,"lon":24.941932},{"type":"node","id":7680128456,"lat":60.1623298,"lon":24.9415726},{"type":"node","id":7680128458,"lat":60.1621474,"lon":24.9410486},{"type":"node","id":7680128463,"lat":60.1620877,"lon":24.9403145},{"type":"node","id":7680128465,"lat":60.162177,"lon":24.940189},{"type":"node","id":7680128470,"lat":60.1623237,"lon":24.9399827},{"type":"node","id":7893295320,"lat":60.162528,"lon":24.9396955},{"type":"node","id":7908376921,"lat":60.1645888,"lon":24.9402381},{"type":"node","id":7962864487,"lat":60.1622759,"lon":24.9400494},{"type":"node","id":7977201425,"lat":60.1637296,"lon":24.9428356},{"type":"node","id":7977201426,"lat":60.1636726,"lon":24.9429137},{"type":"node","id":8289797390,"lat":60.1630718,"lon":24.9416897},{"type":"node","id":8289797391,"lat":60.1631739,"lon":24.9419368},{"type":"node","id":8289797392,"lat":60.1631068,"lon":24.9420311},{"type":"node","id":8289797393,"lat":60.1630458,"lon":24.9418594},{"type":"node","id":8289797394,"lat":60.1630449,"lon":24.9421183},{"type":"node","id":8289797395,"lat":60.1630449,"lon":24.9421183},{"type":"node","id":8289797396,"lat":60.1631355,"lon":24.94203},{"type":"node","id":8629534237,"lat":60.1621446,"lon":24.9402344},{"type":"node","id":9195353325,"lat":60.1634055,"lon":24.94166},{"type":"node","id":9195353326,"lat":60.1633003,"lon":24.9418071},{"type":"node","id":9195353327,"lat":60.1633433,"lon":24.9419706},{"type":"node","id":9195353328,"lat":60.1634501,"lon":24.9418222},{"type":"node","id":9338778472,"lat":60.1630029,"lon":24.9409538},{"type":"node","id":9338778473,"lat":60.1629601,"lon":24.9408312},{"type":"node","id":9338778474,"lat":60.1629216,"lon":24.940721},{"type":"node","id":9338778475,"lat":60.1629171,"lon":24.9407079},{"type":"node","id":9561212419,"lat":60.1637832,"lon":24.9429931},{"type":"node","id":9561954668,"lat":60.1646533,"lon":24.9401487},{"type":"node","id":9699696317,"lat":60.1642033,"lon":24.9407736},{"type":"node","id":9909450371,"lat":60.1634004,"lon":24.9421091},{"type":"node","id":10259260122,"lat":60.1635706,"lon":24.9425673},{"type":"node","id":10961559266,"lat":60.1648042,"lon":24.9419611},{"type":"node","id":247321531,"lat":60.1641903,"lon":24.9439589},{"type":"node","id":247321720,"lat":60.1639202,"lon":24.9443146},{"type":"node","id":247321721,"lat":60.1638085,"lon":24.9444725},{"type":"node","id":247321727,"lat":60.1637055,"lon":24.9446148},{"type":"node","id":247321728,"lat":60.1634687,"lon":24.9449479},{"type":"node","id":247321735,"lat":60.1640829,"lon":24.9440843},{"type":"node","id":247321736,"lat":60.1639946,"lon":24.9442092},{"type":"node","id":247321741,"lat":60.1637326,"lon":24.9434462},{"type":"node","id":247321742,"lat":60.1635241,"lon":24.9437409},{"type":"node","id":247321761,"lat":60.16347,"lon":24.9441898},{"type":"node","id":247321762,"lat":60.1635344,"lon":24.9440991},{"type":"node","id":249226289,"lat":60.1632746,"lon":24.9431164},{"type":"node","id":249226294,"lat":60.1631545,"lon":24.9434629},{"type":"node","id":249226297,"lat":60.163316,"lon":24.9432346},{"type":"node","id":311091792,"lat":60.1641465,"lon":24.9440602},{"type":"node","id":434153021,"lat":60.1638171,"lon":24.9433267},{"type":"node","id":434153026,"lat":60.1634085,"lon":24.9442766},{"type":"node","id":434153027,"lat":60.1632956,"lon":24.944436},{"type":"node","id":434153028,"lat":60.1635904,"lon":24.9440204},{"type":"node","id":434153029,"lat":60.1637687,"lon":24.9445288},{"type":"node","id":434153030,"lat":60.1634052,"lon":24.9434898},{"type":"node","id":434153031,"lat":60.1633519,"lon":24.9435652},{"type":"node","id":434153032,"lat":60.1632356,"lon":24.9437295},{"type":"node","id":434153033,"lat":60.1631159,"lon":24.9438986},{"type":"node","id":434153034,"lat":60.1630294,"lon":24.9436398},{"type":"node","id":1005526389,"lat":60.1635033,"lon":24.9437702},{"type":"node","id":1005526422,"lat":60.1636352,"lon":24.9431648},{"type":"node","id":1377394501,"lat":60.1640078,"lon":24.9434328},{"type":"node","id":1377394527,"lat":60.1643713,"lon":24.9437212},{"type":"node","id":1377394532,"lat":60.1647168,"lon":24.9432367},{"type":"node","id":1377895492,"lat":60.1628484,"lon":24.9430988},{"type":"node","id":1377895502,"lat":60.163211,"lon":24.9441831},{"type":"node","id":1377895515,"lat":60.1634771,"lon":24.9430069},{"type":"node","id":1377895518,"lat":60.163719,"lon":24.9430463},{"type":"node","id":1555281116,"lat":60.163255,"lon":24.9443145},{"type":"node","id":2524210106,"lat":60.1634622,"lon":24.9449294},{"type":"node","id":2524210107,"lat":60.1634775,"lon":24.9449355},{"type":"node","id":2524210112,"lat":60.1640193,"lon":24.9441743},{"type":"node","id":3330871430,"lat":60.1630492,"lon":24.9436992},{"type":"node","id":3330871432,"lat":60.1631178,"lon":24.9439042},{"type":"node","id":3330871443,"lat":60.1633981,"lon":24.9447451},{"type":"node","id":3330896633,"lat":60.1648214,"lon":24.9430901},{"type":"node","id":3336810243,"lat":60.1641305,"lon":24.9440133},{"type":"node","id":3336810244,"lat":60.1641824,"lon":24.9439362},{"type":"node","id":7608083794,"lat":60.1634164,"lon":24.9447977},{"type":"node","id":7615674337,"lat":60.1644557,"lon":24.9436028},{"type":"node","id":7615674339,"lat":60.1645752,"lon":24.9434353},{"type":"node","id":7615674340,"lat":60.1646054,"lon":24.943393},{"type":"node","id":7669134926,"lat":60.1635354,"lon":24.9448542},{"type":"node","id":7669134932,"lat":60.1638672,"lon":24.9443896},{"type":"node","id":7669134937,"lat":60.1640702,"lon":24.9441023},{"type":"node","id":7669134939,"lat":60.1640746,"lon":24.9440605},{"type":"node","id":7669134940,"lat":60.1641221,"lon":24.9439884},{"type":"node","id":7669134941,"lat":60.164012,"lon":24.9438819},{"type":"node","id":7669134942,"lat":60.1640619,"lon":24.9438113},{"type":"node","id":7669134945,"lat":60.1639102,"lon":24.9435917},{"type":"node","id":7669134947,"lat":60.1638934,"lon":24.943544},{"type":"node","id":7669134949,"lat":60.1637882,"lon":24.9432441},{"type":"node","id":7669134950,"lat":60.1638425,"lon":24.9431673},{"type":"node","id":7669134952,"lat":60.1637135,"lon":24.9430306},{"type":"node","id":7669150788,"lat":60.1631794,"lon":24.9440886},{"type":"node","id":7669668876,"lat":60.1638188,"lon":24.944458},{"type":"node","id":7669700685,"lat":60.1639607,"lon":24.9437358},{"type":"node","id":7669700687,"lat":60.1640116,"lon":24.9436637},{"type":"node","id":7669700689,"lat":60.1638809,"lon":24.9435075},{"type":"node","id":7669700690,"lat":60.1638271,"lon":24.9433551},{"type":"node","id":7669700691,"lat":60.1638805,"lon":24.9432787},{"type":"node","id":7669700692,"lat":60.1639325,"lon":24.9434315},{"type":"node","id":7669700695,"lat":60.1636237,"lon":24.9431321},{"type":"node","id":7669700726,"lat":60.1628616,"lon":24.9431382},{"type":"node","id":7669700731,"lat":60.1630075,"lon":24.9435744},{"type":"node","id":7669700736,"lat":60.1630797,"lon":24.9437903},{"type":"node","id":7669700737,"lat":60.1630915,"lon":24.9438256},{"type":"node","id":7977135155,"lat":60.1633109,"lon":24.9444816},{"type":"node","id":7977135159,"lat":60.1629377,"lon":24.9433657},{"type":"node","id":7977201427,"lat":60.163588,"lon":24.9430296},{"type":"node","id":9561134363,"lat":60.1637981,"lon":24.9430369},{"type":"node","id":9561212417,"lat":60.1637278,"lon":24.9430715},{"type":"node","id":9561214017,"lat":60.1637429,"lon":24.9431146},{"type":"node","id":9568040465,"lat":60.1639449,"lon":24.943468},{"type":"node","id":9568040466,"lat":60.1639678,"lon":24.9437559},{"type":"node","id":9568040468,"lat":60.1639638,"lon":24.9435233},{"type":"node","id":9568040469,"lat":60.1639312,"lon":24.9436516},{"type":"node","id":9568040470,"lat":60.1639836,"lon":24.9435816},{"type":"node","id":9568040471,"lat":60.1640185,"lon":24.9436841},{"type":"node","id":9570221283,"lat":60.163918,"lon":24.9433889},{"type":"node","id":9570233917,"lat":60.1638668,"lon":24.9434682},{"type":"node","id":9699667417,"lat":60.1641613,"lon":24.9438756},{"type":"node","id":9699741724,"lat":60.1639155,"lon":24.9431691},{"type":"node","id":9699741726,"lat":60.1638662,"lon":24.943237},{"type":"node","id":9699829113,"lat":60.1641088,"lon":24.9439493}]}