{"version":0.6,"generator":"Overpass API 0.7.62.5 1bd436f1","osm3s":{"timestamp_osm_base":"2025-03-12T12:15:59Z","copyright":"The data included in this document is from www.openstreetmap.org. The data is made available under ODbL."},"elements":[{"type":"way","id":19894234,"nodes":[208717553,208717556,208717558,1823290756,208717560,6324968637,208717553],"tags":{"addr:city":"Helsinki","addr:country":"FI","addr:housenumber":"13","addr:street":"Franz\u00e9ninkatu","architect":"V\u00e4in\u00f6 V\u00e4h\u00e4kallio","building":"kindergarten","guard:operator":"G4S","name":"Franzenia","operator":"Helsingin kaupunki","start_date":"1930","wikidata":"Q20250531","wikimedia_commons":"Category:Franz\u00e9nia","wikipedia":"fi:Franz\u00e9nia"}},{"type":"way","id":24286976,"nodes":[1011921021,1011920979,1011920805,262984929],"tags":{"handrail":"yes","highway":"steps","incline":"up","lit":"yes","name":"Aadolfinrinne","name:fi":"Aadolfinrinne","name:sv":"Adolfsbrinken","ramp":"no","seasonal:winter":"no","surface":"paving_stones"}},{"type":"way","id":24287114,"nodes":[262984929,1011920829,1011920887,1526061459,1011921050,1011921094,1011921048,1011920683,1011920837,1011920894,6321049038,262984930,6321049037,6321049039,1011921159,1011920672,262984929],"tags":{"area":"yes","highway":"footway","hoitoluokitus_viheralue":"A2","name":"Aadolfinrinne","name:fi":"Aadolfinrinne","name:sv":"Adolfsbrinken","place":"square"}},{"type":"way","id":24287115,"nodes":[262984930,435207155],"tags":{"handrail":"yes","highway":"steps","incline":"up","name":"Aadolfinrinne","name:fi":"Aadolfinrinne","name:sv":"Adolfsbrinken","ramp":"no"}},{"type":"way","id":24485942,"nodes":[1017158502,1857439529,1857439527,1017158461,1017158405,1017158448,1017158502],"tags":{"addr:housenumber":"15","addr:postcode":"00500","addr:street":"Helsinginkatu","building":"apartments","building:levels":"7","building:maintenance:operator":"Stadin Gosarit Oy","roof:colour":"black","roof:levels":"0","roof:material":"metal","roof:shape":"gabled"}},{"type":"way","id":24768451,"nodes":[289555129,11775372973,11804063355,11775372972,11775370464,1017158429,313945944,313769715,270993941,313945955,354872573,354872572,11804712108,11775370457,11775370459,11775370452,11775370447,1011921136,313945973],"tags":{"bicycle":"no","footway":"sidewalk","highway":"footway","lit":"yes","snowplowing":"yes","surface":"asphalt"}},{"type":"way","id":26428186,"nodes":[262982613,8852722355,8852722353,11063552300,8852722357,8852722360,8852722362,11096552113,8852722366,8852722368,262982614,1017104737,262982615,354862334,262982635,1011921115,1526061460,262985887,313945968,317913564,435207160,262982616,1018118962,1011920871],"tags":{"bicycle":"no","footway":"sidewalk","highway":"footway","lit":"yes","smoothness":"good","snowplowing":"yes","surface":"asphalt"}},{"type":"way","id":37296699,"nodes":[266220723,266220724,1548499922,434619559,434619561,6324968526,11741753851,434619563,266221495,11766458365,6783371247,266220706,11775370448,1017158502,1857439529,1857439527,1017158461,11775370453,11775370460,11775370458,266220707,266220708,266220727,266220728,11804712105,1525464073,266220730,1859006155,266220723],"tags":{"landuse":"residential"}},{"type":"way","id":37336530,"nodes":[435207149,435207150,11278815053,1405382207,435207151,1016540341,1016540255,1016540531,11278815054,1016540518,1016540422,1017158409,435207152,435207153,1011921107,1016540084,435207154,1016540562,6321049036,1011920844,6321049035,1011920999,435207156,1526055786,1016540584,1016540515,435207157,6323267646,6323267645,435207158,1016540230,1016540545,6323267644,435207159,435207172,435207171,8454073098,6681317453,435207168,6323267682,5025854696,6323271690,435207169,435207170],"tags":{"bicycle":"no","footway":"sidewalk","highway":"footway","lit":"yes","surface":"asphalt"}},{"type":"way","id":38082555,"nodes":[210526659,6502483267,210526660,6323267640,447906138,6323267639,12303047713,447906137,1017158463,447906136,1017158439,1016540349,1017158400,3071471376,1016540528,1017158426,6324968627,447906135,12124797499,210525244,210525246,210525239,4674523987,210526670,210526657,3121982733,1526055723,3121982735,12547679397,12547679398,1017104521,1526055768,1854588213,210526658,1526055790,1854588224,1526055792,210526659],"tags":{"landuse":"residential"}},{"type":"way","id":38082556,"nodes":[210524464,210524466,6323267649,6323267647,6323267648,447906144,6323267650,12303047711,447906142,447906141,447906140,6323267641,210524474,6502483268,210524460,1016635252,1016635159,210524462,1829968226,210524463,1503057167,210524464],"tags":{"landuse":"residential"}},{"type":"way","id":38341710,"nodes":[236596755,11061441071,11061441070,11061441069,11061441068,1854588224,1526055792,210526659,210524460,1016635252,1016635159,210524462,210522985,1016635144,1016635230,1016635215,11766458357,1016635066,210522986,210475258,8831720842,8831720840,8831720836,8836005055,10933921839,10933921840,452815162,452815163],"tags":{"admin_level":"10","boundary":"administrative"}},{"type":"way","id":74327989,"nodes":[878639601,11775370446,11775370451,566833617],"tags":{"cycleway:right":"lane","highway":"secondary","lanes":"1","lit":"yes","loc_name":"Hesari","maxspeed":"40","name":"Helsinginkatu","name:fi":"Helsinginkatu","name:sv":"Helsingegatan","oneway":"yes","parking:lane:left":"no_stopping","parking:lane:right":"no_parking","snowplowing":"yes","source":"survey","surface":"asphalt"}},{"type":"way","id":75731537,"nodes":[34500691,313945952,894103939,6321049058,6321049057,989319672],"tags":{"cycleway:right":"lane","highway":"secondary","lanes":"1","lit":"yes","loc_name":"Hesari","maxspeed":"40","name":"Helsinginkatu","name:fi":"Helsinginkatu","name:sv":"Helsingegatan","oneway":"yes","parking:lane:both":"no_stopping","snowplowing":"yes","source":"survey","surface":"asphalt"}},{"type":"way","id":85334619,"nodes":[989319672,613923239,2050462384],"tags":{"cycleway:right":"lane","highway":"secondary","lanes":"1","lit":"yes","loc_name":"Hesari","maxspeed":"40","name":"Helsinginkatu","name:fi":"Helsinginkatu","name:sv":"Helsingegatan","note":"k\u00e4\u00e4ntymiskaista kiskoilla","oneway":"yes","parking:condition:right":"ticket","parking:condition:right:default":"free","parking:condition:right:residents":"I","parking:condition:right:time_interval":"Mo-Fr 09:00-21:00","parking:lane:left":"no_stopping","parking:lane:right":"parallel","parking:ticket:zone":"3","snowplowing":"yes","source":"survey","surface":"asphalt"}},{"type":"way","id":86977909,"nodes":[1011921147,1011920778,1011920995,1011921048],"tags":{"handrail":"yes","highway":"steps","incline":"up","lit":"yes","name":"Aadolfinrinne","name:fi":"Aadolfinrinne","name:sv":"Adolfsbrinken","ramp":"no","surface":"stone"}},{"type":"way","id":86977913,"nodes":[262985887,1011921021],"tags":{"highway":"footway","lit":"yes","surface":"asphalt"}},{"type":"way","id":86977917,"nodes":[435207155,1011920844,1011920771,1397601345],"tags":{"highway":"footway","lit":"yes"}},{"type":"way","id":86977918,"nodes":[1011921115,1011921147],"tags":{"highway":"footway","lit":"yes","surface":"asphalt"}},{"type":"way","id":87420984,"nodes":[6324968711,1016540507,1016540438,1016540331,6324968530,435207146,1016540581,6324968531,1016540258,435207147,1397601316],"tags":{"barrier":"retaining_wall"}},{"type":"way","id":87429910,"nodes":[1016635061,1016635011,1016635098,1016635330,6323267641,210524474,6502483268,210524460,1016635252,1016635061],"tags":{"building":"apartments","building:levels":"8","building:maintenance:operator":"Repo Kiinteist\u00f6hoito Oy","roof:levels":"0","wikidata":"Q98411619"}},{"type":"way","id":87464402,"nodes":[210526663,1526055790,11766489088,1854588222,11766489087,1854588223,1854588224,1526055792,1526055778,6324968602,210526662,210526663],"tags":{"addr:city":"Helsinki","addr:country":"FI","addr:housenumber":"14","addr:street":"Helsinginkatu","building":"apartments","building:levels":"7","wikidata":"Q98411621","wikimedia_commons":"Category:Helsinginkatu 14, Helsinki"}},{"type":"way","id":87468231,"nodes":[1017158405,1017158461,11775370453,11775370460,11775370458,266220707,266220708,11775370454,1017158405],"tags":{"addr:housenumber":"17","addr:street":"Helsinginkatu","building":"apartments","building:levels":"7","building:maintenance:operator":"Stadin Gosarit Oy","roof:levels":"0","roof:shape":"gabled"}},{"type":"way","id":87468241,"nodes":[1857439534,355154349,266221495,11766458364,6783371247,266220706,11775370448,1017158502,1017158448,11775370449,266220709,266220710,1857439530,1857439534],"tags":{"building":"apartments","building:levels":"7","building:maintenance:operator":"Stadin Gosarit Oy","roof:levels":"0","roof:material":"metal","roof:shape":"gabled"}},{"type":"way","id":125960940,"nodes":[6324968701,6324968697,6324968700,6324968696,6324968698,6324968695,6324968699,6324968694,6324968660,431474659],"tags":{"barrier":"wall"}},{"type":"way","id":125960942,"nodes":[1397601264,1397601298,1397601365,1397601329],"tags":{"handrail":"yes","highway":"steps","incline":"up","ramp":"no"}},{"type":"way","id":125960944,"nodes":[1397601264,1397601409,1397601417,1397601341],"tags":{"handrail":"yes","highway":"steps","incline":"up","ramp":"no"}},{"type":"way","id":125960946,"nodes":[1016540507,6324968631,11716666507,6324968630,431474647],"tags":{"barrier":"fence"}},{"type":"way","id":125960947,"nodes":[6324968705,6324968706,6324968707,6324968708,6324968709,6324968710,6324968711],"tags":{"barrier":"wall"}},{"type":"way","id":125960948,"nodes":[1397601345,1397601264],"tags":{"handrail":"yes","highway":"steps","incline":"up"}},{"type":"way","id":125960949,"nodes":[1397601391,1397601431,6324968693,1397601426,1397601405,1397601413],"tags":{"barrier":"wall"}},{"type":"way","id":133530043,"nodes":[1469678195,1469678185,1469678180],"tags":{"diameter":"300","layer":"-1","location":"underground","man_made":"pipeline","substance":"water"}},{"type":"way","id":137012262,"nodes":[1503066480,1503066478,1503066476,1011920829,1011920887,1526061459,1011921050,1011921094,1503066473,1503066475,1503066477],"tags":{"barrier":"retaining_wall"}},{"type":"way","id":139225421,"nodes":[1526055715,431474646,1016540363,1526055726,1405382204,1526055760,1017158368,1017158487,1016540451,1016540566,1016540105,1017158351,1526055773,6324968686,1526055775,6324968687,6324968688,1526055777,1011920815,6324968689,1011920771,1526055784,6324968690,1011921144,1526055779,1016540420,1016540314,3121982740,6323267643,6323267642,1526055781,1016540502,1016540119,1437334925,1526055774],"tags":{"highway":"residential","lanes":"1","maxspeed":"30","name":"Aadolfinkatu","name:fi":"Aadolfinkatu","name:sv":"Adolfsgatan","oneway":"yes","oneway:bicycle":"no","surface":"asphalt"}},{"type":"way","id":139225448,"nodes":[431474659,431474647,6324968630,11716666507,6324968631,1016540507,1397601436,6324968704,1397601371,1397601351,6324968703,1397601411,6324968702,1397601368,1397601429,6324968692,1397601334,6324968691,1397601301,262986945,6324968660,431474659],"tags":{"addr:city":"Helsinki","addr:housenumber":"13","addr:postcode":"00500","addr:street":"Franz\u00e9ninkatu","amenity":"kindergarten","name":"P\u00e4iv\u00e4koti Franzenia","phone":"+358 9 310 46075","preschool":"yes","website":"https:\/\/www.hel.fi\/fi\/kasvatus-ja-koulutus\/paivakoti-franzenia"}},{"type":"way","id":139225462,"nodes":[1016088065,1526055696,1526061457,1526061458,1526061459],"tags":{"access":"no","highway":"service","layer":"-2","maxheight":"2.2","trailer":"no","tunnel":"yes"}},{"type":"way","id":139225512,"nodes":[1526055792,210526659,6502483267,210526660,6323267640,1016635265,1016635087,1526055778,1526055792],"tags":{"building":"apartments","building:levels":"7","building:maintenance:operator":"Insales Oy","guard:operator":"Otso","wikidata":"Q98411620","wikimedia_commons":"Category:Helsinginkatu 12, Helsinki"}},{"type":"way","id":139226644,"nodes":[1526061459,1526061460,1526061461],"tags":{"highway":"service","surface":"asphalt"}},{"type":"way","id":194544795,"nodes":[2050462384,1526061461,6321049048],"tags":{"cycleway:right":"lane","highway":"secondary","lanes":"1","lit":"yes","loc_name":"Hesari","maxspeed":"40","name":"Helsinginkatu","name:fi":"Helsinginkatu","name:sv":"Helsingegatan","note":"k\u00e4\u00e4ntymiskaista kiskoilla","oneway":"yes","parking:lane:both":"no_stopping","snowplowing":"yes","source":"survey","surface":"asphalt","tram:lanes:forward":"yes|","turn:lanes":"left|through"}},{"type":"way","id":327276024,"nodes":[3340044955,3340044957],"tags":{"electrified":"contact_line","frequency":"0","gauge":"1000","last_renovation":"2015","oneway":"yes","operator":"HKL-Raitioliikenne","railway":"tram","tram:segregation:physical":"curb_low","voltage":"600"}},{"type":"way","id":327276044,"nodes":[3340044958,6461223472],"tags":{"electrified":"contact_line","frequency":"0","gauge":"1000","last_renovation":"2015","oneway":"yes","operator":"HKL-Raitioliikenne","railway":"tram","tram:segregation:physical":"curb_low","voltage":"600"}},{"type":"way","id":674957351,"nodes":[1011920894,6321049038,6321049040,210526660],"tags":{"barrier":"retaining_wall"}},{"type":"way","id":674957352,"nodes":[210524474,6321049041,6321049037,6321049039],"tags":{"barrier":"retaining_wall"}},{"type":"way","id":674957357,"nodes":[6321049048,6321049047],"tags":{"cycleway:right":"lane","highway":"secondary","lanes":"1","lit":"yes","loc_name":"Hesari","maxspeed":"40","name":"Helsinginkatu","name:fi":"Helsinginkatu","name:sv":"Helsingegatan","note":"k\u00e4\u00e4ntymiskaista kiskoilla","oneway":"yes","parking:condition:right":"ticket","parking:condition:right:default":"free","parking:condition:right:residents":"I","parking:condition:right:time_interval":"Mo-Fr 09:00-21:00","parking:lane:both":"no_stopping","parking:lane:left":"no_stopping","parking:lane:right":"parallel","parking:ticket:zone":"3","snowplowing":"yes","source":"survey","surface":"asphalt","tram:lanes:forward":"yes|","turn:lanes":"left|through"}},{"type":"way","id":674957358,"nodes":[6321049047,313945969,6321049046],"tags":{"cycleway:right":"lane","highway":"secondary","lanes":"1","lit":"yes","loc_name":"Hesari","maxspeed":"40","name":"Helsinginkatu","name:fi":"Helsinginkatu","name:sv":"Helsingegatan","note":"k\u00e4\u00e4ntymiskaista kiskoilla","oneway":"yes","parking:lane:both":"no_stopping","snowplowing":"yes","source":"survey","surface":"asphalt","tram:lanes:forward":"yes|","turn:lanes":"left|through"}},{"type":"way","id":675379047,"nodes":[6324968640,6324968634,6324968633,6324968635,6324968636,6324968639,6324968631,11716666507,6324968630,6324968638,6324968657,6324968656,6324968654,6324968655,6324968653,6324968652,6324968651,6324968650,1397601318,6324968649,6324968648,6324968647,6324968646,6324968641,6324968645,6324968642,6324968643,6324968644,6324968632,6324968640],"tags":{"access:conditional":"customers @ (Mo-Fr 08:00-17:00)","hoitoluokitus_viheralue":"H1","leisure":"playground"}},{"type":"way","id":675379048,"nodes":[208717560,11716666506,6324968630,6324968638,6324968657,6324968656,6324968654,6324968655,6324968653,6324968652,6324968651,6324968650,1397601318,6324968649,6324968648,6324968647,6324968646,6324968641,6324968645,6324968642,6324968643,6324968644,6324968632,6324968640,6324968634,6324968633,6324968635,6324968636,6324968639,6324968631],"tags":{"barrier":"fence"}},{"type":"way","id":692626578,"nodes":[1503066477,1503066475,1503066473,1011921094,1011920683,1011920837,1011920894,6321049038,6321049040,210526660,6502483267,1503066477],"tags":{"hoitoluokitus_viheralue":"A2","leisure":"park"}},{"type":"way","id":692626579,"nodes":[6321049041,210524474,6502483268,1503066480,1503066478,1503066476,1011920829,262984929,1011920672,1011921159,6321049039,6321049037,6321049041],"tags":{"hoitoluokitus_viheralue":"A2","leisure":"park"}},{"type":"way","id":1267897864,"nodes":[11775370446,11775370447,11775370448],"tags":{"access":"destination","highway":"service","service":"driveway"}},{"type":"way","id":1267897865,"nodes":[11775370448,11775370449],"tags":{"access":"destination","highway":"service","service":"driveway","tunnel":"building_passage"}},{"type":"way","id":1267897867,"nodes":[11775370451,11775370452,11775370453],"tags":{"access":"destination","highway":"service","service":"driveway"}},{"type":"way","id":1267897868,"nodes":[11775370453,11775370454],"tags":{"access":"destination","highway":"service","service":"driveway","tunnel":"building_passage"}},{"type":"way","id":1267897873,"nodes":[11775370459,11775370460],"tags":{"highway":"footway"}},{"type":"way","id":1329755437,"nodes":[12303047713,12303047712],"tags":{"barrier":"retaining_wall"}},{"type":"node","id":34500691,"lat":60.1869541,"lon":24.953167},{"type":"node","id":208717553,"lat":60.1866763,"lon":24.9551899},{"type":"node","id":208717556,"lat":60.1867109,"lon":24.9557984},{"type":"node","id":208717558,"lat":60.1864986,"lon":24.9558472},{"type":"node","id":208717560,"lat":60.186464,"lon":24.9552388},{"type":"node","id":210524460,"lat":60.1870788,"lon":24.9556002},{"type":"node","id":210524474,"lat":60.1869174,"lon":24.9556372},{"type":"node","id":210525239,"lat":60.1857745,"lon":24.9538594},{"type":"node","id":210525244,"lat":60.1860467,"lon":24.9541719},{"type":"node","id":210525246,"lat":60.1860131,"lon":24.9542556},{"type":"node","id":210526657,"lat":60.1856872,"lon":24.9534756},{"type":"node","id":210526658,"lat":60.1868829,"lon":24.9533526},{"type":"node","id":210526659,"lat":60.1870438,"lon":24.9552106},{"type":"node","id":210526660,"lat":60.1868893,"lon":24.9552455},{"type":"node","id":210526662,"lat":60.1867872,"lon":24.9539848},{"type":"node","id":210526663,"lat":60.1868065,"lon":24.9539788},{"type":"node","id":210526670,"lat":60.1856915,"lon":24.9537272},{"type":"node","id":236596755,"lat":60.1864515,"lon":24.9515594},{"type":"node","id":262982613,"lat":60.1868196,"lon":24.951712},{"type":"node","id":262982614,"lat":60.1868703,"lon":24.9528027},{"type":"node","id":262982615,"lat":60.1868912,"lon":24.9531751},{"type":"node","id":262982635,"lat":60.1869088,"lon":24.9534585},{"type":"node","id":262984929,"lat":60.1870155,"lon":24.9554842},{"type":"node","id":262984930,"lat":60.1869341,"lon":24.9554297},{"type":"node","id":262985887,"lat":60.1871046,"lon":24.9555194},{"type":"node","id":262986945,"lat":60.1867657,"lon":24.9558615},{"type":"node","id":266220706,"lat":60.1873815,"lon":24.9559289},{"type":"node","id":266220707,"lat":60.1872073,"lon":24.9540093},{"type":"node","id":266220708,"lat":60.1873399,"lon":24.9539739},{"type":"node","id":266220709,"lat":60.187481,"lon":24.9556872},{"type":"node","id":266220710,"lat":60.1875535,"lon":24.9556727},{"type":"node","id":266220723,"lat":60.1876635,"lon":24.9532734},{"type":"node","id":266220724,"lat":60.1876727,"lon":24.9535882},{"type":"node","id":266220727,"lat":60.1873262,"lon":24.9537884},{"type":"node","id":266220728,"lat":60.1873131,"lon":24.9536234},{"type":"node","id":266220730,"lat":60.1874979,"lon":24.953293},{"type":"node","id":266221495,"lat":60.1876731,"lon":24.9559341},{"type":"node","id":270993941,"lat":60.18712,"lon":24.953154},{"type":"node","id":289555129,"lat":60.1870456,"lon":24.9516859},{"type":"node","id":313769715,"lat":60.1871156,"lon":24.9530623},{"type":"node","id":313945944,"lat":60.1871131,"lon":24.9530025},{"type":"node","id":313945952,"lat":60.186976,"lon":24.9534378},{"type":"node","id":313945955,"lat":60.1871269,"lon":24.9532738},{"type":"node","id":313945968,"lat":60.1871382,"lon":24.9559419},{"type":"node","id":313945969,"lat":60.1872149,"lon":24.9559135},{"type":"node","id":313945973,"lat":60.1873587,"lon":24.9559579},{"type":"node","id":354862334,"lat":60.1868986,"lon":24.9533252},{"type":"node","id":354872572,"lat":60.1871346,"lon":24.9533915},{"type":"node","id":354872573,"lat":60.1871316,"lon":24.9533375},{"type":"node","id":355154349,"lat":60.1876735,"lon":24.9558165},{"type":"node","id":431474646,"lat":60.186032,"lon":24.9543303},{"type":"node","id":431474647,"lat":60.1864142,"lon":24.9551786},{"type":"node","id":431474659,"lat":60.1864559,"lon":24.9559328},{"type":"node","id":434619559,"lat":60.1876814,"lon":24.9538996},{"type":"node","id":434619561,"lat":60.1876847,"lon":24.9539699},{"type":"node","id":434619563,"lat":60.1877161,"lon":24.9559317},{"type":"node","id":435207146,"lat":60.1866394,"lon":24.9544185},{"type":"node","id":435207147,"lat":60.1865222,"lon":24.9542495},{"type":"node","id":435207149,"lat":60.1860101,"lon":24.9542942},{"type":"node","id":435207150,"lat":60.1860513,"lon":24.9541915},{"type":"node","id":435207151,"lat":60.1864811,"lon":24.9541446},{"type":"node","id":435207152,"lat":60.1867163,"lon":24.9545431},{"type":"node","id":435207153,"lat":60.1867517,"lon":24.9550009},{"type":"node","id":435207154,"lat":60.1868644,"lon":24.9552411},{"type":"node","id":435207155,"lat":60.186903,"lon":24.9554398},{"type":"node","id":435207156,"lat":60.186886,"lon":24.9557318},{"type":"node","id":447906135,"lat":60.1864799,"lon":24.9541194},{"type":"node","id":447906136,"lat":60.1867092,"lon":24.9544475},{"type":"node","id":447906137,"lat":60.186756,"lon":24.9549692},{"type":"node","id":447906138,"lat":60.186868,"lon":24.9551976},{"type":"node","id":447906140,"lat":60.1869041,"lon":24.9557001},{"type":"node","id":447906141,"lat":60.1869219,"lon":24.9559448},{"type":"node","id":447906142,"lat":60.1868274,"lon":24.955972},{"type":"node","id":566833617,"lat":60.1871436,"lon":24.9540637},{"type":"node","id":613923239,"lat":60.1871397,"lon":24.9550547},{"type":"node","id":878639601,"lat":60.18729,"lon":24.9558271},{"type":"node","id":894103939,"lat":60.1870338,"lon":24.9541027},{"type":"node","id":989319672,"lat":60.1870982,"lon":24.9545538},{"type":"node","id":1011920672,"lat":60.1870069,"lon":24.9554982},{"type":"node","id":1011920683,"lat":60.18699,"lon":24.9553194},{"type":"node","id":1011920771,"lat":60.186858,"lon":24.9554586},{"type":"node","id":1011920778,"lat":60.1870268,"lon":24.9552898},{"type":"node","id":1011920805,"lat":60.1870286,"lon":24.9555104},{"type":"node","id":1011920815,"lat":60.1868344,"lon":24.9552945},{"type":"node","id":1011920829,"lat":60.1870216,"lon":24.9554671},{"type":"node","id":1011920837,"lat":60.1869351,"lon":24.9553349},{"type":"node","id":1011920844,"lat":60.1868936,"lon":24.9554424},{"type":"node","id":1011920887,"lat":60.1870149,"lon":24.9554464},{"type":"node","id":1011920894,"lat":60.1869397,"lon":24.955389},{"type":"node","id":1011920979,"lat":60.1870537,"lon":24.9555256},{"type":"node","id":1011920995,"lat":60.1870149,"lon":24.9553091},{"type":"node","id":1011920999,"lat":60.1868968,"lon":24.955613},{"type":"node","id":1011921021,"lat":60.1870743,"lon":24.9555248},{"type":"node","id":1011921048,"lat":60.187004,"lon":24.9553403},{"type":"node","id":1011921050,"lat":60.1870097,"lon":24.9553899},{"type":"node","id":1011921094,"lat":60.1870142,"lon":24.9553556},{"type":"node","id":1011921107,"lat":60.1868168,"lon":24.9551122},{"type":"node","id":1011921115,"lat":60.1870809,"lon":24.9552606},{"type":"node","id":1011921136,"lat":60.1873501,"lon":24.9558595},{"type":"node","id":1011921144,"lat":60.1868483,"lon":24.9557056},{"type":"node","id":1011921147,"lat":60.1870489,"lon":24.9552729},{"type":"node","id":1011921159,"lat":60.1869495,"lon":24.9555143},{"type":"node","id":1016540084,"lat":60.1868465,"lon":24.9551842},{"type":"node","id":1016540105,"lat":60.1866636,"lon":24.9543958},{"type":"node","id":1016540255,"lat":60.186576,"lon":24.9541956},{"type":"node","id":1016540258,"lat":60.1865628,"lon":24.9542858},{"type":"node","id":1016540314,"lat":60.1867972,"lon":24.9559231},{"type":"node","id":1016540331,"lat":60.1866688,"lon":24.9545361},{"type":"node","id":1016540341,"lat":60.1865356,"lon":24.9541599},{"type":"node","id":1016540349,"lat":60.1866568,"lon":24.9542944},{"type":"node","id":1016540363,"lat":60.1860605,"lon":24.9542582},{"type":"node","id":1016540420,"lat":60.1868047,"lon":24.9558615},{"type":"node","id":1016540422,"lat":60.1866821,"lon":24.9543827},{"type":"node","id":1016540438,"lat":60.1866769,"lon":24.9546189},{"type":"node","id":1016540451,"lat":60.1866003,"lon":24.9542706},{"type":"node","id":1016540507,"lat":60.1867106,"lon":24.955109},{"type":"node","id":1016540515,"lat":60.1868202,"lon":24.9559758},{"type":"node","id":1016540518,"lat":60.1866487,"lon":24.9543018},{"type":"node","id":1016540528,"lat":60.186582,"lon":24.954177},{"type":"node","id":1016540531,"lat":60.1866123,"lon":24.9542441},{"type":"node","id":1016540562,"lat":60.1868821,"lon":24.9553334},{"type":"node","id":1016540566,"lat":60.1866343,"lon":24.9543288},{"type":"node","id":1016540581,"lat":60.1866136,"lon":24.9543637},{"type":"node","id":1016540584,"lat":60.1868305,"lon":24.955911},{"type":"node","id":1016635011,"lat":60.1869564,"lon":24.9560873},{"type":"node","id":1016635087,"lat":60.1868494,"lon":24.9547783},{"type":"node","id":1016635098,"lat":60.1869436,"lon":24.9559388},{"type":"node","id":1016635265,"lat":60.1868642,"lon":24.9549465},{"type":"node","id":1016635330,"lat":60.1869313,"lon":24.9557976},{"type":"node","id":1017104521,"lat":60.1863057,"lon":24.9534129},{"type":"node","id":1017104737,"lat":60.1868832,"lon":24.9530262},{"type":"node","id":1017158351,"lat":60.1866856,"lon":24.9544748},{"type":"node","id":1017158368,"lat":60.1865277,"lon":24.9541896},{"type":"node","id":1017158400,"lat":60.1866214,"lon":24.9542288},{"type":"node","id":1017158405,"lat":60.1873935,"lon":24.9546222},{"type":"node","id":1017158409,"lat":60.186702,"lon":24.95446},{"type":"node","id":1017158426,"lat":60.1865373,"lon":24.9541364},{"type":"node","id":1017158429,"lat":60.1870991,"lon":24.9527845},{"type":"node","id":1017158439,"lat":60.1866843,"lon":24.9543701},{"type":"node","id":1017158448,"lat":60.1874486,"lon":24.9552835},{"type":"node","id":1017158461,"lat":60.1872642,"lon":24.9546382},{"type":"node","id":1017158463,"lat":60.1867263,"lon":24.9545442},{"type":"node","id":1017158487,"lat":60.1865637,"lon":24.954221},{"type":"node","id":1017158502,"lat":60.1873239,"lon":24.9553068},{"type":"node","id":1397601264,"lat":60.1868115,"lon":24.9554746},{"type":"node","id":1397601298,"lat":60.1868072,"lon":24.9554206},{"type":"node","id":1397601301,"lat":60.1867863,"lon":24.9558226},{"type":"node","id":1397601316,"lat":60.1863747,"lon":24.9542598},{"type":"node","id":1397601318,"lat":60.1863568,"lon":24.9543266},{"type":"node","id":1397601329,"lat":60.1867926,"lon":24.9553334},{"type":"node","id":1397601334,"lat":60.1868165,"lon":24.9557208},{"type":"node","id":1397601341,"lat":60.1868089,"lon":24.9556098},{"type":"node","id":1397601345,"lat":60.1868298,"lon":24.9554675},{"type":"node","id":1397601351,"lat":60.1868023,"lon":24.9552786},{"type":"node","id":1397601365,"lat":60.1868009,"lon":24.9553757},{"type":"node","id":1397601368,"lat":60.1868374,"lon":24.9555357},{"type":"node","id":1397601371,"lat":60.1867826,"lon":24.9552232},{"type":"node","id":1397601391,"lat":60.186799,"lon":24.9556036},{"type":"node","id":1397601405,"lat":60.1867938,"lon":24.955398},{"type":"node","id":1397601409,"lat":60.1868117,"lon":24.9555253},{"type":"node","id":1397601411,"lat":60.1868287,"lon":24.9553998},{"type":"node","id":1397601413,"lat":60.1867866,"lon":24.9553487},{"type":"node","id":1397601417,"lat":60.186811,"lon":24.9555731},{"type":"node","id":1397601426,"lat":60.1867996,"lon":24.9554455},{"type":"node","id":1397601429,"lat":60.186835,"lon":24.955599},{"type":"node","id":1397601431,"lat":60.1868008,"lon":24.9555509},{"type":"node","id":1397601436,"lat":60.1867378,"lon":24.955141},{"type":"node","id":1405382204,"lat":60.1863521,"lon":24.9541907},{"type":"node","id":1405382207,"lat":60.1863511,"lon":24.9541584},{"type":"node","id":1469678180,"lat":60.1870818,"lon":24.9549787},{"type":"node","id":1503066473,"lat":60.1870224,"lon":24.95533},{"type":"node","id":1503066475,"lat":60.1870315,"lon":24.9553131},{"type":"node","id":1503066476,"lat":60.1870375,"lon":24.9554936},{"type":"node","id":1503066477,"lat":60.1870464,"lon":24.955298},{"type":"node","id":1503066478,"lat":60.1870541,"lon":24.9555049},{"type":"node","id":1503066480,"lat":60.1870676,"lon":24.9555057},{"type":"node","id":1525464073,"lat":60.1872879,"lon":24.9533241},{"type":"node","id":1526055715,"lat":60.1860077,"lon":24.9543865},{"type":"node","id":1526055723,"lat":60.186072,"lon":24.9534355},{"type":"node","id":1526055726,"lat":60.1860987,"lon":24.9542175},{"type":"node","id":1526055760,"lat":60.1864823,"lon":24.9541774},{"type":"node","id":1526055768,"lat":60.1865785,"lon":24.9533836},{"type":"node","id":1526055773,"lat":60.1866977,"lon":24.9545563},{"type":"node","id":1526055775,"lat":60.1867351,"lon":24.9550539},{"type":"node","id":1526055777,"lat":60.1868129,"lon":24.9552201},{"type":"node","id":1526055778,"lat":60.1868364,"lon":24.9546143},{"type":"node","id":1526055779,"lat":60.1868287,"lon":24.9557878},{"type":"node","id":1526055784,"lat":60.1868617,"lon":24.9555485},{"type":"node","id":1526055786,"lat":60.1868708,"lon":24.9558028},{"type":"node","id":1526055790,"lat":60.1869334,"lon":24.953948},{"type":"node","id":1526055792,"lat":60.1869898,"lon":24.9545823},{"type":"node","id":1526061457,"lat":60.1861335,"lon":24.9557298},{"type":"node","id":1526061458,"lat":60.1862091,"lon":24.9556571},{"type":"node","id":1526061459,"lat":60.1870106,"lon":24.9554206},{"type":"node","id":1526061460,"lat":60.1870938,"lon":24.9553963},{"type":"node","id":1526061461,"lat":60.1871673,"lon":24.9553697},{"type":"node","id":1548499922,"lat":60.1876714,"lon":24.9536146},{"type":"node","id":1823290756,"lat":60.1864812,"lon":24.9555406},{"type":"node","id":1854588213,"lat":60.1866406,"lon":24.9533773},{"type":"node","id":1854588222,"lat":60.1869425,"lon":24.9540548},{"type":"node","id":1854588223,"lat":60.1869607,"lon":24.9542685},{"type":"node","id":1854588224,"lat":60.1869803,"lon":24.9544794},{"type":"node","id":1857439527,"lat":60.1872885,"lon":24.9549073},{"type":"node","id":1857439529,"lat":60.1873139,"lon":24.9551842},{"type":"node","id":1857439530,"lat":60.1875444,"lon":24.9552707},{"type":"node","id":1857439534,"lat":60.1876734,"lon":24.955259},{"type":"node","id":1859006155,"lat":60.1875808,"lon":24.9532832},{"type":"node","id":2050462384,"lat":60.1871581,"lon":24.955265},{"type":"node","id":3071471376,"lat":60.1866102,"lon":24.9542141},{"type":"node","id":3121982733,"lat":60.1860041,"lon":24.9534424},{"type":"node","id":3121982735,"lat":60.1861037,"lon":24.9534325},{"type":"node","id":3121982740,"lat":60.1867947,"lon":24.9559815},{"type":"node","id":3340044955,"lat":60.1870831,"lon":24.9540854},{"type":"node","id":3340044957,"lat":60.1872352,"lon":24.9558488},{"type":"node","id":3340044958,"lat":60.1872631,"lon":24.9558392},{"type":"node","id":4674523987,"lat":60.1857081,"lon":24.9537558},{"type":"node","id":6321049035,"lat":60.1868954,"lon":24.9554921},{"type":"node","id":6321049036,"lat":60.1868891,"lon":24.9553828},{"type":"node","id":6321049037,"lat":60.1869381,"lon":24.9554696},{"type":"node","id":6321049038,"lat":60.186932,"lon":24.9553911},{"type":"node","id":6321049039,"lat":60.1869459,"lon":24.9554682},{"type":"node","id":6321049040,"lat":60.1869007,"lon":24.9554004},{"type":"node","id":6321049041,"lat":60.1869072,"lon":24.9554802},{"type":"node","id":6321049046,"lat":60.1872184,"lon":24.9559528},{"type":"node","id":6321049047,"lat":60.187203,"lon":24.9557772},{"type":"node","id":6321049048,"lat":60.1871751,"lon":24.9554593},{"type":"node","id":6321049057,"lat":60.1870856,"lon":24.9544522},{"type":"node","id":6321049058,"lat":60.187047,"lon":24.9542174},{"type":"node","id":6323267639,"lat":60.1868499,"lon":24.9549424},{"type":"node","id":6323267640,"lat":60.1868849,"lon":24.9551936},{"type":"node","id":6323267641,"lat":60.186922,"lon":24.9556916},{"type":"node","id":6324968526,"lat":60.1877133,"lon":24.9545594},{"type":"node","id":6324968530,"lat":60.1866563,"lon":24.9544746},{"type":"node","id":6324968531,"lat":60.1865915,"lon":24.9543217},{"type":"node","id":6324968602,"lat":60.1867881,"lon":24.9540756},{"type":"node","id":6324968627,"lat":60.1865132,"lon":24.9541293},{"type":"node","id":6324968630,"lat":60.186461,"lon":24.9551676},{"type":"node","id":6324968631,"lat":60.1864885,"lon":24.9551612},{"type":"node","id":6324968632,"lat":60.1866524,"lon":24.9549978},{"type":"node","id":6324968633,"lat":60.1865949,"lon":24.9549911},{"type":"node","id":6324968634,"lat":60.1866318,"lon":24.9550362},{"type":"node","id":6324968635,"lat":60.1865037,"lon":24.9550106},{"type":"node","id":6324968636,"lat":60.1864949,"lon":24.9550645},{"type":"node","id":6324968637,"lat":60.1864921,"lon":24.9552323},{"type":"node","id":6324968638,"lat":60.1864569,"lon":24.9550734},{"type":"node","id":6324968639,"lat":60.1864838,"lon":24.9550667},{"type":"node","id":6324968640,"lat":60.1866612,"lon":24.9550283},{"type":"node","id":6324968641,"lat":60.1865576,"lon":24.9543588},{"type":"node","id":6324968642,"lat":60.1865891,"lon":24.954421},{"type":"node","id":6324968643,"lat":60.1866009,"lon":24.9544587},{"type":"node","id":6324968644,"lat":60.1866164,"lon":24.9545367},{"type":"node","id":6324968645,"lat":60.1865764,"lon":24.954393},{"type":"node","id":6324968646,"lat":60.1865337,"lon":24.9543302},{"type":"node","id":6324968647,"lat":60.1864922,"lon":24.9543107},{"type":"node","id":6324968648,"lat":60.1863756,"lon":24.9543046},{"type":"node","id":6324968649,"lat":60.1863708,"lon":24.9543235},{"type":"node","id":6324968650,"lat":60.1863426,"lon":24.9543272},{"type":"node","id":6324968651,"lat":60.1863278,"lon":24.9543126},{"type":"node","id":6324968652,"lat":60.1861954,"lon":24.9543369},{"type":"node","id":6324968653,"lat":60.1861788,"lon":24.9544332},{"type":"node","id":6324968654,"lat":60.1863794,"lon":24.9546861},{"type":"node","id":6324968655,"lat":60.1863375,"lon":24.9546939},{"type":"node","id":6324968656,"lat":60.1864262,"lon":24.9546774},{"type":"node","id":6324968657,"lat":60.1864467,"lon":24.9550755},{"type":"node","id":6324968660,"lat":60.1867577,"lon":24.9558634},{"type":"node","id":6324968686,"lat":60.1867245,"lon":24.9550076},{"type":"node","id":6324968687,"lat":60.1867566,"lon":24.9551026},{"type":"node","id":6324968688,"lat":60.1867878,"lon":24.9551568},{"type":"node","id":6324968689,"lat":60.1868502,"lon":24.9553791},{"type":"node","id":6324968690,"lat":60.1868577,"lon":24.9556325},{"type":"node","id":6324968691,"lat":60.1868026,"lon":24.955772},{"type":"node","id":6324968692,"lat":60.1868274,"lon":24.9556599},{"type":"node","id":6324968693,"lat":60.1868019,"lon":24.9555022},{"type":"node","id":6324968694,"lat":60.1867566,"lon":24.9558226},{"type":"node","id":6324968695,"lat":60.1867896,"lon":24.9557604},{"type":"node","id":6324968696,"lat":60.1868141,"lon":24.9556642},{"type":"node","id":6324968697,"lat":60.1868229,"lon":24.9555478},{"type":"node","id":6324968698,"lat":60.1868035,"lon":24.955716},{"type":"node","id":6324968699,"lat":60.1867769,"lon":24.9557884},{"type":"node","id":6324968700,"lat":60.1868208,"lon":24.9556051},{"type":"node","id":6324968701,"lat":60.1868218,"lon":24.955494},{"type":"node","id":6324968702,"lat":60.1868359,"lon":24.9554699},{"type":"node","id":6324968703,"lat":60.1868178,"lon":24.9553365},{"type":"node","id":6324968704,"lat":60.1867617,"lon":24.9551793},{"type":"node","id":6324968705,"lat":60.1868181,"lon":24.9554364},{"type":"node","id":6324968706,"lat":60.1868116,"lon":24.9553741},{"type":"node","id":6324968707,"lat":60.1868001,"lon":24.9553128},{"type":"node","id":6324968708,"lat":60.1867857,"lon":24.9552579},{"type":"node","id":6324968709,"lat":60.1867681,"lon":24.9552201},{"type":"node","id":6324968710,"lat":60.1867386,"lon":24.9551731},{"type":"node","id":6324968711,"lat":60.1867118,"lon":24.9551385},{"type":"node","id":6461223472,"lat":60.1871098,"lon":24.9540749},{"type":"node","id":6502483267,"lat":60.1870382,"lon":24.9552119},{"type":"node","id":6502483268,"lat":60.1870733,"lon":24.9556015},{"type":"node","id":6783371247,"lat":60.187437,"lon":24.9559299},{"type":"node","id":8852722353,"lat":60.1868305,"lon":24.9519139},{"type":"node","id":8852722355,"lat":60.1868265,"lon":24.9518371},{"type":"node","id":8852722357,"lat":60.1868392,"lon":24.9520753},{"type":"node","id":8852722360,"lat":60.1868423,"lon":24.9521296},{"type":"node","id":8852722362,"lat":60.1868451,"lon":24.9521816},{"type":"node","id":8852722366,"lat":60.1868509,"lon":24.9523051},{"type":"node","id":8852722368,"lat":60.1868627,"lon":24.9525953},{"type":"node","id":11061441068,"lat":60.1869343,"lon":24.9539474},{"type":"node","id":11061441069,"lat":60.1868551,"lon":24.9529917},{"type":"node","id":11061441070,"lat":60.1867985,"lon":24.951687},{"type":"node","id":11061441071,"lat":60.186455,"lon":24.951721},{"type":"node","id":11063552300,"lat":60.186835,"lon":24.9519968},{"type":"node","id":11096552113,"lat":60.1868466,"lon":24.952211},{"type":"node","id":11278815053,"lat":60.1860825,"lon":24.9541881},{"type":"node","id":11278815054,"lat":60.1866235,"lon":24.9542618},{"type":"node","id":11716666506,"lat":60.1864624,"lon":24.9551997},{"type":"node","id":11716666507,"lat":60.1864742,"lon":24.9551654},{"type":"node","id":11741753851,"lat":60.1877172,"lon":24.9551767},{"type":"node","id":11766458364,"lat":60.1875001,"lon":24.955931},{"type":"node","id":11766458365,"lat":60.1875001,"lon":24.955931},{"type":"node","id":11766489087,"lat":60.1869575,"lon":24.954231},{"type":"node","id":11766489088,"lat":60.1869379,"lon":24.9540013},{"type":"node","id":11775370446,"lat":60.1872533,"lon":24.9553856},{"type":"node","id":11775370447,"lat":60.1873088,"lon":24.9553692},{"type":"node","id":11775370448,"lat":60.1873302,"lon":24.9553637},{"type":"node","id":11775370449,"lat":60.1874527,"lon":24.9553399},{"type":"node","id":11775370451,"lat":60.1871866,"lon":24.954582},{"type":"node","id":11775370452,"lat":60.1872415,"lon":24.9545715},{"type":"node","id":11775370453,"lat":60.1872579,"lon":24.9545685},{"type":"node","id":11775370454,"lat":60.1873871,"lon":24.954545},{"type":"node","id":11775370457,"lat":60.1872042,"lon":24.9541778},{"type":"node","id":11775370458,"lat":60.1872219,"lon":24.9541735},{"type":"node","id":11775370459,"lat":60.1872363,"lon":24.9545102},{"type":"node","id":11775370460,"lat":60.1872521,"lon":24.9545044},{"type":"node","id":11775370464,"lat":60.1870893,"lon":24.9525839},{"type":"node","id":11775372972,"lat":60.1870683,"lon":24.9521522},{"type":"node","id":11775372973,"lat":60.1870561,"lon":24.9519007},{"type":"node","id":11804063355,"lat":60.1870618,"lon":24.9520151},{"type":"node","id":11804712105,"lat":60.1873017,"lon":24.953488},{"type":"node","id":11804712108,"lat":60.1871596,"lon":24.9536624},{"type":"node","id":12124797499,"lat":60.1861096,"lon":24.9541643},{"type":"node","id":12303047711,"lat":60.1868367,"lon":24.9561006},{"type":"node","id":12303047712,"lat":60.1867919,"lon":24.9546369},{"type":"node","id":12303047713,"lat":60.1868166,"lon":24.9549519},{"type":"node","id":12547679397,"lat":60.1861286,"lon":24.953429},{"type":"node","id":12547679398,"lat":60.1862532,"lon":24.9534174},{"type":"node","id":210475258,"lat":60.1874633,"lon":24.9602788},{"type":"node","id":210522985,"lat":60.1873754,"lon":24.9590267},{"type":"node","id":210522986,"lat":60.1874345,"lon":24.9597812},{"type":"node","id":210524462,"lat":60.1872187,"lon":24.9572168},{"type":"node","id":210524463,"lat":60.1870158,"lon":24.9572887},{"type":"node","id":210524464,"lat":60.1869725,"lon":24.9574142},{"type":"node","id":210524466,"lat":60.1868068,"lon":24.9571869},{"type":"node","id":262982616,"lat":60.1872577,"lon":24.9574271},{"type":"node","id":317913564,"lat":60.1871715,"lon":24.956369},{"type":"node","id":435207157,"lat":60.1868329,"lon":24.9561375},{"type":"node","id":435207158,"lat":60.1868762,"lon":24.9568605},{"type":"node","id":435207159,"lat":60.1867694,"lon":24.9572678},{"type":"node","id":435207160,"lat":60.1872526,"lon":24.9573115},{"type":"node","id":435207168,"lat":60.1865564,"lon":24.9578921},{"type":"node","id":435207169,"lat":60.1866251,"lon":24.9590543},{"type":"node","id":435207170,"lat":60.1865726,"lon":24.9593883},{"type":"node","id":435207171,"lat":60.1867173,"lon":24.9574078},{"type":"node","id":435207172,"lat":60.186743,"lon":24.9573333},{"type":"node","id":447906144,"lat":60.186882,"lon":24.9568863},{"type":"node","id":452815162,"lat":60.1875019,"lon":24.9615343},{"type":"node","id":452815163,"lat":60.1874047,"lon":24.9619875},{"type":"node","id":1011920871,"lat":60.187272,"lon":24.9575977},{"type":"node","id":1016088065,"lat":60.185182,"lon":24.9586597},{"type":"node","id":1016540119,"lat":60.1868159,"lon":24.9570371},{"type":"node","id":1016540230,"lat":60.1868674,"lon":24.9569385},{"type":"node","id":1016540502,"lat":60.186835,"lon":24.9569348},{"type":"node","id":1016540545,"lat":60.1868553,"lon":24.9570079},{"type":"node","id":1016635061,"lat":60.1869637,"lon":24.9561716},{"type":"node","id":1016635066,"lat":60.1874302,"lon":24.9597289},{"type":"node","id":1016635144,"lat":60.1873893,"lon":24.9591974},{"type":"node","id":1016635159,"lat":60.1871748,"lon":24.9567027},{"type":"node","id":1016635215,"lat":60.1874153,"lon":24.9595428},{"type":"node","id":1016635230,"lat":60.1874045,"lon":24.9594094},{"type":"node","id":1016635252,"lat":60.1871248,"lon":24.9561363},{"type":"node","id":1018118962,"lat":60.187266,"lon":24.9575333},{"type":"node","id":1437334925,"lat":60.1867486,"lon":24.9572372},{"type":"node","id":1469678185,"lat":60.1871766,"lon":24.9561092},{"type":"node","id":1469678195,"lat":60.187255,"lon":24.9570688},{"type":"node","id":1503057167,"lat":60.1870055,"lon":24.9573197},{"type":"node","id":1526055696,"lat":60.1858234,"lon":24.9566953},{"type":"node","id":1526055774,"lat":60.1867231,"lon":24.9573071},{"type":"node","id":1526055781,"lat":60.1868465,"lon":24.9568459},{"type":"node","id":1829968226,"lat":60.1870431,"lon":24.9572796},{"type":"node","id":5025854696,"lat":60.1865834,"lon":24.9583533},{"type":"node","id":6323267642,"lat":60.1868502,"lon":24.9567624},{"type":"node","id":6323267643,"lat":60.1868462,"lon":24.9566461},{"type":"node","id":6323267644,"lat":60.1868426,"lon":24.9570591},{"type":"node","id":6323267645,"lat":60.1868777,"lon":24.9567618},{"type":"node","id":6323267646,"lat":60.1868747,"lon":24.9566747},{"type":"node","id":6323267647,"lat":60.1868564,"lon":24.9570326},{"type":"node","id":6323267648,"lat":60.1868744,"lon":24.9569456},{"type":"node","id":6323267649,"lat":60.1868364,"lon":24.9571001},{"type":"node","id":6323267650,"lat":60.186885,"lon":24.9567697},{"type":"node","id":6323267682,"lat":60.1865777,"lon":24.9582555},{"type":"node","id":6323271690,"lat":60.1865858,"lon":24.9583934},{"type":"node","id":6681317453,"lat":60.1866022,"lon":24.9577543},{"type":"node","id":8454073098,"lat":60.1867007,"lon":24.9574577},{"type":"node","id":8831720836,"lat":60.1874753,"lon":24.9605321},{"type":"node","id":8831720840,"lat":60.1874703,"lon":24.9604252},{"type":"node","id":8831720842,"lat":60.1874642,"lon":24.9602979},{"type":"node","id":8836005055,"lat":60.1874785,"lon":24.9605993},{"type":"node","id":10933921839,"lat":60.1874817,"lon":24.9606691},{"type":"node","id":10933921840,"lat":60.1875073,"lon":24.9613048},{"type":"node","id":11766458357,"lat":60.1874228,"lon":24.9596359}]}