{"version":0.6,"generator":"Overpass API 0.7.61.5 4133829e","osm3s":{"timestamp_osm_base":"2023-08-13T09:19:16Z","copyright":"The data included in this document is from www.openstreetmap.org. The data is made available under ODbL."},"elements":[{"type":"node","id":299980084,"lat":60.1637092,"lon":24.9454557,"tags":{"addr:city":"Helsinki","addr:country":"FI","addr:housenumber":"1b","addr:postcode":"00120","addr:street":"Ratakatu"}},{"type":"node","id":311091794,"lat":60.164062,"lon":24.9442995,"tags":{"crossing":"uncontrolled","crossing:island":"no","highway":"crossing"}},{"type":"node","id":313978117,"lat":60.1640634,"lon":24.9443347,"tags":{"crossing":"uncontrolled","highway":"crossing"}},{"type":"node","id":313978125,"lat":60.1640606,"lon":24.9442636,"tags":{"check_date:crossing":"2021-12-18","crossing":"uncontrolled","highway":"crossing"}},{"type":"node","id":313981056,"lat":60.1641465,"lon":24.944376,"tags":{"check_date:crossing":"2020-11-23","crossing":"uncontrolled","crossing:island":"no","highway":"crossing"}},{"type":"node","id":317116822,"lat":60.1640871,"lon":24.945224,"tags":{"addr:city":"Helsinki","addr:country":"FI","addr:housenumber":"12","addr:street":"Pieni Roobertinkatu","amenity:1929-1995":"cinema","amenity:1999-2019":"arts_centre","name":"Gloria","note":"Kulttuuriareena lakkautettu 2019-02-28 kiinteist\u00f6remotin takia, toiminta siirtyy Suvilahden Tiivist\u00e4m\u00f6\u00f6n","toilets:wheelchair":"yes","website":"http:\/\/nk.hel.fi\/gloria\/","wheelchair":"limited","wikidata":"Q11873333"}},{"type":"node","id":348211272,"lat":60.164075,"lon":24.94538,"tags":{"addr:city":"Helsinki","addr:country":"FI","addr:housenumber":"12","addr:street":"Pieni Roobertinkatu"}},{"type":"node","id":446775860,"lat":60.1642124,"lon":24.9447903,"tags":{"amenity":"post_box","check_date":"2021-12-18"}},{"type":"node","id":449159615,"lat":60.164114,"lon":24.945436,"tags":{"amenity":"vending_machine","currency:EUR":"yes","opening_hours":"Mo-Fr 09:00-19:00; Sa 09:00-18:00","operator":"HKR","parking:ticket:zone":"1","payment:coins":"yes","ref":"235","vending":"parking_tickets"}},{"type":"node","id":648525104,"lat":60.1638567,"lon":24.9443503,"tags":{"access:covid19":"no","addr:city":"Helsinki","addr:country":"FI","addr:housenumber":"4","addr:postcode":"00120","addr:street":"Yrj\u00f6nkatu","amenity":"cafe","diet:halal":"no","diet:kosher":"no","diet:vegetarian":"yes","name":"Picnic","opening_hours":"Mo-Fr 7:00-19:00; Sa 10:00-16:00","opening_hours:covid19":"restricted","payment:credit_cards":"yes","payment:debit_cards":"yes","takeaway:covid19":"only","website":"https:\/\/www.picnic.fi\/lahin-picnic#Helsinki_Yrjonkatu_4","wheelchair":"no"}},{"type":"node","id":648525105,"lat":60.1642489,"lon":24.9447002,"tags":{"addr:city":"Helsinki","addr:country":"FI","addr:housenumber":"13","addr:postcode":"00120","addr:street":"Pieni Roobertinkatu"}},{"type":"node","id":988162368,"lat":60.1642816,"lon":24.9454721,"tags":{"addr:city":"Helsinki","addr:country":"FI","addr:housenumber":"9","addr:street":"Pieni Roobertinkatu"}},{"type":"node","id":988162370,"lat":60.1642635,"lon":24.9447927,"tags":{"addr:city":"Helsinki","addr:country":"FI","addr:housenumber":"13","addr:street":"Pieni Roobertinkatu"}},{"type":"node","id":988162393,"lat":60.1642696,"lon":24.9450899,"tags":{"addr:city":"Helsinki","addr:country":"FI","addr:housenumber":"11","addr:street":"Pieni Roobertinkatu"}},{"type":"node","id":2422353104,"lat":60.1642313,"lon":24.9448963,"tags":{"traffic_sign":"FI:372","traffic_sign:2":"FI:855a[9-21 (9-18)]","traffic_sign:3":"FI:871[Vy\u00f6hyke 1 Kertamaksu enint. 60 min]","traffic_sign:4":"FI:871[Ei koske P-tunnuksella B\/C]"}},{"type":"node","id":2422353105,"lat":60.1642124,"lon":24.9452354,"tags":{"traffic_sign":"FI:372","traffic_sign:2":"FI:851[7-18 (9-15)]"}},{"type":"node","id":2422353118,"lat":60.1641956,"lon":24.9445385,"tags":{"traffic_sign":"FI:371","traffic_sign:2":"FI:871[Ei koske City Car Clubin auoja]"}},{"type":"node","id":2524210111,"lat":60.1637274,"lon":24.9445713,"tags":{"traffic_sign":"FI:373","traffic_sign:2":"FI:871","traffic_sign:3":"rectangle"}},{"type":"node","id":2524210114,"lat":60.1640517,"lon":24.9444198,"tags":{"traffic_sign":"FI:511"}},{"type":"node","id":2524210115,"lat":60.164234,"lon":24.944262,"tags":{"traffic_sign":"FI:371"}},{"type":"node","id":2524250147,"lat":60.1641133,"lon":24.9446753,"tags":{"traffic_sign":"FI:521","traffic_sign:2":"FI:814[5 m]","traffic_sign:3":"FI:836"}},{"type":"node","id":2524250150,"lat":60.1641242,"lon":24.9444736,"tags":{"traffic_sign":"FI:372","traffic_sign:2":"FI:851[7-18 (9-15)]"}},{"type":"node","id":2524250155,"lat":60.1642128,"lon":24.9443715,"tags":{"traffic_sign":"FI:511"}},{"type":"node","id":2524250162,"lat":60.1643215,"lon":24.9442487,"tags":{"traffic_sign":"FI:511"}},{"type":"node","id":3330884438,"lat":60.1640594,"lon":24.9450533,"tags":{"addr:city":"Helsinki","addr:country":"FI","addr:housenumber":"14","addr:street":"Pieni Roobertinkatu"}},{"type":"node","id":3330884439,"lat":60.1640588,"lon":24.9447322,"tags":{"addr:city":"Helsinki","addr:country":"FI","addr:housenumber":"16","addr:street":"Pieni Roobertinkatu"}},{"type":"node","id":3330884440,"lat":60.1640981,"lon":24.9449245,"tags":{"access":"private","addr:housenumber":"14","addr:street":"Pieni Roobertinkatu","addr:unit":"C","description":"With buzzer","entrance":"main","wheelchair":"no"}},{"type":"node","id":3330884441,"lat":60.1641014,"lon":24.9448969,"tags":{"traffic_sign":"FI:521","traffic_sign:2":"FI:843"}},{"type":"node","id":3330884442,"lat":60.1641222,"lon":24.9449983,"tags":{"traffic_sign":"FI:372","traffic_sign:2":"FI:855a[9-21 (9-18)]","traffic_sign:3":"FI:871[Vy\u00f6hyke 1 Kertamaksu enint. 60 min]","traffic_sign:4":"FI:871[Ei koske P-tunnuksella B\/C]","traffic_sign:5":"FI:871[\u2190 Lippuautomaatti]"}},{"type":"node","id":4675433986,"lat":60.1640543,"lon":24.9445715,"tags":{"addr:city":"Helsinki","addr:housenumber":"3","addr:postcode":"00120","addr:street":"Yrj\u00f6nkatu","amenity":"nightclub","check_date:opening_hours":"2023-03-18","name":"G Livelab","opening_hours:signed":"no","toilets:wheelchair":"yes","website":"https:\/\/www.glivelab.fi\/","wheelchair":"yes"}},{"type":"node","id":4741957914,"lat":60.1636618,"lon":24.9451071,"tags":{"addr:city":"Helsinki","addr:country":"FI","addr:housenumber":"1","addr:postcode":"00120","addr:street":"Yrj\u00f6nkatu","name":"Boutique 52","opening_hours":"Mo-Th 11:00-18:00;Fr 11:00-17:00;Sa 11:00-14:00","payment:credit_cards":"yes","payment:debit_cards":"yes","shop":"clothes","website":"https:\/\/boutique52.com"}},{"type":"node","id":4741957917,"lat":60.1637097,"lon":24.9450402,"tags":{"addr:city":"Helsinki","addr:country":"FI","addr:housenumber":"1","addr:postcode":"00120","addr:street":"Yrj\u00f6nkatu","name":"Antiques Helsinki","payment:credit_cards":"yes","payment:debit_cards":"yes","shop":"antiques","website":"http:\/\/antiques-helsinki.com"}},{"type":"node","id":4741957919,"lat":60.1637654,"lon":24.9449551,"tags":{"addr:city":"Helsinki","addr:country":"FI","addr:housenumber":"1","addr:postcode":"00120","addr:street":"Yrj\u00f6nkatu","books":"antiquarian","name":"Antikvariaatti Johannes","opening_hours":"Mo-Fr 12:00-17:30; Sa 12:00-15:00","payment:credit_cards":"yes","payment:debit_cards":"yes","shop":"books","website":"http:\/\/antikvariaattijohannes.com"}},{"type":"node","id":4741957921,"lat":60.164086,"lon":24.9450377,"tags":{"addr:city":"Helsinki","addr:country":"FI","addr:housenumber":"12-14","addr:postcode":"00120","addr:street":"Pieni Roobertinkatu","name":"Glam","payment:credit_cards":"yes","payment:debit_cards":"yes","shop":"hairdresser","website":"http:\/\/glamhair.com"}},{"type":"node","id":4741957923,"lat":60.164093,"lon":24.9451199,"tags":{"addr:city":"Helsinki","addr:country":"FI","addr:housenumber":"12","addr:postcode":"00120","addr:street":"Pieni Roobertinkatu","name":"Rintala & Irmeli Design","payment:credit_cards":"yes","payment:debit_cards":"yes","shop":"interior_decoration","website":"http:\/\/irmelidesign.com\/"}},{"type":"node","id":4741957925,"lat":60.1640901,"lon":24.945291,"tags":{"addr:city":"Helsinki","addr:country":"FI","addr:housenumber":"12","addr:postcode":"00120","addr:street":"Pieni Roobertinkatu","name":"Galleria Laura","payment:credit_cards":"yes","payment:debit_cards":"yes","shop":"art","website":"http:\/\/www.gallerialaura.fi"}},{"type":"node","id":4741957927,"lat":60.1640911,"lon":24.9453704,"tags":{"addr:city":"Helsinki","addr:country":"FI","addr:housenumber":"12","addr:postcode":"00120","addr:street":"Pieni Roobertinkatu","name":"Helsingin Koti","office":"estate_agent","website":"https:\/\/www.kotilkv.fi\/"}},{"type":"node","id":4741957932,"lat":60.164284,"lon":24.945421,"tags":{"name":"Mothership Of Work","office":"yes","short_name":"MOW"}},{"type":"node","id":5706110998,"lat":60.1642929,"lon":24.9453058,"tags":{"addr:city":"Helsinki","addr:housenumber":"9","addr:street":"Pieni Roobertinkatu","amenity":"restaurant","diet:halal":"no","diet:kosher":"no","level":"1","name":"Hills Dumplings","opening_hours":"Lunch: Tu-Sa 11:00-14:00","payment:credit_cards":"yes","payment:debit_cards":"yes","phone":"041 7037961"}},{"type":"node","id":7608083798,"lat":60.1636911,"lon":24.9449971,"tags":{"access":"yes","addr:housenumber":"1","addr:street":"Yrj\u00f6nkatu","entrance":"yes","wheelchair":"no"}},{"type":"node","id":7608083800,"lat":60.1638158,"lon":24.9448269,"tags":{"access":"private","addr:housenumber":"3","addr:street":"Yrj\u00f6nkatu","description":"With buzzer","entrance":"main","wheelchair":"no"}},{"type":"node","id":7608083802,"lat":60.1640968,"lon":24.9448624,"tags":{"access":"yes","addr:housenumber":"16","addr:street":"Pieni Roobertinkatu","addr:unit":"A","description":"With buzzer","entrance":"main","wheelchair":"no"}},{"type":"node","id":7608083805,"lat":60.1642265,"lon":24.9445652,"tags":{"access":"private","addr:housenumber":"13","addr:street":"Pieni Roobertinkatu","addr:unit":"B","entrance":"secondary","wheelchair":"no"}},{"type":"node","id":7608083807,"lat":60.164249,"lon":24.9453057,"tags":{"access":"yes","addr:housenumber":"9","addr:street":"Pieni Roobertinkatu","description":"With keycode","entrance":"main","wheelchair":"no"}},{"type":"node","id":7608083812,"lat":60.1640605,"lon":24.9448718,"tags":{"addr:housenumber":"16","addr:street":"Pieni Roobertinkatu","addr:unit":"A","level":"5","name":"Gramex","office":"association","phone":"09 42827488"}},{"type":"node","id":7668875280,"lat":60.1637823,"lon":24.9448731,"tags":{"access":"private","addr:housenumber":"1","addr:street":"Yrj\u00f6nkatu","addr:unit":"C","description":"With buzzer","entrance":"main","wheelchair":"no"}},{"type":"node","id":7669134928,"lat":60.1636965,"lon":24.9442663,"tags":{"access":"private","barrier":"gate"}},{"type":"node","id":7669134932,"lat":60.1638672,"lon":24.9443896,"tags":{"access":"yes","addr:housenumber":"4","addr:street":"Yrj\u00f6nkatu","entrance":"secondary","wheelchair":"no"}},{"type":"node","id":7669668876,"lat":60.1638188,"lon":24.944458,"tags":{"access":"yes","addr:housenumber":"4","addr:street":"Yrj\u00f6nkatu","entrance":"secondary","wheelchair":"no"}},{"type":"node","id":8167006127,"lat":60.1640955,"lon":24.9452626,"tags":{"name":"Studio Tilespoint","payment:credit_cards":"yes","payment:debit_cards":"yes","shop":"interior_decoration","website":"https:\/\/studiotilespoint.fi\/"}},{"type":"node","id":10234444997,"lat":60.1639404,"lon":24.944268,"tags":{"amenity":"bicycle_parking","bicycle_parking":"stands","capacity":"8","covered":"no","fee":"no"}},{"type":"node","id":10234444998,"lat":60.1641336,"lon":24.944911,"tags":{"access":"yes","amenity":"bicycle_parking","bicycle_parking":"rack","capacity":"10","covered":"no","fee":"no"}},{"type":"node","id":10234444999,"lat":60.1641903,"lon":24.9446187,"tags":{"access":"yes","amenity":"bicycle_parking","bicycle_parking":"stands","capacity":"12","covered":"no","fee":"no"}}]}