{"version":0.6,"generator":"Overpass API 0.7.61.5 4133829e","osm3s":{"timestamp_osm_base":"2023-08-13T09:21:25Z","copyright":"The data included in this document is from www.openstreetmap.org. The data is made available under ODbL."},"elements":[{"type":"node","id":241029221,"lat":60.1656699,"lon":24.9479356,"tags":{"addr:housenumber":"21","addr:street":"Kasarmikatu","description":"With buzzer","entrance":"main","wheelchair":"yes"}},{"type":"node","id":310988559,"lat":60.1650532,"lon":24.9481838,"tags":{"addr:city":"Helsinki","addr:country":"FI","addr:housenumber":"19","addr:street":"Kasarmikatu"}},{"type":"node","id":310989244,"lat":60.1656681,"lon":24.9478105,"tags":{"check_date:crossing":"2020-11-21","crossing":"uncontrolled","highway":"crossing"}},{"type":"node","id":310989247,"lat":60.1655968,"lon":24.947971,"tags":{"check_date:crossing":"2020-11-21","crossing":"uncontrolled","highway":"crossing"}},{"type":"node","id":340107890,"lat":60.1652138,"lon":24.9472225,"tags":{"name":"Kaartinkaupunki","name:fi":"Kaartinkaupunki","name:sv":"Gardesstaden","place":"suburb","wikidata":"Q1017793"}},{"type":"node","id":438659074,"lat":60.165474,"lon":24.948019,"tags":{"amenity":"vending_machine","currency:EUR":"yes","opening_hours":"Mo-Fr 09:00-21:00; Sa 09:00-18:00","operator":"HKR","parking:ticket:zone":"1","payment:coins":"yes","ref":"127","vending":"parking_tickets"}},{"type":"node","id":600394444,"lat":60.1656068,"lon":24.9476564,"tags":{"addr:city":"Helsinki","addr:country":"FI","addr:housenumber":"40","addr:street":"Kasarmikatu","entrance":"yes"}},{"type":"node","id":738301636,"lat":60.1654435,"lon":24.947599,"tags":{"addr:city":"Helsinki","addr:country":"FI","addr:housenumber":"38","addr:street":"Kasarmikatu"}},{"type":"node","id":779181300,"lat":60.1656114,"lon":24.9480403,"tags":{"man_made":"manhole","manhole":"heat"}},{"type":"node","id":779181301,"lat":60.1656486,"lon":24.9482511,"tags":{"hole:shape":"square*2","label":"*","man_made":"manhole","manhole":"telecom","operator":"Elisa"}},{"type":"node","id":779181303,"lat":60.1656469,"lon":24.9481779,"tags":{"hole:shape":"square*2","label":"*","man_made":"manhole","manhole":"telecom","operator":"Elisa"}},{"type":"node","id":900136206,"lat":60.1655805,"lon":24.9482243,"tags":{"hole:diameter":"20 cm","man_made":"manhole","manhole":"water","marker:shape":"horizontal oval on a rectangle"}},{"type":"node","id":900136207,"lat":60.1655831,"lon":24.9482315,"tags":{"diameter":"300","dir_ref":"AK","hole:diameter":"20 cm","man_made":"manhole","manhole":"water","marker:shape":"vertical oval on a rectangle"}},{"type":"node","id":900136208,"lat":60.1655826,"lon":24.9482163,"tags":{"diameter":"300","dir_ref":"AK","hole:diameter":"20 cm","man_made":"manhole","manhole":"water","marker:shape":"vertical oval on a rectangle"}},{"type":"node","id":900136209,"lat":60.1655802,"lon":24.9482081,"tags":{"hole:diameter":"20 cm","man_made":"manhole","manhole":"water","marker:shape":"horizontal oval on a rectangle"}},{"type":"node","id":900136210,"lat":60.1655821,"lon":24.9481992,"tags":{"diameter":"300","dir_ref":"AK","hole:diameter":"20 cm","man_made":"manhole","manhole":"water","marker:shape":"vertical oval on a rectangle"}},{"type":"node","id":946387586,"lat":60.1656206,"lon":24.9474862,"tags":{"addr:city":"Helsinki","addr:country":"FI","addr:housenumber":"40","addr:postcode":"00130","addr:street":"Kasarmikatu","amenity":"nightclub","name":"Kaarle XII","opening_hours":"Th 20:00-03:00; Fr-Sa 20:00-04:00","payment:credit_cards":"yes","payment:debit_cards":"yes","website":"www.kaarle.com"}},{"type":"node","id":988162385,"lat":60.1651792,"lon":24.9476294,"tags":{"addr:city":"Helsinki","addr:country":"FI","addr:housenumber":"36","addr:street":"Kasarmikatu"}},{"type":"node","id":988553560,"lat":60.1652953,"lon":24.9477015,"tags":{"man_made":"surveillance"}},{"type":"node","id":988573083,"lat":60.1650146,"lon":24.9479705,"tags":{"hole:diameter":"20 cm","man_made":"manhole","manhole":"water","marker:shape":"horizontal oval on a rectangle"}},{"type":"node","id":988688977,"lat":60.1655056,"lon":24.9478315,"tags":{"check_date:crossing":"2020-11-21","crossing":"uncontrolled","highway":"crossing"}},{"type":"node","id":1003627117,"lat":60.1652271,"lon":24.9477363,"tags":{"traffic:hourly:21:Sa:fall:backward":"20\/12:00","traffic:hourly:21:Sa:fall:forward":"10\/12:00"}},{"type":"node","id":2281900503,"lat":60.1652801,"lon":24.947993,"tags":{"note":"Talviaikaan poistettu.","traffic_sign":"FI:521","traffic_sign:2":"FI:841"}},{"type":"node","id":2281900504,"lat":60.1653453,"lon":24.9479875,"tags":{"traffic_sign":"FI:372","traffic_sign:2":"FI:851[7-18 (9-15)]"}},{"type":"node","id":2281900506,"lat":60.16555,"lon":24.9480213,"tags":{"traffic_sign":"FI:521","traffic_sign:2":"FI:855b[9-21 (9-18)]","traffic_sign:3":"FI:871[Vy\u00f6hyke 1 Kertamaksu enint. 4 h]"}},{"type":"node","id":2282943151,"lat":60.1650443,"lon":24.9477285,"tags":{"man_made":"surveillance"}},{"type":"node","id":2282943152,"lat":60.1651389,"lon":24.9477131,"tags":{"man_made":"flagpole"}},{"type":"node","id":2282943153,"lat":60.165174,"lon":24.9477089,"tags":{"entrance":"yes"}},{"type":"node","id":2282943154,"lat":60.1652062,"lon":24.947705,"tags":{"man_made":"flagpole"}},{"type":"node","id":2282943155,"lat":60.1653285,"lon":24.9476904,"tags":{"advertisign":"awning"}},{"type":"node","id":2282943156,"lat":60.1653464,"lon":24.9476883,"tags":{"man_made":"flagpole"}},{"type":"node","id":2282944027,"lat":60.1654829,"lon":24.9476807,"tags":{"traffic_sign":"FI:521","traffic_sign:2":"FI:855b[9-21 (9-18)]","traffic_sign:3":"FI:871[Vy\u00f6hyke 1 Kertamaksu enint. 4 h]"}},{"type":"node","id":2282944028,"lat":60.1654979,"lon":24.9476701,"tags":{"destination":"POPPankki","entrance":"shop"}},{"type":"node","id":2282944029,"lat":60.1655125,"lon":24.9476684,"tags":{"advertisign":"sign","lit":"yes"}},{"type":"node","id":2282944099,"lat":60.1656689,"lon":24.9479914,"tags":{"traffic_sign":"FI:511"}},{"type":"node","id":2403880939,"lat":60.1654882,"lon":24.9479306,"tags":{"traffic_sign":"FI:511"}},{"type":"node","id":2403880942,"lat":60.1656738,"lon":24.9476515,"tags":{"traffic_sign":"FI:511"}},{"type":"node","id":2419599691,"lat":60.1655015,"lon":24.9477294,"tags":{"curb":"sloped"}},{"type":"node","id":2419599695,"lat":60.1656661,"lon":24.947711,"tags":{"curb":"lowered"}},{"type":"node","id":2613250658,"lat":60.1656816,"lon":24.9478805,"tags":{"traffic_sign":"FI:372","traffic_sign:2":"FI:375","traffic_sign:3":"FI:851[0-5 (0-5) 0-5]"}},{"type":"node","id":2665390978,"lat":60.1655273,"lon":24.9477269,"tags":{"traffic_sign":"FI:511"}},{"type":"node","id":2665392006,"lat":60.1655256,"lon":24.9480251,"tags":{"denotation":"avenue","natural":"tree"}},{"type":"node","id":2665392007,"lat":60.1655271,"lon":24.9481301,"tags":{"denotation":"avenue","natural":"tree"}},{"type":"node","id":4718446514,"lat":60.1654375,"lon":24.9476082,"tags":{"addr:city":"Helsinki","addr:country":"FI","addr:street":"Kasarmikatu","name":"Hair & Beauty Blackout","payment:credit_cards":"yes","payment:debit_cards":"yes","shop":"hairdresser; beauty","website":"https:\/\/blackouthair.fi\/"}},{"type":"node","id":4718446526,"lat":60.1651626,"lon":24.9476534,"tags":{"addr:city":"Helsinki","addr:country":"FI","addr:street":"Kasarmikatu","leisure":"sports_centre","name":"Somatic Studio","website":"https:\/\/somaticstudio.com\/"}},{"type":"node","id":5582979679,"lat":60.1654494,"lon":24.9479317,"tags":{"amenity":"motorcycle_parking","capacity":"6","covered":"no","parking":"surface","ref":"Kasarmikatu 19, Helsinki"}},{"type":"node","id":6057673490,"lat":60.1650786,"lon":24.9478638,"tags":{"man_made":"manhole","manhole":"unknown"}},{"type":"node","id":6057673491,"lat":60.1654202,"lon":24.9479694,"tags":{"man_made":"manhole","manhole":"drain"}},{"type":"node","id":6057673492,"lat":60.1653875,"lon":24.9478622,"tags":{"man_made":"manhole","manhole":"unknown"}},{"type":"node","id":6057673493,"lat":60.1655582,"lon":24.9477987,"tags":{"man_made":"manhole","manhole":"unknown"}},{"type":"node","id":6057673494,"lat":60.165583,"lon":24.9478049,"tags":{"man_made":"manhole","manhole":"unknown"}},{"type":"node","id":6057673495,"lat":60.1656082,"lon":24.9477639,"tags":{"man_made":"manhole","manhole":"unknown"}},{"type":"node","id":6057673496,"lat":60.1656344,"lon":24.947893,"tags":{"man_made":"manhole","manhole":"unknown"}},{"type":"node","id":6057673497,"lat":60.1656297,"lon":24.9479222,"tags":{"man_made":"manhole","manhole":"unknown"}},{"type":"node","id":6241421791,"lat":60.1651705,"lon":24.9478284,"tags":{"bench":"no","direction":"177","highway":"bus_stop","name":"Kasarmitori","name:fi":"Kasarmitori","name:sv":"Kaserntorget","note":"Virtuaalipys\u00e4kki, pys\u00e4kki\u00e4 ei merkitty maastoon","pole":"no","ref":"XH2115","ref:findr":"304320","shelter":"no","source":"Digiroad.fi","zone:HSL":"A"}},{"type":"node","id":6691268404,"lat":60.1653396,"lon":24.9476355,"tags":{"name":"Kaartin neule- ja ompelukone oy","opening_hours":"Mo-Fr 10:00-17:00; PH off","payment:credit_cards":"yes","payment:debit_cards":"yes","shop":"sewing"}},{"type":"node","id":6691268405,"lat":60.1652109,"lon":24.947551,"tags":{"name":"WeCan5 oy","office":"company"}},{"type":"node","id":6691268406,"lat":60.1651937,"lon":24.9475331,"tags":{"name":"Renesans Consulting","office":"company"}},{"type":"node","id":6691268407,"lat":60.1651452,"lon":24.9475471,"tags":{"name":"SIP Nordic","office":"company"}},{"type":"node","id":6691268408,"lat":60.1651401,"lon":24.9476496,"tags":{"name":"Kiropraktikko D. C. Reijo Neva","office":"company"}},{"type":"node","id":6691268409,"lat":60.165144,"lon":24.9475881,"tags":{"name":"Art Fysio","office":"company"}},{"type":"node","id":6691268410,"lat":60.1651612,"lon":24.94756,"tags":{"name":"AH Executive Search oy ab","office":"company"}},{"type":"node","id":6691268411,"lat":60.1651726,"lon":24.9475625,"tags":{"name":"Amrop Finland","office":"company"}},{"type":"node","id":6691268412,"lat":60.1651988,"lon":24.9475843,"tags":{"name":"Workspace Taivas","office":"company"}},{"type":"node","id":6691268413,"lat":60.1652045,"lon":24.947633,"tags":{"name":"Housemarque","office":"company"}},{"type":"node","id":6691268414,"lat":60.165186,"lon":24.9475894,"tags":{"name":"Arkkitehdit Davidsson Tarkola oy","office":"architect"}},{"type":"node","id":6691268415,"lat":60.1651631,"lon":24.9476074,"tags":{"name":"Vaaka Partners","office":"company","website":"https:\/\/www.vaakapartners.fi\/"}},{"type":"node","id":7643165120,"lat":60.1656795,"lon":24.9480801,"tags":{"addr:housenumber":"21","addr:street":"Kasarmikatu","name":"Nomart","payment:credit_cards":"yes","payment:debit_cards":"yes","shop":"furniture"}},{"type":"node","id":7643165121,"lat":60.1656742,"lon":24.9480813,"tags":{"access":"yes","addr:housenumber":"11","addr:street":"Pohjoinen Makasiinikatu","entrance":"secondary","wheelchair":"yes"}},{"type":"node","id":7702074815,"lat":60.1654194,"lon":24.9480325,"tags":{"access":"private","addr:housenumber":"19","addr:street":"Kasarmikatu","description":"With keycode","entrance":"service","wheelchair":"no"}},{"type":"node","id":10848482872,"lat":60.1655272,"lon":24.9480833,"tags":{"access":"yes","amenity":"bicycle_parking","bicycle_parking":"stands","capacity":"6","covered":"no","fee":"no"}}]}